{"type":"FeatureCollection","features":[{"type":"Feature","id":"way/152589172-0","properties":{"addr:city":"Singapore","addr:country":"SG","addr:housenumber":"50","addr:postcode":"258853","addr:street":"Holland Road","building":"apartments","building:levels":"4","name":"Botanika","clearanceGeometry":{"type":"Polygon","coordinates":[[[103.8079925,1.3098626],[103.8079623,1.3097322],[103.8078188,1.3097693],[103.8078661,1.3099739],[103.8079226,1.3099615],[103.8079865,1.3098759],[103.8079998,1.3098862],[103.8078841,1.3100409],[103.807929,1.310208],[103.8084477,1.3095257],[103.8082012,1.3096248],[103.8080087,1.3098749],[103.8079925,1.3098626]]]},"clearanceHeight":1.7,"clearancePrepared":true},"geometry":{"type":"Polygon","coordinates":[[[103.8080087,1.3098749],[103.8079925,1.3098626],[103.8079623,1.3097322],[103.8078188,1.3097693],[103.8078661,1.3099739],[103.8079226,1.3099615],[103.8079865,1.3098759],[103.8079998,1.3098862],[103.8078841,1.3100409],[103.807929,1.310208],[103.8084477,1.3095257],[103.8082012,1.3096248],[103.8080087,1.3098749]]]}},{"type":"Feature","id":"way/165822234-0","properties":{"addr:housenumber":"3","addr:street":"Taman Nakhoda","building":"apartments","building:levels":"8","clearanceGeometry":{"type":"Polygon","coordinates":[[[103.8066601,1.3106004],[103.8072789,1.3103442],[103.8072374,1.3102439],[103.8067406,1.3104496],[103.8066921,1.3103326],[103.8068934,1.3102493],[103.8068578,1.3101634],[103.8065346,1.3102973],[103.8066601,1.3106004]]]},"clearanceHeight":1.7,"clearancePrepared":true},"geometry":{"type":"Polygon","coordinates":[[[103.8065346,1.3102973],[103.8066601,1.3106004],[103.8072789,1.3103442],[103.8072374,1.3102439],[103.8067406,1.3104496],[103.8066921,1.3103326],[103.8068934,1.3102493],[103.8068578,1.3101634],[103.8065346,1.3102973]]]}},{"type":"Feature","id":"way/165822236-0","properties":{"addr:housenumber":"1","addr:street":"Taman Nakhoda","building":"apartments","building:levels":"8","clearanceGeometry":{"type":"Polygon","coordinates":[[[103.8075464,1.3099137],[103.8074668,1.3099462],[103.8074752,1.3099668],[103.8074171,1.3099906],[103.8074099,1.3099732],[103.8073294,1.3100061],[103.8072806,1.3100261],[103.807295,1.3100612],[103.8072857,1.310065],[103.807304,1.3101097],[103.8073386,1.3100956],[103.8073442,1.3101093],[103.8074025,1.3100855],[103.8074113,1.3101071],[103.8074746,1.3100813],[103.8074688,1.3100673],[103.8074953,1.3100565],[103.8075017,1.3100721],[103.8075636,1.3100468],[103.8075565,1.3100294],[103.8076174,1.3100045],[103.807611,1.3099889],[103.8076261,1.3099828],[103.8076009,1.3099213],[103.8076131,1.3099163],[103.8075921,1.3098648],[103.8075358,1.3098878],[103.8075464,1.3099137]]]},"clearanceHeight":1.7,"clearancePrepared":true},"geometry":{"type":"Polygon","coordinates":[[[103.8075358,1.3098878],[103.8075464,1.3099137],[103.8074668,1.3099462],[103.8074752,1.3099668],[103.8074171,1.3099906],[103.8074099,1.3099732],[103.8073294,1.3100061],[103.8072806,1.3100261],[103.807295,1.3100612],[103.8072857,1.310065],[103.807304,1.3101097],[103.8073386,1.3100956],[103.8073442,1.3101093],[103.8074025,1.3100855],[103.8074113,1.3101071],[103.8074746,1.3100813],[103.8074688,1.3100673],[103.8074953,1.3100565],[103.8075017,1.3100721],[103.8075636,1.3100468],[103.8075565,1.3100294],[103.8076174,1.3100045],[103.807611,1.3099889],[103.8076261,1.3099828],[103.8076009,1.3099213],[103.8076131,1.3099163],[103.8075921,1.3098648],[103.8075358,1.3098878]]]}},{"type":"Feature","id":"way/166565319-0","properties":{"building":"yes","building:levels":"5","clearanceGeometry":{"type":"Polygon","coordinates":[[[103.8064144,1.3095817],[103.8063697,1.309421],[103.8061041,1.3094948],[103.8061487,1.3096555],[103.8064144,1.3095817]]]},"clearanceHeight":1.7,"clearancePrepared":true},"geometry":{"type":"Polygon","coordinates":[[[103.8061487,1.3096555],[103.8064144,1.3095817],[103.8063697,1.309421],[103.8061041,1.3094948],[103.8061487,1.3096555]]]}},{"type":"Feature","id":"way/166565326-0","properties":{"addr:housenumber":"5","addr:street":"Taman Nakhoda","building":"yes","clearanceGeometry":{"type":"Polygon","coordinates":[[[103.8073781,1.3102128],[103.8073526,1.3101512],[103.8073141,1.3101672],[103.8073006,1.3101345],[103.8072323,1.3101628],[103.8072767,1.3102699],[103.8073458,1.3102412],[103.8073624,1.3102812],[103.8074333,1.3102518],[103.8074113,1.310199],[103.8073781,1.3102128]]]},"clearanceHeight":1.7,"clearancePrepared":true},"geometry":{"type":"Polygon","coordinates":[[[103.8074113,1.310199],[103.8073781,1.3102128],[103.8073526,1.3101512],[103.8073141,1.3101672],[103.8073006,1.3101345],[103.8072323,1.3101628],[103.8072767,1.3102699],[103.8073458,1.3102412],[103.8073624,1.3102812],[103.8074333,1.3102518],[103.8074113,1.310199]]]}},{"type":"Feature","id":"way/167772585-0","properties":{"building":"yes","clearanceGeometry":{"type":"Polygon","coordinates":[[[103.8077076,1.3100926],[103.8076741,1.3101061],[103.8076868,1.3101376],[103.8077203,1.3101241],[103.8077076,1.3100926]]]},"clearanceHeight":1.7,"clearancePrepared":true},"geometry":{"type":"Polygon","coordinates":[[[103.8077203,1.3101241],[103.8077076,1.3100926],[103.8076741,1.3101061],[103.8076868,1.3101376],[103.8077203,1.3101241]]]}},{"type":"Feature","id":"way/167772588-0","properties":{"building":"yes","clearanceGeometry":{"type":"Polygon","coordinates":[[[103.8076365,1.3099626],[103.8076485,1.3100009],[103.8076881,1.3099885],[103.8076761,1.3099502],[103.8076365,1.3099626]]]},"clearanceHeight":1.7,"clearancePrepared":true},"geometry":{"type":"Polygon","coordinates":[[[103.8076761,1.3099502],[103.8076365,1.3099626],[103.8076485,1.3100009],[103.8076881,1.3099885],[103.8076761,1.3099502]]]}},{"type":"Feature","id":"way/241260235-0","properties":{"addr:housenumber":"22","addr:postcode":"249679","addr:street":"Dempsey Road","building":"yes","clearanceGeometry":{"type":"Polygon","coordinates":[[[103.8103766,1.3067911],[103.8103681370609,1.3067089275913648],[103.81033458993518,1.306712148663702],[103.81031815745489,1.3067058393446251],[103.8102298,1.3067149],[103.8102358,1.3067725],[103.810258,1.3067702],[103.8102614,1.3068031],[103.8101848,1.306811],[103.8101702,1.306669],[103.8100583,1.3066805],[103.8100702,1.3067958],[103.8099922,1.3068038],[103.8099779,1.3066652],[103.8098482,1.3066786],[103.8098656,1.3068472],[103.8098765,1.3069529],[103.80994006713979,1.3069463605289404],[103.80993886409091,1.3069352090888295],[103.81038643062473,1.3068869485910906],[103.8103766,1.3067911]]]},"clearanceHeight":1.7,"clearancePrepared":true},"geometry":{"type":"Polygon","coordinates":[[[103.8103878,1.3069003],[103.8103766,1.3067911],[103.8103673,1.3067008],[103.8102298,1.3067149],[103.8102358,1.3067725],[103.810258,1.3067702],[103.8102614,1.3068031],[103.8101848,1.306811],[103.8101702,1.306669],[103.8100583,1.3066805],[103.8100702,1.3067958],[103.8099922,1.3068038],[103.8099779,1.3066652],[103.8098482,1.3066786],[103.8098656,1.3068472],[103.8098765,1.3069529],[103.8103878,1.3069003]]]}},{"type":"Feature","id":"way/284983428-0","properties":{"addr:housenumber":"2","addr:street":"Peirce Road","building":"yes","clearanceGeometry":{"type":"Polygon","coordinates":[[[103.8080979,1.3074151],[103.8080121,1.307387],[103.8079745,1.3074875],[103.8077888,1.3074315],[103.8077821,1.3074543],[103.8077479,1.3074527],[103.8077251,1.3075224],[103.8078619,1.3075706],[103.8078887,1.3074956],[103.8079356,1.3075103],[103.8079128,1.3075747],[103.8079316,1.3075787],[103.8079222,1.3076015],[103.8079638,1.3076176],[103.8079531,1.307651],[103.8081422,1.3077168],[103.8081711,1.3076327],[103.8081127,1.3076176],[103.8081287,1.3075841],[103.8082038,1.3076136],[103.8082488,1.3074798],[103.808173,1.3074446],[103.80818,1.3074074],[103.8081831,1.3073913],[103.8081113,1.3073642],[103.8081062,1.3073833],[103.8080979,1.3074151]]]},"clearanceHeight":1.7,"clearancePrepared":true},"geometry":{"type":"Polygon","coordinates":[[[103.8081062,1.3073833],[103.8080979,1.3074151],[103.8080121,1.307387],[103.8079745,1.3074875],[103.8077888,1.3074315],[103.8077821,1.3074543],[103.8077479,1.3074527],[103.8077251,1.3075224],[103.8078619,1.3075706],[103.8078887,1.3074956],[103.8079356,1.3075103],[103.8079128,1.3075747],[103.8079316,1.3075787],[103.8079222,1.3076015],[103.8079638,1.3076176],[103.8079531,1.307651],[103.8081422,1.3077168],[103.8081711,1.3076327],[103.8081127,1.3076176],[103.8081287,1.3075841],[103.8082038,1.3076136],[103.8082488,1.3074798],[103.808173,1.3074446],[103.80818,1.3074074],[103.8081831,1.3073913],[103.8081113,1.3073642],[103.8081062,1.3073833]]]}},{"type":"Feature","id":"way/284983429-0","properties":{"addr:city":"Singapore","addr:housenumber":"6","addr:street":"Peirce Drive","building":"detached","clearanceGeometry":{"type":"Polygon","coordinates":[[[103.806745,1.3075441],[103.8067415,1.3075617],[103.8068403,1.307581],[103.8068821,1.3073669],[103.8067407,1.3073393],[103.8067024,1.3075358],[103.806745,1.3075441]]]},"clearanceHeight":1.7,"clearancePrepared":true},"geometry":{"type":"Polygon","coordinates":[[[103.8067024,1.3075358],[103.806745,1.3075441],[103.8067415,1.3075617],[103.8068403,1.307581],[103.8068821,1.3073669],[103.8067407,1.3073393],[103.8067024,1.3075358]]]}},{"type":"Feature","id":"way/284983430-0","properties":{"addr:city":"Singapore","addr:housenumber":"4","addr:street":"Peirce Drive","building":"detached","clearanceGeometry":{"type":"Polygon","coordinates":[[[103.8071712,1.3074111],[103.8071632,1.3074205],[103.8072081,1.3074785],[103.8071229,1.3075479],[103.8071886,1.3076243],[103.807245,1.30758],[103.8072329,1.3075639],[103.8072637,1.3075398],[103.8072946,1.3075827],[103.8073134,1.3075666],[103.8073294,1.3075827],[103.8072919,1.3076149],[103.8072792,1.3076045],[103.8072383,1.3076417],[103.8072476,1.3076551],[103.8072141,1.3076819],[103.8072543,1.3077275],[103.8072704,1.3077168],[103.8072932,1.3077396],[103.8073911,1.3076578],[103.807359,1.3076149],[103.8073911,1.3075975],[103.8073375,1.3075398],[103.8073643,1.307517],[103.8073375,1.3074808],[103.8074247,1.3074218],[103.807359,1.3073441],[103.8072637,1.3074272],[103.8071739,1.3073374],[103.807135,1.3073736],[103.8071712,1.3074111]]]},"clearanceHeight":1.7,"clearancePrepared":true},"geometry":{"type":"Polygon","coordinates":[[[103.807135,1.3073736],[103.8071712,1.3074111],[103.8071632,1.3074205],[103.8072081,1.3074785],[103.8071229,1.3075479],[103.8071886,1.3076243],[103.807245,1.30758],[103.8072329,1.3075639],[103.8072637,1.3075398],[103.8072946,1.3075827],[103.8073134,1.3075666],[103.8073294,1.3075827],[103.8072919,1.3076149],[103.8072792,1.3076045],[103.8072383,1.3076417],[103.8072476,1.3076551],[103.8072141,1.3076819],[103.8072543,1.3077275],[103.8072704,1.3077168],[103.8072932,1.3077396],[103.8073911,1.3076578],[103.807359,1.3076149],[103.8073911,1.3075975],[103.8073375,1.3075398],[103.8073643,1.307517],[103.8073375,1.3074808],[103.8074247,1.3074218],[103.807359,1.3073441],[103.8072637,1.3074272],[103.8071739,1.3073374],[103.807135,1.3073736]]]}},{"type":"Feature","id":"way/284983432-0","properties":{"addr:housenumber":"49D","addr:street":"Holland Road","building":"yes","clearanceGeometry":{"type":"Polygon","coordinates":[[[103.808108,1.3079826],[103.8080228,1.3078106],[103.8078082,1.3079273],[103.8077894,1.3079943],[103.8076527,1.3079554],[103.8076366,1.3079876],[103.8074662,1.307938],[103.8074153,1.3081257],[103.8074375,1.3081341],[103.80743,1.3081686],[103.8076205,1.3082223],[103.8076285,1.3081861],[103.8077084,1.3082078],[103.807709,1.3081981],[103.8078096,1.3082196],[103.8078415,1.3081134],[103.8078672,1.3080278],[103.807931,1.3080456],[103.8079437,1.3080694],[103.8079732,1.3080587],[103.808063,1.3080185],[103.8080684,1.3080037],[103.808108,1.3079826]]]},"clearanceHeight":1.7,"clearancePrepared":true},"geometry":{"type":"Polygon","coordinates":[[[103.8080684,1.3080037],[103.808108,1.3079826],[103.8080228,1.3078106],[103.8078082,1.3079273],[103.8077894,1.3079943],[103.8076527,1.3079554],[103.8076366,1.3079876],[103.8074662,1.307938],[103.8074153,1.3081257],[103.8074375,1.3081341],[103.80743,1.3081686],[103.8076205,1.3082223],[103.8076285,1.3081861],[103.8077084,1.3082078],[103.807709,1.3081981],[103.8078096,1.3082196],[103.8078415,1.3081134],[103.8078672,1.3080278],[103.807931,1.3080456],[103.8079437,1.3080694],[103.8079732,1.3080587],[103.808063,1.3080185],[103.8080684,1.3080037]]]}},{"type":"Feature","id":"way/284983435-0","properties":{"addr:housenumber":"51C","addr:street":"Holland Road","building":"yes","clearanceGeometry":{"type":"Polygon","coordinates":[[[103.8074555,1.3077597],[103.8074662,1.3077114],[103.8074797,1.3077128],[103.8074904,1.3076779],[103.807536,1.3076886],[103.80753,1.3077158],[103.8075011,1.3077154],[103.8074877,1.3077664],[103.8075628,1.3077852],[103.8075735,1.3077436],[103.807595,1.3077503],[103.8076078,1.3076957],[103.8075863,1.3076916],[103.807591,1.3076792],[103.8076164,1.3076685],[103.8076164,1.3076524],[103.8076084,1.3076323],[103.8075883,1.3076296],[103.8075984,1.307583],[103.8074528,1.3075358],[103.8073938,1.3077423],[103.8074555,1.3077597]]]},"clearanceHeight":1.7,"clearancePrepared":true},"geometry":{"type":"Polygon","coordinates":[[[103.8073938,1.3077423],[103.8074555,1.3077597],[103.8074662,1.3077114],[103.8074797,1.3077128],[103.8074904,1.3076779],[103.807536,1.3076886],[103.80753,1.3077158],[103.8075011,1.3077154],[103.8074877,1.3077664],[103.8075628,1.3077852],[103.8075735,1.3077436],[103.807595,1.3077503],[103.8076078,1.3076957],[103.8075863,1.3076916],[103.807591,1.3076792],[103.8076164,1.3076685],[103.8076164,1.3076524],[103.8076084,1.3076323],[103.8075883,1.3076296],[103.8075984,1.307583],[103.8074528,1.3075358],[103.8073938,1.3077423]]]}},{"type":"Feature","id":"way/452737640-0","properties":{"addr:housenumber":"53D","addr:street":"Holland Road","building":"yes","clearanceGeometry":{"type":"Polygon","coordinates":[[[103.8064516,1.3087738],[103.8064249,1.3088328],[103.8065143,1.3088734],[103.8064898,1.3089275],[103.8065719,1.3089646],[103.806657,1.3087769],[103.8065571,1.3087316],[103.8066018,1.3086331],[103.8065005,1.3085872],[103.806422,1.3087604],[103.8064516,1.3087738]]]},"clearanceHeight":1.7,"clearancePrepared":true},"geometry":{"type":"Polygon","coordinates":[[[103.806422,1.3087604],[103.8064516,1.3087738],[103.8064249,1.3088328],[103.8065143,1.3088734],[103.8064898,1.3089275],[103.8065719,1.3089646],[103.806657,1.3087769],[103.8065571,1.3087316],[103.8066018,1.3086331],[103.8065005,1.3085872],[103.806422,1.3087604]]]}},{"type":"Feature","id":"way/452737646-0","properties":{"building":"yes","clearanceGeometry":{"type":"Polygon","coordinates":[[[103.8089427,1.3082945],[103.8089018,1.3083336],[103.8089812,1.3084166],[103.8090221,1.3083775],[103.8090859,1.3084441],[103.80913572547772,1.3083964700145618],[103.80913830185438,1.3083596112065172],[103.8091047018966,1.3083207258621237],[103.8091353,1.3082943],[103.8091353,1.3082943],[103.80913835624499,1.3082913883071312],[103.80913791533017,1.3082674628766293],[103.8090707,1.3081972],[103.8090536,1.3082135],[103.8090261908082,1.308243218907146],[103.80894210937407,1.308165711112419],[103.8088781,1.3082269],[103.8089427,1.3082945]]]},"clearanceHeight":1.7,"clearancePrepared":true},"geometry":{"type":"Polygon","coordinates":[[[103.8088781,1.3082269],[103.8089427,1.3082945],[103.8089018,1.3083336],[103.8089812,1.3084166],[103.8090221,1.3083775],[103.8090859,1.3084441],[103.8091676,1.308366],[103.8091164,1.3083124],[103.8091353,1.3082943],[103.8091501,1.3082802],[103.8090707,1.3081972],[103.8090536,1.3082135],[103.809037,1.3082294],[103.8089598,1.3081488],[103.8088781,1.3082269]]]}},{"type":"Feature","id":"way/452737657-0","properties":{"addr:housenumber":"51A","addr:street":"Holland Road","building":"yes","clearanceGeometry":{"type":"Polygon","coordinates":[[[103.806992,1.3078456],[103.806845,1.3077968],[103.806809,1.3079053],[103.8068886,1.3079317],[103.8068471,1.3080567],[103.8069682,1.3080968],[103.8069866,1.3080414],[103.8070127,1.30805],[103.807077,1.3078498],[103.8069992,1.307824],[103.806992,1.3078456]]]},"clearanceHeight":1.7,"clearancePrepared":true},"geometry":{"type":"Polygon","coordinates":[[[103.8069992,1.307824],[103.806992,1.3078456],[103.806845,1.3077968],[103.806809,1.3079053],[103.8068886,1.3079317],[103.8068471,1.3080567],[103.8069682,1.3080968],[103.8069866,1.3080414],[103.8070127,1.30805],[103.807077,1.3078498],[103.8069992,1.307824]]]}},{"type":"Feature","id":"way/452737664-0","properties":{"building":"yes","building:levels":"5","clearanceGeometry":{"type":"Polygon","coordinates":[[[103.8063614,1.3092457],[103.8061629,1.3093034],[103.8061947,1.3094131],[103.8063932,1.3093554],[103.8063614,1.3092457]]]},"clearanceHeight":1.7,"clearancePrepared":true},"geometry":{"type":"Polygon","coordinates":[[[103.8063932,1.3093554],[103.8063614,1.3092457],[103.8061629,1.3093034],[103.8061947,1.3094131],[103.8063932,1.3093554]]]}},{"type":"Feature","id":"way/452737669-0","properties":{"addr:housenumber":"63","addr:street":"Holland Road","building":"yes","building:levels":"5","clearanceGeometry":{"type":"Polygon","coordinates":[[[103.806474,1.3094636],[103.8065195,1.3096023],[103.80747136629203,1.3092898910694586],[103.80745283440217,1.3092201169578428],[103.8074298,1.3091499],[103.806474,1.3094636]]]},"clearanceHeight":1.7,"clearancePrepared":true},"geometry":{"type":"Polygon","coordinates":[[[103.8074298,1.3091499],[103.806474,1.3094636],[103.8065195,1.3096023],[103.8074753,1.3092886],[103.8074298,1.3091499]]]}},{"type":"Feature","id":"way/452737671-0","properties":{"addr:housenumber":"49","addr:street":"Holland Road","building":"yes","clearanceGeometry":{"type":"Polygon","coordinates":[[[103.8093119,1.3079193],[103.8094849,1.3080789],[103.8095552,1.3080026],[103.8093822,1.3078431],[103.8093119,1.3079193]]]},"clearanceHeight":1.7,"clearancePrepared":true},"geometry":{"type":"Polygon","coordinates":[[[103.8093822,1.3078431],[103.8093119,1.3079193],[103.8094849,1.3080789],[103.8095552,1.3080026],[103.8093822,1.3078431]]]}},{"type":"Feature","id":"way/452737673-0","properties":{"addr:housenumber":"35","addr:street":"Holland Park","building":"yes","clearanceGeometry":{"type":"Polygon","coordinates":[[[103.8063158,1.3086694],[103.8062164,1.3086227],[103.8062056,1.3086456],[103.8060976,1.3085949],[103.80603270718628,1.3087331109375082],[103.80604979763274,1.3087565811421464],[103.80604640682586,1.3087590490075058],[103.8062326,1.3088464],[103.8063158,1.3086694]]]},"clearanceHeight":1.7,"clearancePrepared":true},"geometry":{"type":"Polygon","coordinates":[[[103.8062326,1.3088464],[103.8063158,1.3086694],[103.8062164,1.3086227],[103.8062056,1.3086456],[103.8060976,1.3085949],[103.8060252,1.3087491],[103.8062326,1.3088464]]]}},{"type":"Feature","id":"way/452737675-0","properties":{"addr:housenumber":"53G","addr:street":"Holland Road","building":"yes","clearanceGeometry":{"type":"Polygon","coordinates":[[[103.8066772,1.3079807],[103.8065281,1.3079563],[103.8065406,1.3078801],[103.8063866,1.3078549],[103.806349,1.3080844],[103.8066521,1.308134],[103.8066772,1.3079807]]]},"clearanceHeight":1.7,"clearancePrepared":true},"geometry":{"type":"Polygon","coordinates":[[[103.8066521,1.308134],[103.8066772,1.3079807],[103.8065281,1.3079563],[103.8065406,1.3078801],[103.8063866,1.3078549],[103.806349,1.3080844],[103.8066521,1.308134]]]}},{"type":"Feature","id":"way/452737677-0","properties":{"addr:housenumber":"49","addr:street":"Holland Road","building":"yes","clearanceGeometry":{"type":"Polygon","coordinates":[[[103.8090945,1.307913],[103.8090527,1.3078656],[103.8092087,1.3077281],[103.8091328,1.307642],[103.8087693,1.3079624],[103.8088871,1.3080959],[103.8090945,1.307913]]]},"clearanceHeight":1.7,"clearancePrepared":true},"geometry":{"type":"Polygon","coordinates":[[[103.8088871,1.3080959],[103.8090945,1.307913],[103.8090527,1.3078656],[103.8092087,1.3077281],[103.8091328,1.307642],[103.8087693,1.3079624],[103.8088871,1.3080959]]]}},{"type":"Feature","id":"way/452737680-0","properties":{"building":"yes","building:levels":"4","clearanceGeometry":{"type":"Polygon","coordinates":[[[103.8079125,1.3086856],[103.8078498,1.3087252],[103.8078409,1.308711],[103.8075535,1.3088926],[103.8076475,1.3090411],[103.8079975,1.3088199],[103.8079125,1.3086856]]]},"clearanceHeight":1.7,"clearancePrepared":true},"geometry":{"type":"Polygon","coordinates":[[[103.8079975,1.3088199],[103.8079125,1.3086856],[103.8078498,1.3087252],[103.8078409,1.308711],[103.8075535,1.3088926],[103.8076475,1.3090411],[103.8079975,1.3088199]]]}},{"type":"Feature","id":"way/452737681-0","properties":{"addr:housenumber":"33","addr:street":"Holland Park","building":"yes","clearanceGeometry":{"type":"Polygon","coordinates":[[[103.8062571,1.3088903],[103.8061802,1.3089884],[103.8062042,1.3090072],[103.8061738,1.3090459],[103.8062967,1.3091423],[103.806404,1.3090055],[103.8062571,1.3088903]]]},"clearanceHeight":1.7,"clearancePrepared":true},"geometry":{"type":"Polygon","coordinates":[[[103.806404,1.3090055],[103.8062571,1.3088903],[103.8061802,1.3089884],[103.8062042,1.3090072],[103.8061738,1.3090459],[103.8062967,1.3091423],[103.806404,1.3090055]]]}},{"type":"Feature","id":"way/452737687-0","properties":{"addr:housenumber":"53E","addr:street":"Holland Road","building":"yes","clearanceGeometry":{"type":"Polygon","coordinates":[[[103.8067776,1.3087263],[103.8067781,1.3087631],[103.8066701,1.3087648],[103.8066736,1.3090003],[103.8067983,1.3089984],[103.8067968,1.3089031],[103.8069377,1.3089009],[103.806935,1.3087239],[103.8067776,1.3087263]]]},"clearanceHeight":1.7,"clearancePrepared":true},"geometry":{"type":"Polygon","coordinates":[[[103.806935,1.3087239],[103.8067776,1.3087263],[103.8067781,1.3087631],[103.8066701,1.3087648],[103.8066736,1.3090003],[103.8067983,1.3089984],[103.8067968,1.3089031],[103.8069377,1.3089009],[103.806935,1.3087239]]]}},{"type":"Feature","id":"way/452737689-0","properties":{"addr:housenumber":"37","addr:street":"Holland Park","building":"yes","clearanceGeometry":{"type":"Polygon","coordinates":[[[103.8061116,1.3085448],[103.8062317,1.3085999],[103.8062668,1.3085236],[103.8062994,1.3084526],[103.8062623,1.3084356],[103.8063266,1.3082957],[103.806163,1.3082206],[103.8060968,1.3083646],[103.8061774,1.3084016],[103.8061116,1.3085448]]]},"clearanceHeight":1.7,"clearancePrepared":true},"geometry":{"type":"Polygon","coordinates":[[[103.8061774,1.3084016],[103.8061116,1.3085448],[103.8062317,1.3085999],[103.8062668,1.3085236],[103.8062994,1.3084526],[103.8062623,1.3084356],[103.8063266,1.3082957],[103.806163,1.3082206],[103.8060968,1.3083646],[103.8061774,1.3084016]]]}},{"type":"Feature","id":"way/452737691-0","properties":{"addr:housenumber":"51","addr:street":"Holland Road","building":"yes","clearanceGeometry":{"type":"Polygon","coordinates":[[[103.8070683,1.3084446],[103.8072891,1.3084553],[103.8072948,1.3083378],[103.807185,1.3083325],[103.8071894,1.3082415],[103.807046,1.3082346],[103.807038,1.3084008],[103.8070703,1.3084024],[103.8070683,1.3084446]]]},"clearanceHeight":1.7,"clearancePrepared":true},"geometry":{"type":"Polygon","coordinates":[[[103.8070703,1.3084024],[103.8070683,1.3084446],[103.8072891,1.3084553],[103.8072948,1.3083378],[103.807185,1.3083325],[103.8071894,1.3082415],[103.807046,1.3082346],[103.807038,1.3084008],[103.8070703,1.3084024]]]}},{"type":"Feature","id":"way/452737693-0","properties":{"addr:housenumber":"53C","addr:street":"Holland Road","building":"yes","clearanceGeometry":{"type":"Polygon","coordinates":[[[103.8073298,1.3086333],[103.8072273,1.3086315],[103.8072264,1.3086827],[103.8071437,1.3086812],[103.8071411,1.3088241],[103.8071761,1.3088247],[103.8071751,1.3088835],[103.8073253,1.3088862],[103.8073298,1.3086333]]]},"clearanceHeight":1.7,"clearancePrepared":true},"geometry":{"type":"Polygon","coordinates":[[[103.8073253,1.3088862],[103.8073298,1.3086333],[103.8072273,1.3086315],[103.8072264,1.3086827],[103.8071437,1.3086812],[103.8071411,1.3088241],[103.8071761,1.3088247],[103.8071751,1.3088835],[103.8073253,1.3088862]]]}},{"type":"Feature","id":"way/452737699-0","properties":{"building":"yes","building:levels":"4","clearanceGeometry":{"type":"Polygon","coordinates":[[[103.8078587,1.308927],[103.8078738,1.3089706],[103.8075724,1.3090747],[103.8075871,1.3091173],[103.80751574107838,1.309141938863024],[103.80755463218442,1.30928836712234],[103.8080629,1.3091128],[103.8079838,1.3088838],[103.8078587,1.308927]]]},"clearanceHeight":1.7,"clearancePrepared":true},"geometry":{"type":"Polygon","coordinates":[[[103.8079838,1.3088838],[103.8078587,1.308927],[103.8078738,1.3089706],[103.8075724,1.3090747],[103.8075871,1.3091173],[103.8075034,1.3091462],[103.8075528,1.309289],[103.8080629,1.3091128],[103.8079838,1.3088838]]]}},{"type":"Feature","id":"way/452737700-0","properties":{"addr:housenumber":"53B","addr:street":"Holland Road","building":"yes","clearanceGeometry":{"type":"Polygon","coordinates":[[[103.8076464,1.3088072],[103.8076485,1.3086904],[103.8075653,1.3086889],[103.8075646,1.3087285],[103.8075003,1.3087274],[103.8075011,1.3086878],[103.807445,1.3086868],[103.807442,1.3088567],[103.8075854,1.3088592],[103.8076464,1.3088072]]]},"clearanceHeight":1.7,"clearancePrepared":true},"geometry":{"type":"Polygon","coordinates":[[[103.8075854,1.3088592],[103.8076464,1.3088072],[103.8076485,1.3086904],[103.8075653,1.3086889],[103.8075646,1.3087285],[103.8075003,1.3087274],[103.8075011,1.3086878],[103.807445,1.3086868],[103.807442,1.3088567],[103.8075854,1.3088592]]]}},{"type":"Feature","id":"way/452754860-0","properties":{"addr:city":"Singapore","addr:housenumber":"5","addr:street":"Peirce Road","building":"detached","clearanceGeometry":{"type":"Polygon","coordinates":[[[103.8069109,1.3066442],[103.8069345,1.3067126],[103.8071069,1.3066533],[103.8070391,1.3064564],[103.8067166,1.3065674],[103.8067609,1.3066959],[103.8069109,1.3066442]]]},"clearanceHeight":1.7,"clearancePrepared":true},"geometry":{"type":"Polygon","coordinates":[[[103.8067609,1.3066959],[103.8069109,1.3066442],[103.8069345,1.3067126],[103.8071069,1.3066533],[103.8070391,1.3064564],[103.8067166,1.3065674],[103.8067609,1.3066959]]]}},{"type":"Feature","id":"way/452754865-0","properties":{"addr:city":"Singapore","addr:housenumber":"1","addr:street":"Swettenham Road","building":"detached","clearanceGeometry":{"type":"Polygon","coordinates":[[[103.806232,1.3065142],[103.8062488,1.3065628],[103.8063373,1.3065323],[103.8063198,1.3064813],[103.8062907,1.3064914],[103.8062549,1.3063875],[103.8060554,1.3064562],[103.806092,1.3065624],[103.806232,1.3065142]]]},"clearanceHeight":1.7,"clearancePrepared":true},"geometry":{"type":"Polygon","coordinates":[[[103.806092,1.3065624],[103.806232,1.3065142],[103.8062488,1.3065628],[103.8063373,1.3065323],[103.8063198,1.3064813],[103.8062907,1.3064914],[103.8062549,1.3063875],[103.8060554,1.3064562],[103.806092,1.3065624]]]}},{"type":"Feature","id":"way/452754867-0","properties":{"addr:housenumber":"15","addr:street":"Ridout Road","building":"yes","clearanceGeometry":{"type":"Polygon","coordinates":[[[103.806344,1.3067895],[103.8063355,1.3067648],[103.8064611,1.3067215],[103.8064696,1.3067463],[103.8065735,1.3067105],[103.8065139,1.3065374],[103.8061826,1.3066514],[103.8062422,1.3068246],[103.806344,1.3067895]]]},"clearanceHeight":1.7,"clearancePrepared":true},"geometry":{"type":"Polygon","coordinates":[[[103.8062422,1.3068246],[103.806344,1.3067895],[103.8063355,1.3067648],[103.8064611,1.3067215],[103.8064696,1.3067463],[103.8065735,1.3067105],[103.8065139,1.3065374],[103.8061826,1.3066514],[103.8062422,1.3068246]]]}},{"type":"Feature","id":"way/452756593-0","properties":{"building":"yes","building:levels":"1","clearanceGeometry":{"type":"Polygon","coordinates":[[[103.8079948,1.3067306],[103.8079006,1.3066586],[103.8078333,1.3067466],[103.8079709,1.3068517],[103.80806361191289,1.306730388498063],[103.80802019743614,1.3066973177389303],[103.8079948,1.3067306]]]},"clearanceHeight":1.7,"clearancePrepared":true},"geometry":{"type":"Polygon","coordinates":[[[103.8080688,1.3067236],[103.8080254,1.3066905],[103.8079948,1.3067306],[103.8079006,1.3066586],[103.8078333,1.3067466],[103.8079709,1.3068517],[103.8080688,1.3067236]]]}},{"type":"Feature","id":"way/452756595-0","properties":{"addr:city":"Singapore","addr:housenumber":"2","addr:street":"Peirce Drive","building":"detached","clearanceGeometry":{"type":"Polygon","coordinates":[[[103.8077897,1.3068914],[103.8075793,1.306781],[103.8075332,1.3068688],[103.8075137,1.3068585],[103.8074614,1.3069583],[103.8076913,1.3070789],[103.8077897,1.3068914]]]},"clearanceHeight":1.7,"clearancePrepared":true},"geometry":{"type":"Polygon","coordinates":[[[103.8076913,1.3070789],[103.8077897,1.3068914],[103.8075793,1.306781],[103.8075332,1.3068688],[103.8075137,1.3068585],[103.8074614,1.3069583],[103.8076913,1.3070789]]]}},{"type":"Feature","id":"way/540498268-0","properties":{"addr:housenumber":"55","addr:street":"Holland Road","building":"yes","building:levels":"2","clearanceGeometry":{"type":"Polygon","coordinates":[[[103.8074866,1.3089832],[103.8074648,1.3089074],[103.8072731,1.3089624],[103.8072948,1.3090381],[103.8074866,1.3089832]]]},"clearanceHeight":1.7,"clearancePrepared":true},"geometry":{"type":"Polygon","coordinates":[[[103.8072948,1.3090381],[103.8074866,1.3089832],[103.8074648,1.3089074],[103.8072731,1.3089624],[103.8072948,1.3090381]]]}},{"type":"Feature","id":"way/540498270-0","properties":{"addr:housenumber":"57A","addr:street":"Holland Road","building":"yes","building:levels":"2","clearanceGeometry":{"type":"Polygon","coordinates":[[[103.8070691,1.3090865],[103.8071542,1.3090597],[103.8071299,1.3089884],[103.8070464,1.3090147],[103.8070691,1.3090865]]]},"clearanceHeight":1.7,"clearancePrepared":true},"geometry":{"type":"Polygon","coordinates":[[[103.8070464,1.3090147],[103.8070691,1.3090865],[103.8071542,1.3090597],[103.8071299,1.3089884],[103.8070464,1.3090147]]]}},{"type":"Feature","id":"way/540498272-0","properties":{"addr:housenumber":"59A","addr:street":"Holland Road","building":"yes","building:levels":"2","clearanceGeometry":{"type":"Polygon","coordinates":[[[103.8068052,1.3091849],[103.8068879,1.3091581],[103.8068647,1.3090872],[103.8067822,1.3091139],[103.8068052,1.3091849]]]},"clearanceHeight":1.7,"clearancePrepared":true},"geometry":{"type":"Polygon","coordinates":[[[103.8067822,1.3091139],[103.8068052,1.3091849],[103.8068879,1.3091581],[103.8068647,1.3090872],[103.8067822,1.3091139]]]}},{"type":"Feature","id":"way/540498275-0","properties":{"addr:housenumber":"61A","addr:street":"Holland Road","building":"yes","building:levels":"2","clearanceGeometry":{"type":"Polygon","coordinates":[[[103.8064612,1.3092875],[103.8065625,1.3092547],[103.8065531,1.309229],[103.8065333,1.3091745],[103.8064349,1.3092064],[103.8064612,1.3092875]]]},"clearanceHeight":1.7,"clearancePrepared":true},"geometry":{"type":"Polygon","coordinates":[[[103.8064349,1.3092064],[103.8064612,1.3092875],[103.8065625,1.3092547],[103.8065531,1.309229],[103.8065333,1.3091745],[103.8064349,1.3092064]]]}},{"type":"Feature","id":"way/549153924-0","properties":{"building":"yes","clearanceGeometry":{"type":"Polygon","coordinates":[[[103.8087278,1.3063872],[103.8086446,1.3064811],[103.8091218,1.3069041],[103.8092051,1.3068102],[103.8089952,1.3066241],[103.809048,1.3065591],[103.8092649,1.3067634],[103.8093621,1.3066603],[103.8090618,1.3063775],[103.8089646,1.3064807],[103.8090255,1.306538],[103.8089702,1.306602],[103.8087278,1.3063872]]]},"clearanceHeight":1.7,"clearancePrepared":true},"geometry":{"type":"Polygon","coordinates":[[[103.8089702,1.306602],[103.8087278,1.3063872],[103.8086446,1.3064811],[103.8091218,1.3069041],[103.8092051,1.3068102],[103.8089952,1.3066241],[103.809048,1.3065591],[103.8092649,1.3067634],[103.8093621,1.3066603],[103.8090618,1.3063775],[103.8089646,1.3064807],[103.8090255,1.306538],[103.8089702,1.306602]]]}},{"type":"Feature","id":"way/1150607663-0","properties":{"building":"yes","clearanceGeometry":{"type":"Polygon","coordinates":[[[103.8080872,1.3081324],[103.8081328,1.3081472],[103.8081556,1.3080882],[103.8081904,1.3080962],[103.8082079,1.3080319],[103.808442,1.3080537],[103.8084721,1.3081659],[103.8085016,1.3081807],[103.8084908,1.308119],[103.8085096,1.3081137],[103.8085002,1.3080681],[103.8084801,1.3080734],[103.8084674,1.3080255],[103.8081878,1.307993],[103.8081703,1.308048],[103.808063,1.3080185],[103.8079732,1.3080587],[103.8081033,1.3080935],[103.8080872,1.3081324]]]},"clearanceHeight":1.7,"clearancePrepared":true},"geometry":{"type":"Polygon","coordinates":[[[103.8081033,1.3080935],[103.8080872,1.3081324],[103.8081328,1.3081472],[103.8081556,1.3080882],[103.8081904,1.3080962],[103.8082079,1.3080319],[103.808442,1.3080537],[103.8084721,1.3081659],[103.8085016,1.3081807],[103.8084908,1.308119],[103.8085096,1.3081137],[103.8085002,1.3080681],[103.8084801,1.3080734],[103.8084674,1.3080255],[103.8081878,1.307993],[103.8081703,1.308048],[103.808063,1.3080185],[103.8079732,1.3080587],[103.8081033,1.3080935]]]}},{"type":"Feature","id":"way/1150607664-0","properties":{"addr:housenumber":"49C","addr:street":"Holland Road","building":"yes","clearanceGeometry":{"type":"Polygon","coordinates":[[[103.8084265,1.3083443],[103.8082521,1.3083255],[103.8082226,1.3084783],[103.8084157,1.3085159],[103.8084184,1.3085052],[103.8084774,1.3085052],[103.8085257,1.308481],[103.8085445,1.3083791],[103.8084801,1.3083684],[103.8085016,1.3081807],[103.8084721,1.3081659],[103.808442,1.3081596],[103.8084265,1.3083443]]]},"clearanceHeight":1.7,"clearancePrepared":true},"geometry":{"type":"Polygon","coordinates":[[[103.808442,1.3081596],[103.8084265,1.3083443],[103.8082521,1.3083255],[103.8082226,1.3084783],[103.8084157,1.3085159],[103.8084184,1.3085052],[103.8084774,1.3085052],[103.8085257,1.308481],[103.8085445,1.3083791],[103.8084801,1.3083684],[103.8085016,1.3081807],[103.8084721,1.3081659],[103.808442,1.3081596]]]}},{"type":"Feature","id":"way/1150607665-0","properties":{"addr:housenumber":"51B","addr:street":"Holland Road","building":"yes","clearanceGeometry":{"type":"Polygon","coordinates":[[[103.80729825619885,1.3080769787273578],[103.80729488132775,1.3080016437949005],[103.80727509701109,1.307976170256824],[103.8072068,1.3079535],[103.8072158,1.3079264],[103.8071913,1.3079183],[103.80720292299331,1.3078832417205015],[103.80720226292533,1.3078823918419242],[103.8072035311457,1.307881407358544],[103.807222,1.3078257],[103.8071332,1.3077962],[103.8071116,1.3078613],[103.8070471,1.3080614],[103.807278,1.308138],[103.80729825619885,1.3080769787273578]]]},"clearanceHeight":1.7,"clearancePrepared":true},"geometry":{"type":"Polygon","coordinates":[[[103.807278,1.308138],[103.8073261,1.3079931],[103.8072068,1.3079535],[103.8072158,1.3079264],[103.8071913,1.3079183],[103.807222,1.3078257],[103.8071332,1.3077962],[103.8071116,1.3078613],[103.8070471,1.3080614],[103.807278,1.308138]]]}},{"type":"Feature","id":"way/1150607666-0","properties":{"addr:housenumber":"57","addr:street":"Holland Road","building":"yes","building:levels":"2","clearanceGeometry":{"type":"Polygon","coordinates":[[[103.8072208,1.3089597],[103.8071299,1.3089884],[103.8071542,1.3090597],[103.8072434,1.3090316],[103.8072208,1.3089597]]]},"clearanceHeight":1.7,"clearancePrepared":true},"geometry":{"type":"Polygon","coordinates":[[[103.8072434,1.3090316],[103.8072208,1.3089597],[103.8071299,1.3089884],[103.8071542,1.3090597],[103.8072434,1.3090316]]]}},{"type":"Feature","id":"way/1150607667-0","properties":{"addr:housenumber":"59","addr:street":"Holland Road","building":"yes","building:levels":"2","clearanceGeometry":{"type":"Polygon","coordinates":[[[103.8069646,1.3090549],[103.8068647,1.3090872],[103.8068879,1.3091581],[103.8069876,1.3091259],[103.8069646,1.3090549]]]},"clearanceHeight":1.7,"clearancePrepared":true},"geometry":{"type":"Polygon","coordinates":[[[103.8069876,1.3091259],[103.8069646,1.3090549],[103.8068647,1.3090872],[103.8068879,1.3091581],[103.8069876,1.3091259]]]}},{"type":"Feature","id":"way/1150607668-0","properties":{"addr:housenumber":"61","addr:street":"Holland Road","building":"yes","building:levels":"2","clearanceGeometry":{"type":"Polygon","coordinates":[[[103.8066334,1.309142],[103.8065333,1.3091745],[103.8065531,1.309229],[103.8065625,1.3092547],[103.8066597,1.3092232],[103.8066334,1.309142]]]},"clearanceHeight":1.7,"clearancePrepared":true},"geometry":{"type":"Polygon","coordinates":[[[103.8066597,1.3092232],[103.8066334,1.309142],[103.8065333,1.3091745],[103.8065531,1.309229],[103.8065625,1.3092547],[103.8066597,1.3092232]]]}},{"type":"Feature","id":"way/1169803223-0","properties":{"addr:housenumber":"31","addr:street":"Sommerville Estate Road","building":"yes","building:levels":"3","clearanceGeometry":{"type":"Polygon","coordinates":[[[103.8062851,1.3108384],[103.8062559,1.3110129],[103.8063212,1.3110239],[103.8063505,1.3108493],[103.8062851,1.3108384]]]},"clearanceHeight":1.7,"clearancePrepared":true},"geometry":{"type":"Polygon","coordinates":[[[103.8063505,1.3108493],[103.8062851,1.3108384],[103.8062559,1.3110129],[103.8063212,1.3110239],[103.8063505,1.3108493]]]}},{"type":"Feature","id":"way/1169803225-0","properties":{"addr:housenumber":"35","addr:street":"Sommerville Estate Road","building":"yes","building:levels":"3","clearanceGeometry":{"type":"Polygon","coordinates":[[[103.80644,1.3108031],[103.8064108,1.3109777],[103.8064761,1.3109886],[103.8065054,1.310814],[103.80644,1.3108031]]]},"clearanceHeight":1.7,"clearancePrepared":true},"geometry":{"type":"Polygon","coordinates":[[[103.8065054,1.310814],[103.80644,1.3108031],[103.8064108,1.3109777],[103.8064761,1.3109886],[103.8065054,1.310814]]]}},{"type":"Feature","id":"way/1169803226-0","properties":{"addr:housenumber":"33","addr:street":"Sommerville Estate Road","building":"yes","building:levels":"3","clearanceGeometry":{"type":"Polygon","coordinates":[[[103.8063637,1.3108187],[103.8063345,1.3109933],[103.8063998,1.3110042],[103.8064291,1.3108297],[103.8063637,1.3108187]]]},"clearanceHeight":1.7,"clearancePrepared":true},"geometry":{"type":"Polygon","coordinates":[[[103.8064291,1.3108297],[103.8063637,1.3108187],[103.8063345,1.3109933],[103.8063998,1.3110042],[103.8064291,1.3108297]]]}},{"type":"Feature","id":"way/1169823257-0","properties":{"addr:housenumber":"2","addr:street":"Taman Nakhoda","building":"apartments","building:levels":"4","clearanceGeometry":{"type":"Polygon","coordinates":[[[103.8076826,1.310527],[103.8076263,1.31042],[103.807565,1.3104523],[103.8076539,1.3106211],[103.8077152,1.3105888],[103.8076826,1.310527]]]},"clearanceHeight":1.7,"clearancePrepared":true},"geometry":{"type":"Polygon","coordinates":[[[103.8077152,1.3105888],[103.8076826,1.310527],[103.8076263,1.31042],[103.807565,1.3104523],[103.8076539,1.3106211],[103.8077152,1.3105888]]]}},{"type":"Feature","id":"way/1169823258-0","properties":{"addr:housenumber":"4","addr:street":"Taman Nakhoda","building":"apartments","building:levels":"4","clearanceGeometry":{"type":"Polygon","coordinates":[[[103.807565,1.3104523],[103.8075037,1.3104846],[103.8075926,1.3106534],[103.8076539,1.3106211],[103.807565,1.3104523]]]},"clearanceHeight":1.7,"clearancePrepared":true},"geometry":{"type":"Polygon","coordinates":[[[103.8076539,1.3106211],[103.807565,1.3104523],[103.8075037,1.3104846],[103.8075926,1.3106534],[103.8076539,1.3106211]]]}},{"type":"Feature","id":"way/1169823259-0","properties":{"addr:housenumber":"6","addr:street":"Taman Nakhoda","building":"apartments","building:levels":"4","clearanceGeometry":{"type":"Polygon","coordinates":[[[103.8075037,1.3104846],[103.8074424,1.3105169],[103.8075313,1.3106857],[103.8075926,1.3106534],[103.8075037,1.3104846]]]},"clearanceHeight":1.7,"clearancePrepared":true},"geometry":{"type":"Polygon","coordinates":[[[103.8075926,1.3106534],[103.8075037,1.3104846],[103.8074424,1.3105169],[103.8075313,1.3106857],[103.8075926,1.3106534]]]}},{"type":"Feature","id":"way/1169823260-0","properties":{"addr:housenumber":"8","addr:street":"Taman Nakhoda","building":"apartments","building:levels":"4","clearanceGeometry":{"type":"Polygon","coordinates":[[[103.8074424,1.3105169],[103.8073811,1.3105491],[103.80747,1.3107179],[103.8075313,1.3106857],[103.8074424,1.3105169]]]},"clearanceHeight":1.7,"clearancePrepared":true},"geometry":{"type":"Polygon","coordinates":[[[103.8075313,1.3106857],[103.8074424,1.3105169],[103.8073811,1.3105491],[103.80747,1.3107179],[103.8075313,1.3106857]]]}},{"type":"Feature","id":"way/1169823261-0","properties":{"addr:housenumber":"10","addr:street":"Taman Nakhoda","building":"apartments","building:levels":"4","clearanceGeometry":{"type":"Polygon","coordinates":[[[103.8073811,1.3105491],[103.8073198,1.3105814],[103.8074087,1.3107502],[103.80747,1.3107179],[103.8073811,1.3105491]]]},"clearanceHeight":1.7,"clearancePrepared":true},"geometry":{"type":"Polygon","coordinates":[[[103.80747,1.3107179],[103.8073811,1.3105491],[103.8073198,1.3105814],[103.8074087,1.3107502],[103.80747,1.3107179]]]}},{"type":"Feature","id":"way/1169823262-0","properties":{"addr:housenumber":"12","addr:street":"Taman Nakhoda","building":"apartments","building:levels":"4","clearanceGeometry":{"type":"Polygon","coordinates":[[[103.8073198,1.3105814],[103.8072585,1.3106137],[103.8073474,1.3107825],[103.8074087,1.3107502],[103.8073198,1.3105814]]]},"clearanceHeight":1.7,"clearancePrepared":true},"geometry":{"type":"Polygon","coordinates":[[[103.8074087,1.3107502],[103.8073198,1.3105814],[103.8072585,1.3106137],[103.8073474,1.3107825],[103.8074087,1.3107502]]]}},{"type":"Feature","id":"way/1169823263-0","properties":{"addr:housenumber":"14","addr:street":"Taman Nakhoda","building":"apartments","building:levels":"4","clearanceGeometry":{"type":"Polygon","coordinates":[[[103.8072585,1.3106137],[103.8071972,1.3106459],[103.8072861,1.3108147],[103.8073474,1.3107825],[103.8072585,1.3106137]]]},"clearanceHeight":1.7,"clearancePrepared":true},"geometry":{"type":"Polygon","coordinates":[[[103.8073474,1.3107825],[103.8072585,1.3106137],[103.8071972,1.3106459],[103.8072861,1.3108147],[103.8073474,1.3107825]]]}},{"type":"Feature","id":"way/1169823264-0","properties":{"addr:housenumber":"16","addr:street":"Taman Nakhoda","building":"apartments","building:levels":"4","clearanceGeometry":{"type":"Polygon","coordinates":[[[103.8071972,1.3106459],[103.8071359,1.3106782],[103.8072248,1.310847],[103.8072861,1.3108147],[103.8071972,1.3106459]]]},"clearanceHeight":1.7,"clearancePrepared":true},"geometry":{"type":"Polygon","coordinates":[[[103.8072861,1.3108147],[103.8071972,1.3106459],[103.8071359,1.3106782],[103.8072248,1.310847],[103.8072861,1.3108147]]]}},{"type":"Feature","id":"way/1169823265-0","properties":{"addr:housenumber":"18","addr:street":"Taman Nakhoda","building":"apartments","building:levels":"4","clearanceGeometry":{"type":"Polygon","coordinates":[[[103.8071359,1.3106782],[103.8070746,1.3107105],[103.8071635,1.3108793],[103.8072248,1.310847],[103.8071359,1.3106782]]]},"clearanceHeight":1.7,"clearancePrepared":true},"geometry":{"type":"Polygon","coordinates":[[[103.8072248,1.310847],[103.8071359,1.3106782],[103.8070746,1.3107105],[103.8071635,1.3108793],[103.8072248,1.310847]]]}},{"type":"Feature","id":"way/1169823266-0","properties":{"addr:housenumber":"20","addr:street":"Taman Nakhoda","building":"apartments","building:levels":"4","clearanceGeometry":{"type":"Polygon","coordinates":[[[103.8070746,1.3107105],[103.8070133,1.3107428],[103.8071022,1.3109116],[103.8071635,1.3108793],[103.8070746,1.3107105]]]},"clearanceHeight":1.7,"clearancePrepared":true},"geometry":{"type":"Polygon","coordinates":[[[103.8071635,1.3108793],[103.8070746,1.3107105],[103.8070133,1.3107428],[103.8071022,1.3109116],[103.8071635,1.3108793]]]}},{"type":"Feature","id":"way/1467559117-0","properties":{"building":"yes","clearanceGeometry":{"type":"Polygon","coordinates":[[[103.8099318,1.3077225],[103.8098478,1.3077734],[103.80985757197136,1.3077910189889292],[103.80986296643735,1.307787640716006],[103.80992231412202,1.307882360212717],[103.80991252055135,1.3078900919790273],[103.8099341,1.307929],[103.8100205,1.3078632],[103.8099318,1.3077225]]]},"clearanceHeight":1.7,"clearancePrepared":true},"geometry":{"type":"Polygon","coordinates":[[[103.8100205,1.3078632],[103.8099318,1.3077225],[103.8098478,1.3077734],[103.8099341,1.307929],[103.8100205,1.3078632]]]}},{"type":"Feature","id":"node/1784449641","properties":{"highway":"crossing"},"geometry":{"type":"Point","coordinates":[103.8063267,1.3102013]}},{"type":"Feature","id":"node/1784449647","properties":{"crossing":"traffic_signals","highway":"crossing"},"geometry":{"type":"Point","coordinates":[103.8098797,1.3084042]}},{"type":"Feature","id":"node/1784449648","properties":{"crossing":"traffic_signals","highway":"crossing"},"geometry":{"type":"Point","coordinates":[103.8098079,1.3082927]}},{"type":"Feature","id":"node/1784449691","properties":{"highway":"crossing"},"geometry":{"type":"Point","coordinates":[103.8076756,1.3096913]}},{"type":"Feature","id":"node/1784739052","properties":{"highway":"crossing"},"geometry":{"type":"Point","coordinates":[103.8079788,1.3095646]}},{"type":"Feature","id":"node/1807296470","properties":{"highway":"crossing"},"geometry":{"type":"Point","coordinates":[103.8098293,1.3081365]}},{"type":"Feature","id":"node/1807296471","properties":{"highway":"crossing"},"geometry":{"type":"Point","coordinates":[103.808438,1.3093469]}},{"type":"Feature","id":"node/5228910554","properties":{"highway":"crossing"},"geometry":{"type":"Point","coordinates":[103.8075374,1.309381]}},{"type":"Feature","id":"node/5963345741","properties":{"highway":"crossing"},"geometry":{"type":"Point","coordinates":[103.809194,1.3085854]}},{"type":"Feature","id":"node/6935881795","properties":{"crossing":"traffic_signals","highway":"crossing"},"geometry":{"type":"Point","coordinates":[103.8099886,1.3081778]}},{"type":"Feature","id":"node/6935881796","properties":{"crossing":"traffic_signals","highway":"crossing"},"geometry":{"type":"Point","coordinates":[103.8100571,1.3082989]}},{"type":"Feature","id":"node/7950778713","properties":{"highway":"crossing"},"geometry":{"type":"Point","coordinates":[103.8073301,1.3069047]}},{"type":"Feature","id":"node/7958025861","properties":{"crossing":"unmarked","crossing:island":"no","highway":"crossing","tactile_paving":"yes"},"geometry":{"type":"Point","coordinates":[103.8082678,1.3091362]}},{"type":"Feature","id":"way/22694122-0-0-0","properties":{"highway":"primary","lanes":"3","lit":"yes","maxspeed":"70","name":"Holland Road","name:en":"Holland Road","name:zh":"\u8377\u5170\u8def","oneway":"yes","sidewalk:left":"separate","sidewalk:right":"no","source":"Yahoo aerial images","surface":"asphalt","startNodeId":"6040577145","endNodeId":"1717864361"},"geometry":{"type":"LineString","coordinates":[[103.8073535,1.3097306],[103.8076386,1.3096267]]}},{"type":"Feature","id":"way/22694123-0-0-0","properties":{"foot":"no","highway":"primary","lanes":"3","maxspeed":"50","name":"Holland Flyover","name:en":"Holland Flyover","name:ms":"Jejambat Holland","name:zh":"\u8377\u5170\u7acb\u4ea4\u6865","oneway":"yes","sidewalk":"no","source":"Yahoo aerial images","surface":"asphalt","turn:lanes":"through|through|through","startNodeId":"236461853","endNodeId":"5963345716"},"geometry":{"type":"LineString","coordinates":[[103.8072572,1.3096126],[103.8068511,1.3097698]]}},{"type":"Feature","id":"way/22694123-0-1-0","properties":{"foot":"no","highway":"primary","lanes":"3","maxspeed":"50","name":"Holland Flyover","name:en":"Holland Flyover","name:ms":"Jejambat Holland","name:zh":"\u8377\u5170\u7acb\u4ea4\u6865","oneway":"yes","sidewalk":"no","source":"Yahoo aerial images","surface":"asphalt","turn:lanes":"through|through|through","startNodeId":"5963345716","endNodeId":"5963345742"},"geometry":{"type":"LineString","coordinates":[[103.8068511,1.3097698],[103.8065234,1.309879]]}},{"type":"Feature","id":"way/22694123-0-2-0","properties":{"foot":"no","highway":"primary","lanes":"3","maxspeed":"50","name":"Holland Flyover","name:en":"Holland Flyover","name:ms":"Jejambat Holland","name:zh":"\u8377\u5170\u7acb\u4ea4\u6865","oneway":"yes","sidewalk":"no","source":"Yahoo aerial images","surface":"asphalt","turn:lanes":"through|through|through","startNodeId":"5963345742","endNodeId":"236461880"},"geometry":{"type":"LineString","coordinates":[[103.8065234,1.309879],[103.8061819,1.3099811]]}},{"type":"Feature","id":"way/34834801-0-0-0","properties":{"highway":"residential","lanes":"2","lanes:backward":"1","lanes:forward":"1","lit":"yes","maxspeed":"50","name":"Holland Road","name:en":"Holland Road","name:zh":"\u8377\u5170\u8def","sidewalk":"left","surface":"asphalt","startNodeId":"2886849469","endNodeId":"6782682083"},"geometry":{"type":"LineString","coordinates":[[103.8080703,1.308757],[103.8080261,1.3086862]]}},{"type":"Feature","id":"way/34834801-0-1-0","properties":{"highway":"residential","lanes":"2","lanes:backward":"1","lanes:forward":"1","lit":"yes","maxspeed":"50","name":"Holland Road","name:en":"Holland Road","name:zh":"\u8377\u5170\u8def","sidewalk":"left","surface":"asphalt","startNodeId":"6782682083","endNodeId":"408185952"},"geometry":{"type":"LineString","coordinates":[[103.8080261,1.3086862],[103.8079614,1.3086416]]}},{"type":"Feature","id":"way/34834801-0-2-0","properties":{"highway":"residential","lanes":"2","lanes:backward":"1","lanes:forward":"1","lit":"yes","maxspeed":"50","name":"Holland Road","name:en":"Holland Road","name:zh":"\u8377\u5170\u8def","sidewalk":"left","surface":"asphalt","startNodeId":"408185952","endNodeId":"12771272859"},"geometry":{"type":"LineString","coordinates":[[103.8079614,1.3086416],[103.8079034,1.3086277]]}},{"type":"Feature","id":"way/34834801-0-3-0","properties":{"highway":"residential","lanes":"2","lanes:backward":"1","lanes:forward":"1","lit":"yes","maxspeed":"50","name":"Holland Road","name:en":"Holland Road","name:zh":"\u8377\u5170\u8def","sidewalk":"left","surface":"asphalt","startNodeId":"12771272859","endNodeId":"6782682082"},"geometry":{"type":"LineString","coordinates":[[103.8079034,1.3086277],[103.8077223,1.3085843]]}},{"type":"Feature","id":"way/34834801-0-4-0","properties":{"highway":"residential","lanes":"2","lanes:backward":"1","lanes:forward":"1","lit":"yes","maxspeed":"50","name":"Holland Road","name:en":"Holland Road","name:zh":"\u8377\u5170\u8def","sidewalk":"left","surface":"asphalt","startNodeId":"6782682082","endNodeId":"408185953"},"geometry":{"type":"LineString","coordinates":[[103.8077223,1.3085843],[103.8073605,1.3085589]]}},{"type":"Feature","id":"way/159677026-0-0-0","properties":{"highway":"residential","lanes":"2","lanes:backward":"1","lanes:forward":"1","maxspeed":"50","name":"Taman Nakhoda","sidewalk":"left","surface":"asphalt","turn:lanes:forward":"left;through","startNodeId":"1784442242","endNodeId":"1717864383"},"geometry":{"type":"LineString","coordinates":[[103.8077687,1.309998],[103.8077806,1.3100488]]}},{"type":"Feature","id":"way/159677026-0-1-0","properties":{"highway":"residential","lanes":"2","lanes:backward":"1","lanes:forward":"1","maxspeed":"50","name":"Taman Nakhoda","sidewalk":"left","surface":"asphalt","turn:lanes:forward":"left;through","startNodeId":"1717864383","endNodeId":"1791347749"},"geometry":{"type":"LineString","coordinates":[[103.8077806,1.3100488],[103.807789,1.3100902]]}},{"type":"Feature","id":"way/159677026-0-2-0","properties":{"highway":"residential","lanes":"2","lanes:backward":"1","lanes:forward":"1","maxspeed":"50","name":"Taman Nakhoda","sidewalk":"left","surface":"asphalt","turn:lanes:forward":"left;through","startNodeId":"1791347749","endNodeId":"1717864364"},"geometry":{"type":"LineString","coordinates":[[103.807789,1.3100902],[103.80779,1.3101279]]}},{"type":"Feature","id":"way/159677026-0-3-0","properties":{"highway":"residential","lanes":"2","lanes:backward":"1","lanes:forward":"1","maxspeed":"50","name":"Taman Nakhoda","sidewalk":"left","surface":"asphalt","turn:lanes:forward":"left;through","startNodeId":"1717864364","endNodeId":"1717864346"},"geometry":{"type":"LineString","coordinates":[[103.80779,1.3101279],[103.8077733,1.3101838]]}},{"type":"Feature","id":"way/159677026-0-4-0","properties":{"highway":"residential","lanes":"2","lanes:backward":"1","lanes:forward":"1","maxspeed":"50","name":"Taman Nakhoda","sidewalk":"left","surface":"asphalt","turn:lanes:forward":"left;through","startNodeId":"1717864346","endNodeId":"1717864359"},"geometry":{"type":"LineString","coordinates":[[103.8077733,1.3101838],[103.8077102,1.3103192]]}},{"type":"Feature","id":"way/159677027-0-0-0","properties":{"highway":"residential","lanes":"2","lanes:backward":"1","lanes:forward":"1","name":"Sommerville Estate Road","sidewalk":"both","surface":"asphalt","turn:lanes:backward":"through","turn:lanes:forward":"left;through","startNodeId":"243414288","endNodeId":"1784449641"},"geometry":{"type":"LineString","coordinates":[[103.8063065,1.3101467],[103.8063267,1.3102013]]}},{"type":"Feature","id":"way/159677027-0-1-0","properties":{"highway":"residential","lanes":"2","lanes:backward":"1","lanes:forward":"1","name":"Sommerville Estate Road","sidewalk":"both","surface":"asphalt","turn:lanes:backward":"through","turn:lanes:forward":"left;through","startNodeId":"1784449641","endNodeId":"1717864324"},"geometry":{"type":"LineString","coordinates":[[103.8063267,1.3102013],[103.8063772,1.3103367]]}},{"type":"Feature","id":"way/159677027-0-2-0","properties":{"highway":"residential","lanes":"2","lanes:backward":"1","lanes:forward":"1","name":"Sommerville Estate Road","sidewalk":"both","surface":"asphalt","turn:lanes:backward":"through","turn:lanes:forward":"left;through","startNodeId":"1717864324","endNodeId":"1733915097"},"geometry":{"type":"LineString","coordinates":[[103.8063772,1.3103367],[103.8064622,1.3106386]]}},{"type":"Feature","id":"way/159677028-0-0-0","properties":{"highway":"residential","lanes":"2","lanes:backward":"1","lanes:forward":"1","maxspeed":"50","name":"Peirce Drive","startNodeId":"408185975","endNodeId":"1717864338"},"geometry":{"type":"LineString","coordinates":[[103.8073554,1.3066988],[103.8073602,1.3067904]]}},{"type":"Feature","id":"way/159677028-0-1-0","properties":{"highway":"residential","lanes":"2","lanes:backward":"1","lanes:forward":"1","maxspeed":"50","name":"Peirce Drive","startNodeId":"1717864338","endNodeId":"1717864384"},"geometry":{"type":"LineString","coordinates":[[103.8073602,1.3067904],[103.8073508,1.306848]]}},{"type":"Feature","id":"way/159677028-0-2-0","properties":{"highway":"residential","lanes":"2","lanes:backward":"1","lanes:forward":"1","maxspeed":"50","name":"Peirce Drive","startNodeId":"1717864384","endNodeId":"6059478955"},"geometry":{"type":"LineString","coordinates":[[103.8073508,1.306848],[103.8073208,1.3068743]]}},{"type":"Feature","id":"way/270465588-0-0-0","properties":{"highway":"service","lanes":"2","lanes:backward":"1","lanes:forward":"1","maxspeed":"50","name":"Dempsey Road","sidewalk":"right","surface":"asphalt","startNodeId":"1829996195","endNodeId":"278872030"},"geometry":{"type":"LineString","coordinates":[[103.8104984,1.3069915],[103.8105998,1.3074249]]}},{"type":"Feature","id":"way/464811047-0-0-0","properties":{"highway":"residential","lit":"yes","maxspeed":"50","name":"Holland Road","name:en":"Holland Road","name:zh":"\u8377\u5170\u8def","sidewalk":"right","startNodeId":"408185954","endNodeId":"6782682081"},"geometry":{"type":"LineString","coordinates":[[103.8069725,1.3085589],[103.8069284,1.308528]]}},{"type":"Feature","id":"way/464811047-0-1-0","properties":{"highway":"residential","lit":"yes","maxspeed":"50","name":"Holland Road","name:en":"Holland Road","name:zh":"\u8377\u5170\u8def","sidewalk":"right","startNodeId":"6782682081","endNodeId":"408185955"},"geometry":{"type":"LineString","coordinates":[[103.8069284,1.308528],[103.8068047,1.3082477]]}},{"type":"Feature","id":"way/478123580-0-0-0","properties":{"highway":"primary","lanes":"3","maxspeed":"70","name":"Holland Road","name:en":"Holland Road","name:zh":"\u8377\u5170\u8def","oneway":"yes","sidewalk:left":"separate","sidewalk:right":"no","source":"Yahoo aerial images","surface":"asphalt","startNodeId":"408185951","endNodeId":"1747010497"},"geometry":{"type":"LineString","coordinates":[[103.8083143,1.3092293],[103.8080238,1.3093567]]}},{"type":"Feature","id":"way/478123580-0-1-0","properties":{"highway":"primary","lanes":"3","maxspeed":"70","name":"Holland Road","name:en":"Holland Road","name:zh":"\u8377\u5170\u8def","oneway":"yes","sidewalk:left":"separate","sidewalk:right":"no","source":"Yahoo aerial images","surface":"asphalt","startNodeId":"1747010497","endNodeId":"5963345720"},"geometry":{"type":"LineString","coordinates":[[103.8080238,1.3093567],[103.807827,1.3094252]]}},{"type":"Feature","id":"way/478123580-0-2-0","properties":{"highway":"primary","lanes":"3","maxspeed":"70","name":"Holland Road","name:en":"Holland Road","name:zh":"\u8377\u5170\u8def","oneway":"yes","sidewalk:left":"separate","sidewalk:right":"no","source":"Yahoo aerial images","surface":"asphalt","startNodeId":"5963345720","endNodeId":"5228910553"},"geometry":{"type":"LineString","coordinates":[[103.807827,1.3094252],[103.8075645,1.309508]]}},{"type":"Feature","id":"way/478123581-0-0-0","properties":{"highway":"primary","lanes":"4","lit":"yes","maxspeed":"70","name":"Holland Road","name:en":"Holland Road","name:zh":"\u8377\u5170\u8def","oneway":"yes","sidewalk:left":"separate","sidewalk:right":"no","source":"Yahoo aerial images","surface":"asphalt","turn:lanes":"through|through|through|right","startNodeId":"4713818343","endNodeId":"4713818344"},"geometry":{"type":"LineString","coordinates":[[103.8086057,1.3091917],[103.8090197,1.3089318]]}},{"type":"Feature","id":"way/478123582-0-0-0","properties":{"highway":"primary","lanes":"3","lit":"yes","maxspeed":"70","name":"Holland Road","name:en":"Holland Road","name:zh":"\u8377\u5170\u8def","oneway":"yes","sidewalk:left":"separate","sidewalk:right":"no","source":"Yahoo aerial images","surface":"asphalt","turn:lanes":"through|through|through","startNodeId":"4713818344","endNodeId":"2886857506"},"geometry":{"type":"LineString","coordinates":[[103.8090197,1.3089318],[103.8090978,1.3088812]]}},{"type":"Feature","id":"way/478123582-0-1-0","properties":{"highway":"primary","lanes":"3","lit":"yes","maxspeed":"70","name":"Holland Road","name:en":"Holland Road","name:zh":"\u8377\u5170\u8def","oneway":"yes","sidewalk:left":"separate","sidewalk:right":"no","source":"Yahoo aerial images","surface":"asphalt","turn:lanes":"through|through|through","startNodeId":"2886857506","endNodeId":"4751147432"},"geometry":{"type":"LineString","coordinates":[[103.8090978,1.3088812],[103.8094388,1.3086708]]}},{"type":"Feature","id":"way/478124216-0-0-0","properties":{"foot":"no","highway":"primary_link","lanes":"1","maxspeed":"50","name":"Holland Road","noname":"yes","oneway":"yes","surface":"asphalt","startNodeId":"4713818344","endNodeId":"4713824820"},"geometry":{"type":"LineString","coordinates":[[103.8090197,1.3089318],[103.8090606,1.3088639]]}},{"type":"Feature","id":"way/478124216-0-1-0","properties":{"foot":"no","highway":"primary_link","lanes":"1","maxspeed":"50","name":"Holland Road","noname":"yes","oneway":"yes","surface":"asphalt","startNodeId":"4713824820","endNodeId":"4713824821"},"geometry":{"type":"LineString","coordinates":[[103.8090606,1.3088639],[103.809078,1.3088208]]}},{"type":"Feature","id":"way/478124216-0-2-0","properties":{"foot":"no","highway":"primary_link","lanes":"1","maxspeed":"50","name":"Holland Road","noname":"yes","oneway":"yes","surface":"asphalt","startNodeId":"4713824821","endNodeId":"4713824822"},"geometry":{"type":"LineString","coordinates":[[103.809078,1.3088208],[103.8090791,1.3087999]]}},{"type":"Feature","id":"way/478124216-0-3-0","properties":{"foot":"no","highway":"primary_link","lanes":"1","maxspeed":"50","name":"Holland Road","noname":"yes","oneway":"yes","surface":"asphalt","startNodeId":"4713824822","endNodeId":"4713824823"},"geometry":{"type":"LineString","coordinates":[[103.8090791,1.3087999],[103.8090654,1.3087662]]}},{"type":"Feature","id":"way/482272533-0-0-0","properties":{"highway":"primary","lanes":"4","lit":"yes","maxspeed":"70","name":"Holland Road","name:en":"Holland Road","name:zh":"\u8377\u5170\u8def","oneway":"yes","sidewalk:left":"separate","sidewalk:right":"no","source":"Yahoo aerial images","surface":"asphalt","turn:lanes":"through|through|through|right","startNodeId":"4751147432","endNodeId":"1784449647"},"geometry":{"type":"LineString","coordinates":[[103.8094388,1.3086708],[103.8098797,1.3084042]]}},{"type":"Feature","id":"way/482272533-0-1-0","properties":{"highway":"primary","lanes":"4","lit":"yes","maxspeed":"70","name":"Holland Road","name:en":"Holland Road","name:zh":"\u8377\u5170\u8def","oneway":"yes","sidewalk:left":"separate","sidewalk:right":"no","source":"Yahoo aerial images","surface":"asphalt","turn:lanes":"through|through|through|right","startNodeId":"1784449647","endNodeId":"236474089"},"geometry":{"type":"LineString","coordinates":[[103.8098797,1.3084042],[103.8099613,1.3083574]]}},{"type":"Feature","id":"way/482272534-0-0-0","properties":{"highway":"primary","lanes":"3","lit":"yes","maxspeed":"70","name":"Holland Road","name:en":"Holland Road","name:zh":"\u8377\u5170\u8def","oneway":"yes","sidewalk":"separate","source":"Yahoo aerial images","surface":"asphalt","turn:lanes":"through|through|through","startNodeId":"236474089","endNodeId":"6935881796"},"geometry":{"type":"LineString","coordinates":[[103.8099613,1.3083574],[103.8100571,1.3082989]]}},{"type":"Feature","id":"way/482272534-0-1-0","properties":{"highway":"primary","lanes":"3","lit":"yes","maxspeed":"70","name":"Holland Road","name:en":"Holland Road","name:zh":"\u8377\u5170\u8def","oneway":"yes","sidewalk":"separate","source":"Yahoo aerial images","surface":"asphalt","turn:lanes":"through|through|through","startNodeId":"6935881796","endNodeId":"1747010493"},"geometry":{"type":"LineString","coordinates":[[103.8100571,1.3082989],[103.8107164,1.307896]]}},{"type":"Feature","id":"way/482272536-0-1-0","properties":{"highway":"primary","lanes":"3","lit":"yes","maxspeed":"70","name":"Holland Road","name:en":"Holland Road","name:zh":"\u8377\u5170\u8def","oneway":"yes","sidewalk:left":"separate","sidewalk:right":"no","source":"Yahoo aerial images","surface":"asphalt","turn:lanes":"left;through|through|through","startNodeId":"278872029","endNodeId":"6935881795"},"geometry":{"type":"LineString","coordinates":[[103.8107403,1.3077258],[103.8099886,1.3081778]]}},{"type":"Feature","id":"way/482272536-0-2-0","properties":{"highway":"primary","lanes":"3","lit":"yes","maxspeed":"70","name":"Holland Road","name:en":"Holland Road","name:zh":"\u8377\u5170\u8def","oneway":"yes","sidewalk:left":"separate","sidewalk:right":"no","source":"Yahoo aerial images","surface":"asphalt","turn:lanes":"left;through|through|through","startNodeId":"6935881795","endNodeId":"236461783"},"geometry":{"type":"LineString","coordinates":[[103.8099886,1.3081778],[103.8098894,1.3082374]]}},{"type":"Feature","id":"way/540498265-0-0-0","properties":{"highway":"service","lanes":"2","lanes:backward":"1","lanes:forward":"1","startNodeId":"5228910556","endNodeId":"5228910555"},"geometry":{"type":"LineString","coordinates":[[103.8071135,1.3091541],[103.8074071,1.3090676]]}},{"type":"Feature","id":"way/540498265-0-1-0","properties":{"highway":"service","lanes":"2","lanes:backward":"1","lanes:forward":"1","startNodeId":"5228910555","endNodeId":"7008133679"},"geometry":{"type":"LineString","coordinates":[[103.8074071,1.3090676],[103.8074367,1.3090683]]}},{"type":"Feature","id":"way/540498265-0-2-0","properties":{"highway":"service","lanes":"2","lanes:backward":"1","lanes:forward":"1","startNodeId":"7008133679","endNodeId":"7008133680"},"geometry":{"type":"LineString","coordinates":[[103.8074367,1.3090683],[103.8074595,1.3090877]]}},{"type":"Feature","id":"way/540498265-0-3-0","properties":{"highway":"service","lanes":"2","lanes:backward":"1","lanes:forward":"1","startNodeId":"7008133680","endNodeId":"5228910554"},"geometry":{"type":"LineString","coordinates":[[103.8074595,1.3090877],[103.8075374,1.309381]]}},{"type":"Feature","id":"way/540498265-0-4-0","properties":{"highway":"service","lanes":"2","lanes:backward":"1","lanes:forward":"1","startNodeId":"5228910554","endNodeId":"5228910553"},"geometry":{"type":"LineString","coordinates":[[103.8075374,1.309381],[103.8075645,1.309508]]}},{"type":"Feature","id":"way/597211230-0-0-0","properties":{"highway":"service","lanes":"2","lanes:backward":"1","lanes:forward":"1","startNodeId":"408185953","endNodeId":"7950694312"},"geometry":{"type":"LineString","coordinates":[[103.8073605,1.3085589],[103.8073596,1.3085397]]}},{"type":"Feature","id":"way/597211230-0-1-0","properties":{"highway":"service","lanes":"2","lanes:backward":"1","lanes:forward":"1","startNodeId":"7950694312","endNodeId":"5687046211"},"geometry":{"type":"LineString","coordinates":[[103.8073596,1.3085397],[103.8073468,1.3082571]]}},{"type":"Feature","id":"way/597211230-0-2-0","properties":{"highway":"service","lanes":"2","lanes:backward":"1","lanes:forward":"1","startNodeId":"5687046211","endNodeId":"5687046210"},"geometry":{"type":"LineString","coordinates":[[103.8073468,1.3082571],[103.8073347,1.307987]]}},{"type":"Feature","id":"way/597211230-0-3-0","properties":{"highway":"service","lanes":"2","lanes:backward":"1","lanes:forward":"1","startNodeId":"5687046210","endNodeId":"5687046209"},"geometry":{"type":"LineString","coordinates":[[103.8073347,1.307987],[103.8072342,1.3078576]]}},{"type":"Feature","id":"way/631454249-0-0-0","properties":{"highway":"primary","lanes":"3","maxspeed":"50","name":"Holland Flyover","name:ms":"Jejambat Holland","name:zh":"\u8377\u5170\u7acb\u4ea4\u6865","oneway":"yes","source":"Yahoo aerial images","surface":"asphalt","startNodeId":"236473986","endNodeId":"243414290"},"geometry":{"type":"LineString","coordinates":[[103.8062204,1.3100913],[103.8069794,1.3098676]]}},{"type":"Feature","id":"way/638062201-0-0-0","properties":{"highway":"primary","lanes":"3","lit":"yes","maxspeed":"70","name":"Holland Road","name:en":"Holland Road","name:zh":"\u8377\u5170\u8def","oneway":"yes","sidewalk:left":"separate","sidewalk:right":"no","source":"Yahoo aerial images","surface":"asphalt","startNodeId":"236461783","endNodeId":"1784449648"},"geometry":{"type":"LineString","coordinates":[[103.8098894,1.3082374],[103.8098079,1.3082927]]}},{"type":"Feature","id":"way/638062201-0-1-0","properties":{"highway":"primary","lanes":"3","lit":"yes","maxspeed":"70","name":"Holland Road","name:en":"Holland Road","name:zh":"\u8377\u5170\u8def","oneway":"yes","sidewalk:left":"separate","sidewalk:right":"no","source":"Yahoo aerial images","surface":"asphalt","startNodeId":"1784449648","endNodeId":"13460132839"},"geometry":{"type":"LineString","coordinates":[[103.8098079,1.3082927],[103.8092329,1.3086589]]}},{"type":"Feature","id":"way/638062201-0-2-0","properties":{"highway":"primary","lanes":"3","lit":"yes","maxspeed":"70","name":"Holland Road","name:en":"Holland Road","name:zh":"\u8377\u5170\u8def","oneway":"yes","sidewalk:left":"separate","sidewalk:right":"no","source":"Yahoo aerial images","surface":"asphalt","startNodeId":"13460132839","endNodeId":"2886849277"},"geometry":{"type":"LineString","coordinates":[[103.8092329,1.3086589],[103.809092,1.3087486]]}},{"type":"Feature","id":"way/638064147-0-0-0","properties":{"highway":"primary","lanes":"4","maxspeed":"70","name":"Holland Road","name:en":"Holland Road","name:zh":"\u8377\u5170\u8def","oneway":"yes","sidewalk:left":"separate","sidewalk:right":"no","source":"Yahoo aerial images","surface":"asphalt","turn:lanes":"left|through|through|through","startNodeId":"5228910553","endNodeId":"236461853"},"geometry":{"type":"LineString","coordinates":[[103.8075645,1.309508],[103.8072572,1.3096126]]}},{"type":"Feature","id":"way/638071796-0-0-0","properties":{"highway":"residential","lanes":"2","lanes:backward":"1","lanes:forward":"1","maxspeed":"50","name":"Taman Nakhoda","sidewalk":"both","surface":"asphalt","turn:lanes:backward":"left","startNodeId":"1717864361","endNodeId":"1784449691"},"geometry":{"type":"LineString","coordinates":[[103.8076386,1.3096267],[103.8076756,1.3096913]]}},{"type":"Feature","id":"way/638071796-0-1-0","properties":{"highway":"residential","lanes":"2","lanes:backward":"1","lanes:forward":"1","maxspeed":"50","name":"Taman Nakhoda","sidewalk":"both","surface":"asphalt","turn:lanes:backward":"left","startNodeId":"1784449691","endNodeId":"1717864386"},"geometry":{"type":"LineString","coordinates":[[103.8076756,1.3096913],[103.8077303,1.3098339]]}},{"type":"Feature","id":"way/638071796-0-2-0","properties":{"highway":"residential","lanes":"2","lanes:backward":"1","lanes:forward":"1","maxspeed":"50","name":"Taman Nakhoda","sidewalk":"both","surface":"asphalt","turn:lanes:backward":"left","startNodeId":"1717864386","endNodeId":"1784442242"},"geometry":{"type":"LineString","coordinates":[[103.8077303,1.3098339],[103.8077687,1.309998]]}},{"type":"Feature","id":"way/638441005-0-0-0","properties":{"foot":"no","highway":"residential","lit":"yes","maxspeed":"50","name":"Peirce Road","surface":"asphalt","startNodeId":"236474089","endNodeId":"236461783"},"geometry":{"type":"LineString","coordinates":[[103.8099613,1.3083574],[103.8098894,1.3082374]]}},{"type":"Feature","id":"way/639886487-0-0-0","properties":{"highway":"service","lanes":"2","lanes:backward":"1","lanes:forward":"1","maxspeed":"50","name":"Dempsey Road","surface":"asphalt","startNodeId":"5129496593","endNodeId":"6059478933"},"geometry":{"type":"LineString","coordinates":[[103.8104381,1.3066616],[103.8104848,1.306917]]}},{"type":"Feature","id":"way/639886487-0-1-0","properties":{"highway":"service","lanes":"2","lanes:backward":"1","lanes:forward":"1","maxspeed":"50","name":"Dempsey Road","surface":"asphalt","startNodeId":"6059478933","endNodeId":"1829996195"},"geometry":{"type":"LineString","coordinates":[[103.8104848,1.306917],[103.8104984,1.3069915]]}},{"type":"Feature","id":"way/639886488-0-1-0","properties":{"highway":"service","lanes":"2","lanes:backward":"1","lanes:forward":"1","maxspeed":"50","name":"Dempsey Road","surface":"asphalt","turn:lanes:backward":"through","startNodeId":"1829996181","endNodeId":"5129496593"},"geometry":{"type":"LineString","coordinates":[[103.8103742,1.3062956],[103.8104381,1.3066616]]}},{"type":"Feature","id":"way/641077575-0-0-0","properties":{"highway":"residential","lanes":"2","lanes:backward":"1","lanes:forward":"1","lit":"yes","maxspeed":"50","name":"Peirce Road","sidewalk":"both","surface":"asphalt","startNodeId":"1717864325","endNodeId":"2886849260"},"geometry":{"type":"LineString","coordinates":[[103.8082319,1.3067836],[103.8081174,1.3067036]]}},{"type":"Feature","id":"way/641077576-0-0-0","properties":{"highway":"residential","lanes":"2","lanes:backward":"1","lanes:forward":"1","lit":"yes","maxspeed":"50","name":"Peirce Road","sidewalk":"both","surface":"asphalt","startNodeId":"2886849260","endNodeId":"11064665064"},"geometry":{"type":"LineString","coordinates":[[103.8081174,1.3067036],[103.8079088,1.3065447]]}},{"type":"Feature","id":"way/641077576-0-1-0","properties":{"highway":"residential","lanes":"2","lanes:backward":"1","lanes:forward":"1","lit":"yes","maxspeed":"50","name":"Peirce Road","sidewalk":"both","surface":"asphalt","startNodeId":"11064665064","endNodeId":"11064665063"},"geometry":{"type":"LineString","coordinates":[[103.8079088,1.3065447],[103.8078972,1.3065378]]}},{"type":"Feature","id":"way/641077576-0-2-0","properties":{"highway":"residential","lanes":"2","lanes:backward":"1","lanes:forward":"1","lit":"yes","maxspeed":"50","name":"Peirce Road","sidewalk":"both","surface":"asphalt","startNodeId":"11064665063","endNodeId":"7953093271"},"geometry":{"type":"LineString","coordinates":[[103.8078972,1.3065378],[103.8078785,1.3065217]]}},{"type":"Feature","id":"way/641077577-0-0-0","properties":{"highway":"residential","lanes":"2","lanes:backward":"1","lanes:forward":"1","lit":"yes","maxspeed":"50","name":"Peirce Road","sidewalk":"left","surface":"asphalt","startNodeId":"6375987337","endNodeId":"13460132853"},"geometry":{"type":"LineString","coordinates":[[103.8097414,1.3080078],[103.8097239,1.3079882]]}},{"type":"Feature","id":"way/641077577-0-1-0","properties":{"highway":"residential","lanes":"2","lanes:backward":"1","lanes:forward":"1","lit":"yes","maxspeed":"50","name":"Peirce Road","sidewalk":"left","surface":"asphalt","startNodeId":"13460132853","endNodeId":"408185956"},"geometry":{"type":"LineString","coordinates":[[103.8097239,1.3079882],[103.8095917,1.3078405]]}},{"type":"Feature","id":"way/641077577-0-2-0","properties":{"highway":"residential","lanes":"2","lanes:backward":"1","lanes:forward":"1","lit":"yes","maxspeed":"50","name":"Peirce Road","sidewalk":"left","surface":"asphalt","startNodeId":"408185956","endNodeId":"6059478945"},"geometry":{"type":"LineString","coordinates":[[103.8095917,1.3078405],[103.8089142,1.3072994]]}},{"type":"Feature","id":"way/641401351-0-0-0","properties":{"highway":"primary","lanes":"4","lit":"yes","maxspeed":"70","name":"Holland Road","name:en":"Holland Road","name:zh":"\u8377\u5170\u8def","oneway":"yes","source":"Yahoo aerial images","surface":"asphalt","startNodeId":"243414290","endNodeId":"6040577145"},"geometry":{"type":"LineString","coordinates":[[103.8069794,1.3098676],[103.8073535,1.3097306]]}},{"type":"Feature","id":"way/641405911-0-0-0","properties":{"highway":"primary","lanes":"3","maxspeed":"70","name":"Holland Road","name:en":"Holland Road","name:zh":"\u8377\u5170\u8def","oneway":"yes","source":"Yahoo aerial images","surface":"asphalt","turn:lanes":"left;through|through|through","startNodeId":"2886849277","endNodeId":"4713824823"},"geometry":{"type":"LineString","coordinates":[[103.809092,1.3087486],[103.8090654,1.3087662]]}},{"type":"Feature","id":"way/643766118-0-0-0","properties":{"highway":"service","lanes":"2","lanes:backward":"1","lanes:forward":"1","surface":"asphalt","turn:lanes:backward":"left;right","turn:lanes:forward":"through","startNodeId":"1829996195","endNodeId":"2491880677"},"geometry":{"type":"LineString","coordinates":[[103.8104984,1.3069915],[103.8105521,1.3069821]]}},{"type":"Feature","id":"way/643845154-0-0-0","properties":{"highway":"residential","lanes":"2","lanes:backward":"1","lanes:forward":"1","maxspeed":"50","name":"Holland Road","name:en":"Holland Road","name:zh":"\u8377\u5170\u8def","sidewalk":"left","surface":"asphalt","turn:lanes:backward":"left","startNodeId":"408185951","endNodeId":"7958025861"},"geometry":{"type":"LineString","coordinates":[[103.8083143,1.3092293],[103.8082678,1.3091362]]}},{"type":"Feature","id":"way/643845154-0-1-0","properties":{"highway":"residential","lanes":"2","lanes:backward":"1","lanes:forward":"1","maxspeed":"50","name":"Holland Road","name:en":"Holland Road","name:zh":"\u8377\u5170\u8def","sidewalk":"left","surface":"asphalt","turn:lanes:backward":"left","startNodeId":"7958025861","endNodeId":"1784449620"},"geometry":{"type":"LineString","coordinates":[[103.8082678,1.3091362],[103.8081893,1.3089791]]}},{"type":"Feature","id":"way/643845538-0-0-0","properties":{"highway":"residential","lanes":"2","lanes:backward":"1","lanes:forward":"1","lit":"yes","maxspeed":"50","name":"Holland Road","name:en":"Holland Road","name:zh":"\u8377\u5170\u8def","sidewalk:both":"separate","surface":"asphalt","startNodeId":"408185953","endNodeId":"6782682080"},"geometry":{"type":"LineString","coordinates":[[103.8073605,1.3085589],[103.807025,1.3085668]]}},{"type":"Feature","id":"way/643845538-0-1-0","properties":{"highway":"residential","lanes":"2","lanes:backward":"1","lanes:forward":"1","lit":"yes","maxspeed":"50","name":"Holland Road","name:en":"Holland Road","name:zh":"\u8377\u5170\u8def","sidewalk:both":"separate","surface":"asphalt","startNodeId":"6782682080","endNodeId":"408185954"},"geometry":{"type":"LineString","coordinates":[[103.807025,1.3085668],[103.8069725,1.3085589]]}},{"type":"Feature","id":"way/643845750-0-0-0","properties":{"highway":"residential","lanes":"2","lanes:backward":"1","lanes:forward":"1","lit":"yes","maxspeed":"50","name":"Ridout Road","sidewalk:left":"separate","sidewalk:right":"no","startNodeId":"408185957","endNodeId":"408185974"},"geometry":{"type":"LineString","coordinates":[[103.8078476,1.3064958],[103.8076777,1.3066157]]}},{"type":"Feature","id":"way/644246715-0-0-0","properties":{"highway":"service","startNodeId":"6059478933","endNodeId":"6059478932"},"geometry":{"type":"LineString","coordinates":[[103.8104848,1.306917],[103.8099432,1.3069754]]}},{"type":"Feature","id":"way/644246716-0-0-0","properties":{"highway":"service","startNodeId":"6059478945","endNodeId":"11064665055"},"geometry":{"type":"LineString","coordinates":[[103.8089142,1.3072994],[103.8089352,1.307278]]}},{"type":"Feature","id":"way/644246716-0-1-0","properties":{"highway":"service","startNodeId":"11064665055","endNodeId":"6059478944"},"geometry":{"type":"LineString","coordinates":[[103.8089352,1.307278],[103.8091506,1.3070586]]}},{"type":"Feature","id":"way/644246716-0-2-0","properties":{"highway":"service","startNodeId":"6059478944","endNodeId":"6059478943"},"geometry":{"type":"LineString","coordinates":[[103.8091506,1.3070586],[103.8092002,1.3070062]]}},{"type":"Feature","id":"way/644246716-1-0-0","properties":{"highway":"service","startNodeId":"6059478943","endNodeId":"6059478941"},"geometry":{"type":"LineString","coordinates":[[103.8092002,1.3070062],[103.8092527,1.3070547]]}},{"type":"Feature","id":"way/644246716-1-1-0","properties":{"highway":"service","startNodeId":"6059478941","endNodeId":"6059478940"},"geometry":{"type":"LineString","coordinates":[[103.8092527,1.3070547],[103.8093273,1.3071235]]}},{"type":"Feature","id":"way/644246716-1-2-0","properties":{"highway":"service","startNodeId":"6059478940","endNodeId":"6059478939"},"geometry":{"type":"LineString","coordinates":[[103.8093273,1.3071235],[103.8094107,1.3072005]]}},{"type":"Feature","id":"way/644246716-1-3-0","properties":{"highway":"service","startNodeId":"6059478939","endNodeId":"6059478938"},"geometry":{"type":"LineString","coordinates":[[103.8094107,1.3072005],[103.8094679,1.3072533]]}},{"type":"Feature","id":"way/644246716-1-4-0","properties":{"highway":"service","startNodeId":"6059478938","endNodeId":"6059478937"},"geometry":{"type":"LineString","coordinates":[[103.8094679,1.3072533],[103.809521,1.3073023]]}},{"type":"Feature","id":"way/644246716-1-5-0","properties":{"highway":"service","startNodeId":"6059478937","endNodeId":"6059478936"},"geometry":{"type":"LineString","coordinates":[[103.809521,1.3073023],[103.8095691,1.3073467]]}},{"type":"Feature","id":"way/644246716-1-6-0","properties":{"highway":"service","startNodeId":"6059478936","endNodeId":"6059478935"},"geometry":{"type":"LineString","coordinates":[[103.8095691,1.3073467],[103.8097357,1.3075005]]}},{"type":"Feature","id":"way/644246716-1-7-0","properties":{"highway":"service","startNodeId":"6059478935","endNodeId":"6059478934"},"geometry":{"type":"LineString","coordinates":[[103.8097357,1.3075005],[103.8098118,1.3075707]]}},{"type":"Feature","id":"way/644246716-1-8-0","properties":{"highway":"service","startNodeId":"6059478934","endNodeId":"9671830636"},"geometry":{"type":"LineString","coordinates":[[103.8098118,1.3075707],[103.8099754,1.3074058]]}},{"type":"Feature","id":"way/644246716-1-9-0","properties":{"highway":"service","startNodeId":"9671830636","endNodeId":"9671830635"},"geometry":{"type":"LineString","coordinates":[[103.8099754,1.3074058],[103.8093826,1.3068547]]}},{"type":"Feature","id":"way/644246716-1-10-0","properties":{"highway":"service","startNodeId":"9671830635","endNodeId":"9671830634"},"geometry":{"type":"LineString","coordinates":[[103.8093826,1.3068547],[103.8093558,1.3068527]]}},{"type":"Feature","id":"way/644246716-1-11-0","properties":{"highway":"service","startNodeId":"9671830634","endNodeId":"9671830633"},"geometry":{"type":"LineString","coordinates":[[103.8093558,1.3068527],[103.8093283,1.3068627]]}},{"type":"Feature","id":"way/644246716-1-12-0","properties":{"highway":"service","startNodeId":"9671830633","endNodeId":"6059478943"},"geometry":{"type":"LineString","coordinates":[[103.8093283,1.3068627],[103.8092002,1.3070062]]}},{"type":"Feature","id":"way/644246717-0-0-0","properties":{"highway":"service","startNodeId":"6059478950","endNodeId":"11064665061"},"geometry":{"type":"LineString","coordinates":[[103.8088002,1.3072091],[103.8087768,1.3072385]]}},{"type":"Feature","id":"way/644246717-0-1-0","properties":{"highway":"service","startNodeId":"11064665061","endNodeId":"6059478949"},"geometry":{"type":"LineString","coordinates":[[103.8087768,1.3072385],[103.8086088,1.30745]]}},{"type":"Feature","id":"way/644246717-0-2-0","properties":{"highway":"service","startNodeId":"6059478949","endNodeId":"6059478948"},"geometry":{"type":"LineString","coordinates":[[103.8086088,1.30745],[103.8085619,1.3075291]]}},{"type":"Feature","id":"way/644246717-0-3-0","properties":{"highway":"service","startNodeId":"6059478948","endNodeId":"6059478947"},"geometry":{"type":"LineString","coordinates":[[103.8085619,1.3075291],[103.8085605,1.3075827]]}},{"type":"Feature","id":"way/644246717-0-4-0","properties":{"highway":"service","startNodeId":"6059478947","endNodeId":"6059478946"},"geometry":{"type":"LineString","coordinates":[[103.8085605,1.3075827],[103.8085914,1.3076055]]}},{"type":"Feature","id":"way/644246718-0-0-0","properties":{"highway":"service","startNodeId":"6059478955","endNodeId":"7950778713"},"geometry":{"type":"LineString","coordinates":[[103.8073208,1.3068743],[103.8073301,1.3069047]]}},{"type":"Feature","id":"way/644246718-0-1-0","properties":{"highway":"service","startNodeId":"7950778713","endNodeId":"6059478954"},"geometry":{"type":"LineString","coordinates":[[103.8073301,1.3069047],[103.8073468,1.3069593]]}},{"type":"Feature","id":"way/644246718-0-2-0","properties":{"highway":"service","startNodeId":"6059478954","endNodeId":"6059478953"},"geometry":{"type":"LineString","coordinates":[[103.8073468,1.3069593],[103.8073522,1.3070518]]}},{"type":"Feature","id":"way/644246718-0-3-0","properties":{"highway":"service","startNodeId":"6059478953","endNodeId":"6059478952"},"geometry":{"type":"LineString","coordinates":[[103.8073522,1.3070518],[103.8073361,1.3071738]]}},{"type":"Feature","id":"way/644246718-0-4-0","properties":{"highway":"service","startNodeId":"6059478952","endNodeId":"6059478951"},"geometry":{"type":"LineString","coordinates":[[103.8073361,1.3071738],[103.8072704,1.3072878]]}},{"type":"Feature","id":"way/646839090-0-0-0","properties":{"highway":"residential","lanes":"2","lanes:backward":"1","lanes:forward":"1","lit":"yes","maxspeed":"50","name":"Ridout Road","sidewalk:left":"separate","sidewalk:right":"no","startNodeId":"6782682078","endNodeId":"7953176566"},"geometry":{"type":"LineString","coordinates":[[103.8070437,1.3067501],[103.8066674,1.3068137]]}},{"type":"Feature","id":"way/646841879-0-0-0","properties":{"highway":"residential","lanes":"2","lanes:backward":"1","lanes:forward":"1","maxspeed":"50","name":"Peirce Drive","startNodeId":"6059478955","endNodeId":"1717864331"},"geometry":{"type":"LineString","coordinates":[[103.8073208,1.3068743],[103.8073045,1.3068886]]}},{"type":"Feature","id":"way/646841879-0-1-0","properties":{"highway":"residential","lanes":"2","lanes:backward":"1","lanes:forward":"1","maxspeed":"50","name":"Peirce Drive","startNodeId":"1717864331","endNodeId":"1717864343"},"geometry":{"type":"LineString","coordinates":[[103.8073045,1.3068886],[103.8072207,1.306907]]}},{"type":"Feature","id":"way/646841879-0-2-0","properties":{"highway":"residential","lanes":"2","lanes:backward":"1","lanes:forward":"1","maxspeed":"50","name":"Peirce Drive","startNodeId":"1717864343","endNodeId":"7950778709"},"geometry":{"type":"LineString","coordinates":[[103.8072207,1.306907],[103.8071279,1.3069246]]}},{"type":"Feature","id":"way/646841879-0-3-0","properties":{"highway":"residential","lanes":"2","lanes:backward":"1","lanes:forward":"1","maxspeed":"50","name":"Peirce Drive","startNodeId":"7950778709","endNodeId":"1717864362"},"geometry":{"type":"LineString","coordinates":[[103.8071279,1.3069246],[103.807098,1.3069302]]}},{"type":"Feature","id":"way/655152626-0-0-0","properties":{"highway":"primary","lanes":"1","maxspeed":"70","name":"Holland Road","name:en":"Holland Road","name:zh":"\u8377\u5170\u8def","oneway":"yes","sidewalk:left":"separate","sidewalk:right":"no","source":"Yahoo aerial images","surface":"asphalt","turn:lanes":"left","startNodeId":"236461853","endNodeId":"243414700"},"geometry":{"type":"LineString","coordinates":[[103.8072572,1.3096126],[103.8064642,1.3098235]]}},{"type":"Feature","id":"way/656756395-0-0-0","properties":{"highway":"primary","lanes":"3","lit":"yes","maxspeed":"70","name":"Holland Road","name:en":"Holland Road","name:zh":"\u8377\u5170\u8def","oneway":"yes","sidewalk:left":"separate","sidewalk:right":"no","source":"Yahoo aerial images","surface":"asphalt","turn:lanes":"left;through|through|through","startNodeId":"4713824823","endNodeId":"408185951"},"geometry":{"type":"LineString","coordinates":[[103.8090654,1.3087662],[103.8083143,1.3092293]]}},{"type":"Feature","id":"way/672854624-0-0-0","properties":{"highway":"residential","lanes":"2","lanes:backward":"1","lanes:forward":"1","lit":"yes","maxspeed":"50","name":"Ridout Road","sidewalk:left":"no","sidewalk:right":"separate","startNodeId":"408185974","endNodeId":"7950778718"},"geometry":{"type":"LineString","coordinates":[[103.8076777,1.3066157],[103.8073829,1.3066917]]}},{"type":"Feature","id":"way/672854624-0-1-0","properties":{"highway":"residential","lanes":"2","lanes:backward":"1","lanes:forward":"1","lit":"yes","maxspeed":"50","name":"Ridout Road","sidewalk:left":"no","sidewalk:right":"separate","startNodeId":"7950778718","endNodeId":"408185975"},"geometry":{"type":"LineString","coordinates":[[103.8073829,1.3066917],[103.8073554,1.3066988]]}},{"type":"Feature","id":"way/680905884-0-0-0","properties":{"highway":"residential","lanes":"2","lanes:backward":"1","lanes:forward":"1","lit":"yes","maxspeed":"50","name":"Peirce Road","sidewalk":"left","surface":"asphalt","startNodeId":"236461783","endNodeId":"1807296470"},"geometry":{"type":"LineString","coordinates":[[103.8098894,1.3082374],[103.8098293,1.3081365]]}},{"type":"Feature","id":"way/680905884-0-1-0","properties":{"highway":"residential","lanes":"2","lanes:backward":"1","lanes:forward":"1","lit":"yes","maxspeed":"50","name":"Peirce Road","sidewalk":"left","surface":"asphalt","startNodeId":"1807296470","endNodeId":"6375987337"},"geometry":{"type":"LineString","coordinates":[[103.8098293,1.3081365],[103.8097414,1.3080078]]}},{"type":"Feature","id":"way/681385134-0-0-0","properties":{"highway":"service","lanes":"2","lanes:backward":"1","lanes:forward":"1","turn:lanes:backward":"left;through","turn:lanes:forward":"left;right","startNodeId":"6380908852","endNodeId":"5129496596"},"geometry":{"type":"LineString","coordinates":[[103.8102818,1.3065778],[103.8102852,1.3066268]]}},{"type":"Feature","id":"way/681385134-0-1-0","properties":{"highway":"service","lanes":"2","lanes:backward":"1","lanes:forward":"1","turn:lanes:backward":"left;through","turn:lanes:forward":"left;right","startNodeId":"5129496596","endNodeId":"5129496595"},"geometry":{"type":"LineString","coordinates":[[103.8102852,1.3066268],[103.8103053,1.3066576]]}},{"type":"Feature","id":"way/681385134-0-2-0","properties":{"highway":"service","lanes":"2","lanes:backward":"1","lanes:forward":"1","turn:lanes:backward":"left;through","turn:lanes:forward":"left;right","startNodeId":"5129496595","endNodeId":"5129496594"},"geometry":{"type":"LineString","coordinates":[[103.8103053,1.3066576],[103.8103402,1.306671]]}},{"type":"Feature","id":"way/681385134-0-3-0","properties":{"highway":"service","lanes":"2","lanes:backward":"1","lanes:forward":"1","turn:lanes:backward":"left;through","turn:lanes:forward":"left;right","startNodeId":"5129496594","endNodeId":"5129496593"},"geometry":{"type":"LineString","coordinates":[[103.8103402,1.306671],[103.8104381,1.3066616]]}},{"type":"Feature","id":"way/723128630-0-0-0","properties":{"highway":"residential","lanes":"2","lanes:backward":"1","lanes:forward":"1","lit":"yes","maxspeed":"50","name":"Ridout Road","sidewalk:left":"separate","sidewalk:right":"no","startNodeId":"408185975","endNodeId":"6782682078"},"geometry":{"type":"LineString","coordinates":[[103.8073554,1.3066988],[103.8070437,1.3067501]]}},{"type":"Feature","id":"way/723128632-0-0-0","properties":{"highway":"residential","lanes":"2","lanes:backward":"1","lanes:forward":"1","maxspeed":"50","name":"Holland Road","name:en":"Holland Road","name:zh":"\u8377\u5170\u8def","sidewalk":"left","surface":"asphalt","startNodeId":"1784449620","endNodeId":"2886849469"},"geometry":{"type":"LineString","coordinates":[[103.8081893,1.3089791],[103.8080703,1.308757]]}},{"type":"Feature","id":"way/749841335-0-0-0","properties":{"highway":"residential","lanes":"2","lanes:backward":"1","lanes:forward":"1","lit":"yes","maxspeed":"50","name":"Peirce Road","sidewalk":"both","surface":"asphalt","startNodeId":"6059478950","endNodeId":"1717864325"},"geometry":{"type":"LineString","coordinates":[[103.8088002,1.3072091],[103.8082319,1.3067836]]}},{"type":"Feature","id":"way/749841336-0-0-0","properties":{"highway":"residential","lanes":"2","lanes:backward":"1","lanes:forward":"1","lit":"yes","maxspeed":"50","name":"Peirce Road","sidewalk":"both","surface":"asphalt","startNodeId":"6059478945","endNodeId":"6059478950"},"geometry":{"type":"LineString","coordinates":[[103.8089142,1.3072994],[103.8088002,1.3072091]]}},{"type":"Feature","id":"way/771251462-0-0-0","properties":{"highway":"primary","lanes":"1","maxspeed":"70","name":"Holland Road","name:en":"Holland Road","name:zh":"\u8377\u5170\u8def","oneway":"yes","sidewalk:left":"separate","sidewalk:right":"no","source":"Yahoo aerial images","surface":"asphalt","startNodeId":"243414700","endNodeId":"5963345735"},"geometry":{"type":"LineString","coordinates":[[103.8064642,1.3098235],[103.8061568,1.309903]]}},{"type":"Feature","id":"way/771251463-0-0-0","properties":{"highway":"primary","lanes":"1","lit":"yes","maxspeed":"70","name":"Holland Road","name:en":"Holland Road","name:zh":"\u8377\u5170\u8def","oneway":"yes","sidewalk:left":"separate","sidewalk:right":"no","source":"Yahoo aerial images","surface":"asphalt","startNodeId":"243414288","endNodeId":"5963345736"},"geometry":{"type":"LineString","coordinates":[[103.8063065,1.3101467],[103.8065364,1.3100588]]}},{"type":"Feature","id":"way/771251463-0-1-0","properties":{"highway":"primary","lanes":"1","lit":"yes","maxspeed":"70","name":"Holland Road","name:en":"Holland Road","name:zh":"\u8377\u5170\u8def","oneway":"yes","sidewalk:left":"separate","sidewalk:right":"no","source":"Yahoo aerial images","surface":"asphalt","startNodeId":"5963345736","endNodeId":"243414290"},"geometry":{"type":"LineString","coordinates":[[103.8065364,1.3100588],[103.8069794,1.3098676]]}},{"type":"Feature","id":"way/814872222-0-0-0","properties":{"highway":"primary","lanes":"3","lit":"yes","maxspeed":"70","name":"Holland Road","name:en":"Holland Road","name:zh":"\u8377\u5170\u8def","oneway":"yes","sidewalk:left":"separate","sidewalk:right":"no","source":"Yahoo aerial images","surface":"asphalt","startNodeId":"1717864361","endNodeId":"1784739038"},"geometry":{"type":"LineString","coordinates":[[103.8076386,1.3096267],[103.8079624,1.3095164]]}},{"type":"Feature","id":"way/814872223-0-0-0","properties":{"highway":"primary","lanes":"3","lit":"yes","maxspeed":"70","name":"Holland Road","name:en":"Holland Road","name:zh":"\u8377\u5170\u8def","oneway":"yes","sidewalk:left":"separate","sidewalk:right":"no","source":"Yahoo aerial images","surface":"asphalt","startNodeId":"1784739038","endNodeId":"236474326"},"geometry":{"type":"LineString","coordinates":[[103.8079624,1.3095164],[103.808124,1.3094603]]}},{"type":"Feature","id":"way/814872223-0-1-0","properties":{"highway":"primary","lanes":"3","lit":"yes","maxspeed":"70","name":"Holland Road","name:en":"Holland Road","name:zh":"\u8377\u5170\u8def","oneway":"yes","sidewalk:left":"separate","sidewalk:right":"no","source":"Yahoo aerial images","surface":"asphalt","startNodeId":"236474326","endNodeId":"236474561"},"geometry":{"type":"LineString","coordinates":[[103.808124,1.3094603],[103.8083376,1.3093582]]}},{"type":"Feature","id":"way/814872223-0-2-0","properties":{"highway":"primary","lanes":"3","lit":"yes","maxspeed":"70","name":"Holland Road","name:en":"Holland Road","name:zh":"\u8377\u5170\u8def","oneway":"yes","sidewalk:left":"separate","sidewalk:right":"no","source":"Yahoo aerial images","surface":"asphalt","startNodeId":"236474561","endNodeId":"1784455307"},"geometry":{"type":"LineString","coordinates":[[103.8083376,1.3093582],[103.8084204,1.3093107]]}},{"type":"Feature","id":"way/814872617-0-0-0","properties":{"highway":"primary","lanes":"3","lit":"yes","maxspeed":"70","name":"Holland Road","name:en":"Holland Road","name:zh":"\u8377\u5170\u8def","oneway":"yes","sidewalk:left":"separate","sidewalk:right":"no","source":"Yahoo aerial images","surface":"asphalt","startNodeId":"1784455307","endNodeId":"4713818343"},"geometry":{"type":"LineString","coordinates":[[103.8084204,1.3093107],[103.8086057,1.3091917]]}},{"type":"Feature","id":"way/852584633-0-0-0","properties":{"highway":"residential","lanes":"2","lanes:backward":"1","lanes:forward":"1","lit":"yes","maxspeed":"50","name":"Ridout Road","sidewalk":"left","startNodeId":"7953176566","endNodeId":"1717864369"},"geometry":{"type":"LineString","coordinates":[[103.8066674,1.3068137],[103.806318,1.3068773]]}},{"type":"Feature","id":"way/852584633-0-1-0","properties":{"highway":"residential","lanes":"2","lanes:backward":"1","lanes:forward":"1","lit":"yes","maxspeed":"50","name":"Ridout Road","sidewalk":"left","startNodeId":"1717864369","endNodeId":"11064665031"},"geometry":{"type":"LineString","coordinates":[[103.806318,1.3068773],[103.8061155,1.3069014]]}},{"type":"Feature","id":"way/852584633-0-2-0","properties":{"highway":"residential","lanes":"2","lanes:backward":"1","lanes:forward":"1","lit":"yes","maxspeed":"50","name":"Ridout Road","sidewalk":"left","startNodeId":"11064665031","endNodeId":"408187662"},"geometry":{"type":"LineString","coordinates":[[103.8061155,1.3069014],[103.8060711,1.3069067]]}},{"type":"Feature","id":"way/1052409741-0-0-0","properties":{"highway":"service","startNodeId":"9671830636","endNodeId":"9671830632"},"geometry":{"type":"LineString","coordinates":[[103.8099754,1.3074058],[103.8102584,1.3076766]]}},{"type":"Feature","id":"way/1191772428-0-0-0","properties":{"highway":"residential","lanes":"2","lanes:backward":"1","lanes:forward":"1","lit":"yes","maxspeed":"50","name":"Peirce Road","sidewalk":"both","surface":"asphalt","startNodeId":"7953093271","endNodeId":"408185957"},"geometry":{"type":"LineString","coordinates":[[103.8078785,1.3065217],[103.8078476,1.3064958]]}},{"type":"Feature","id":"way/1379221164-0-0-0","properties":{"highway":"service","oneway":"no","startNodeId":"12771272855","endNodeId":"12771272856"},"geometry":{"type":"LineString","coordinates":[[103.807847,1.3081145],[103.8080152,1.3081574]]}},{"type":"Feature","id":"way/1379221164-0-1-0","properties":{"highway":"service","oneway":"no","startNodeId":"12771272856","endNodeId":"12771272857"},"geometry":{"type":"LineString","coordinates":[[103.8080152,1.3081574],[103.8080465,1.3082043]]}},{"type":"Feature","id":"way/1379221164-0-2-0","properties":{"highway":"service","oneway":"no","startNodeId":"12771272857","endNodeId":"12771272858"},"geometry":{"type":"LineString","coordinates":[[103.8080465,1.3082043],[103.8080349,1.3082646]]}},{"type":"Feature","id":"way/1379221164-0-3-0","properties":{"highway":"service","oneway":"no","startNodeId":"12771272858","endNodeId":"12771272859"},"geometry":{"type":"LineString","coordinates":[[103.8080349,1.3082646],[103.8079034,1.3086277]]}},{"type":"Feature","id":"way/1467559113-0-0-0","properties":{"highway":"service","oneway":"yes","startNodeId":"13460132842","endNodeId":"13460132843"},"geometry":{"type":"LineString","coordinates":[[103.8091779,1.3082427],[103.80913,1.3081487]]}},{"type":"Feature","id":"way/1467559113-0-1-0","properties":{"highway":"service","oneway":"yes","startNodeId":"13460132843","endNodeId":"13460132844"},"geometry":{"type":"LineString","coordinates":[[103.80913,1.3081487],[103.809079,1.3081113]]}},{"type":"Feature","id":"way/1467559113-0-2-0","properties":{"highway":"service","oneway":"yes","startNodeId":"13460132844","endNodeId":"13460132845"},"geometry":{"type":"LineString","coordinates":[[103.809079,1.3081113],[103.8090534,1.3081138]]}},{"type":"Feature","id":"way/1467559113-0-3-0","properties":{"highway":"service","oneway":"yes","startNodeId":"13460132845","endNodeId":"13460132846"},"geometry":{"type":"LineString","coordinates":[[103.8090534,1.3081138],[103.8089986,1.3081628]]}},{"type":"Feature","id":"way/1467559113-0-4-0","properties":{"highway":"service","oneway":"yes","startNodeId":"13460132846","endNodeId":"13460132847"},"geometry":{"type":"LineString","coordinates":[[103.8089986,1.3081628],[103.8090536,1.3082135]]}},{"type":"Feature","id":"way/1467559114-0-0-0","properties":{"highway":"service","startNodeId":"13460132839","endNodeId":"5963345741"},"geometry":{"type":"LineString","coordinates":[[103.8092329,1.3086589],[103.809194,1.3085854]]}},{"type":"Feature","id":"way/1467559114-0-1-0","properties":{"highway":"service","startNodeId":"5963345741","endNodeId":"13460132840"},"geometry":{"type":"LineString","coordinates":[[103.809194,1.3085854],[103.8091674,1.3085232]]}},{"type":"Feature","id":"way/1467559114-0-2-0","properties":{"highway":"service","startNodeId":"13460132840","endNodeId":"13460132841"},"geometry":{"type":"LineString","coordinates":[[103.8091674,1.3085232],[103.8091798,1.3083458]]}},{"type":"Feature","id":"way/1467559115-0-0-0","properties":{"highway":"service","oneway":"yes","startNodeId":"13460132848","endNodeId":"13460132841"},"geometry":{"type":"LineString","coordinates":[[103.8091353,1.3082943],[103.8091798,1.3083458]]}},{"type":"Feature","id":"way/1467559115-0-1-0","properties":{"highway":"service","oneway":"yes","startNodeId":"13460132841","endNodeId":"13460132842"},"geometry":{"type":"LineString","coordinates":[[103.8091798,1.3083458],[103.8091779,1.3082427]]}},{"type":"Feature","id":"way/1467559116-0-0-0","properties":{"highway":"service","layer":"-1","oneway":"yes","tunnel":"yes","startNodeId":"13460132847","endNodeId":"13460132848"},"geometry":{"type":"LineString","coordinates":[[103.8090536,1.3082135],[103.8091353,1.3082943]]}},{"type":"Feature","id":"way/1467559118-0-0-0","properties":{"highway":"service","startNodeId":"13460132853","endNodeId":"13460132854"},"geometry":{"type":"LineString","coordinates":[[103.8097239,1.3079882],[103.8097659,1.3079515]]}},{"type":"Feature","id":"way/1467559118-0-1-0","properties":{"highway":"service","startNodeId":"13460132854","endNodeId":"13460132857"},"geometry":{"type":"LineString","coordinates":[[103.8097659,1.3079515],[103.8098289,1.3079046]]}},{"type":"Feature","id":"way/1467559118-0-2-0","properties":{"highway":"service","startNodeId":"13460132857","endNodeId":"13460132855"},"geometry":{"type":"LineString","coordinates":[[103.8098289,1.3079046],[103.8098688,1.3078731]]}},{"type":"Feature","id":"way/1467559118-0-3-0","properties":{"highway":"service","startNodeId":"13460132855","endNodeId":"13460132856"},"geometry":{"type":"LineString","coordinates":[[103.8098688,1.3078731],[103.8098287,1.3078091]]}}]}