{"type":"FeatureCollection","features":[{"type":"Feature","id":"way/125278549-0","properties":{"building":"yes"},"geometry":{"type":"Polygon","coordinates":[[[103.8038968,1.4635277],[103.8039291,1.4634794],[103.8038281,1.4634119],[103.8038846,1.4633272],[103.8038286,1.4632898],[103.8037397,1.4634228],[103.8038968,1.4635277]]]}},{"type":"Feature","id":"way/125278550-0","properties":{"addr:housenumber":"20","addr:street":"Senoko Road","building":"industrial"},"geometry":{"type":"Polygon","coordinates":[[[103.8037314,1.4633648],[103.8038101,1.4632383],[103.8035786,1.4630944],[103.8035382,1.4631594],[103.8034712,1.4631178],[103.8034329,1.4631793],[103.8037314,1.4633648]]]}},{"type":"Feature","id":"way/125278557-0","properties":{"building":"yes"},"geometry":{"type":"Polygon","coordinates":[[[103.8034807,1.4634121],[103.80352,1.4633522],[103.8033731,1.4632557],[103.8033338,1.4633156],[103.8034807,1.4634121]]]}},{"type":"Feature","id":"way/125278558-0","properties":{"building":"yes"},"geometry":{"type":"Polygon","coordinates":[[[103.8034018,1.4635299],[103.8034587,1.4634466],[103.8033167,1.4633497],[103.8032598,1.463433],[103.8034018,1.4635299]]]}},{"type":"Feature","id":"way/125278560-0","properties":{"building":"yes"},"geometry":{"type":"Polygon","coordinates":[[[103.8036954,1.4637183],[103.8037957,1.4635679],[103.8036244,1.4634537],[103.8035241,1.4636041],[103.8036954,1.4637183]]]}},{"type":"Feature","id":"way/170839148-0","properties":{"addr:housenumber":"31","addr:street":"Senoko Road","building":"warehouse","name":"Tee Yih Jia Food Hub"},"geometry":{"type":"Polygon","coordinates":[[[103.8023519,1.4638342],[103.8029461,1.462929],[103.8013543,1.4618847],[103.80076,1.4627902],[103.8023519,1.4638342]]]}},{"type":"Feature","id":"way/170841509-0","properties":{"building":"yes"},"geometry":{"type":"Polygon","coordinates":[[[103.8016089,1.4615147],[103.8021427,1.4618656],[103.8023428,1.4615614],[103.801809,1.4612105],[103.8016089,1.4615147]]]}},{"type":"Feature","id":"way/170841525-0","properties":{"addr:housenumber":"15","addr:street":"Senoko Loop","building":"industrial"},"geometry":{"type":"Polygon","coordinates":[[[103.8024551,1.4594166],[103.8030079,1.4597701],[103.8034197,1.4591265],[103.8033086,1.4590555],[103.8033293,1.4590232],[103.8030658,1.4588548],[103.8030926,1.4588129],[103.8029143,1.4586989],[103.8024551,1.4594166]]]}},{"type":"Feature","id":"way/170841572-0","properties":{"addr:housenumber":"12","addr:street":"Senoko Loop","building":"industrial"},"geometry":{"type":"Polygon","coordinates":[[[103.801548,1.4593724],[103.8013323,1.4597446],[103.8017199,1.4599692],[103.8019357,1.459597],[103.801548,1.4593724]]]}},{"type":"Feature","id":"way/171176015-0","properties":{"addr:city":"Singapore","addr:country":"SG","addr:housenumber":"1","addr:postcode":"758134","addr:street":"Senoko Road","building":"yes","building:levels":"7","name":"Tee Yih Jia Bldg"},"geometry":{"type":"Polygon","coordinates":[[[103.803401,1.4597869],[103.8036595,1.4599528],[103.8036036,1.4600398],[103.8036435,1.4600654],[103.8036034,1.4601278],[103.8043678,1.4606185],[103.8045899,1.4602728],[103.8037959,1.4597632],[103.803856,1.4596695],[103.8036609,1.4595442],[103.8036766,1.4595198],[103.8036029,1.4594725],[103.803401,1.4597869]]]}},{"type":"Feature","id":"way/171176021-0","properties":{"addr:city":"Singapore","addr:country":"SG","addr:housenumber":"2","addr:street":"Senoko South Road","building":"industrial","building:levels":"6","name":"Super Industrial Building"},"geometry":{"type":"Polygon","coordinates":[[[103.8048481,1.4588913],[103.8045674,1.4592502],[103.8051027,1.4596686],[103.8053834,1.4593097],[103.8048481,1.4588913]]]}},{"type":"Feature","id":"way/171633037-0","properties":{"addr:city":"Singapore","addr:country":"SG","addr:housenumber":"38","addr:street":"Senoko Drive","building":"industrial"},"geometry":{"type":"Polygon","coordinates":[[[103.8046542,1.4628805],[103.8046123,1.4628508],[103.8045147,1.4627941],[103.8043175,1.4631174],[103.8044554,1.463204],[103.8046542,1.4628805]]]}},{"type":"Feature","id":"way/171633038-0","properties":{"addr:city":"Singapore","addr:country":"SG","addr:street":"Senoko Drive","building":"industrial"},"geometry":{"type":"Polygon","coordinates":[[[103.8049384,1.4630451],[103.8050733,1.4631373],[103.805154,1.4630078],[103.8051696,1.4629841],[103.8050344,1.4628967],[103.8049384,1.4630451]]]}},{"type":"Feature","id":"way/171633040-0","properties":{"addr:city":"Singapore","addr:country":"SG","addr:street":"Senoko Drive","building":"industrial"},"geometry":{"type":"Polygon","coordinates":[[[103.8053596,1.4634492],[103.8052833,1.4634039],[103.8051454,1.4636362],[103.8052217,1.4636815],[103.8053596,1.4634492]]]}},{"type":"Feature","id":"way/171633041-0","properties":{"addr:city":"Singapore","addr:country":"SG","addr:street":"Senoko Drive","building":"industrial"},"geometry":{"type":"Polygon","coordinates":[[[103.8039031,1.4628513],[103.8038539,1.4629319],[103.803987,1.4630191],[103.8040384,1.4629408],[103.8039031,1.4628513]]]}},{"type":"Feature","id":"way/171633043-0","properties":{"addr:city":"Singapore","addr:country":"SG","addr:housenumber":"48","addr:street":"Senoko Drive","building":"industrial"},"geometry":{"type":"Polygon","coordinates":[[[103.8052833,1.4634039],[103.8053454,1.4633085],[103.8052023,1.4632173],[103.8049912,1.4635483],[103.8051454,1.4636362],[103.8052833,1.4634039]]]}},{"type":"Feature","id":"way/171633044-0","properties":{"addr:city":"Singapore","addr:country":"SG","addr:housenumber":"30","addr:street":"Senoko Drive","building":"industrial"},"geometry":{"type":"Polygon","coordinates":[[[103.8039031,1.4628513],[103.8041223,1.4625165],[103.8039695,1.4624299],[103.8037627,1.4627622],[103.8039031,1.4628513]]]}},{"type":"Feature","id":"way/171633046-0","properties":{"addr:city":"Singapore","addr:country":"SG","addr:street":"Senoko Drive","building":"industrial"},"geometry":{"type":"Polygon","coordinates":[[[103.8043329,1.4624732],[103.8042493,1.4626123],[103.8043887,1.4627003],[103.8044731,1.4625636],[103.8043329,1.4624732]]]}},{"type":"Feature","id":"way/171633047-0","properties":{"addr:city":"Singapore","addr:country":"SG","addr:housenumber":"34","addr:street":"Senoko Drive","building":"industrial"},"geometry":{"type":"Polygon","coordinates":[[[103.8042493,1.4626123],[103.8040384,1.4629408],[103.8041738,1.463029],[103.8043887,1.4627003],[103.8042493,1.4626123]]]}},{"type":"Feature","id":"way/171633049-0","properties":{"addr:city":"Singapore","addr:country":"SG","addr:housenumber":"32","addr:street":"Senoko Drive","building":"industrial"},"geometry":{"type":"Polygon","coordinates":[[[103.8041223,1.4625165],[103.8039031,1.4628513],[103.8040384,1.4629408],[103.8042493,1.4626123],[103.8041223,1.4625165]]]}},{"type":"Feature","id":"way/171633051-0","properties":{"addr:city":"Singapore","addr:country":"SG","addr:street":"Senoko Drive","building":"industrial"},"geometry":{"type":"Polygon","coordinates":[[[103.8047227,1.4633753],[103.8045861,1.4632891],[103.8045381,1.4633621],[103.8046707,1.4634493],[103.8047227,1.4633753]]]}},{"type":"Feature","id":"way/171633053-0","properties":{"addr:city":"Singapore","addr:country":"SG","addr:street":"Senoko Drive","building":"industrial"},"geometry":{"type":"Polygon","coordinates":[[[103.8040384,1.4629408],[103.803987,1.4630191],[103.8041216,1.4631075],[103.8041738,1.463029],[103.8040384,1.4629408]]]}},{"type":"Feature","id":"way/171633054-0","properties":{"addr:city":"Singapore","addr:country":"SG","addr:street":"Senoko Drive","building":"industrial"},"geometry":{"type":"Polygon","coordinates":[[[103.8042056,1.4623898],[103.8041223,1.4625165],[103.8042493,1.4626123],[103.8043329,1.4624732],[103.8042056,1.4623898]]]}},{"type":"Feature","id":"way/171633059-0","properties":{"addr:city":"Singapore","addr:country":"SG","addr:street":"Senoko Drive","building":"industrial"},"geometry":{"type":"Polygon","coordinates":[[[103.8044731,1.4625636],[103.8043887,1.4627003],[103.8045147,1.4627941],[103.804605,1.462639],[103.8044731,1.4625636]]]}},{"type":"Feature","id":"way/171633060-0","properties":{"addr:city":"Singapore","addr:country":"SG","addr:housenumber":"42","addr:street":"Senoko Drive","building":"industrial"},"geometry":{"type":"Polygon","coordinates":[[[103.804793,1.4629578],[103.8045861,1.4632891],[103.8047227,1.4633753],[103.8049384,1.4630451],[103.804793,1.4629578]]]}},{"type":"Feature","id":"way/171633061-0","properties":{"addr:city":"Singapore","addr:country":"SG","addr:housenumber":"44","addr:street":"Senoko Drive","building":"industrial"},"geometry":{"type":"Polygon","coordinates":[[[103.8050733,1.4631373],[103.8049384,1.4630451],[103.8047227,1.4633753],[103.8048639,1.4634661],[103.8050733,1.4631373]]]}},{"type":"Feature","id":"way/171633062-0","properties":{"addr:city":"Singapore","addr:country":"SG","addr:street":"Senoko Drive","building":"industrial"},"geometry":{"type":"Polygon","coordinates":[[[103.805154,1.4630078],[103.8050733,1.4631373],[103.8052023,1.4632173],[103.8052831,1.4630882],[103.805154,1.4630078]]]}},{"type":"Feature","id":"way/171633064-0","properties":{"addr:city":"Singapore","addr:country":"SG","addr:street":"Senoko Drive","building":"industrial"},"geometry":{"type":"Polygon","coordinates":[[[103.804724,1.4627608],[103.8046542,1.4628805],[103.804793,1.4629578],[103.8048639,1.4628424],[103.804724,1.4627608]]]}},{"type":"Feature","id":"way/171633066-0","properties":{"addr:city":"Singapore","addr:country":"SG","addr:street":"Senoko Drive","building":"industrial"},"geometry":{"type":"Polygon","coordinates":[[[103.804605,1.462639],[103.8045147,1.4627941],[103.8046123,1.4628508],[103.804629,1.4628221],[103.8046704,1.4628462],[103.804724,1.4627608],[103.804744,1.4627198],[103.804605,1.462639]]]}},{"type":"Feature","id":"way/171633071-0","properties":{"addr:city":"Singapore","addr:country":"SG","addr:housenumber":"36","addr:street":"Senoko Drive","building":"industrial"},"geometry":{"type":"Polygon","coordinates":[[[103.8045147,1.4627941],[103.8043887,1.4627003],[103.8041738,1.463029],[103.8043175,1.4631174],[103.8045147,1.4627941]]]}},{"type":"Feature","id":"way/171633072-0","properties":{"addr:city":"Singapore","addr:country":"SG","addr:housenumber":"40","addr:street":"Senoko Drive","building":"industrial"},"geometry":{"type":"Polygon","coordinates":[[[103.804793,1.4629578],[103.8046542,1.4628805],[103.8044554,1.463204],[103.8045861,1.4632891],[103.804793,1.4629578]]]}},{"type":"Feature","id":"way/171633073-0","properties":{"addr:city":"Singapore","addr:country":"SG","addr:housenumber":"46","addr:street":"Senoko Drive","building":"industrial"},"geometry":{"type":"Polygon","coordinates":[[[103.8052023,1.4632173],[103.8050733,1.4631373],[103.8048639,1.4634661],[103.8049912,1.4635483],[103.8052023,1.4632173]]]}},{"type":"Feature","id":"way/171633826-0","properties":{"addr:city":"Singapore","addr:country":"SG","addr:street":"Senoko Drive","building":"industrial"},"geometry":{"type":"Polygon","coordinates":[[[103.8059877,1.4634572],[103.8058572,1.4636517],[103.8060012,1.4637396],[103.8061249,1.4635513],[103.8059877,1.4634572]]]}},{"type":"Feature","id":"way/171633828-0","properties":{"addr:city":"Singapore","addr:country":"SG","addr:housenumber":"52","addr:street":"Senoko Drive","building":"industrial"},"geometry":{"type":"Polygon","coordinates":[[[103.805515,1.4638746],[103.8057128,1.4635636],[103.8058572,1.4636517],[103.8059877,1.4634572],[103.8057832,1.4633225],[103.8054439,1.4638335],[103.805515,1.4638746]]]}},{"type":"Feature","id":"way/171633831-0","properties":{"addr:city":"Singapore","addr:country":"SG","addr:housenumber":"50","addr:street":"Senoko Drive","building":"industrial"},"geometry":{"type":"Polygon","coordinates":[[[103.8053308,1.4638301],[103.8053874,1.4637414],[103.8054303,1.4637688],[103.805743,1.4632791],[103.8056495,1.4632195],[103.805542,1.4633878],[103.8054828,1.46335],[103.805221,1.4637601],[103.8053308,1.4638301]]]}},{"type":"Feature","id":"way/171636061-0","properties":{"building":"industrial"},"geometry":{"type":"Polygon","coordinates":[[[103.8058479,1.4629339],[103.8060007,1.4627051],[103.8059469,1.4626692],[103.8057941,1.462898],[103.8058479,1.4629339]]]}},{"type":"Feature","id":"way/171636067-0","properties":{"addr:housenumber":"22","addr:street":"Senoko Crescent","building":"industrial"},"geometry":{"type":"Polygon","coordinates":[[[103.8059278,1.4631107],[103.8061345,1.4627926],[103.8060007,1.4627051],[103.8058479,1.4629339],[103.8057975,1.4630202],[103.8059278,1.4631107]]]}},{"type":"Feature","id":"way/171636068-0","properties":{"building":"industrial"},"geometry":{"type":"Polygon","coordinates":[[[103.8059278,1.4631107],[103.8057975,1.4630202],[103.8057202,1.4631316],[103.8058504,1.463222],[103.8059278,1.4631107]]]}},{"type":"Feature","id":"way/171638412-0","properties":{"addr:housenumber":"14","addr:street":"Senoko Crescent","building":"industrial"},"geometry":{"type":"Polygon","coordinates":[[[103.8049939,1.4626586],[103.8049615,1.4627092],[103.805096,1.4627955],[103.8051983,1.4626362],[103.8050637,1.4625499],[103.8049939,1.4626586]]]}},{"type":"Feature","id":"way/171638414-0","properties":{"building":"industrial"},"geometry":{"type":"Polygon","coordinates":[[[103.8054002,1.4629192],[103.8055888,1.4630402],[103.8056977,1.4628705],[103.8056449,1.4628366],[103.8056058,1.4628976],[103.80547,1.4628105],[103.8054002,1.4629192]]]}},{"type":"Feature","id":"way/171638415-0","properties":{"building":"industrial"},"geometry":{"type":"Polygon","coordinates":[[[103.8057418,1.4626856],[103.8056449,1.4628366],[103.8056977,1.4628705],[103.8057946,1.4627195],[103.8057418,1.4626856]]]}},{"type":"Feature","id":"way/171638416-0","properties":{"addr:housenumber":"16","addr:street":"Senoko Crescent","building":"industrial"},"geometry":{"type":"Polygon","coordinates":[[[103.8053332,1.4627228],[103.8055426,1.4623966],[103.8054076,1.46231],[103.8051983,1.4626362],[103.8053332,1.4627228]]]}},{"type":"Feature","id":"way/171638417-0","properties":{"addr:housenumber":"20","addr:street":"Senoko Crescent","building":"industrial"},"geometry":{"type":"Polygon","coordinates":[[[103.8056793,1.4624843],[103.80547,1.4628105],[103.8056058,1.4628976],[103.8056449,1.4628366],[103.8057418,1.4626856],[103.8058151,1.4625714],[103.8056793,1.4624843]]]}},{"type":"Feature","id":"way/171638419-0","properties":{"addr:housenumber":"18","addr:street":"Senoko Crescent","building":"industrial"},"geometry":{"type":"Polygon","coordinates":[[[103.8053332,1.4627228],[103.80547,1.4628105],[103.8056793,1.4624843],[103.8055426,1.4623966],[103.8053332,1.4627228]]]}},{"type":"Feature","id":"way/171638421-0","properties":{"addr:housenumber":"14","addr:street":"Senoko Crescent","building":"industrial"},"geometry":{"type":"Polygon","coordinates":[[[103.8050637,1.4625499],[103.8051983,1.4626362],[103.8054076,1.46231],[103.805273,1.4622237],[103.8050637,1.4625499]]]}},{"type":"Feature","id":"way/171638423-0","properties":{"addr:housenumber":"12","addr:street":"Senoko Crescent","building":"industrial"},"geometry":{"type":"Polygon","coordinates":[[[103.8050637,1.4625499],[103.805273,1.4622237],[103.805137,1.4621364],[103.8049276,1.4624626],[103.8050637,1.4625499]]]}},{"type":"Feature","id":"way/171638425-0","properties":{"building":"industrial"},"geometry":{"type":"Polygon","coordinates":[[[103.805231,1.462882],[103.8053677,1.4629697],[103.8054002,1.4629192],[103.80547,1.4628105],[103.8053332,1.4627228],[103.805231,1.462882]]]}},{"type":"Feature","id":"way/171638427-0","properties":{"building":"industrial"},"geometry":{"type":"Polygon","coordinates":[[[103.8055426,1.4623966],[103.8056793,1.4624843],[103.8057063,1.4624422],[103.8056565,1.4624103],[103.8056742,1.4623826],[103.8055873,1.4623269],[103.8055426,1.4623966]]]}},{"type":"Feature","id":"way/171640504-0","properties":{"building":"industrial"},"geometry":{"type":"Polygon","coordinates":[[[103.8042951,1.4622405],[103.8043786,1.4621105],[103.8042358,1.4620189],[103.8041739,1.4619792],[103.8041483,1.4620191],[103.8042836,1.4621059],[103.8042258,1.462196],[103.8042951,1.4622405]]]}},{"type":"Feature","id":"way/171640505-0","properties":{"addr:housenumber":"4","addr:street":"Senoko Crescent","building":"industrial"},"geometry":{"type":"Polygon","coordinates":[[[103.804521,1.4622018],[103.8047303,1.4618756],[103.8045879,1.4617843],[103.8043786,1.4621105],[103.804521,1.4622018]]]}},{"type":"Feature","id":"way/171640506-0","properties":{"addr:housenumber":"10","addr:street":"Senoko Crescent","building":"industrial"},"geometry":{"type":"Polygon","coordinates":[[[103.8049276,1.4624626],[103.805137,1.4621364],[103.8049965,1.4620463],[103.8047871,1.4623725],[103.8049276,1.4624626]]]}},{"type":"Feature","id":"way/171640507-0","properties":{"building":"industrial"},"geometry":{"type":"Polygon","coordinates":[[[103.8046874,1.4625279],[103.8048279,1.462618],[103.8048579,1.4625713],[103.8049276,1.4624626],[103.8047871,1.4623725],[103.8047482,1.4624331],[103.8046874,1.4625279]]]}},{"type":"Feature","id":"way/171640508-0","properties":{"building":"industrial"},"geometry":{"type":"Polygon","coordinates":[[[103.8044375,1.4623318],[103.804521,1.4622018],[103.8043786,1.4621105],[103.8042951,1.4622405],[103.8044375,1.4623318]]]}},{"type":"Feature","id":"way/171640509-0","properties":{"addr:housenumber":"6","addr:street":"Senoko Crescent","building":"industrial"},"geometry":{"type":"Polygon","coordinates":[[[103.8046532,1.4622866],[103.8048625,1.4619604],[103.8047303,1.4618756],[103.804521,1.4622018],[103.8046532,1.4622866]]]}},{"type":"Feature","id":"way/171640511-0","properties":{"building":"industrial"},"geometry":{"type":"Polygon","coordinates":[[[103.8045697,1.4624166],[103.8046532,1.4622866],[103.804521,1.4622018],[103.8044375,1.4623318],[103.8045697,1.4624166]]]}},{"type":"Feature","id":"way/171640512-0","properties":{"addr:housenumber":"8","addr:street":"Senoko Crescent","building":"industrial"},"geometry":{"type":"Polygon","coordinates":[[[103.8047871,1.4623725],[103.8049965,1.4620463],[103.8048625,1.4619604],[103.8046532,1.4622866],[103.8047871,1.4623725]]]}},{"type":"Feature","id":"way/171640513-0","properties":{"building":"industrial"},"geometry":{"type":"Polygon","coordinates":[[[103.8042358,1.4620189],[103.8044451,1.4616927],[103.8043832,1.461653],[103.8041739,1.4619792],[103.8042358,1.4620189]]]}},{"type":"Feature","id":"way/171640514-0","properties":{"building":"industrial"},"geometry":{"type":"Polygon","coordinates":[[[103.8046874,1.4625279],[103.8047482,1.4624331],[103.8047871,1.4623725],[103.8046532,1.4622866],[103.8045697,1.4624166],[103.8045534,1.462442],[103.8046384,1.4624965],[103.8046874,1.4625279]]]}},{"type":"Feature","id":"way/171640515-0","properties":{"addr:housenumber":"2","addr:street":"Senoko Crescent","building":"industrial"},"geometry":{"type":"Polygon","coordinates":[[[103.8043786,1.4621105],[103.8045879,1.4617843],[103.8044451,1.4616927],[103.8042358,1.4620189],[103.8043786,1.4621105]]]}},{"type":"Feature","id":"way/452639479-0","properties":{"building":"yes"},"geometry":{"type":"Polygon","coordinates":[[[103.8042764,1.4610024],[103.8043898,1.4608283],[103.8035697,1.4602949],[103.8034564,1.460469],[103.8042764,1.4610024]]]}},{"type":"Feature","id":"way/452639480-0","properties":{"building":"yes"},"geometry":{"type":"Polygon","coordinates":[[[103.8037527,1.4611133],[103.8038788,1.4609195],[103.8033665,1.4605863],[103.8032404,1.4607801],[103.8037527,1.4611133]]]}},{"type":"Feature","id":"way/452639481-0","properties":{"building":"yes"},"geometry":{"type":"Polygon","coordinates":[[[103.804035,1.4614635],[103.8031248,1.4608925],[103.8025343,1.4618335],[103.8034444,1.4624043],[103.804035,1.4614635]]]}},{"type":"Feature","id":"way/546210559-0","properties":{"building":"yes"},"geometry":{"type":"Polygon","coordinates":[[[103.8031116,1.459974],[103.8035475,1.459301],[103.8034576,1.4592429],[103.8030218,1.4599159],[103.8031116,1.459974]]]}},{"type":"Feature","id":"way/770976025-0","properties":{"building":"industrial"},"geometry":{"type":"Polygon","coordinates":[[[103.805244,1.4605644],[103.8050911,1.460794],[103.8051372,1.4608247],[103.8052901,1.4605951],[103.805244,1.4605644]]]}},{"type":"Feature","id":"way/770976026-0","properties":{"building":"industrial"},"geometry":{"type":"Polygon","coordinates":[[[103.8050087,1.4607859],[103.8049497,1.4607524],[103.8049154,1.4608128],[103.8049744,1.4608463],[103.8050087,1.4607859]]]}},{"type":"Feature","id":"way/770976027-0","properties":{"addr:country":"SG","addr:housenumber":"1D","addr:street":"Senoko Crescent","building":"industrial"},"geometry":{"type":"Polygon","coordinates":[[[103.8057264,1.4613264],[103.8059728,1.4609566],[103.8058391,1.4608676],[103.805824,1.4608903],[103.8055928,1.4612374],[103.8057264,1.4613264]]]}},{"type":"Feature","id":"way/770976028-0","properties":{"addr:country":"SG","addr:housenumber":"1C","addr:street":"Senoko Crescent","building":"industrial"},"geometry":{"type":"Polygon","coordinates":[[[103.805824,1.4608903],[103.8056982,1.4608066],[103.805467,1.4611536],[103.8055928,1.4612374],[103.805824,1.4608903]]]}},{"type":"Feature","id":"way/770976030-0","properties":{"addr:country":"SG","addr:housenumber":"1F","addr:street":"Senoko Crescent","building":"industrial"},"geometry":{"type":"Polygon","coordinates":[[[103.8059822,1.4614966],[103.806251,1.4610931],[103.8061168,1.4610038],[103.8061059,1.4610201],[103.805848,1.4614073],[103.8059822,1.4614966]]]}},{"type":"Feature","id":"way/770976031-0","properties":{"addr:country":"SG","addr:housenumber":"1E","addr:street":"Senoko Crescent","building":"industrial"},"geometry":{"type":"Polygon","coordinates":[[[103.805848,1.4614073],[103.8061059,1.4610201],[103.8059844,1.4609392],[103.8059728,1.4609566],[103.8057264,1.4613264],[103.805848,1.4614073]]]}},{"type":"Feature","id":"way/770976032-0","properties":{"addr:country":"SG","addr:housenumber":"1B","addr:street":"Senoko Crescent","building":"industrial"},"geometry":{"type":"Polygon","coordinates":[[[103.805467,1.4611536],[103.8056982,1.4608066],[103.8055764,1.4607255],[103.8055581,1.4607531],[103.8053452,1.4610726],[103.805467,1.4611536]]]}},{"type":"Feature","id":"way/770976033-0","properties":{"addr:country":"SG","addr:housenumber":"1A","addr:street":"Senoko Crescent","building":"industrial"},"geometry":{"type":"Polygon","coordinates":[[[103.8053452,1.4610726],[103.8055581,1.4607531],[103.8054262,1.4606653],[103.8054167,1.4606794],[103.8052133,1.4609847],[103.8053452,1.4610726]]]}},{"type":"Feature","id":"way/770976034-0","properties":{"addr:country":"SG","addr:housenumber":"1","addr:street":"Senoko Crescent","building":"industrial"},"geometry":{"type":"Polygon","coordinates":[[[103.8052133,1.4609847],[103.8054167,1.4606794],[103.8052901,1.4605951],[103.8051372,1.4608247],[103.8050867,1.4609004],[103.8052133,1.4609847]]]}},{"type":"Feature","id":"way/770976035-0","properties":{"addr:country":"SG","addr:housenumber":"3","addr:street":"Senoko Crescent","building":"industrial"},"geometry":{"type":"Polygon","coordinates":[[[103.8050334,1.4609924],[103.804957,1.4611037],[103.8048041,1.4610179],[103.8046686,1.4612338],[103.8046815,1.4613427],[103.8048015,1.4614126],[103.8050624,1.4610093],[103.8050334,1.4609924]]]}},{"type":"Feature","id":"way/770976036-0","properties":{"addr:country":"SG","addr:housenumber":"3A","addr:street":"Senoko Crescent","building":"industrial"},"geometry":{"type":"Polygon","coordinates":[[[103.8050394,1.4611565],[103.8051133,1.4610422],[103.8050624,1.4610093],[103.8048015,1.4614126],[103.8049505,1.4615089],[103.8051375,1.4612199],[103.8050394,1.4611565]]]}},{"type":"Feature","id":"way/770976037-0","properties":{"addr:country":"SG","addr:housenumber":"3B","addr:street":"Senoko Crescent","building":"industrial"},"geometry":{"type":"Polygon","coordinates":[[[103.8053465,1.461196],[103.8052739,1.4613081],[103.8051375,1.4612199],[103.8049505,1.4615089],[103.8051225,1.4616201],[103.805382,1.4612189],[103.8053465,1.461196]]]}},{"type":"Feature","id":"way/770976038-0","properties":{"addr:country":"SG","addr:housenumber":"3C","addr:street":"Senoko Crescent","building":"industrial"},"geometry":{"type":"Polygon","coordinates":[[[103.8053571,1.4613589],[103.8054283,1.4612488],[103.805382,1.4612189],[103.8051225,1.4616201],[103.8052762,1.4617195],[103.8054645,1.4614284],[103.8053571,1.4613589]]]}},{"type":"Feature","id":"way/770976039-0","properties":{"addr:country":"SG","addr:housenumber":"3D","addr:street":"Senoko Crescent","building":"industrial"},"geometry":{"type":"Polygon","coordinates":[[[103.8056648,1.4614051],[103.8055951,1.4615128],[103.8054645,1.4614284],[103.8052762,1.4617195],[103.8054421,1.4618268],[103.8057001,1.4614279],[103.8056648,1.4614051]]]}},{"type":"Feature","id":"way/770976040-0","properties":{"addr:country":"SG","addr:housenumber":"3E","addr:street":"Senoko Crescent","building":"industrial"},"geometry":{"type":"Polygon","coordinates":[[[103.8056777,1.461566],[103.8057474,1.4614584],[103.8057001,1.4614279],[103.8054421,1.4618268],[103.8056036,1.4619311],[103.805792,1.4616399],[103.8056777,1.461566]]]}},{"type":"Feature","id":"way/770976041-0","properties":{"addr:country":"SG","addr:housenumber":"3F","addr:street":"Senoko Crescent","building":"industrial"},"geometry":{"type":"Polygon","coordinates":[[[103.8058354,1.4616668],[103.8059262,1.4615292],[103.8058833,1.4615015],[103.805792,1.4616399],[103.8056036,1.4619311],[103.8057646,1.4620352],[103.8059535,1.4617432],[103.8058354,1.4616668]]]}},{"type":"Feature","id":"way/770976042-0","properties":{"building":"industrial"},"geometry":{"type":"Polygon","coordinates":[[[103.805096,1.4627955],[103.805231,1.462882],[103.8053332,1.4627228],[103.8051983,1.4626362],[103.805096,1.4627955]]]}},{"type":"Feature","id":"way/770976043-0","properties":{"building":"industrial"},"geometry":{"type":"Polygon","coordinates":[[[103.8048579,1.4625713],[103.8049939,1.4626586],[103.8050637,1.4625499],[103.8049276,1.4624626],[103.8048579,1.4625713]]]}},{"type":"Feature","id":"way/130361372-0-0-0","properties":{"access":"yes","highway":"unclassified","lanes":"2","maxspeed":"50","name":"Senoko Road","oneway":"yes","surface":"asphalt","turn:lanes":"left;through|through"},"geometry":{"type":"LineString","coordinates":[[103.8039533,1.4620938],[103.8042569,1.4616051]]}},{"type":"Feature","id":"way/130361372-0-1-0","properties":{"access":"yes","highway":"unclassified","lanes":"2","maxspeed":"50","name":"Senoko Road","oneway":"yes","surface":"asphalt","turn:lanes":"left;through|through"},"geometry":{"type":"LineString","coordinates":[[103.8042569,1.4616051],[103.8042703,1.4615234]]}},{"type":"Feature","id":"way/176174599-0-0-0","properties":{"access":"yes","highway":"unclassified","horse":"no","lanes":"4","lanes:backward":"2","lanes:forward":"2","maxspeed":"50","name":"Senoko Road","surface":"asphalt"},"geometry":{"type":"LineString","coordinates":[[103.8030218,1.4634566],[103.8029052,1.4636454]]}},{"type":"Feature","id":"way/176305409-0-0-0","properties":{"highway":"primary","lanes":"2","maxspeed":"70","name":"Admiralty Road West","name:en":"Admiralty Road West","name:zh":"\u6d77\u519b\u90e8\u897f\u8def","oneway":"yes","smoothness":"excellent","source":"Yahoo aerial images","surface":"asphalt"},"geometry":{"type":"LineString","coordinates":[[103.8048287,1.4598483],[103.8047062,1.4597462]]}},{"type":"Feature","id":"way/176305409-0-1-0","properties":{"highway":"primary","lanes":"2","maxspeed":"70","name":"Admiralty Road West","name:en":"Admiralty Road West","name:zh":"\u6d77\u519b\u90e8\u897f\u8def","oneway":"yes","smoothness":"excellent","source":"Yahoo aerial images","surface":"asphalt"},"geometry":{"type":"LineString","coordinates":[[103.8047062,1.4597462],[103.8044072,1.4594781]]}},{"type":"Feature","id":"way/176305409-0-2-0","properties":{"highway":"primary","lanes":"2","maxspeed":"70","name":"Admiralty Road West","name:en":"Admiralty Road West","name:zh":"\u6d77\u519b\u90e8\u897f\u8def","oneway":"yes","smoothness":"excellent","source":"Yahoo aerial images","surface":"asphalt"},"geometry":{"type":"LineString","coordinates":[[103.8044072,1.4594781],[103.8042704,1.459336]]}},{"type":"Feature","id":"way/438687382-0-0-0","properties":{"access":"yes","highway":"unclassified","horse":"no","lanes":"2","lanes:backward":"1","lanes:forward":"1","name":"Senoko Loop","sidewalk":"both","surface":"asphalt"},"geometry":{"type":"LineString","coordinates":[[103.8020697,1.4594673],[103.8023371,1.4596393]]}},{"type":"Feature","id":"way/465776412-0-0-0","properties":{"highway":"primary_link","lanes":"1","maxspeed":"50","oneway":"yes","turn:lanes":"left"},"geometry":{"type":"LineString","coordinates":[[103.8049166,1.4604938],[103.805029,1.4604537]]}},{"type":"Feature","id":"way/465776412-0-1-0","properties":{"highway":"primary_link","lanes":"1","maxspeed":"50","oneway":"yes","turn:lanes":"left"},"geometry":{"type":"LineString","coordinates":[[103.805029,1.4604537],[103.8051457,1.4604242]]}},{"type":"Feature","id":"way/465776412-0-2-0","properties":{"highway":"primary_link","lanes":"1","maxspeed":"50","oneway":"yes","turn:lanes":"left"},"geometry":{"type":"LineString","coordinates":[[103.8051457,1.4604242],[103.8052098,1.4604146]]}},{"type":"Feature","id":"way/465776412-0-3-0","properties":{"highway":"primary_link","lanes":"1","maxspeed":"50","oneway":"yes","turn:lanes":"left"},"geometry":{"type":"LineString","coordinates":[[103.8052098,1.4604146],[103.805275,1.4604149]]}},{"type":"Feature","id":"way/465776412-0-4-0","properties":{"highway":"primary_link","lanes":"1","maxspeed":"50","oneway":"yes","turn:lanes":"left"},"geometry":{"type":"LineString","coordinates":[[103.805275,1.4604149],[103.8054276,1.4604391]]}},{"type":"Feature","id":"way/479376483-0-0-0","properties":{"access":"yes","highway":"unclassified","lanes":"4","maxspeed":"50","name":"Senoko Road","surface":"asphalt"},"geometry":{"type":"LineString","coordinates":[[103.8051642,1.4600914],[103.8050925,1.4602208]]}},{"type":"Feature","id":"way/480492003-0-0-0","properties":{"access":"yes","highway":"unclassified","horse":"no","lanes":"2","lanes:backward":"1","lanes:forward":"1","maxspeed":"50","name":"Senoko Drive","surface":"asphalt"},"geometry":{"type":"LineString","coordinates":[[103.8034759,1.4628767],[103.8033946,1.4628279]]}},{"type":"Feature","id":"way/481117340-0-0-0","properties":{"highway":"primary","lanes":"4","maxspeed":"70","name":"Admiralty Road West","name:en":"Admiralty Road West","name:zh":"\u6d77\u519b\u90e8\u897f\u8def","oneway":"yes","source":"Yahoo aerial images","surface":"asphalt","turn:lanes":"left;through|through|through|right"},"geometry":{"type":"LineString","coordinates":[[103.8057829,1.4604302],[103.8053271,1.4601806]]}},{"type":"Feature","id":"way/481117340-0-1-0","properties":{"highway":"primary","lanes":"4","maxspeed":"70","name":"Admiralty Road West","name:en":"Admiralty Road West","name:zh":"\u6d77\u519b\u90e8\u897f\u8def","oneway":"yes","source":"Yahoo aerial images","surface":"asphalt","turn:lanes":"left;through|through|through|right"},"geometry":{"type":"LineString","coordinates":[[103.8053271,1.4601806],[103.8052872,1.4601617]]}},{"type":"Feature","id":"way/481117340-0-2-0","properties":{"highway":"primary","lanes":"4","maxspeed":"70","name":"Admiralty Road West","name:en":"Admiralty Road West","name:zh":"\u6d77\u519b\u90e8\u897f\u8def","oneway":"yes","source":"Yahoo aerial images","surface":"asphalt","turn:lanes":"left;through|through|through|right"},"geometry":{"type":"LineString","coordinates":[[103.8052872,1.4601617],[103.8051642,1.4600914]]}},{"type":"Feature","id":"way/534938519-0-1-0","properties":{"highway":"service","lanes":"2","lanes:backward":"1","lanes:forward":"1"},"geometry":{"type":"LineString","coordinates":[[103.8016928,1.4636634],[103.8016828,1.4636549]]}},{"type":"Feature","id":"way/545578600-0-0-0","properties":{"highway":"service","lanes":"2","lanes:backward":"1","lanes:forward":"1","turn:lanes:backward":"left;right","turn:lanes:forward":"left;through"},"geometry":{"type":"LineString","coordinates":[[103.8055972,1.4594108],[103.8056719,1.4594547]]}},{"type":"Feature","id":"way/545578600-0-1-0","properties":{"highway":"service","lanes":"2","lanes:backward":"1","lanes:forward":"1","turn:lanes:backward":"left;right","turn:lanes:forward":"left;through"},"geometry":{"type":"LineString","coordinates":[[103.8056719,1.4594547],[103.805771,1.459511]]}},{"type":"Feature","id":"way/545578600-0-2-0","properties":{"highway":"service","lanes":"2","lanes:backward":"1","lanes:forward":"1","turn:lanes:backward":"left;right","turn:lanes:forward":"left;through"},"geometry":{"type":"LineString","coordinates":[[103.805771,1.459511],[103.8057891,1.4595258]]}},{"type":"Feature","id":"way/545578600-0-3-0","properties":{"highway":"service","lanes":"2","lanes:backward":"1","lanes:forward":"1","turn:lanes:backward":"left;right","turn:lanes:forward":"left;through"},"geometry":{"type":"LineString","coordinates":[[103.8057891,1.4595258],[103.8058074,1.4595413]]}},{"type":"Feature","id":"way/545578810-0-0-0","properties":{"highway":"service","lanes":"2","lanes:backward":"1","lanes:forward":"1"},"geometry":{"type":"LineString","coordinates":[[103.8034025,1.4604717],[103.8039342,1.4608275]]}},{"type":"Feature","id":"way/632359693-0-0-0","properties":{"access":"yes","highway":"unclassified","horse":"no","lanes":"2","lanes:backward":"1","lanes:forward":"1","name":"Senoko Loop","sidewalk":"both","surface":"asphalt"},"geometry":{"type":"LineString","coordinates":[[103.8032621,1.4603778],[103.8032511,1.4604192]]}},{"type":"Feature","id":"way/632359693-0-1-0","properties":{"access":"yes","highway":"unclassified","horse":"no","lanes":"2","lanes:backward":"1","lanes:forward":"1","name":"Senoko Loop","sidewalk":"both","surface":"asphalt"},"geometry":{"type":"LineString","coordinates":[[103.8032511,1.4604192],[103.802474,1.461603]]}},{"type":"Feature","id":"way/632359694-0-0-0","properties":{"access":"yes","highway":"unclassified","horse":"no","lanes":"3","lanes:backward":"1","lanes:forward":"1","maxspeed":"50","name":"Senoko Drive","surface":"asphalt","turn:lanes:forward":"left;through"},"geometry":{"type":"LineString","coordinates":[[103.8027328,1.4624039],[103.8026437,1.4623467]]}},{"type":"Feature","id":"way/632359694-0-1-0","properties":{"access":"yes","highway":"unclassified","horse":"no","lanes":"3","lanes:backward":"1","lanes:forward":"1","maxspeed":"50","name":"Senoko Drive","surface":"asphalt","turn:lanes:forward":"left;through"},"geometry":{"type":"LineString","coordinates":[[103.8026437,1.4623467],[103.8024865,1.4622457]]}},{"type":"Feature","id":"way/632359694-0-2-0","properties":{"access":"yes","highway":"unclassified","horse":"no","lanes":"3","lanes:backward":"1","lanes:forward":"1","maxspeed":"50","name":"Senoko Drive","surface":"asphalt","turn:lanes:forward":"left;through"},"geometry":{"type":"LineString","coordinates":[[103.8024865,1.4622457],[103.8021809,1.4620495]]}},{"type":"Feature","id":"way/632359695-0-0-0","properties":{"access":"yes","highway":"unclassified","horse":"no","lanes":"2","lanes:backward":"1","lanes:forward":"1","maxspeed":"50","name":"Senoko Drive","surface":"asphalt"},"geometry":{"type":"LineString","coordinates":[[103.8021809,1.4620495],[103.8018818,1.4618465]]}},{"type":"Feature","id":"way/639247202-0-0-0","properties":{"highway":"primary","lanes":"4","maxspeed":"70","name":"Admiralty Road West","name:en":"Admiralty Road West","name:zh":"\u6d77\u519b\u90e8\u897f\u8def","oneway":"yes","source":"Yahoo aerial images","surface":"asphalt","turn:lanes":"left|through|through|right"},"geometry":{"type":"LineString","coordinates":[[103.8046154,1.4598568],[103.8048229,1.460017]]}},{"type":"Feature","id":"way/639247202-0-1-0","properties":{"highway":"primary","lanes":"4","maxspeed":"70","name":"Admiralty Road West","name:en":"Admiralty Road West","name:zh":"\u6d77\u519b\u90e8\u897f\u8def","oneway":"yes","source":"Yahoo aerial images","surface":"asphalt","turn:lanes":"left|through|through|right"},"geometry":{"type":"LineString","coordinates":[[103.8048229,1.460017],[103.8049953,1.4601499]]}},{"type":"Feature","id":"way/639247202-0-2-0","properties":{"highway":"primary","lanes":"4","maxspeed":"70","name":"Admiralty Road West","name:en":"Admiralty Road West","name:zh":"\u6d77\u519b\u90e8\u897f\u8def","oneway":"yes","source":"Yahoo aerial images","surface":"asphalt","turn:lanes":"left|through|through|right"},"geometry":{"type":"LineString","coordinates":[[103.8049953,1.4601499],[103.8050925,1.4602208]]}},{"type":"Feature","id":"way/641265495-0-0-0","properties":{"access":"yes","highway":"unclassified","lanes":"4","lanes:backward":"2","lanes:forward":"2","maxspeed":"50","name":"Senoko Road","surface":"asphalt","turn:lanes:backward":"through|through;right"},"geometry":{"type":"LineString","coordinates":[[103.8050925,1.4602208],[103.8050432,1.4602966]]}},{"type":"Feature","id":"way/641265495-0-1-0","properties":{"access":"yes","highway":"unclassified","lanes":"4","lanes:backward":"2","lanes:forward":"2","maxspeed":"50","name":"Senoko Road","surface":"asphalt","turn:lanes:backward":"through|through;right"},"geometry":{"type":"LineString","coordinates":[[103.8050432,1.4602966],[103.8049166,1.4604938]]}},{"type":"Feature","id":"way/641265497-0-0-0","properties":{"highway":"primary","lanes":"3","maxspeed":"70","name":"Admiralty Road West","name:en":"Admiralty Road West","name:zh":"\u6d77\u519b\u90e8\u897f\u8def","oneway":"yes","source":"Yahoo aerial images","surface":"asphalt"},"geometry":{"type":"LineString","coordinates":[[103.8050925,1.4602208],[103.805176,1.4602749]]}},{"type":"Feature","id":"way/641265497-0-1-0","properties":{"highway":"primary","lanes":"3","maxspeed":"70","name":"Admiralty Road West","name:en":"Admiralty Road West","name:zh":"\u6d77\u519b\u90e8\u897f\u8def","oneway":"yes","source":"Yahoo aerial images","surface":"asphalt"},"geometry":{"type":"LineString","coordinates":[[103.805176,1.4602749],[103.8054276,1.4604391]]}},{"type":"Feature","id":"way/643588256-0-0-0","properties":{"highway":"service","lanes":"2","lanes:backward":"1","lanes:forward":"1"},"geometry":{"type":"LineString","coordinates":[[103.803231,1.4631257],[103.8033459,1.4631973]]}},{"type":"Feature","id":"way/643588256-0-1-0","properties":{"highway":"service","lanes":"2","lanes:backward":"1","lanes:forward":"1"},"geometry":{"type":"LineString","coordinates":[[103.8033459,1.4631973],[103.8038398,1.4635075]]}},{"type":"Feature","id":"way/643588256-0-2-0","properties":{"highway":"service","lanes":"2","lanes:backward":"1","lanes:forward":"1"},"geometry":{"type":"LineString","coordinates":[[103.8038398,1.4635075],[103.803872,1.4635384]]}},{"type":"Feature","id":"way/643588256-0-3-0","properties":{"highway":"service","lanes":"2","lanes:backward":"1","lanes:forward":"1"},"geometry":{"type":"LineString","coordinates":[[103.803872,1.4635384],[103.803872,1.4635679]]}},{"type":"Feature","id":"way/643588256-0-4-0","properties":{"highway":"service","lanes":"2","lanes:backward":"1","lanes:forward":"1"},"geometry":{"type":"LineString","coordinates":[[103.803872,1.4635679],[103.8037594,1.4637435]]}},{"type":"Feature","id":"way/645147794-0-0-0","properties":{"highway":"service"},"geometry":{"type":"LineString","coordinates":[[103.8026229,1.4619175],[103.8026503,1.4619355]]}},{"type":"Feature","id":"way/645147794-0-1-0","properties":{"highway":"service"},"geometry":{"type":"LineString","coordinates":[[103.8026503,1.4619355],[103.8027589,1.4620047]]}},{"type":"Feature","id":"way/645147794-0-2-0","properties":{"highway":"service"},"geometry":{"type":"LineString","coordinates":[[103.8027589,1.4620047],[103.8027629,1.4620315]]}},{"type":"Feature","id":"way/645147794-0-3-0","properties":{"highway":"service"},"geometry":{"type":"LineString","coordinates":[[103.8027629,1.4620315],[103.8027562,1.4620543]]}},{"type":"Feature","id":"way/645147794-0-4-0","properties":{"highway":"service"},"geometry":{"type":"LineString","coordinates":[[103.8027562,1.4620543],[103.8027274,1.4621026]]}},{"type":"Feature","id":"way/645147795-0-0-0","properties":{"highway":"service"},"geometry":{"type":"LineString","coordinates":[[103.8028622,1.4621856],[103.8027274,1.4621026]]}},{"type":"Feature","id":"way/645162997-0-1-0","properties":{"access":"yes","highway":"unclassified","horse":"no","lanes":"4","lanes:backward":"2","lanes:forward":"2","maxspeed":"50","name":"Senoko South Road","source":"Yahoo aerial images","surface":"asphalt"},"geometry":{"type":"LineString","coordinates":[[103.8058246,1.4590632],[103.8055972,1.4594108]]}},{"type":"Feature","id":"way/645162998-0-0-0","properties":{"access":"yes","highway":"unclassified","horse":"no","lanes":"4","lanes:backward":"2","lanes:forward":"2","maxspeed":"50","name":"Senoko South Road","source":"Yahoo aerial images","surface":"asphalt","turn:lanes:forward":"left;through|through;right"},"geometry":{"type":"LineString","coordinates":[[103.8055972,1.4594108],[103.8052361,1.4599818]]}},{"type":"Feature","id":"way/645162998-0-1-0","properties":{"access":"yes","highway":"unclassified","horse":"no","lanes":"4","lanes:backward":"2","lanes:forward":"2","maxspeed":"50","name":"Senoko South Road","source":"Yahoo aerial images","surface":"asphalt","turn:lanes:forward":"left;through|through;right"},"geometry":{"type":"LineString","coordinates":[[103.8052361,1.4599818],[103.8051642,1.4600914]]}},{"type":"Feature","id":"way/645163779-0-0-0","properties":{"access":"yes","highway":"unclassified","horse":"no","lanes":"2","lanes:backward":"1","lanes:forward":"1","name":"Senoko Loop","sidewalk":"both","surface":"asphalt"},"geometry":{"type":"LineString","coordinates":[[103.8032638,1.4602866],[103.8032753,1.460328]]}},{"type":"Feature","id":"way/645163779-0-1-0","properties":{"access":"yes","highway":"unclassified","horse":"no","lanes":"2","lanes:backward":"1","lanes:forward":"1","name":"Senoko Loop","sidewalk":"both","surface":"asphalt"},"geometry":{"type":"LineString","coordinates":[[103.8032753,1.460328],[103.8032621,1.4603778]]}},{"type":"Feature","id":"way/645164172-0-0-0","properties":{"access":"yes","highway":"unclassified","horse":"no","lanes":"2","lanes:backward":"1","lanes:forward":"1","name":"Senoko Loop","sidewalk":"both","surface":"asphalt"},"geometry":{"type":"LineString","coordinates":[[103.8027765,1.4599218],[103.8031331,1.4601511]]}},{"type":"Feature","id":"way/645164172-0-1-0","properties":{"access":"yes","highway":"unclassified","horse":"no","lanes":"2","lanes:backward":"1","lanes:forward":"1","name":"Senoko Loop","sidewalk":"both","surface":"asphalt"},"geometry":{"type":"LineString","coordinates":[[103.8031331,1.4601511],[103.8032538,1.4602503]]}},{"type":"Feature","id":"way/645164172-0-2-0","properties":{"access":"yes","highway":"unclassified","horse":"no","lanes":"2","lanes:backward":"1","lanes:forward":"1","name":"Senoko Loop","sidewalk":"both","surface":"asphalt"},"geometry":{"type":"LineString","coordinates":[[103.8032538,1.4602503],[103.8032638,1.4602866]]}},{"type":"Feature","id":"way/645306311-0-0-0","properties":{"access":"yes","highway":"unclassified","horse":"no","lanes":"4","lanes:backward":"2","lanes:forward":"2","maxspeed":"50","name":"Senoko Road","surface":"asphalt","turn:lanes:backward":"left;through|through;right"},"geometry":{"type":"LineString","coordinates":[[103.8033879,1.4629035],[103.8033648,1.4629362]]}},{"type":"Feature","id":"way/645306311-0-1-0","properties":{"access":"yes","highway":"unclassified","horse":"no","lanes":"4","lanes:backward":"2","lanes:forward":"2","maxspeed":"50","name":"Senoko Road","surface":"asphalt","turn:lanes:backward":"left;through|through;right"},"geometry":{"type":"LineString","coordinates":[[103.8033648,1.4629362],[103.8032462,1.4631041]]}},{"type":"Feature","id":"way/645306311-0-2-0","properties":{"access":"yes","highway":"unclassified","horse":"no","lanes":"4","lanes:backward":"2","lanes:forward":"2","maxspeed":"50","name":"Senoko Road","surface":"asphalt","turn:lanes:backward":"left;through|through;right"},"geometry":{"type":"LineString","coordinates":[[103.8032462,1.4631041],[103.803231,1.4631257]]}},{"type":"Feature","id":"way/645333054-0-0-0","properties":{"highway":"service","service":"parking_aisle"},"geometry":{"type":"LineString","coordinates":[[103.8055972,1.4594108],[103.805534,1.4593614]]}},{"type":"Feature","id":"way/645333054-0-1-0","properties":{"highway":"service","service":"parking_aisle"},"geometry":{"type":"LineString","coordinates":[[103.805534,1.4593614],[103.8054532,1.4592951]]}},{"type":"Feature","id":"way/645338226-0-0-0","properties":{"access":"yes","highway":"unclassified","horse":"no","lanes":"2","lanes:backward":"1","lanes:forward":"1","name":"Senoko Loop","sidewalk":"both","surface":"asphalt"},"geometry":{"type":"LineString","coordinates":[[103.8016699,1.4592103],[103.8018388,1.4593189]]}},{"type":"Feature","id":"way/645338228-0-0-0","properties":{"access":"yes","highway":"unclassified","horse":"no","lanes":"2","lanes:backward":"1","lanes:forward":"1","name":"Senoko Loop","sidewalk":"both","surface":"asphalt"},"geometry":{"type":"LineString","coordinates":[[103.8018388,1.4593189],[103.8020697,1.4594673]]}},{"type":"Feature","id":"way/645338504-0-0-0","properties":{"access":"yes","highway":"unclassified","horse":"no","lanes":"2","lanes:backward":"1","lanes:forward":"1","name":"Senoko Loop","sidewalk":"both","surface":"asphalt"},"geometry":{"type":"LineString","coordinates":[[103.8023371,1.4596393],[103.8027765,1.4599218]]}},{"type":"Feature","id":"way/646375322-0-0-0","properties":{"access":"yes","highway":"unclassified","lanes":"4","lanes:backward":"2","lanes:forward":"2","maxspeed":"50","name":"Senoko Road","surface":"asphalt","turn:lanes:backward":"through|through;right"},"geometry":{"type":"LineString","coordinates":[[103.8049166,1.4604938],[103.8047347,1.4607808]]}},{"type":"Feature","id":"way/646487158-0-0-0","properties":{"access":"yes","highway":"unclassified","horse":"no","lanes":"2","lanes:backward":"1","lanes:forward":"1","maxspeed":"50","name":"Senoko Drive","surface":"asphalt","turn:lanes:backward":"left;through;right"},"geometry":{"type":"LineString","coordinates":[[103.8034759,1.4628767],[103.8035461,1.4629209]]}},{"type":"Feature","id":"way/646487158-0-1-0","properties":{"access":"yes","highway":"unclassified","horse":"no","lanes":"2","lanes:backward":"1","lanes:forward":"1","maxspeed":"50","name":"Senoko Drive","surface":"asphalt","turn:lanes:backward":"left;through;right"},"geometry":{"type":"LineString","coordinates":[[103.8035461,1.4629209],[103.8037964,1.4630786]]}},{"type":"Feature","id":"way/646617476-0-0-0","properties":{"access":"yes","highway":"unclassified","lanes":"4","lanes:backward":"2","lanes:forward":"2","maxspeed":"50","name":"Senoko Road","surface":"asphalt","turn:lanes:forward":"through|through;right"},"geometry":{"type":"LineString","coordinates":[[103.8046873,1.4608514],[103.8043837,1.4613302]]}},{"type":"Feature","id":"way/646617477-0-0-0","properties":{"access":"yes","highway":"unclassified","lanes":"4","lanes:backward":"2","lanes:forward":"2","maxspeed":"50","name":"Senoko Road","surface":"asphalt","turn:lanes:backward":"through|through;right"},"geometry":{"type":"LineString","coordinates":[[103.8047347,1.4607808],[103.8046873,1.4608514]]}},{"type":"Feature","id":"way/646617658-0-0-0","properties":{"access":"yes","highway":"unclassified","horse":"no","lanes":"2","lanes:backward":"1","lanes:forward":"1","lit":"yes","name":"Senoko Crescent"},"geometry":{"type":"LineString","coordinates":[[103.8057382,1.4622043],[103.8060664,1.4624208]]}},{"type":"Feature","id":"way/646617659-0-0-0","properties":{"access":"yes","highway":"unclassified","horse":"no","lanes":"2","lanes:backward":"1","lanes:forward":"1","lit":"yes","name":"Senoko Crescent","turn:lanes:backward":"left;right"},"geometry":{"type":"LineString","coordinates":[[103.8043837,1.4613302],[103.804482,1.4613947]]}},{"type":"Feature","id":"way/646617659-0-1-0","properties":{"access":"yes","highway":"unclassified","horse":"no","lanes":"2","lanes:backward":"1","lanes:forward":"1","lit":"yes","name":"Senoko Crescent","turn:lanes:backward":"left;right"},"geometry":{"type":"LineString","coordinates":[[103.804482,1.4613947],[103.8047962,1.4615948]]}},{"type":"Feature","id":"way/646617659-0-2-0","properties":{"access":"yes","highway":"unclassified","horse":"no","lanes":"2","lanes:backward":"1","lanes:forward":"1","lit":"yes","name":"Senoko Crescent","turn:lanes:backward":"left;right"},"geometry":{"type":"LineString","coordinates":[[103.8047962,1.4615948],[103.8048457,1.4616266]]}},{"type":"Feature","id":"way/646621233-0-0-0","properties":{"access":"yes","highway":"unclassified","lanes":"2","maxspeed":"50","name":"Senoko Road","oneway":"yes","surface":"asphalt"},"geometry":{"type":"LineString","coordinates":[[103.8034759,1.4628767],[103.8035634,1.4627332]]}},{"type":"Feature","id":"way/646621233-0-1-0","properties":{"access":"yes","highway":"unclassified","lanes":"2","maxspeed":"50","name":"Senoko Road","oneway":"yes","surface":"asphalt"},"geometry":{"type":"LineString","coordinates":[[103.8035634,1.4627332],[103.8039533,1.4620938]]}},{"type":"Feature","id":"way/646685709-0-0-0","properties":{"highway":"service","lanes":"2","lanes:backward":"1","lanes:forward":"1"},"geometry":{"type":"LineString","coordinates":[[103.8039533,1.4620938],[103.804006,1.4621274]]}},{"type":"Feature","id":"way/646685709-0-1-0","properties":{"highway":"service","lanes":"2","lanes:backward":"1","lanes:forward":"1"},"geometry":{"type":"LineString","coordinates":[[103.804006,1.4621274],[103.8047685,1.4626143]]}},{"type":"Feature","id":"way/646685709-0-1-1","properties":{"highway":"service","lanes":"2","lanes:backward":"1","lanes:forward":"1"},"geometry":{"type":"LineString","coordinates":[[103.8047685,1.4626143],[103.805531,1.4631013]]}},{"type":"Feature","id":"way/646685709-0-2-0","properties":{"highway":"service","lanes":"2","lanes:backward":"1","lanes:forward":"1"},"geometry":{"type":"LineString","coordinates":[[103.805531,1.4631013],[103.8056258,1.4631222]]}},{"type":"Feature","id":"way/651082189-0-0-0","properties":{"access":"yes","highway":"unclassified","horse":"no","lanes":"2","lanes:backward":"1","lanes:forward":"1","lit":"yes","name":"Senoko Crescent"},"geometry":{"type":"LineString","coordinates":[[103.8048457,1.4616266],[103.8049147,1.4616742]]}},{"type":"Feature","id":"way/651082189-0-1-0","properties":{"access":"yes","highway":"unclassified","horse":"no","lanes":"2","lanes:backward":"1","lanes:forward":"1","lit":"yes","name":"Senoko Crescent"},"geometry":{"type":"LineString","coordinates":[[103.8049147,1.4616742],[103.8057382,1.4622043]]}},{"type":"Feature","id":"way/651986735-0-0-0","properties":{"highway":"primary","lanes":"2","maxspeed":"70","name":"Admiralty Road West","name:en":"Admiralty Road West","name:zh":"\u6d77\u519b\u90e8\u897f\u8def","oneway":"yes","source":"Yahoo aerial images","surface":"asphalt","turn:lanes":"through|through"},"geometry":{"type":"LineString","coordinates":[[103.8054276,1.4604391],[103.8057241,1.4606082]]}},{"type":"Feature","id":"way/651986735-0-1-0","properties":{"highway":"primary","lanes":"2","maxspeed":"70","name":"Admiralty Road West","name:en":"Admiralty Road West","name:zh":"\u6d77\u519b\u90e8\u897f\u8def","oneway":"yes","source":"Yahoo aerial images","surface":"asphalt","turn:lanes":"through|through"},"geometry":{"type":"LineString","coordinates":[[103.8057241,1.4606082],[103.8063678,1.4609375]]}},{"type":"Feature","id":"way/655684808-0-0-0","properties":{"highway":"primary","lanes":"2","maxspeed":"70","name":"Admiralty Road West","name:en":"Admiralty Road West","name:zh":"\u6d77\u519b\u90e8\u897f\u8def","oneway":"yes","source":"Yahoo aerial images","surface":"asphalt","turn:lanes":"left;through|through"},"geometry":{"type":"LineString","coordinates":[[103.8044087,1.4596647],[103.8046154,1.4598568]]}},{"type":"Feature","id":"way/665231951-0-0-0","properties":{"access":"yes","highway":"unclassified","horse":"no","lanes":"2","maxspeed":"50","name":"Senoko Drive","parking:condition:both:vehicles":"hgv_articulated","parking:lane:both":"parallel","surface":"asphalt"},"geometry":{"type":"LineString","coordinates":[[103.8018818,1.4618465],[103.8013373,1.4614925]]}},{"type":"Feature","id":"way/665232235-0-0-0","properties":{"access":"yes","highway":"unclassified","horse":"no","lanes":"5","lanes:backward":"1","lanes:forward":"1","maxspeed":"50","name":"Senoko Drive","parking:condition:right:vehicles":"hgv_articulated","parking:lane:right":"parallel","surface":"asphalt"},"geometry":{"type":"LineString","coordinates":[[103.80307,1.4626221],[103.8027328,1.4624039]]}},{"type":"Feature","id":"way/665235264-0-0-0","properties":{"access":"yes","highway":"unclassified","horse":"no","lanes":"2","lanes:backward":"1","lanes:forward":"1","maxspeed":"50","name":"Senoko Drive","surface":"asphalt"},"geometry":{"type":"LineString","coordinates":[[103.8046284,1.4636175],[103.8047359,1.4636904]]}},{"type":"Feature","id":"way/665235265-0-0-0","properties":{"access":"yes","highway":"unclassified","horse":"no","lanes":"2","lanes:backward":"1","lanes:forward":"1","maxspeed":"50","name":"Senoko Drive","parking:condition:left:vehicles":"motorcar","parking:lane:left":"parallel","surface":"asphalt"},"geometry":{"type":"LineString","coordinates":[[103.80445,1.4634995],[103.8046284,1.4636175]]}},{"type":"Feature","id":"way/665235266-0-0-0","properties":{"access":"yes","highway":"unclassified","horse":"no","lanes":"2","lanes:backward":"1","lanes:forward":"1","maxspeed":"50","name":"Senoko Drive","surface":"asphalt"},"geometry":{"type":"LineString","coordinates":[[103.8041228,1.4632877],[103.80445,1.4634995]]}},{"type":"Feature","id":"way/665235267-0-0-0","properties":{"access":"yes","highway":"unclassified","horse":"no","lanes":"2","lanes:backward":"1","lanes:forward":"1","maxspeed":"50","name":"Senoko Drive","parking:condition:left:vehicles":"motorcar","parking:lane:left":"parallel","surface":"asphalt","turn:lanes:backward":"left;through;right"},"geometry":{"type":"LineString","coordinates":[[103.8037964,1.4630786],[103.8041228,1.4632877]]}},{"type":"Feature","id":"way/665252122-0-0-0","properties":{"access":"yes","highway":"unclassified","horse":"no","lanes":"4","lanes:backward":"2","lanes:forward":"2","maxspeed":"50","name":"Senoko Road","parking:condition:both:vehicles":"motorcar,hgv","parking:lane:both":"parallel","surface":"asphalt","turn:lanes:backward":"left;through|through;right"},"geometry":{"type":"LineString","coordinates":[[103.803231,1.4631257],[103.8030218,1.4634566]]}},{"type":"Feature","id":"way/677119674-0-0-0","properties":{"access":"yes","highway":"unclassified","horse":"no","lanes":"2","lanes:backward":"1","lanes:forward":"1","name":"Senoko Loop","sidewalk":"both","surface":"asphalt","turn:lanes:forward":"left;right"},"geometry":{"type":"LineString","coordinates":[[103.802474,1.461603],[103.802231,1.4619695]]}},{"type":"Feature","id":"way/677119674-0-1-0","properties":{"access":"yes","highway":"unclassified","horse":"no","lanes":"2","lanes:backward":"1","lanes:forward":"1","name":"Senoko Loop","sidewalk":"both","surface":"asphalt","turn:lanes:forward":"left;right"},"geometry":{"type":"LineString","coordinates":[[103.802231,1.4619695],[103.8021809,1.4620495]]}},{"type":"Feature","id":"way/686061293-0-2-1","properties":{"highway":"primary","lanes":"2","maxspeed":"70","name":"Admiralty Road West","name:en":"Admiralty Road West","name:zh":"\u6d77\u519b\u90e8\u897f\u8def","oneway":"yes","source":"Yahoo aerial images","surface":"asphalt"},"geometry":{"type":"LineString","coordinates":[[103.8037412,1.4590377],[103.8044087,1.4596647]]}},{"type":"Feature","id":"way/700360641-0-0-0","properties":{"highway":"primary","lanes":"3","maxspeed":"70","name":"Admiralty Road West","name:en":"Admiralty Road West","name:zh":"\u6d77\u519b\u90e8\u897f\u8def","oneway":"yes","source":"Yahoo aerial images","surface":"asphalt"},"geometry":{"type":"LineString","coordinates":[[103.8051642,1.4600914],[103.8050764,1.4600382]]}},{"type":"Feature","id":"way/700360641-0-1-0","properties":{"highway":"primary","lanes":"3","maxspeed":"70","name":"Admiralty Road West","name:en":"Admiralty Road West","name:zh":"\u6d77\u519b\u90e8\u897f\u8def","oneway":"yes","source":"Yahoo aerial images","surface":"asphalt"},"geometry":{"type":"LineString","coordinates":[[103.8050764,1.4600382],[103.8049087,1.4599151]]}},{"type":"Feature","id":"way/700360641-0-2-0","properties":{"highway":"primary","lanes":"3","maxspeed":"70","name":"Admiralty Road West","name:en":"Admiralty Road West","name:zh":"\u6d77\u519b\u90e8\u897f\u8def","oneway":"yes","source":"Yahoo aerial images","surface":"asphalt"},"geometry":{"type":"LineString","coordinates":[[103.8049087,1.4599151],[103.8048287,1.4598483]]}},{"type":"Feature","id":"way/704913758-0-0-0","properties":{"highway":"service"},"geometry":{"type":"LineString","coordinates":[[103.8039533,1.4620938],[103.8038808,1.4620494]]}},{"type":"Feature","id":"way/704913759-0-0-0","properties":{"access":"yes","highway":"unclassified","lanes":"4","lanes:backward":"2","lanes:forward":"2","maxspeed":"50","name":"Senoko Road","surface":"asphalt","turn:lanes:backward":"left;through|through"},"geometry":{"type":"LineString","coordinates":[[103.8043837,1.4613302],[103.8042703,1.4615234]]}},{"type":"Feature","id":"way/704913760-0-0-0","properties":{"highway":"unclassified","lanes":"2","maxspeed":"50","name":"Senoko Road","oneway":"yes"},"geometry":{"type":"LineString","coordinates":[[103.8033879,1.4629035],[103.8034759,1.4628767]]}},{"type":"Feature","id":"way/704913761-0-0-0","properties":{"highway":"unclassified","lanes":"2","maxspeed":"50","name":"Senoko Road","oneway":"yes"},"geometry":{"type":"LineString","coordinates":[[103.8042703,1.4615234],[103.8041979,1.4615689]]}},{"type":"Feature","id":"way/704913761-0-1-0","properties":{"highway":"unclassified","lanes":"2","maxspeed":"50","name":"Senoko Road","oneway":"yes"},"geometry":{"type":"LineString","coordinates":[[103.8041979,1.4615689],[103.803906,1.4620112]]}},{"type":"Feature","id":"way/704913761-0-2-0","properties":{"highway":"unclassified","lanes":"2","maxspeed":"50","name":"Senoko Road","oneway":"yes"},"geometry":{"type":"LineString","coordinates":[[103.803906,1.4620112],[103.8038808,1.4620494]]}},{"type":"Feature","id":"way/706656976-0-0-0","properties":{"access":"yes","highway":"unclassified","horse":"no","lanes":"4","lanes:backward":"1","lanes:forward":"1","maxspeed":"50","name":"Senoko Drive","surface":"asphalt","turn:lanes:backward":"left;through;right"},"geometry":{"type":"LineString","coordinates":[[103.8033946,1.4628279],[103.8033096,1.462774]]}},{"type":"Feature","id":"way/706656976-0-1-0","properties":{"access":"yes","highway":"unclassified","horse":"no","lanes":"4","lanes:backward":"1","lanes:forward":"1","maxspeed":"50","name":"Senoko Drive","surface":"asphalt","turn:lanes:backward":"left;through;right"},"geometry":{"type":"LineString","coordinates":[[103.8033096,1.462774],[103.80307,1.4626221]]}},{"type":"Feature","id":"way/710801782-0-0-0","properties":{"highway":"primary","lanes":"2","maxspeed":"70","name":"Admiralty Road West","name:en":"Admiralty Road West","name:zh":"\u6d77\u519b\u90e8\u897f\u8def","oneway":"yes","source":"Yahoo aerial images","surface":"asphalt","turn:lanes":"left;through|through|right"},"geometry":{"type":"LineString","coordinates":[[103.8059963,1.4605406],[103.8057829,1.4604302]]}},{"type":"Feature","id":"way/711930784-0-0-0","properties":{"highway":"unclassified","lanes":"2","maxspeed":"50","name":"Senoko Road","oneway":"no"},"geometry":{"type":"LineString","coordinates":[[103.8033946,1.4628279],[103.8033879,1.4629035]]}},{"type":"Feature","id":"way/761626927-0-0-0","properties":{"highway":"unclassified","lanes":"2","maxspeed":"50","name":"Senoko Road","oneway":"yes"},"geometry":{"type":"LineString","coordinates":[[103.8038808,1.4620494],[103.8038492,1.4620972]]}},{"type":"Feature","id":"way/761626927-0-1-0","properties":{"highway":"unclassified","lanes":"2","maxspeed":"50","name":"Senoko Road","oneway":"yes"},"geometry":{"type":"LineString","coordinates":[[103.8038492,1.4620972],[103.803484,1.4626843]]}},{"type":"Feature","id":"way/761626927-0-2-0","properties":{"highway":"unclassified","lanes":"2","maxspeed":"50","name":"Senoko Road","oneway":"yes"},"geometry":{"type":"LineString","coordinates":[[103.803484,1.4626843],[103.8033946,1.4628279]]}},{"type":"Feature","id":"way/933817533-0-0-0","properties":{"highway":"service"},"geometry":{"type":"LineString","coordinates":[[103.8047962,1.4615948],[103.8047571,1.461658]]}},{"type":"Feature","id":"way/933817533-0-1-0","properties":{"highway":"service"},"geometry":{"type":"LineString","coordinates":[[103.8047571,1.461658],[103.8046653,1.4617922]]}},{"type":"Feature","id":"way/933818166-0-0-0","properties":{"highway":"service"},"geometry":{"type":"LineString","coordinates":[[103.8049147,1.4616742],[103.8048712,1.4617326]]}},{"type":"Feature","id":"way/933818166-0-1-0","properties":{"highway":"service"},"geometry":{"type":"LineString","coordinates":[[103.8048712,1.4617326],[103.8047813,1.4618646]]}},{"type":"Feature","id":"way/1539060156-0-0-0","properties":{"highway":"unclassified","oneway":"yes","surface":"asphalt"},"geometry":{"type":"LineString","coordinates":[[103.80307,1.4626221],[103.8031493,1.462751]]}},{"type":"Feature","id":"way/1539060156-0-1-0","properties":{"highway":"unclassified","oneway":"yes","surface":"asphalt"},"geometry":{"type":"LineString","coordinates":[[103.8031493,1.462751],[103.8031688,1.4627873]]}},{"type":"Feature","id":"way/1539060156-0-2-0","properties":{"highway":"unclassified","oneway":"yes","surface":"asphalt"},"geometry":{"type":"LineString","coordinates":[[103.8031688,1.4627873],[103.8031716,1.4627925]]}},{"type":"Feature","id":"way/1539060156-0-3-0","properties":{"highway":"unclassified","oneway":"yes","surface":"asphalt"},"geometry":{"type":"LineString","coordinates":[[103.8031716,1.4627925],[103.8031935,1.4628318]]}},{"type":"Feature","id":"way/1539060156-0-4-0","properties":{"highway":"unclassified","oneway":"yes","surface":"asphalt"},"geometry":{"type":"LineString","coordinates":[[103.8031935,1.4628318],[103.8032145,1.4628746]]}},{"type":"Feature","id":"way/1539060156-0-5-0","properties":{"highway":"unclassified","oneway":"yes","surface":"asphalt"},"geometry":{"type":"LineString","coordinates":[[103.8032145,1.4628746],[103.8032256,1.4629007]]}},{"type":"Feature","id":"way/1539060156-0-6-0","properties":{"highway":"unclassified","oneway":"yes","surface":"asphalt"},"geometry":{"type":"LineString","coordinates":[[103.8032256,1.4629007],[103.8032417,1.4629527]]}},{"type":"Feature","id":"way/1539060156-0-7-0","properties":{"highway":"unclassified","oneway":"yes","surface":"asphalt"},"geometry":{"type":"LineString","coordinates":[[103.8032417,1.4629527],[103.8032502,1.4630325]]}},{"type":"Feature","id":"way/1539060156-0-8-0","properties":{"highway":"unclassified","oneway":"yes","surface":"asphalt"},"geometry":{"type":"LineString","coordinates":[[103.8032502,1.4630325],[103.8032462,1.4631041]]}}]}