{"type":"FeatureCollection","features":[{"type":"Feature","id":"way/170841506-0","properties":{"building":"yes","clearanceGeometry":{"type":"Polygon","coordinates":[[[103.802496,1.4581985],[103.8023727,1.4582923],[103.8027759,1.4587495],[103.8027716,1.4587563],[103.8022734,1.4583835],[103.8018993,1.4589533],[103.802425,1.4592724],[103.8023619,1.4593635],[103.8024551,1.4594166],[103.8029143,1.4586989],[103.8029346,1.4586717],[103.802496,1.4581985]]]},"clearanceHeight":1.7,"clearancePrepared":true},"geometry":{"type":"Polygon","coordinates":[[[103.8029346,1.4586717],[103.802496,1.4581985],[103.8023727,1.4582923],[103.8027759,1.4587495],[103.8027716,1.4587563],[103.8022734,1.4583835],[103.8018993,1.4589533],[103.802425,1.4592724],[103.8023619,1.4593635],[103.8024551,1.4594166],[103.8029143,1.4586989],[103.8029346,1.4586717]]]}},{"type":"Feature","id":"way/171176002-0","properties":{"addr:city":"Singapore","addr:country":"SG","addr:housenumber":"15","addr:street":"Senoko South Road","building":"industrial","clearanceGeometry":{"type":"Polygon","coordinates":[[[103.8059293,1.4571541],[103.8055399,1.4576215],[103.805803,1.4578406],[103.8061925,1.4573732],[103.8059293,1.4571541]]]},"clearanceHeight":1.7,"clearancePrepared":true},"geometry":{"type":"Polygon","coordinates":[[[103.8061925,1.4573732],[103.8059293,1.4571541],[103.8055399,1.4576215],[103.805803,1.4578406],[103.8061925,1.4573732]]]}},{"type":"Feature","id":"way/171176004-0","properties":{"addr:city":"Singapore","addr:country":"SG","addr:housenumber":"12","addr:street":"Senoko South Road","building":"industrial","name":"DSM","office":"company","clearanceGeometry":{"type":"Polygon","coordinates":[[[103.8032811,1.457397],[103.8029438,1.4570973],[103.8026862,1.4573871],[103.8030234,1.4576868],[103.8032811,1.457397]]]},"clearanceHeight":1.7,"clearancePrepared":true},"geometry":{"type":"Polygon","coordinates":[[[103.8030234,1.4576868],[103.8032811,1.457397],[103.8029438,1.4570973],[103.8026862,1.4573871],[103.8030234,1.4576868]]]}},{"type":"Feature","id":"way/171176005-0","properties":{"addr:city":"Singapore","addr:country":"SG","addr:housenumber":"28","addr:street":"Senoko South Road","building":"industrial","clearanceGeometry":{"type":"Polygon","coordinates":[[[103.8019937,1.4553218],[103.8019128,1.4554515],[103.8017828,1.4553705],[103.8017506,1.4554222],[103.8017382,1.4554144],[103.8016151,1.4556117],[103.8019389,1.4558136],[103.8021751,1.4554349],[103.8019937,1.4553218]]]},"clearanceHeight":1.7,"clearancePrepared":true},"geometry":{"type":"Polygon","coordinates":[[[103.8021751,1.4554349],[103.8019937,1.4553218],[103.8019128,1.4554515],[103.8017828,1.4553705],[103.8017506,1.4554222],[103.8017382,1.4554144],[103.8016151,1.4556117],[103.8019389,1.4558136],[103.8021751,1.4554349]]]}},{"type":"Feature","id":"way/171176006-0","properties":{"addr:city":"Singapore","addr:country":"SG","addr:housenumber":"6","addr:street":"Senoko South Road","building":"industrial","clearanceGeometry":{"type":"Polygon","coordinates":[[[103.805314,1.4580668],[103.8050898,1.4583189],[103.8056069,1.4587782],[103.805831,1.458526],[103.805314,1.4580668]]]},"clearanceHeight":1.7,"clearancePrepared":true},"geometry":{"type":"Polygon","coordinates":[[[103.805831,1.458526],[103.805314,1.4580668],[103.8050898,1.4583189],[103.8056069,1.4587782],[103.805831,1.458526]]]}},{"type":"Feature","id":"way/171176008-0","properties":{"addr:city":"Singapore","addr:country":"SG","addr:housenumber":"23","addr:street":"Senoko South Road","building":"industrial","clearanceGeometry":{"type":"Polygon","coordinates":[[[103.8043714,1.4559608],[103.8046383,1.4556386],[103.8042729,1.4553361],[103.8040398,1.4556174],[103.8040952,1.4556632],[103.8037199,1.4561162],[103.8039909,1.4563406],[103.8043324,1.4559285],[103.8043714,1.4559608]]]},"clearanceHeight":1.7,"clearancePrepared":true},"geometry":{"type":"Polygon","coordinates":[[[103.8043324,1.4559285],[103.8043714,1.4559608],[103.8046383,1.4556386],[103.8042729,1.4553361],[103.8040398,1.4556174],[103.8040952,1.4556632],[103.8037199,1.4561162],[103.8039909,1.4563406],[103.8043324,1.4559285]]]}},{"type":"Feature","id":"way/171176010-0","properties":{"addr:city":"Singapore","addr:country":"SG","addr:housenumber":"26","addr:postcode":"758091","addr:street":"Senoko South Road","building":"industrial","name":"Barry Callebaut Ind Chocolate Fty","clearanceGeometry":{"type":"Polygon","coordinates":[[[103.8023874,1.4562145],[103.8024091,1.4561787],[103.8024573,1.4560995],[103.8024812,1.4560602],[103.8023992,1.4560104],[103.8023825,1.456038],[103.80217438845877,1.4559115008278793],[103.80173327114437,1.4566114235170466],[103.8019699,1.4567553],[103.8023227,1.4561752],[103.8023874,1.4562145]]]},"clearanceHeight":1.7,"clearancePrepared":true},"geometry":{"type":"Polygon","coordinates":[[[103.8023227,1.4561752],[103.8023874,1.4562145],[103.8024091,1.4561787],[103.8024573,1.4560995],[103.8024812,1.4560602],[103.8023992,1.4560104],[103.8023825,1.456038],[103.802153,1.4558985],[103.8017232,1.4566053],[103.8019699,1.4567553],[103.8023227,1.4561752]]]}},{"type":"Feature","id":"way/171176011-0","properties":{"addr:city":"Singapore","addr:country":"SG","addr:housenumber":"16","addr:street":"Senoko South Road","building":"industrial","clearanceGeometry":{"type":"Polygon","coordinates":[[[103.8045824,1.4574622],[103.8042394,1.4579042],[103.8044781,1.4580894],[103.8048212,1.4576473],[103.8045824,1.4574622]]]},"clearanceHeight":1.7,"clearancePrepared":true},"geometry":{"type":"Polygon","coordinates":[[[103.8048212,1.4576473],[103.8045824,1.4574622],[103.8042394,1.4579042],[103.8044781,1.4580894],[103.8048212,1.4576473]]]}},{"type":"Feature","id":"way/171176012-0","properties":{"addr:city":"Singapore","addr:country":"SG","addr:housenumber":"19","addr:street":"Senoko South Road","building":"industrial","clearanceGeometry":{"type":"Polygon","coordinates":[[[103.8053411,1.4565154],[103.8054016,1.4565645],[103.8055362,1.4563988],[103.8051338,1.4560722],[103.8045535,1.4567867],[103.8046267,1.4568461],[103.804614,1.4568618],[103.8048826,1.4570799],[103.8050579,1.456864],[103.8053411,1.4565154]]]},"clearanceHeight":1.7,"clearancePrepared":true},"geometry":{"type":"Polygon","coordinates":[[[103.8050579,1.456864],[103.8053411,1.4565154],[103.8054016,1.4565645],[103.8055362,1.4563988],[103.8051338,1.4560722],[103.8045535,1.4567867],[103.8046267,1.4568461],[103.804614,1.4568618],[103.8048826,1.4570799],[103.8050579,1.456864]]]}},{"type":"Feature","id":"way/171176016-0","properties":{"addr:city":"Singapore","addr:country":"SG","addr:housenumber":"25","addr:street":"Senoko South Road","building":"industrial","clearanceGeometry":{"type":"Polygon","coordinates":[[[103.8037262,1.4558159],[103.8037695,1.4558511],[103.8038816,1.455713],[103.80387181014065,1.4557050635606223],[103.80387140693814,1.4557055451836247],[103.8038404,1.4556796],[103.8038039,1.4556499],[103.8040381,1.4553615],[103.8039969,1.4553281],[103.8037689,1.455143],[103.8033312,1.4556818],[103.8032684,1.4557591],[103.8035364,1.4559766],[103.8036905,1.4557869],[103.8037262,1.4558159]]]},"clearanceHeight":1.7,"clearancePrepared":true},"geometry":{"type":"Polygon","coordinates":[[[103.8036905,1.4557869],[103.8037262,1.4558159],[103.8037695,1.4558511],[103.8038816,1.455713],[103.8038404,1.4556796],[103.8038039,1.4556499],[103.8040381,1.4553615],[103.8039969,1.4553281],[103.8037689,1.455143],[103.8033312,1.4556818],[103.8032684,1.4557591],[103.8035364,1.4559766],[103.8036905,1.4557869]]]}},{"type":"Feature","id":"way/171176017-0","properties":{"addr:city":"Singapore","addr:country":"SG","addr:housenumber":"18","addr:street":"Senoko South Road","building":"industrial","clearanceGeometry":{"type":"Polygon","coordinates":[[[103.80421667813731,1.4572303692850774],[103.80421497928648,1.4572310960661758],[103.80419299485544,1.4572530804972317],[103.80419004445471,1.4572501315779798],[103.8039187,1.4575888],[103.8041324,1.4577599],[103.80439372907102,1.4574336199343203],[103.80440347911458,1.457419796995032],[103.80441624484185,1.4573957328654628],[103.80441689192394,1.457390746527081],[103.80421667813731,1.4572303692850774]]]},"clearanceHeight":1.7,"clearancePrepared":true},"geometry":{"type":"Polygon","coordinates":[[[103.8044237,1.4573962],[103.8042101,1.4572251],[103.8039187,1.4575888],[103.8041324,1.4577599],[103.8044237,1.4573962]]]}},{"type":"Feature","id":"way/171176018-0","properties":{"addr:city":"Singapore","addr:country":"SG","addr:street":"Senoko South Road","building":"industrial","name":"Yen I Ind Bldg","clearanceGeometry":{"type":"Polygon","coordinates":[[[103.8035727,1.4567852],[103.8035873,1.4567049],[103.8035383,1.4566637],[103.803172,1.4570988],[103.8034238,1.4573107],[103.8037882,1.456878],[103.8036868,1.4567927],[103.8036136,1.4568187],[103.8035727,1.4567852]]]},"clearanceHeight":1.7,"clearancePrepared":true},"geometry":{"type":"Polygon","coordinates":[[[103.8036136,1.4568187],[103.8035727,1.4567852],[103.8035873,1.4567049],[103.8035383,1.4566637],[103.803172,1.4570988],[103.8034238,1.4573107],[103.8037882,1.456878],[103.8036868,1.4567927],[103.8036136,1.4568187]]]}},{"type":"Feature","id":"way/171176019-0","properties":{"addr:city":"Singapore","addr:country":"SG","addr:housenumber":"24","addr:street":"Senoko South Road","building":"industrial","clearanceGeometry":{"type":"Polygon","coordinates":[[[103.8031322,1.456416],[103.8031566,1.4563865],[103.803101,1.4563407],[103.8031377,1.4562962],[103.8029276,1.4561231],[103.8026942,1.4564062],[103.8027812,1.4564779],[103.8027627,1.4565005],[103.8029539,1.456658],[103.8031448,1.4564264],[103.8031322,1.456416]]]},"clearanceHeight":1.7,"clearancePrepared":true},"geometry":{"type":"Polygon","coordinates":[[[103.8031448,1.4564264],[103.8031322,1.456416],[103.8031566,1.4563865],[103.803101,1.4563407],[103.8031377,1.4562962],[103.8029276,1.4561231],[103.8026942,1.4564062],[103.8027812,1.4564779],[103.8027627,1.4565005],[103.8029539,1.456658],[103.8031448,1.4564264]]]}},{"type":"Feature","id":"way/171176026-0","properties":{"addr:city":"Singapore","addr:country":"SG","addr:housenumber":"6A","addr:street":"Senoko South Road","building":"industrial","clearanceGeometry":{"type":"Polygon","coordinates":[[[103.8050902,1.4584561],[103.8048809,1.4587188],[103.8054599,1.4591797],[103.80550531706018,1.4591226737056202],[103.80549574537079,1.4591156244232677],[103.80562697280848,1.4589375300435345],[103.80566156206761,1.4589128759971253],[103.80566414379847,1.4589128759971253],[103.8050902,1.4584561]]]},"clearanceHeight":1.7,"clearancePrepared":true},"geometry":{"type":"Polygon","coordinates":[[[103.8056692,1.4589169],[103.8050902,1.4584561],[103.8048809,1.4587188],[103.8054599,1.4591797],[103.8056692,1.4589169]]]}},{"type":"Feature","id":"way/171176027-0","properties":{"addr:city":"Singapore","addr:country":"SG","addr:housenumber":"21","addr:street":"Senoko South Road","building":"industrial","clearanceGeometry":{"type":"Polygon","coordinates":[[[103.8046863,1.455886],[103.8041785,1.4565106],[103.8044387,1.4567211],[103.8049428,1.4560981],[103.8046863,1.455886]]]},"clearanceHeight":1.7,"clearancePrepared":true},"geometry":{"type":"Polygon","coordinates":[[[103.8049428,1.4560981],[103.8046863,1.455886],[103.8041785,1.4565106],[103.8044387,1.4567211],[103.8049428,1.4560981]]]}},{"type":"Feature","id":"way/171176028-0","properties":{"addr:city":"Singapore","addr:country":"SG","addr:housenumber":"14","addr:street":"Senoko South Road","building":"industrial","clearanceGeometry":{"type":"Polygon","coordinates":[[[103.8050355,1.4578987],[103.8048729,1.4577777],[103.8048517,1.4578062],[103.8048445,1.4578009],[103.8045972,1.4581332],[103.80472079909083,1.458225134694926],[103.8047434081204,1.4582343929009338],[103.8047897,1.4582291],[103.8050355,1.4578987]]]},"clearanceHeight":1.7,"clearancePrepared":true},"geometry":{"type":"Polygon","coordinates":[[[103.8047897,1.4582291],[103.8050355,1.4578987],[103.8048729,1.4577777],[103.8048517,1.4578062],[103.8048445,1.4578009],[103.8045972,1.4581332],[103.8047346,1.4582354],[103.8047897,1.4582291]]]}},{"type":"Feature","id":"way/171176029-0","properties":{"addr:city":"Singapore","addr:country":"SG","addr:housenumber":"20","addr:street":"Senoko South Road","building":"industrial","clearanceGeometry":{"type":"Polygon","coordinates":[[[103.8039147,1.4568683],[103.8035932,1.4572661],[103.8038537,1.4574765],[103.8041752,1.4570787],[103.8039147,1.4568683]]]},"clearanceHeight":1.7,"clearancePrepared":true},"geometry":{"type":"Polygon","coordinates":[[[103.8041752,1.4570787],[103.8039147,1.4568683],[103.8035932,1.4572661],[103.8038537,1.4574765],[103.8041752,1.4570787]]]}},{"type":"Feature","id":"way/171176030-0","properties":{"addr:city":"Singapore","addr:country":"SG","addr:housenumber":"17","addr:street":"Senoko South Road","building":"industrial","clearanceGeometry":{"type":"Polygon","coordinates":[[[103.8053952,1.4568419],[103.8053086,1.4569458],[103.8052598,1.4570042],[103.8051358,1.457153],[103.8050629,1.4572404],[103.8053266,1.4574602],[103.8056589,1.4570617],[103.8053952,1.4568419]]]},"clearanceHeight":1.7,"clearancePrepared":true},"geometry":{"type":"Polygon","coordinates":[[[103.8056589,1.4570617],[103.8053952,1.4568419],[103.8053086,1.4569458],[103.8052598,1.4570042],[103.8051358,1.457153],[103.8050629,1.4572404],[103.8053266,1.4574602],[103.8056589,1.4570617]]]}},{"type":"Feature","id":"way/171176034-0","properties":{"addr:city":"Singapore","addr:country":"SG","addr:housenumber":"29","addr:street":"Senoko South Road","building":"industrial","clearanceGeometry":{"type":"Polygon","coordinates":[[[103.8023772,1.4549972],[103.8026462,1.4552187],[103.80281859560932,1.455009571597933],[103.80313061246426,1.4546103110821842],[103.80287207384174,1.4543967843436745],[103.8023772,1.4549972]]]},"clearanceHeight":1.7,"clearancePrepared":true},"geometry":{"type":"Polygon","coordinates":[[[103.8031526,1.4546044],[103.8028836,1.4543828],[103.8023772,1.4549972],[103.8026462,1.4552187],[103.8031526,1.4546044]]]}},{"type":"Feature","id":"way/171176036-0","properties":{"building":"industrial","clearanceGeometry":{"type":"Polygon","coordinates":[[[103.8053952,1.4568419],[103.8056589,1.4570617],[103.8059162,1.4567533],[103.8055783,1.4564717],[103.8053211,1.4567802],[103.8053952,1.4568419]]]},"clearanceHeight":1.7,"clearancePrepared":true},"geometry":{"type":"Polygon","coordinates":[[[103.8053211,1.4567802],[103.8053952,1.4568419],[103.8056589,1.4570617],[103.8059162,1.4567533],[103.8055783,1.4564717],[103.8053211,1.4567802]]]}},{"type":"Feature","id":"way/171176038-0","properties":{"addr:city":"Singapore","addr:country":"SG","addr:housenumber":"8","addr:street":"Senoko South Road","building":"industrial","name":"Chng Kee's Foodlink","clearanceGeometry":{"type":"Polygon","coordinates":[[[103.8041797,1.4582471],[103.8038922,1.4585806],[103.8043626,1.458986],[103.8046502,1.4586525],[103.8041797,1.4582471]]]},"clearanceHeight":1.7,"clearancePrepared":true},"geometry":{"type":"Polygon","coordinates":[[[103.8046502,1.4586525],[103.8041797,1.4582471],[103.8038922,1.4585806],[103.8043626,1.458986],[103.8046502,1.4586525]]]}},{"type":"Feature","id":"way/171176040-0","properties":{"building":"yes","clearanceGeometry":{"type":"Polygon","coordinates":[[[103.8049428,1.4560981],[103.8049973,1.4561431],[103.8050853,1.4560368],[103.8047742,1.4557796],[103.8046863,1.455886],[103.8049428,1.4560981]]]},"clearanceHeight":1.7,"clearancePrepared":true},"geometry":{"type":"Polygon","coordinates":[[[103.8046863,1.455886],[103.8049428,1.4560981],[103.8049973,1.4561431],[103.8050853,1.4560368],[103.8047742,1.4557796],[103.8046863,1.455886]]]}},{"type":"Feature","id":"way/171176041-0","properties":{"addr:city":"Singapore","addr:country":"SG","addr:housenumber":"10","addr:street":"Senoko South Road","building":"industrial","name":"Toh Li Food Products","office":"company","clearanceGeometry":{"type":"Polygon","coordinates":[[[103.8037781,1.457904],[103.8037327,1.4578705],[103.8037072,1.4578618],[103.8036842,1.4578593],[103.8036549,1.4578658],[103.8036305,1.4578783],[103.8035238,1.4579636],[103.8034153,1.4578406],[103.8033628,1.4578869],[103.803285,1.4577986],[103.8032124,1.4578627],[103.8036982,1.4584135],[103.803996,1.458151],[103.8037781,1.457904]]]},"clearanceHeight":1.7,"clearancePrepared":true},"geometry":{"type":"Polygon","coordinates":[[[103.803996,1.458151],[103.8037781,1.457904],[103.8037327,1.4578705],[103.8037072,1.4578618],[103.8036842,1.4578593],[103.8036549,1.4578658],[103.8036305,1.4578783],[103.8035238,1.4579636],[103.8034153,1.4578406],[103.8033628,1.4578869],[103.803285,1.4577986],[103.8032124,1.4578627],[103.8036982,1.4584135],[103.803996,1.458151]]]}},{"type":"Feature","id":"way/171176042-0","properties":{"addr:city":"Singapore","addr:country":"SG","addr:housenumber":"27","addr:street":"Senoko South Road","building":"industrial","clearanceGeometry":{"type":"Polygon","coordinates":[[[103.8033139,1.455462],[103.8036256,1.4550753],[103.8035437,1.4550094],[103.8035875,1.454955],[103.8033255,1.4547441],[103.8028176,1.4553743],[103.8030809,1.4555864],[103.8032334,1.4553972],[103.8033139,1.455462]]]},"clearanceHeight":1.7,"clearancePrepared":true},"geometry":{"type":"Polygon","coordinates":[[[103.8032334,1.4553972],[103.8033139,1.455462],[103.8036256,1.4550753],[103.8035437,1.4550094],[103.8035875,1.454955],[103.8033255,1.4547441],[103.8028176,1.4553743],[103.8030809,1.4555864],[103.8032334,1.4553972]]]}},{"type":"Feature","id":"way/252391733-0","properties":{"building":"yes","source":"Bing","clearanceGeometry":{"type":"Polygon","coordinates":[[[103.8053203,1.454974],[103.8052382,1.4549405],[103.8051723,1.4551016],[103.8052543,1.4551352],[103.8052658,1.4551073],[103.8052952,1.4551193],[103.8052543,1.4552192],[103.8052195,1.455205],[103.8052333,1.4551712],[103.8051485,1.4551365],[103.8050844,1.4552932],[103.8051692,1.4553279],[103.8052031,1.4552451],[103.8052379,1.4552594],[103.805215,1.4553152],[103.8052995,1.4553498],[103.805414,1.4550699],[103.8053296,1.4550353],[103.805309,1.4550856],[103.8052795,1.4550736],[103.8053203,1.454974]]]},"clearanceHeight":1.7,"clearancePrepared":true},"geometry":{"type":"Polygon","coordinates":[[[103.8052795,1.4550736],[103.8053203,1.454974],[103.8052382,1.4549405],[103.8051723,1.4551016],[103.8052543,1.4551352],[103.8052658,1.4551073],[103.8052952,1.4551193],[103.8052543,1.4552192],[103.8052195,1.455205],[103.8052333,1.4551712],[103.8051485,1.4551365],[103.8050844,1.4552932],[103.8051692,1.4553279],[103.8052031,1.4552451],[103.8052379,1.4552594],[103.805215,1.4553152],[103.8052995,1.4553498],[103.805414,1.4550699],[103.8053296,1.4550353],[103.805309,1.4550856],[103.8052795,1.4550736]]]}},{"type":"Feature","id":"way/252392089-0","properties":{"building":"yes","source":"Bing","clearanceGeometry":{"type":"Polygon","coordinates":[[[103.8048182,1.4547908],[103.8046818,1.4549497],[103.805011,1.4552322],[103.8050596,1.4551757],[103.8050127,1.4551355],[103.8051126,1.4550192],[103.804905,1.4548411],[103.804893,1.4548551],[103.8048182,1.4547908]]]},"clearanceHeight":1.7,"clearancePrepared":true},"geometry":{"type":"Polygon","coordinates":[[[103.804893,1.4548551],[103.8048182,1.4547908],[103.8046818,1.4549497],[103.805011,1.4552322],[103.8050596,1.4551757],[103.8050127,1.4551355],[103.8051126,1.4550192],[103.804905,1.4548411],[103.804893,1.4548551]]]}},{"type":"Feature","id":"way/252392104-0","properties":{"building":"yes","source":"Bing","clearanceGeometry":{"type":"Polygon","coordinates":[[[103.8045078,1.4548195],[103.8045276,1.4547969],[103.8046128,1.4548712],[103.8046995,1.4547719],[103.8044406,1.4545461],[103.8043539,1.4546454],[103.8044312,1.4547128],[103.8044114,1.4547355],[103.8045078,1.4548195]]]},"clearanceHeight":1.7,"clearancePrepared":true},"geometry":{"type":"Polygon","coordinates":[[[103.8044114,1.4547355],[103.8045078,1.4548195],[103.8045276,1.4547969],[103.8046128,1.4548712],[103.8046995,1.4547719],[103.8044406,1.4545461],[103.8043539,1.4546454],[103.8044312,1.4547128],[103.8044114,1.4547355]]]}},{"type":"Feature","id":"way/252392107-0","properties":{"building":"yes","source":"Bing","clearanceGeometry":{"type":"Polygon","coordinates":[[[103.8049586,1.4556311],[103.8050591,1.4557152],[103.8051161,1.455647],[103.8050714,1.4556096],[103.8051068,1.4555673],[103.8051173,1.4555762],[103.8051804,1.4555009],[103.8049684,1.4553235],[103.8049053,1.4553989],[103.8049182,1.4554096],[103.8048949,1.4554374],[103.8048196,1.4553744],[103.8048511,1.4553367],[103.8048719,1.455354],[103.8049309,1.4552835],[103.8047059,1.4550953],[103.8046468,1.4551658],[103.8046605,1.4551772],[103.8046406,1.4552009],[103.8045582,1.455132],[103.8045879,1.4550966],[103.8046082,1.4551136],[103.8046629,1.4550482],[103.804436,1.4548585],[103.8043813,1.4549238],[103.804399,1.4549387],[103.8043695,1.4549739],[103.8042924,1.4549094],[103.8043271,1.454868],[103.8043493,1.4548865],[103.8044131,1.4548104],[103.8041918,1.4546253],[103.8041281,1.4547015],[103.8041385,1.4547102],[103.8041217,1.4547302],[103.8040432,1.4546645],[103.8040659,1.4546374],[103.8040807,1.4546497],[103.8041464,1.4545712],[103.8039207,1.4543824],[103.803855,1.454461],[103.8038742,1.454477],[103.8038576,1.4544968],[103.8037824,1.4544339],[103.8038036,1.4544086],[103.8038226,1.4544244],[103.8038853,1.4543495],[103.8037657,1.4542494],[103.8037029,1.4543243],[103.8037732,1.4543831],[103.803752,1.4544084],[103.8037066,1.4543705],[103.8036497,1.4544386],[103.8038784,1.4546299],[103.8039354,1.4545619],[103.8038796,1.4545152],[103.8038961,1.4544954],[103.8040359,1.4546123],[103.8040132,1.4546394],[103.8039671,1.4546009],[103.8039067,1.4546731],[103.8041283,1.4548585],[103.8041887,1.4547863],[103.8041496,1.4547535],[103.8041663,1.4547335],[103.8042979,1.4548435],[103.8042632,1.4548849],[103.8042222,1.4548506],[103.8041686,1.4549146],[103.804391,1.4551007],[103.8044446,1.4550367],[103.8044028,1.4550018],[103.8044324,1.4549665],[103.8045632,1.4550759],[103.8045335,1.4551114],[103.804491,1.4550757],[103.8044323,1.4551458],[103.8046521,1.4553296],[103.8047108,1.4552596],[103.8046634,1.45522],[103.8046833,1.4551963],[103.8048242,1.4553141],[103.8047926,1.4553518],[103.8047486,1.455315],[103.8046885,1.4553868],[103.8049134,1.455575],[103.8049736,1.4555032],[103.8049208,1.455459],[103.8049441,1.4554312],[103.8050775,1.4555429],[103.8050422,1.4555851],[103.8050157,1.455563],[103.8049586,1.4556311]]]},"clearanceHeight":1.7,"clearancePrepared":true},"geometry":{"type":"Polygon","coordinates":[[[103.8050157,1.455563],[103.8049586,1.4556311],[103.8050591,1.4557152],[103.8051161,1.455647],[103.8050714,1.4556096],[103.8051068,1.4555673],[103.8051173,1.4555762],[103.8051804,1.4555009],[103.8049684,1.4553235],[103.8049053,1.4553989],[103.8049182,1.4554096],[103.8048949,1.4554374],[103.8048196,1.4553744],[103.8048511,1.4553367],[103.8048719,1.455354],[103.8049309,1.4552835],[103.8047059,1.4550953],[103.8046468,1.4551658],[103.8046605,1.4551772],[103.8046406,1.4552009],[103.8045582,1.455132],[103.8045879,1.4550966],[103.8046082,1.4551136],[103.8046629,1.4550482],[103.804436,1.4548585],[103.8043813,1.4549238],[103.804399,1.4549387],[103.8043695,1.4549739],[103.8042924,1.4549094],[103.8043271,1.454868],[103.8043493,1.4548865],[103.8044131,1.4548104],[103.8041918,1.4546253],[103.8041281,1.4547015],[103.8041385,1.4547102],[103.8041217,1.4547302],[103.8040432,1.4546645],[103.8040659,1.4546374],[103.8040807,1.4546497],[103.8041464,1.4545712],[103.8039207,1.4543824],[103.803855,1.454461],[103.8038742,1.454477],[103.8038576,1.4544968],[103.8037824,1.4544339],[103.8038036,1.4544086],[103.8038226,1.4544244],[103.8038853,1.4543495],[103.8037657,1.4542494],[103.8037029,1.4543243],[103.8037732,1.4543831],[103.803752,1.4544084],[103.8037066,1.4543705],[103.8036497,1.4544386],[103.8038784,1.4546299],[103.8039354,1.4545619],[103.8038796,1.4545152],[103.8038961,1.4544954],[103.8040359,1.4546123],[103.8040132,1.4546394],[103.8039671,1.4546009],[103.8039067,1.4546731],[103.8041283,1.4548585],[103.8041887,1.4547863],[103.8041496,1.4547535],[103.8041663,1.4547335],[103.8042979,1.4548435],[103.8042632,1.4548849],[103.8042222,1.4548506],[103.8041686,1.4549146],[103.804391,1.4551007],[103.8044446,1.4550367],[103.8044028,1.4550018],[103.8044324,1.4549665],[103.8045632,1.4550759],[103.8045335,1.4551114],[103.804491,1.4550757],[103.8044323,1.4551458],[103.8046521,1.4553296],[103.8047108,1.4552596],[103.8046634,1.45522],[103.8046833,1.4551963],[103.8048242,1.4553141],[103.8047926,1.4553518],[103.8047486,1.455315],[103.8046885,1.4553868],[103.8049134,1.455575],[103.8049736,1.4555032],[103.8049208,1.455459],[103.8049441,1.4554312],[103.8050775,1.4555429],[103.8050422,1.4555851],[103.8050157,1.455563]]]}},{"type":"Feature","id":"way/481117343-0","properties":{"addr:city":"Singapore","addr:country":"SG","addr:housenumber":"24A","addr:street":"Senoko South Road","building":"industrial","name":"DSM-Firmenich","office":"company","clearanceGeometry":{"type":"Polygon","coordinates":[[[103.80246,1.4564962],[103.80222630991341,1.4568072200133908],[103.80212663447847,1.4569611874643211],[103.8024471,1.4572019],[103.8027907,1.4567446],[103.80246,1.4564962]]]},"clearanceHeight":1.7,"clearancePrepared":true},"geometry":{"type":"Polygon","coordinates":[[[103.8027907,1.4567446],[103.80246,1.4564962],[103.8021164,1.4569535],[103.8024471,1.4572019],[103.8027907,1.4567446]]]}},{"type":"Feature","id":"way/770976010-0","properties":{"building":"industrial","clearanceGeometry":{"type":"Polygon","coordinates":[[[103.8022197,1.4555568],[103.8021272,1.4557016],[103.80218751597758,1.4557401161996162],[103.80219205977622,1.4557360590108404],[103.8022815,1.4555962],[103.8022197,1.4555568]]]},"clearanceHeight":1.7,"clearancePrepared":true},"geometry":{"type":"Polygon","coordinates":[[[103.8022815,1.4555962],[103.8022197,1.4555568],[103.8021272,1.4557016],[103.8021889,1.455741],[103.8022815,1.4555962]]]}},{"type":"Feature","id":"way/770976012-0","properties":{"building:part":"yes","clearanceGeometry":{"type":"Polygon","coordinates":[[[103.801506,1.4548831],[103.8013684,1.455101],[103.8017395,1.4553352],[103.8018771,1.4551174],[103.801506,1.4548831]]]},"clearanceHeight":1.7,"clearancePrepared":true},"geometry":{"type":"Polygon","coordinates":[[[103.8018771,1.4551174],[103.801506,1.4548831],[103.8013684,1.455101],[103.8017395,1.4553352],[103.8018771,1.4551174]]]}},{"type":"Feature","id":"way/770976013-0","properties":{"building":"industrial","clearanceGeometry":{"type":"Polygon","coordinates":[[[103.8025691,1.4559911],[103.80257107852873,1.4559889999826725],[103.80254917229621,1.4559629397320095],[103.8025068,1.4559951],[103.8025235,1.4560186],[103.8024652,1.4561057],[103.8024573,1.4560995],[103.8024091,1.4561787],[103.8024934,1.4562299],[103.80260185350913,1.4560632864183185],[103.80260716584435,1.456046982070357],[103.80260716584435,1.45603193043594],[103.80260639639509,1.456031015078149],[103.8025691,1.4559911]]]},"clearanceHeight":1.7,"clearancePrepared":true},"geometry":{"type":"Polygon","coordinates":[[[103.8026161,1.4560414],[103.8025691,1.4559911],[103.8025805,1.455979],[103.8025624,1.4559529],[103.8025068,1.4559951],[103.8025235,1.4560186],[103.8024652,1.4561057],[103.8024573,1.4560995],[103.8024091,1.4561787],[103.8024934,1.4562299],[103.8026161,1.4560414]]]}},{"type":"Feature","id":"way/770976014-0","properties":{"building":"industrial","clearanceGeometry":{"type":"Polygon","coordinates":[[[103.8023227,1.4561752],[103.8019699,1.4567553],[103.8021089009455,1.4568397834490785],[103.80233301951445,1.4564935901789986],[103.8024934,1.4562299],[103.8024091,1.4561787],[103.8023874,1.4562145],[103.8023227,1.4561752]]]},"clearanceHeight":1.7,"clearancePrepared":true},"geometry":{"type":"Polygon","coordinates":[[[103.8023874,1.4562145],[103.8023227,1.4561752],[103.8019699,1.4567553],[103.8021188,1.4568458],[103.8024934,1.4562299],[103.8024091,1.4561787],[103.8023874,1.4562145]]]}},{"type":"Feature","id":"way/770976015-0","properties":{"building":"industrial","clearanceGeometry":{"type":"Polygon","coordinates":[[[103.8033651,1.4563913],[103.8031775,1.4566181],[103.803286,1.4567077],[103.8034735,1.4564809],[103.8033651,1.4563913]]]},"clearanceHeight":1.7,"clearancePrepared":true},"geometry":{"type":"Polygon","coordinates":[[[103.8034735,1.4564809],[103.8033651,1.4563913],[103.8031775,1.4566181],[103.803286,1.4567077],[103.8034735,1.4564809]]]}},{"type":"Feature","id":"way/770976016-0","properties":{"building":"industrial","clearanceGeometry":{"type":"Polygon","coordinates":[[[103.8030995,1.4566308],[103.8029077,1.4568628],[103.8030526,1.4569825],[103.8032444,1.4567506],[103.8030995,1.4566308]]]},"clearanceHeight":1.7,"clearancePrepared":true},"geometry":{"type":"Polygon","coordinates":[[[103.8032444,1.4567506],[103.8030995,1.4566308],[103.8029077,1.4568628],[103.8030526,1.4569825],[103.8032444,1.4567506]]]}},{"type":"Feature","id":"way/770976020-0","properties":{"building":"industrial","clearanceGeometry":{"type":"Polygon","coordinates":[[[103.8051358,1.457153],[103.8052598,1.4570042],[103.8051858,1.4569425],[103.8050618,1.4570912],[103.8051358,1.457153]]]},"clearanceHeight":1.7,"clearancePrepared":true},"geometry":{"type":"Polygon","coordinates":[[[103.8050618,1.4570912],[103.8051358,1.457153],[103.8052598,1.4570042],[103.8051858,1.4569425],[103.8050618,1.4570912]]]}},{"type":"Feature","id":"way/770976021-0","properties":{"building":"industrial","clearanceGeometry":{"type":"Polygon","coordinates":[[[103.8052598,1.4570042],[103.8053086,1.4569458],[103.8052345,1.4568841],[103.8051858,1.4569425],[103.8052598,1.4570042]]]},"clearanceHeight":1.7,"clearancePrepared":true},"geometry":{"type":"Polygon","coordinates":[[[103.8051858,1.4569425],[103.8052598,1.4570042],[103.8053086,1.4569458],[103.8052345,1.4568841],[103.8051858,1.4569425]]]}},{"type":"Feature","id":"way/770976022-0","properties":{"building":"industrial","clearanceGeometry":{"type":"Polygon","coordinates":[[[103.8053086,1.4569458],[103.8053952,1.4568419],[103.8053211,1.4567802],[103.8052345,1.4568841],[103.8053086,1.4569458]]]},"clearanceHeight":1.7,"clearancePrepared":true},"geometry":{"type":"Polygon","coordinates":[[[103.8052345,1.4568841],[103.8053086,1.4569458],[103.8053952,1.4568419],[103.8053211,1.4567802],[103.8052345,1.4568841]]]}},{"type":"Feature","id":"way/770976023-0","properties":{"building":"industrial","clearanceGeometry":{"type":"Polygon","coordinates":[[[103.8050579,1.456864],[103.8051461,1.4569356],[103.8055638,1.4564212],[103.8055362,1.4563988],[103.8054016,1.4565645],[103.8053411,1.4565154],[103.8050579,1.456864]]]},"clearanceHeight":1.7,"clearancePrepared":true},"geometry":{"type":"Polygon","coordinates":[[[103.8053411,1.4565154],[103.8050579,1.456864],[103.8051461,1.4569356],[103.8055638,1.4564212],[103.8055362,1.4563988],[103.8054016,1.4565645],[103.8053411,1.4565154]]]}},{"type":"Feature","id":"way/770976024-0","properties":{"addr:country":"SG","addr:street":"Senoko South Road","building":"industrial","clearanceGeometry":{"type":"Polygon","coordinates":[[[103.8039969,1.4553281],[103.8040515,1.4552609],[103.804101,1.4553011],[103.8041676,1.4552191],[103.8037916,1.4549138],[103.8032325,1.4556018],[103.8033312,1.4556818],[103.8037689,1.455143],[103.8039969,1.4553281]]]},"clearanceHeight":1.7,"clearancePrepared":true},"geometry":{"type":"Polygon","coordinates":[[[103.8037689,1.455143],[103.8039969,1.4553281],[103.8040515,1.4552609],[103.804101,1.4553011],[103.8041676,1.4552191],[103.8037916,1.4549138],[103.8032325,1.4556018],[103.8033312,1.4556818],[103.8037689,1.455143]]]}},{"type":"Feature","id":"way/1373395015-0","properties":{"building":"yes","man_made":"storage_tank","name":"\u2116 12 tank","clearanceGeometry":{"type":"Polygon","coordinates":[[[103.8059886,1.4558062],[103.8060084,1.455796],[103.8060265,1.4557831],[103.8060426,1.4557677],[103.8060564,1.4557503],[103.8060676,1.455731],[103.806076,1.4557104],[103.8060814,1.4556889],[103.8060837,1.4556667],[103.8060828,1.4556445],[103.8060789,1.4556226],[103.8060719,1.4556015],[103.806062,1.4555816],[103.8060494,1.4555632],[103.8060343,1.4555469],[103.8060171,1.4555328],[103.8059981,1.4555212],[103.8059776,1.4555125],[103.8059561,1.4555067],[103.8059341,1.455504],[103.8059118,1.4555044],[103.8058898,1.455508],[103.8058699,1.4555141],[103.805851,1.4555227],[103.8058334,1.4555338],[103.8058174,1.4555471],[103.8058033,1.4555624],[103.8057913,1.4555794],[103.8057817,1.4555978],[103.8057745,1.4556174],[103.8057701,1.4556377],[103.8057683,1.4556584],[103.8057692,1.4556792],[103.8057729,1.4556997],[103.8057793,1.4557195],[103.8057882,1.4557383],[103.8057995,1.4557557],[103.805813,1.4557716],[103.8058285,1.4557855],[103.8058457,1.4557972],[103.8058643,1.4558066],[103.8058839,1.4558135],[103.8059043,1.4558177],[103.805925,1.4558192],[103.8059458,1.4558179],[103.8059676,1.4558136],[103.8059886,1.4558062]]]},"clearanceHeight":1.7,"clearancePrepared":true},"geometry":{"type":"Polygon","coordinates":[[[103.8059676,1.4558136],[103.8059886,1.4558062],[103.8060084,1.455796],[103.8060265,1.4557831],[103.8060426,1.4557677],[103.8060564,1.4557503],[103.8060676,1.455731],[103.806076,1.4557104],[103.8060814,1.4556889],[103.8060837,1.4556667],[103.8060828,1.4556445],[103.8060789,1.4556226],[103.8060719,1.4556015],[103.806062,1.4555816],[103.8060494,1.4555632],[103.8060343,1.4555469],[103.8060171,1.4555328],[103.8059981,1.4555212],[103.8059776,1.4555125],[103.8059561,1.4555067],[103.8059341,1.455504],[103.8059118,1.4555044],[103.8058898,1.455508],[103.8058699,1.4555141],[103.805851,1.4555227],[103.8058334,1.4555338],[103.8058174,1.4555471],[103.8058033,1.4555624],[103.8057913,1.4555794],[103.8057817,1.4555978],[103.8057745,1.4556174],[103.8057701,1.4556377],[103.8057683,1.4556584],[103.8057692,1.4556792],[103.8057729,1.4556997],[103.8057793,1.4557195],[103.8057882,1.4557383],[103.8057995,1.4557557],[103.805813,1.4557716],[103.8058285,1.4557855],[103.8058457,1.4557972],[103.8058643,1.4558066],[103.8058839,1.4558135],[103.8059043,1.4558177],[103.805925,1.4558192],[103.8059458,1.4558179],[103.8059676,1.4558136]]]}},{"type":"Feature","id":"node/7986565673","properties":{"highway":"crossing"},"geometry":{"type":"Point","coordinates":[103.8038336,1.4577006]}},{"type":"Feature","id":"node/7986565675","properties":{"highway":"crossing"},"geometry":{"type":"Point","coordinates":[103.8038911,1.4578739]}},{"type":"Feature","id":"node/7986614986","properties":{"highway":"crossing"},"geometry":{"type":"Point","coordinates":[103.801631,1.4546886]}},{"type":"Feature","id":"node/7986614987","properties":{"highway":"crossing"},"geometry":{"type":"Point","coordinates":[103.8020869,1.4550786]}},{"type":"Feature","id":"node/7986614988","properties":{"highway":"crossing"},"geometry":{"type":"Point","coordinates":[103.8025282,1.4554407]}},{"type":"Feature","id":"node/7986614989","properties":{"highway":"crossing"},"geometry":{"type":"Point","coordinates":[103.8029803,1.4558234]}},{"type":"Feature","id":"node/7986614990","properties":{"highway":"crossing"},"geometry":{"type":"Point","coordinates":[103.8034168,1.4561854]}},{"type":"Feature","id":"node/7986614991","properties":{"highway":"crossing"},"geometry":{"type":"Point","coordinates":[103.8038801,1.4565609]}},{"type":"Feature","id":"node/7986614992","properties":{"highway":"crossing"},"geometry":{"type":"Point","coordinates":[103.8043364,1.4569535]}},{"type":"Feature","id":"node/7986614993","properties":{"highway":"crossing"},"geometry":{"type":"Point","coordinates":[103.8047805,1.4573118]}},{"type":"Feature","id":"node/7986614994","properties":{"highway":"crossing"},"geometry":{"type":"Point","coordinates":[103.8052229,1.457703]}},{"type":"Feature","id":"node/7986614996","properties":{"highway":"crossing"},"geometry":{"type":"Point","coordinates":[103.8052923,1.4578781]}},{"type":"Feature","id":"node/7986614997","properties":{"highway":"crossing"},"geometry":{"type":"Point","coordinates":[103.8050022,1.4576301]}},{"type":"Feature","id":"node/7986615000","properties":{"highway":"crossing"},"geometry":{"type":"Point","coordinates":[103.8036199,1.4564876]}},{"type":"Feature","id":"node/7986615002","properties":{"highway":"crossing"},"geometry":{"type":"Point","coordinates":[103.802941,1.4559112]}},{"type":"Feature","id":"node/7986615003","properties":{"highway":"crossing"},"geometry":{"type":"Point","coordinates":[103.8028773,1.455857]}},{"type":"Feature","id":"node/7986615004","properties":{"highway":"crossing"},"geometry":{"type":"Point","coordinates":[103.8024265,1.4554834]}},{"type":"Feature","id":"node/7986615005","properties":{"highway":"crossing"},"geometry":{"type":"Point","coordinates":[103.8020329,1.4551564]}},{"type":"Feature","id":"node/7991519566","properties":{"highway":"crossing"},"geometry":{"type":"Point","coordinates":[103.8050021,1.4583214]}},{"type":"Feature","id":"node/7991519572","properties":{"highway":"crossing"},"geometry":{"type":"Point","coordinates":[103.8041974,1.4581628]}},{"type":"Feature","id":"node/7991519574","properties":{"highway":"crossing"},"geometry":{"type":"Point","coordinates":[103.8044998,1.4583248]}},{"type":"Feature","id":"node/8031770232","properties":{"highway":"crossing"},"geometry":{"type":"Point","coordinates":[103.8034498,1.45748]}},{"type":"Feature","id":"node/8031770238","properties":{"highway":"crossing"},"geometry":{"type":"Point","coordinates":[103.8037674,1.4576287]}},{"type":"Feature","id":"node/14023590585","properties":{"highway":"crossing"},"geometry":{"type":"Point","coordinates":[103.8017015,1.459163]}},{"type":"Feature","id":"way/175840029-0-2-0","properties":{"highway":"primary","lanes":"2","maxspeed":"70","name":"Admiralty Road West","name:en":"Admiralty Road West","name:zh":"\u6d77\u519b\u90e8\u897f\u8def","oneway":"yes","source":"Yahoo aerial images","surface":"asphalt","startNodeId":"1436128901","endNodeId":"11269919634"},"geometry":{"type":"LineString","coordinates":[[103.8016016,1.4572882],[103.8018232,1.4574154]]}},{"type":"Feature","id":"way/175840029-0-3-0","properties":{"highway":"primary","lanes":"2","maxspeed":"70","name":"Admiralty Road West","name:en":"Admiralty Road West","name:zh":"\u6d77\u519b\u90e8\u897f\u8def","oneway":"yes","source":"Yahoo aerial images","surface":"asphalt","startNodeId":"11269919634","endNodeId":"1436128859"},"geometry":{"type":"LineString","coordinates":[[103.8018232,1.4574154],[103.8020191,1.4575397]]}},{"type":"Feature","id":"way/175840029-0-4-0","properties":{"highway":"primary","lanes":"2","maxspeed":"70","name":"Admiralty Road West","name:en":"Admiralty Road West","name:zh":"\u6d77\u519b\u90e8\u897f\u8def","oneway":"yes","source":"Yahoo aerial images","surface":"asphalt","startNodeId":"1436128859","endNodeId":"1436128904"},"geometry":{"type":"LineString","coordinates":[[103.8020191,1.4575397],[103.8021994,1.4576774]]}},{"type":"Feature","id":"way/175840029-0-5-0","properties":{"highway":"primary","lanes":"2","maxspeed":"70","name":"Admiralty Road West","name:en":"Admiralty Road West","name:zh":"\u6d77\u519b\u90e8\u897f\u8def","oneway":"yes","source":"Yahoo aerial images","surface":"asphalt","startNodeId":"1436128904","endNodeId":"1436128941"},"geometry":{"type":"LineString","coordinates":[[103.8021994,1.4576774],[103.8024666,1.4578837]]}},{"type":"Feature","id":"way/175840060-0-0-0","properties":{"access":"yes","highway":"unclassified","horse":"no","lanes":"4","lanes:backward":"2","lanes:forward":"2","maxspeed":"50","name":"Senoko South Road","source":"Yahoo aerial images","surface":"asphalt","startNodeId":"5272823450","endNodeId":"6056331998"},"geometry":{"type":"LineString","coordinates":[[103.8029523,1.4558618],[103.8029664,1.4558736]]}},{"type":"Feature","id":"way/176305409-0-3-0","properties":{"highway":"primary","lanes":"2","maxspeed":"70","name":"Admiralty Road West","name:en":"Admiralty Road West","name:zh":"\u6d77\u519b\u90e8\u897f\u8def","oneway":"yes","smoothness":"excellent","source":"Yahoo aerial images","surface":"asphalt","startNodeId":"1436128940","endNodeId":"1436128893"},"geometry":{"type":"LineString","coordinates":[[103.8042704,1.459336],[103.8038869,1.4589369]]}},{"type":"Feature","id":"way/176305409-0-4-0","properties":{"highway":"primary","lanes":"2","maxspeed":"70","name":"Admiralty Road West","name:en":"Admiralty Road West","name:zh":"\u6d77\u519b\u90e8\u897f\u8def","oneway":"yes","smoothness":"excellent","source":"Yahoo aerial images","surface":"asphalt","startNodeId":"1436128893","endNodeId":"1436128933"},"geometry":{"type":"LineString","coordinates":[[103.8038869,1.4589369],[103.8036127,1.458669]]}},{"type":"Feature","id":"way/176305409-0-5-0","properties":{"highway":"primary","lanes":"2","maxspeed":"70","name":"Admiralty Road West","name:en":"Admiralty Road West","name:zh":"\u6d77\u519b\u90e8\u897f\u8def","oneway":"yes","smoothness":"excellent","source":"Yahoo aerial images","surface":"asphalt","startNodeId":"1436128933","endNodeId":"1436128931"},"geometry":{"type":"LineString","coordinates":[[103.8036127,1.458669],[103.8033927,1.4584424]]}},{"type":"Feature","id":"way/176305409-0-6-0","properties":{"highway":"primary","lanes":"2","maxspeed":"70","name":"Admiralty Road West","name:en":"Admiralty Road West","name:zh":"\u6d77\u519b\u90e8\u897f\u8def","oneway":"yes","smoothness":"excellent","source":"Yahoo aerial images","surface":"asphalt","startNodeId":"1436128931","endNodeId":"1531262570"},"geometry":{"type":"LineString","coordinates":[[103.8033927,1.4584424],[103.8032977,1.4582974]]}},{"type":"Feature","id":"way/176305409-0-7-0","properties":{"highway":"primary","lanes":"2","maxspeed":"70","name":"Admiralty Road West","name:en":"Admiralty Road West","name:zh":"\u6d77\u519b\u90e8\u897f\u8def","oneway":"yes","smoothness":"excellent","source":"Yahoo aerial images","surface":"asphalt","startNodeId":"1531262570","endNodeId":"1436128852"},"geometry":{"type":"LineString","coordinates":[[103.8032977,1.4582974],[103.8031359,1.4581325]]}},{"type":"Feature","id":"way/176305409-0-8-0","properties":{"highway":"primary","lanes":"2","maxspeed":"70","name":"Admiralty Road West","name:en":"Admiralty Road West","name:zh":"\u6d77\u519b\u90e8\u897f\u8def","oneway":"yes","smoothness":"excellent","source":"Yahoo aerial images","surface":"asphalt","startNodeId":"1436128852","endNodeId":"1436128905"},"geometry":{"type":"LineString","coordinates":[[103.8031359,1.4581325],[103.8029045,1.4578847]]}},{"type":"Feature","id":"way/176305409-0-9-0","properties":{"highway":"primary","lanes":"2","maxspeed":"70","name":"Admiralty Road West","name:en":"Admiralty Road West","name:zh":"\u6d77\u519b\u90e8\u897f\u8def","oneway":"yes","smoothness":"excellent","source":"Yahoo aerial images","surface":"asphalt","startNodeId":"1436128905","endNodeId":"1436128899"},"geometry":{"type":"LineString","coordinates":[[103.8029045,1.4578847],[103.8026361,1.4576555]]}},{"type":"Feature","id":"way/176305409-0-10-0","properties":{"highway":"primary","lanes":"2","maxspeed":"70","name":"Admiralty Road West","name:en":"Admiralty Road West","name:zh":"\u6d77\u519b\u90e8\u897f\u8def","oneway":"yes","smoothness":"excellent","source":"Yahoo aerial images","surface":"asphalt","startNodeId":"1436128899","endNodeId":"1436128867"},"geometry":{"type":"LineString","coordinates":[[103.8026361,1.4576555],[103.8023853,1.4574564]]}},{"type":"Feature","id":"way/176305409-0-11-0","properties":{"highway":"primary","lanes":"2","maxspeed":"70","name":"Admiralty Road West","name:en":"Admiralty Road West","name:zh":"\u6d77\u519b\u90e8\u897f\u8def","oneway":"yes","smoothness":"excellent","source":"Yahoo aerial images","surface":"asphalt","startNodeId":"1436128867","endNodeId":"1436128863"},"geometry":{"type":"LineString","coordinates":[[103.8023853,1.4574564],[103.8020077,1.4571958]]}},{"type":"Feature","id":"way/176305409-0-12-0","properties":{"highway":"primary","lanes":"2","maxspeed":"70","name":"Admiralty Road West","name:en":"Admiralty Road West","name:zh":"\u6d77\u519b\u90e8\u897f\u8def","oneway":"yes","smoothness":"excellent","source":"Yahoo aerial images","surface":"asphalt","startNodeId":"1436128863","endNodeId":"1436128909"},"geometry":{"type":"LineString","coordinates":[[103.8020077,1.4571958],[103.8017072,1.4570231]]}},{"type":"Feature","id":"way/176305409-0-13-0","properties":{"highway":"primary","lanes":"2","maxspeed":"70","name":"Admiralty Road West","name:en":"Admiralty Road West","name:zh":"\u6d77\u519b\u90e8\u897f\u8def","oneway":"yes","smoothness":"excellent","source":"Yahoo aerial images","surface":"asphalt","startNodeId":"1436128909","endNodeId":"1436128906"},"geometry":{"type":"LineString","coordinates":[[103.8017072,1.4570231],[103.8015002,1.4569027]]}},{"type":"Feature","id":"way/465782673-0-0-0","properties":{"highway":"service","lanes":"2","lanes:backward":"1","lanes:forward":"1","name":"Senoko South Road","turn:lanes:backward":"left;right","startNodeId":"4607036449","endNodeId":"4607036448"},"geometry":{"type":"LineString","coordinates":[[103.8049608,1.4582857],[103.8048521,1.4583795]]}},{"type":"Feature","id":"way/465782673-0-1-0","properties":{"highway":"service","lanes":"2","lanes:backward":"1","lanes:forward":"1","name":"Senoko South Road","turn:lanes:backward":"left;right","startNodeId":"4607036448","endNodeId":"4607036447"},"geometry":{"type":"LineString","coordinates":[[103.8048521,1.4583795],[103.8047395,1.4584277]]}},{"type":"Feature","id":"way/465782673-0-2-0","properties":{"highway":"service","lanes":"2","lanes:backward":"1","lanes:forward":"1","name":"Senoko South Road","turn:lanes:backward":"left;right","startNodeId":"4607036447","endNodeId":"4607036446"},"geometry":{"type":"LineString","coordinates":[[103.8047395,1.4584277],[103.8046322,1.4584117]]}},{"type":"Feature","id":"way/465782673-0-3-0","properties":{"highway":"service","lanes":"2","lanes:backward":"1","lanes:forward":"1","name":"Senoko South Road","turn:lanes:backward":"left;right","startNodeId":"4607036446","endNodeId":"4607036445"},"geometry":{"type":"LineString","coordinates":[[103.8046322,1.4584117],[103.8045142,1.4583795]]}},{"type":"Feature","id":"way/465782673-0-4-0","properties":{"highway":"service","lanes":"2","lanes:backward":"1","lanes:forward":"1","name":"Senoko South Road","turn:lanes:backward":"left;right","startNodeId":"4607036445","endNodeId":"5278500258"},"geometry":{"type":"LineString","coordinates":[[103.8045142,1.4583795],[103.8044791,1.4583488]]}},{"type":"Feature","id":"way/545541316-0-5-0","properties":{"highway":"service","lanes":"2","lanes:backward":"1","lanes:forward":"1","startNodeId":"5272508983","endNodeId":"6691096836"},"geometry":{"type":"LineString","coordinates":[[103.804788,1.4546886],[103.805421,1.4549702]]}},{"type":"Feature","id":"way/545541316-0-6-0","properties":{"highway":"service","lanes":"2","lanes:backward":"1","lanes:forward":"1","startNodeId":"6691096836","endNodeId":"5680920855"},"geometry":{"type":"LineString","coordinates":[[103.805421,1.4549702],[103.80549,1.4550218]]}},{"type":"Feature","id":"way/545541316-0-7-0","properties":{"highway":"service","lanes":"2","lanes:backward":"1","lanes:forward":"1","startNodeId":"5680920855","endNodeId":"6691096835"},"geometry":{"type":"LineString","coordinates":[[103.80549,1.4550218],[103.8054948,1.4550922]]}},{"type":"Feature","id":"way/545541316-0-8-0","properties":{"highway":"service","lanes":"2","lanes:backward":"1","lanes:forward":"1","startNodeId":"6691096835","endNodeId":"5278511014"},"geometry":{"type":"LineString","coordinates":[[103.8054948,1.4550922],[103.805307,1.4554528]]}},{"type":"Feature","id":"way/545575503-0-0-0","properties":{"highway":"service","startNodeId":"5272802707","endNodeId":"7986565673"},"geometry":{"type":"LineString","coordinates":[[103.8038087,1.4577354],[103.8038336,1.4577006]]}},{"type":"Feature","id":"way/545575503-0-1-0","properties":{"highway":"service","startNodeId":"7986565673","endNodeId":"5272802706"},"geometry":{"type":"LineString","coordinates":[[103.8038336,1.4577006],[103.8038888,1.4576427]]}},{"type":"Feature","id":"way/545575503-0-2-0","properties":{"highway":"service","startNodeId":"5272802706","endNodeId":"5272802705"},"geometry":{"type":"LineString","coordinates":[[103.8038888,1.4576427],[103.8038976,1.4576409]]}},{"type":"Feature","id":"way/545575503-0-3-0","properties":{"highway":"service","startNodeId":"5272802705","endNodeId":"8655131885"},"geometry":{"type":"LineString","coordinates":[[103.8038976,1.4576409],[103.8039052,1.4576448]]}},{"type":"Feature","id":"way/545575503-0-4-0","properties":{"highway":"service","startNodeId":"8655131885","endNodeId":"8655131884"},"geometry":{"type":"LineString","coordinates":[[103.8039052,1.4576448],[103.8041181,1.4578258]]}},{"type":"Feature","id":"way/545575503-0-5-0","properties":{"highway":"service","startNodeId":"8655131884","endNodeId":"8655131883"},"geometry":{"type":"LineString","coordinates":[[103.8041181,1.4578258],[103.8041355,1.4578332]]}},{"type":"Feature","id":"way/545575503-0-6-0","properties":{"highway":"service","startNodeId":"8655131883","endNodeId":"8655131882"},"geometry":{"type":"LineString","coordinates":[[103.8041355,1.4578332],[103.804155,1.4578318]]}},{"type":"Feature","id":"way/545575503-0-7-0","properties":{"highway":"service","startNodeId":"8655131882","endNodeId":"8655131881"},"geometry":{"type":"LineString","coordinates":[[103.804155,1.4578318],[103.8041718,1.4578184]]}},{"type":"Feature","id":"way/545575503-0-8-0","properties":{"highway":"service","startNodeId":"8655131881","endNodeId":"8655131880"},"geometry":{"type":"LineString","coordinates":[[103.8041718,1.4578184],[103.804438,1.457441]]}},{"type":"Feature","id":"way/545575503-0-9-0","properties":{"highway":"service","startNodeId":"8655131880","endNodeId":"8655131879"},"geometry":{"type":"LineString","coordinates":[[103.804438,1.457441],[103.8044554,1.4574082]]}},{"type":"Feature","id":"way/545575503-0-10-0","properties":{"highway":"service","startNodeId":"8655131879","endNodeId":"8655131878"},"geometry":{"type":"LineString","coordinates":[[103.8044554,1.4574082],[103.8044588,1.457382]]}},{"type":"Feature","id":"way/545575503-0-11-0","properties":{"highway":"service","startNodeId":"8655131878","endNodeId":"8655131877"},"geometry":{"type":"LineString","coordinates":[[103.8044588,1.457382],[103.8044453,1.4573545]]}},{"type":"Feature","id":"way/545575503-0-12-0","properties":{"highway":"service","startNodeId":"8655131877","endNodeId":"8655131876"},"geometry":{"type":"LineString","coordinates":[[103.8044453,1.4573545],[103.8043582,1.4572862]]}},{"type":"Feature","id":"way/545575503-0-13-0","properties":{"highway":"service","startNodeId":"8655131876","endNodeId":"8655131875"},"geometry":{"type":"LineString","coordinates":[[103.8043582,1.4572862],[103.8042361,1.4571903]]}},{"type":"Feature","id":"way/545575503-0-14-0","properties":{"highway":"service","startNodeId":"8655131875","endNodeId":"8655131874"},"geometry":{"type":"LineString","coordinates":[[103.8042361,1.4571903],[103.8042106,1.457189]]}},{"type":"Feature","id":"way/545575503-0-15-0","properties":{"highway":"service","startNodeId":"8655131874","endNodeId":"8655131873"},"geometry":{"type":"LineString","coordinates":[[103.8042106,1.457189],[103.8041919,1.457197]]}},{"type":"Feature","id":"way/545575503-0-16-0","properties":{"highway":"service","startNodeId":"8655131873","endNodeId":"8655131872"},"geometry":{"type":"LineString","coordinates":[[103.8041919,1.457197],[103.8041644,1.4572245]]}},{"type":"Feature","id":"way/545575504-0-0-0","properties":{"highway":"service","startNodeId":"5272802719","endNodeId":"7991519572"},"geometry":{"type":"LineString","coordinates":[[103.8042255,1.4581267],[103.8041974,1.4581628]]}},{"type":"Feature","id":"way/545575504-0-1-0","properties":{"highway":"service","startNodeId":"7991519572","endNodeId":"5272802708"},"geometry":{"type":"LineString","coordinates":[[103.8041974,1.4581628],[103.8041706,1.4581973]]}},{"type":"Feature","id":"way/545575506-0-0-0","properties":{"highway":"service","name":"Senoko South Road","oneway":"yes","startNodeId":"5272804428","endNodeId":"5272804427"},"geometry":{"type":"LineString","coordinates":[[103.803463,1.4574946],[103.8034335,1.4575161]]}},{"type":"Feature","id":"way/545575506-0-1-0","properties":{"highway":"service","name":"Senoko South Road","oneway":"yes","startNodeId":"5272804427","endNodeId":"5272804426"},"geometry":{"type":"LineString","coordinates":[[103.8034335,1.4575161],[103.8033892,1.4575831]]}},{"type":"Feature","id":"way/545575506-0-2-0","properties":{"highway":"service","name":"Senoko South Road","oneway":"yes","startNodeId":"5272804426","endNodeId":"5272804425"},"geometry":{"type":"LineString","coordinates":[[103.8033892,1.4575831],[103.8033865,1.457622]]}},{"type":"Feature","id":"way/545575506-0-3-0","properties":{"highway":"service","name":"Senoko South Road","oneway":"yes","startNodeId":"5272804425","endNodeId":"5272804424"},"geometry":{"type":"LineString","coordinates":[[103.8033865,1.457622],[103.8034067,1.4576582]]}},{"type":"Feature","id":"way/545575506-0-4-0","properties":{"highway":"service","name":"Senoko South Road","oneway":"yes","startNodeId":"5272804424","endNodeId":"5272804423"},"geometry":{"type":"LineString","coordinates":[[103.8034067,1.4576582],[103.8034442,1.4576864]]}},{"type":"Feature","id":"way/545575506-0-5-0","properties":{"highway":"service","name":"Senoko South Road","oneway":"yes","startNodeId":"5272804423","endNodeId":"5272804422"},"geometry":{"type":"LineString","coordinates":[[103.8034442,1.4576864],[103.8034992,1.4577118]]}},{"type":"Feature","id":"way/545575506-0-6-0","properties":{"highway":"service","name":"Senoko South Road","oneway":"yes","startNodeId":"5272804422","endNodeId":"5272804421"},"geometry":{"type":"LineString","coordinates":[[103.8034992,1.4577118],[103.8035649,1.4577199]]}},{"type":"Feature","id":"way/545575506-0-7-0","properties":{"highway":"service","name":"Senoko South Road","oneway":"yes","startNodeId":"5272804421","endNodeId":"5272802720"},"geometry":{"type":"LineString","coordinates":[[103.8035649,1.4577199],[103.8037017,1.4577145]]}},{"type":"Feature","id":"way/545575506-0-8-0","properties":{"highway":"service","name":"Senoko South Road","oneway":"yes","startNodeId":"5272802720","endNodeId":"7986565676"},"geometry":{"type":"LineString","coordinates":[[103.8037017,1.4577145],[103.803763,1.4577217]]}},{"type":"Feature","id":"way/545575506-0-9-0","properties":{"highway":"service","name":"Senoko South Road","oneway":"yes","startNodeId":"7986565676","endNodeId":"4607036444"},"geometry":{"type":"LineString","coordinates":[[103.803763,1.4577217],[103.803796,1.4577259]]}},{"type":"Feature","id":"way/545577396-0-0-0","properties":{"highway":"service","startNodeId":"5272804431","endNodeId":"8031770238"},"geometry":{"type":"LineString","coordinates":[[103.8037486,1.4576461],[103.8037674,1.4576287]]}},{"type":"Feature","id":"way/545577396-0-1-0","properties":{"highway":"service","startNodeId":"8031770238","endNodeId":"5272823422"},"geometry":{"type":"LineString","coordinates":[[103.8037674,1.4576287],[103.8038304,1.4575402]]}},{"type":"Feature","id":"way/545577397-0-0-0","properties":{"highway":"service","startNodeId":"5272823423","endNodeId":"5272823422"},"geometry":{"type":"LineString","coordinates":[[103.8036548,1.4574115],[103.8038304,1.4575402]]}},{"type":"Feature","id":"way/545577404-0-0-0","properties":{"highway":"service","startNodeId":"5272823440","endNodeId":"5272823439"},"geometry":{"type":"LineString","coordinates":[[103.8038036,1.4562438],[103.8040063,1.4564091]]}},{"type":"Feature","id":"way/545577405-0-0-0","properties":{"highway":"service","lanes":"2","lanes:backward":"1","lanes:forward":"1","turn:lanes:backward":"through","turn:lanes:forward":"through","startNodeId":"5272823442","endNodeId":"7986614991"},"geometry":{"type":"LineString","coordinates":[[103.8038416,1.4566071],[103.8038801,1.4565609]]}},{"type":"Feature","id":"way/545577405-0-1-0","properties":{"highway":"service","lanes":"2","lanes:backward":"1","lanes:forward":"1","turn:lanes:backward":"through","turn:lanes:forward":"through","startNodeId":"7986614991","endNodeId":"5272823439"},"geometry":{"type":"LineString","coordinates":[[103.8038801,1.4565609],[103.8040063,1.4564091]]}},{"type":"Feature","id":"way/545577406-0-0-0","properties":{"highway":"service","startNodeId":"5272823444","endNodeId":"5272823447"},"geometry":{"type":"LineString","coordinates":[[103.8038404,1.4556796],[103.8041201,1.4553455]]}},{"type":"Feature","id":"way/545577412-0-0-0","properties":{"highway":"service","startNodeId":"5272823454","endNodeId":"5272823453"},"geometry":{"type":"LineString","coordinates":[[103.8023941,1.455072],[103.8026506,1.4552902]]}},{"type":"Feature","id":"way/545577413-0-0-0","properties":{"highway":"service","startNodeId":"5272823453","endNodeId":"5272823456"},"geometry":{"type":"LineString","coordinates":[[103.8026506,1.4552902],[103.8031867,1.4546042]]}},{"type":"Feature","id":"way/546194694-0-0-0","properties":{"highway":"service","startNodeId":"5278494044","endNodeId":"5278494043"},"geometry":{"type":"LineString","coordinates":[[103.802289,1.4557037],[103.8025242,1.4558704]]}},{"type":"Feature","id":"way/546194694-0-1-0","properties":{"highway":"service","startNodeId":"5278494043","endNodeId":"5278494042"},"geometry":{"type":"LineString","coordinates":[[103.8025242,1.4558704],[103.8026476,1.4560172]]}},{"type":"Feature","id":"way/546194694-0-2-0","properties":{"highway":"service","startNodeId":"5278494042","endNodeId":"5278494041"},"geometry":{"type":"LineString","coordinates":[[103.8026476,1.4560172],[103.8026476,1.4560534]]}},{"type":"Feature","id":"way/546194694-0-3-0","properties":{"highway":"service","startNodeId":"5278494041","endNodeId":"5278494040"},"geometry":{"type":"LineString","coordinates":[[103.8026476,1.4560534],[103.8026288,1.4561111]]}},{"type":"Feature","id":"way/546194694-0-4-0","properties":{"highway":"service","startNodeId":"5278494040","endNodeId":"5278494039"},"geometry":{"type":"LineString","coordinates":[[103.8026288,1.4561111],[103.8020951,1.4569355]]}},{"type":"Feature","id":"way/546194694-0-5-0","properties":{"highway":"service","startNodeId":"5278494039","endNodeId":"5278494038"},"geometry":{"type":"LineString","coordinates":[[103.8020951,1.4569355],[103.8020642,1.4569503]]}},{"type":"Feature","id":"way/546194694-0-6-0","properties":{"highway":"service","startNodeId":"5278494038","endNodeId":"5278494037"},"geometry":{"type":"LineString","coordinates":[[103.8020642,1.4569503],[103.80202,1.4569516]]}},{"type":"Feature","id":"way/546194694-0-7-0","properties":{"highway":"service","startNodeId":"5278494037","endNodeId":"5278494036"},"geometry":{"type":"LineString","coordinates":[[103.80202,1.4569516],[103.8019865,1.4569463]]}},{"type":"Feature","id":"way/546194694-0-8-0","properties":{"highway":"service","startNodeId":"5278494036","endNodeId":"5278494035"},"geometry":{"type":"LineString","coordinates":[[103.8019865,1.4569463],[103.8016874,1.4567546]]}},{"type":"Feature","id":"way/546194694-0-9-0","properties":{"highway":"service","startNodeId":"5278494035","endNodeId":"5278494034"},"geometry":{"type":"LineString","coordinates":[[103.8016874,1.4567546],[103.8016619,1.4567117]]}},{"type":"Feature","id":"way/546194694-0-10-0","properties":{"highway":"service","startNodeId":"5278494034","endNodeId":"5278494045"},"geometry":{"type":"LineString","coordinates":[[103.8016619,1.4567117],[103.8016485,1.4566701]]}},{"type":"Feature","id":"way/546194695-0-0-0","properties":{"highway":"service","lanes":"2","lanes:backward":"1","lanes:forward":"1","turn:lanes:backward":"through","turn:lanes:forward":"through","startNodeId":"5278494046","endNodeId":"7986615004"},"geometry":{"type":"LineString","coordinates":[[103.8024513,1.4554437],[103.8024265,1.4554834]]}},{"type":"Feature","id":"way/546194695-0-1-0","properties":{"highway":"service","lanes":"2","lanes:backward":"1","lanes:forward":"1","turn:lanes:backward":"through","turn:lanes:forward":"through","startNodeId":"7986615004","endNodeId":"5278494044"},"geometry":{"type":"LineString","coordinates":[[103.8024265,1.4554834],[103.802289,1.4557037]]}},{"type":"Feature","id":"way/546195483-0-0-0","properties":{"highway":"service","startNodeId":"5278500272","endNodeId":"7986614997"},"geometry":{"type":"LineString","coordinates":[[103.8050279,1.4575946],[103.8050022,1.4576301]]}},{"type":"Feature","id":"way/546195483-0-1-0","properties":{"highway":"service","startNodeId":"7986614997","endNodeId":"5278500271"},"geometry":{"type":"LineString","coordinates":[[103.8050022,1.4576301],[103.8049731,1.4576703]]}},{"type":"Feature","id":"way/546195483-0-2-0","properties":{"highway":"service","startNodeId":"5278500271","endNodeId":"5278500270"},"geometry":{"type":"LineString","coordinates":[[103.8049731,1.4576703],[103.804969,1.4576904]]}},{"type":"Feature","id":"way/546195483-0-3-0","properties":{"highway":"service","startNodeId":"5278500270","endNodeId":"5278500269"},"geometry":{"type":"LineString","coordinates":[[103.804969,1.4576904],[103.8049811,1.4577199]]}},{"type":"Feature","id":"way/546195483-0-4-0","properties":{"highway":"service","startNodeId":"5278500269","endNodeId":"5278500268"},"geometry":{"type":"LineString","coordinates":[[103.8049811,1.4577199],[103.8051058,1.4578446]]}},{"type":"Feature","id":"way/546195483-0-5-0","properties":{"highway":"service","startNodeId":"5278500268","endNodeId":"5278500267"},"geometry":{"type":"LineString","coordinates":[[103.8051058,1.4578446],[103.8051085,1.4578808]]}},{"type":"Feature","id":"way/546195483-0-6-0","properties":{"highway":"service","startNodeId":"5278500267","endNodeId":"5278500266"},"geometry":{"type":"LineString","coordinates":[[103.8051085,1.4578808],[103.8051099,1.4579263]]}},{"type":"Feature","id":"way/546195483-0-7-0","properties":{"highway":"service","startNodeId":"5278500266","endNodeId":"5278500265"},"geometry":{"type":"LineString","coordinates":[[103.8051099,1.4579263],[103.8051018,1.4579639]]}},{"type":"Feature","id":"way/546195483-0-8-0","properties":{"highway":"service","startNodeId":"5278500265","endNodeId":"5278500264"},"geometry":{"type":"LineString","coordinates":[[103.8051018,1.4579639],[103.8048618,1.4582669]]}},{"type":"Feature","id":"way/546195483-0-9-0","properties":{"highway":"service","startNodeId":"5278500264","endNodeId":"5278500263"},"geometry":{"type":"LineString","coordinates":[[103.8048618,1.4582669],[103.8048108,1.4582883]]}},{"type":"Feature","id":"way/546195483-0-10-0","properties":{"highway":"service","startNodeId":"5278500263","endNodeId":"5278500262"},"geometry":{"type":"LineString","coordinates":[[103.8048108,1.4582883],[103.8047652,1.458287]]}},{"type":"Feature","id":"way/546195483-0-11-0","properties":{"highway":"service","startNodeId":"5278500262","endNodeId":"5278500261"},"geometry":{"type":"LineString","coordinates":[[103.8047652,1.458287],[103.8046177,1.4582266]]}},{"type":"Feature","id":"way/546195483-0-12-0","properties":{"highway":"service","startNodeId":"5278500261","endNodeId":"5278500260"},"geometry":{"type":"LineString","coordinates":[[103.8046177,1.4582266],[103.8045962,1.4582307]]}},{"type":"Feature","id":"way/546195483-0-13-0","properties":{"highway":"service","startNodeId":"5278500260","endNodeId":"5278500259"},"geometry":{"type":"LineString","coordinates":[[103.8045962,1.4582307],[103.8045707,1.4582427]]}},{"type":"Feature","id":"way/546195483-0-14-0","properties":{"highway":"service","startNodeId":"5278500259","endNodeId":"7991519574"},"geometry":{"type":"LineString","coordinates":[[103.8045707,1.4582427],[103.8044998,1.4583248]]}},{"type":"Feature","id":"way/546195483-0-15-0","properties":{"highway":"service","startNodeId":"7991519574","endNodeId":"5278500258"},"geometry":{"type":"LineString","coordinates":[[103.8044998,1.4583248],[103.8044791,1.4583488]]}},{"type":"Feature","id":"way/645147270-0-0-0","properties":{"highway":"service","lanes":"2","lanes:backward":"1","lanes:forward":"1","name":"Senoko South Road","startNodeId":"5272802707","endNodeId":"4607036444"},"geometry":{"type":"LineString","coordinates":[[103.8038087,1.4577354],[103.803796,1.4577259]]}},{"type":"Feature","id":"way/645147271-0-0-0","properties":{"highway":"service","lanes":"2","lanes:backward":"1","lanes:forward":"1","name":"Senoko South Road","startNodeId":"5680920886","endNodeId":"5272802707"},"geometry":{"type":"LineString","coordinates":[[103.8039086,1.4578547],[103.8038087,1.4577354]]}},{"type":"Feature","id":"way/645147666-0-0-0","properties":{"highway":"service","lanes":"2","lanes:backward":"1","lanes:forward":"1","name":"Senoko South Road","parking:condition:left:vehicles":"motorcar","parking:lane:left":"parallel","startNodeId":"5272802719","endNodeId":"5680920886"},"geometry":{"type":"LineString","coordinates":[[103.8042255,1.4581267],[103.8039086,1.4578547]]}},{"type":"Feature","id":"way/645147670-0-0-0","properties":{"highway":"service","lanes":"2","lanes:backward":"1","lanes:forward":"1","name":"Senoko South Road","startNodeId":"5278500258","endNodeId":"6228669637"},"geometry":{"type":"LineString","coordinates":[[103.8044791,1.4583488],[103.804332,1.4582186]]}},{"type":"Feature","id":"way/645157819-0-0-0","properties":{"access":"yes","highway":"unclassified","horse":"no","lanes":"4","lanes:backward":"2","lanes:forward":"2","maxspeed":"50","name":"Senoko South Road","source":"Yahoo aerial images","surface":"asphalt","turn:lanes:backward":"through|through;right","startNodeId":"5272835215","endNodeId":"244487940"},"geometry":{"type":"LineString","coordinates":[[103.8057251,1.4581664],[103.8059288,1.4583277]]}},{"type":"Feature","id":"way/645157819-0-1-0","properties":{"access":"yes","highway":"unclassified","horse":"no","lanes":"4","lanes:backward":"2","lanes:forward":"2","maxspeed":"50","name":"Senoko South Road","source":"Yahoo aerial images","surface":"asphalt","turn:lanes:backward":"through|through;right","startNodeId":"244487940","endNodeId":"4606975356"},"geometry":{"type":"LineString","coordinates":[[103.8059288,1.4583277],[103.8060071,1.4584283]]}},{"type":"Feature","id":"way/645157819-0-2-0","properties":{"access":"yes","highway":"unclassified","horse":"no","lanes":"4","lanes:backward":"2","lanes:forward":"2","maxspeed":"50","name":"Senoko South Road","source":"Yahoo aerial images","surface":"asphalt","turn:lanes:backward":"through|through;right","startNodeId":"4606975356","endNodeId":"244487941"},"geometry":{"type":"LineString","coordinates":[[103.8060071,1.4584283],[103.8060393,1.4585436]]}},{"type":"Feature","id":"way/645157820-0-0-0","properties":{"access":"yes","highway":"unclassified","horse":"no","lanes":"4","lanes:backward":"2","lanes:forward":"2","maxspeed":"50","name":"Senoko South Road","source":"Yahoo aerial images","surface":"asphalt","turn:lanes:forward":"left;through|through","startNodeId":"5272823012","endNodeId":"244487939"},"geometry":{"type":"LineString","coordinates":[[103.8051934,1.4577398],[103.8053191,1.4578451]]}},{"type":"Feature","id":"way/645157821-0-0-0","properties":{"access":"yes","highway":"unclassified","horse":"no","lanes":"4","lanes:backward":"2","lanes:forward":"2","maxspeed":"50","name":"Senoko South Road","source":"Yahoo aerial images","surface":"asphalt","turn:lanes:forward":"left;through|through","startNodeId":"5278500272","endNodeId":"5272823012"},"geometry":{"type":"LineString","coordinates":[[103.8050279,1.4575946],[103.8051934,1.4577398]]}},{"type":"Feature","id":"way/645157876-0-0-0","properties":{"access":"yes","highway":"unclassified","horse":"no","lanes":"4","lanes:backward":"2","lanes:forward":"2","maxspeed":"50","name":"Senoko South Road","source":"Yahoo aerial images","surface":"asphalt","turn:lanes:forward":"left;through|through","startNodeId":"5272823018","endNodeId":"6228744639"},"geometry":{"type":"LineString","coordinates":[[103.804742,1.4573617],[103.8049114,1.4574946]]}},{"type":"Feature","id":"way/645157877-0-0-0","properties":{"access":"yes","highway":"unclassified","horse":"no","lanes":"4","lanes:backward":"2","lanes:forward":"2","maxspeed":"50","name":"Senoko South Road","parking:condition:left:vehicles":"hgv_articulated","parking:lane:left":"parallel","source":"Yahoo aerial images","surface":"asphalt","startNodeId":"5272823016","endNodeId":"6228744640"},"geometry":{"type":"LineString","coordinates":[[103.804304,1.4569946],[103.8044634,1.4571193]]}},{"type":"Feature","id":"way/645157878-0-0-0","properties":{"access":"yes","highway":"unclassified","horse":"no","lanes":"4","lanes:backward":"2","lanes:forward":"2","maxspeed":"50","name":"Senoko South Road","source":"Yahoo aerial images","surface":"asphalt","startNodeId":"5272823442","endNodeId":"6228741961"},"geometry":{"type":"LineString","coordinates":[[103.8038416,1.4566071],[103.8040169,1.4567492]]}},{"type":"Feature","id":"way/645161707-0-0-0","properties":{"access":"yes","highway":"unclassified","horse":"no","lanes":"4","lanes:backward":"2","lanes:forward":"2","maxspeed":"50","name":"Senoko South Road","source":"Yahoo aerial images","surface":"asphalt","startNodeId":"5272823434","endNodeId":"5272823450"},"geometry":{"type":"LineString","coordinates":[[103.8029022,1.4558199],[103.8029523,1.4558618]]}},{"type":"Feature","id":"way/645161708-0-0-0","properties":{"access":"yes","highway":"unclassified","horse":"no","lanes":"4","lanes:backward":"2","lanes:forward":"2","maxspeed":"50","name":"Senoko South Road","parking:condition:left:vehicles":"motorcar","parking:lane:left":"parallel","source":"Yahoo aerial images","surface":"asphalt","startNodeId":"5272823457","endNodeId":"244487938"},"geometry":{"type":"LineString","coordinates":[[103.8024996,1.4554834],[103.8025493,1.4555243]]}},{"type":"Feature","id":"way/645161708-0-1-0","properties":{"access":"yes","highway":"unclassified","horse":"no","lanes":"4","lanes:backward":"2","lanes:forward":"2","maxspeed":"50","name":"Senoko South Road","parking:condition:left:vehicles":"motorcar","parking:lane:left":"parallel","source":"Yahoo aerial images","surface":"asphalt","startNodeId":"244487938","endNodeId":"6228669919"},"geometry":{"type":"LineString","coordinates":[[103.8025493,1.4555243],[103.8026664,1.4556164]]}},{"type":"Feature","id":"way/645161709-0-0-0","properties":{"access":"yes","highway":"unclassified","horse":"no","lanes":"4","lanes:backward":"2","lanes:forward":"2","maxspeed":"50","name":"Senoko South Road","parking:condition:left:vehicles":"motorcar","parking:lane:left":"parallel","source":"Yahoo aerial images","surface":"asphalt","turn:lanes":"left|left","startNodeId":"5186662653","endNodeId":"6228678504"},"geometry":{"type":"LineString","coordinates":[[103.8016016,1.4547229],[103.8017149,1.4548216]]}},{"type":"Feature","id":"way/645161872-0-0-0","properties":{"access":"yes","highway":"unclassified","horse":"no","lanes":"4","lanes:backward":"2","lanes:forward":"2","maxspeed":"50","name":"Senoko South Road","source":"Yahoo aerial images","surface":"asphalt","startNodeId":"5272823438","endNodeId":"5272823442"},"geometry":{"type":"LineString","coordinates":[[103.8036524,1.4564485],[103.8038416,1.4566071]]}},{"type":"Feature","id":"way/645161873-0-0-0","properties":{"access":"yes","highway":"unclassified","horse":"no","lanes":"4","lanes:backward":"2","lanes:forward":"2","maxspeed":"50","name":"Senoko South Road","source":"Yahoo aerial images","surface":"asphalt","startNodeId":"5272823448","endNodeId":"6228741962"},"geometry":{"type":"LineString","coordinates":[[103.8033845,1.456224],[103.8035394,1.4563564]]}},{"type":"Feature","id":"way/645162253-0-0-0","properties":{"access":"yes","highway":"unclassified","horse":"no","lanes":"4","lanes:backward":"2","lanes:forward":"2","maxspeed":"50","name":"Senoko South Road","source":"Yahoo aerial images","surface":"asphalt","startNodeId":"6056331998","endNodeId":"6228741963"},"geometry":{"type":"LineString","coordinates":[[103.8029664,1.4558736],[103.8031009,1.4559877]]}},{"type":"Feature","id":"way/645162367-0-0-0","properties":{"access":"yes","highway":"unclassified","horse":"no","lanes":"4","lanes:backward":"2","lanes:forward":"2","maxspeed":"50","name":"Senoko South Road","source":"Yahoo aerial images","surface":"asphalt","startNodeId":"5278494046","endNodeId":"5272823457"},"geometry":{"type":"LineString","coordinates":[[103.8024513,1.4554437],[103.8024996,1.4554834]]}},{"type":"Feature","id":"way/645162516-0-0-0","properties":{"access":"yes","highway":"unclassified","horse":"no","lanes":"4","lanes:backward":"2","lanes:forward":"2","maxspeed":"50","name":"Senoko South Road","source":"Yahoo aerial images","surface":"asphalt","startNodeId":"5272823462","endNodeId":"6228678501"},"geometry":{"type":"LineString","coordinates":[[103.8020553,1.4551182],[103.8021599,1.4552042]]}},{"type":"Feature","id":"way/645162997-0-0-0","properties":{"access":"yes","highway":"unclassified","horse":"no","lanes":"4","lanes:backward":"2","lanes:forward":"2","maxspeed":"50","name":"Senoko South Road","source":"Yahoo aerial images","surface":"asphalt","startNodeId":"5272835181","endNodeId":"8655151624"},"geometry":{"type":"LineString","coordinates":[[103.8059003,1.4589474],[103.8058246,1.4590632]]}},{"type":"Feature","id":"way/645162999-0-0-0","properties":{"access":"yes","highway":"unclassified","horse":"no","lanes":"4","lanes:backward":"2","lanes:forward":"2","maxspeed":"50","name":"Senoko South Road","source":"Yahoo aerial images","surface":"asphalt","startNodeId":"244487941","endNodeId":"4606975355"},"geometry":{"type":"LineString","coordinates":[[103.8060393,1.4585436],[103.8060393,1.4586884]]}},{"type":"Feature","id":"way/645162999-0-1-0","properties":{"access":"yes","highway":"unclassified","horse":"no","lanes":"4","lanes:backward":"2","lanes:forward":"2","maxspeed":"50","name":"Senoko South Road","source":"Yahoo aerial images","surface":"asphalt","startNodeId":"4606975355","endNodeId":"1483337682"},"geometry":{"type":"LineString","coordinates":[[103.8060393,1.4586884],[103.8059803,1.4588252]]}},{"type":"Feature","id":"way/645162999-0-2-0","properties":{"access":"yes","highway":"unclassified","horse":"no","lanes":"4","lanes:backward":"2","lanes:forward":"2","maxspeed":"50","name":"Senoko South Road","source":"Yahoo aerial images","surface":"asphalt","startNodeId":"1483337682","endNodeId":"5272835181"},"geometry":{"type":"LineString","coordinates":[[103.8059803,1.4588252],[103.8059003,1.4589474]]}},{"type":"Feature","id":"way/645163060-0-0-0","properties":{"access":"yes","highway":"unclassified","horse":"no","lanes":"4","lanes:backward":"2","lanes:forward":"2","maxspeed":"50","name":"Senoko South Road","source":"Yahoo aerial images","surface":"asphalt","turn:lanes:backward":"through|through;right","startNodeId":"5272835219","endNodeId":"5272835215"},"geometry":{"type":"LineString","coordinates":[[103.8056265,1.4580885],[103.8057251,1.4581664]]}},{"type":"Feature","id":"way/645163061-0-0-0","properties":{"access":"yes","highway":"unclassified","horse":"no","lanes":"4","lanes:backward":"2","lanes:forward":"2","maxspeed":"50","name":"Senoko South Road","source":"Yahoo aerial images","surface":"asphalt","turn:lanes:backward":"through|through;right","startNodeId":"244487939","endNodeId":"5272835219"},"geometry":{"type":"LineString","coordinates":[[103.8053191,1.4578451],[103.8056265,1.4580885]]}},{"type":"Feature","id":"way/646403713-0-0-0","properties":{"access":"yes","highway":"unclassified","horse":"no","lanes":"2","lanes:backward":"1","lanes:forward":"1","name":"Senoko Loop","sidewalk":"both","surface":"asphalt","startNodeId":"5186906695","endNodeId":"5186614301"},"geometry":{"type":"LineString","coordinates":[[103.8014998,1.459101],[103.8016699,1.4592103]]}},{"type":"Feature","id":"way/646669205-0-0-0","properties":{"highway":"service","lanes":"2","lanes:backward":"1","lanes:forward":"1","name":"Senoko South Road","turn:lanes:backward":"left;right","startNodeId":"244487939","endNodeId":"7986614996"},"geometry":{"type":"LineString","coordinates":[[103.8053191,1.4578451],[103.8052923,1.4578781]]}},{"type":"Feature","id":"way/646669205-0-1-0","properties":{"highway":"service","lanes":"2","lanes:backward":"1","lanes:forward":"1","name":"Senoko South Road","turn:lanes:backward":"left;right","startNodeId":"7986614996","endNodeId":"4607036449"},"geometry":{"type":"LineString","coordinates":[[103.8052923,1.4578781],[103.8049608,1.4582857]]}},{"type":"Feature","id":"way/646847741-0-0-0","properties":{"highway":"service","startNodeId":"5680920886","endNodeId":"7986565675"},"geometry":{"type":"LineString","coordinates":[[103.8039086,1.4578547],[103.8038911,1.4578739]]}},{"type":"Feature","id":"way/646847741-0-1-0","properties":{"highway":"service","startNodeId":"7986565675","endNodeId":"5680920885"},"geometry":{"type":"LineString","coordinates":[[103.8038911,1.4578739],[103.8038469,1.4579223]]}},{"type":"Feature","id":"way/646863401-0-0-0","properties":{"highway":"service","startNodeId":"5278494044","endNodeId":"7196699543"},"geometry":{"type":"LineString","coordinates":[[103.802289,1.4557037],[103.8022171,1.4557679]]}},{"type":"Feature","id":"way/646863401-0-1-0","properties":{"highway":"service","startNodeId":"7196699543","endNodeId":"5278494045"},"geometry":{"type":"LineString","coordinates":[[103.8022171,1.4557679],[103.8016485,1.4566701]]}},{"type":"Feature","id":"way/665475904-0-0-0","properties":{"highway":"service","lanes":"2","lanes:backward":"1","lanes:forward":"1","name":"Senoko South Road","parking:condition:left:vehicles":"motorcar","parking:lane:left":"parallel","startNodeId":"6228669637","endNodeId":"5272802719"},"geometry":{"type":"LineString","coordinates":[[103.804332,1.4582186],[103.8042255,1.4581267]]}},{"type":"Feature","id":"way/665477100-0-0-0","properties":{"access":"yes","highway":"unclassified","horse":"no","lanes":"4","lanes:backward":"2","lanes:forward":"2","maxspeed":"50","name":"Senoko South Road","source":"Yahoo aerial images","surface":"asphalt","startNodeId":"6228678500","endNodeId":"5278494046"},"geometry":{"type":"LineString","coordinates":[[103.80231,1.4553279],[103.8024513,1.4554437]]}},{"type":"Feature","id":"way/665477101-0-0-0","properties":{"access":"yes","highway":"unclassified","horse":"no","lanes":"4","lanes:backward":"2","lanes:forward":"2","maxspeed":"50","name":"Senoko South Road","parking:condition:left:vehicles":"motorcar","parking:condition:right:vehicles":"hgv_articulated","parking:lane:both":"parallel","source":"Yahoo aerial images","surface":"asphalt","startNodeId":"6228678501","endNodeId":"6228678500"},"geometry":{"type":"LineString","coordinates":[[103.8021599,1.4552042],[103.80231,1.4553279]]}},{"type":"Feature","id":"way/665477102-0-0-0","properties":{"access":"yes","highway":"unclassified","horse":"no","lanes":"4","lanes:backward":"2","lanes:forward":"2","maxspeed":"50","name":"Senoko South Road","source":"Yahoo aerial images","surface":"asphalt","startNodeId":"6228678502","endNodeId":"5272823462"},"geometry":{"type":"LineString","coordinates":[[103.8019485,1.4550263],[103.8020553,1.4551182]]}},{"type":"Feature","id":"way/665477103-0-0-0","properties":{"access":"yes","highway":"unclassified","horse":"no","lanes":"4","lanes:backward":"2","lanes:forward":"2","maxspeed":"50","name":"Senoko South Road","parking:condition:left:vehicles":"motorcycle","parking:lane:left":"perpendicular","source":"Yahoo aerial images","surface":"asphalt","startNodeId":"6228678503","endNodeId":"6228678502"},"geometry":{"type":"LineString","coordinates":[[103.8019019,1.4549862],[103.8019485,1.4550263]]}},{"type":"Feature","id":"way/665477104-0-0-0","properties":{"access":"yes","highway":"unclassified","horse":"no","lanes":"4","lanes:backward":"2","lanes:forward":"2","maxspeed":"50","name":"Senoko South Road","parking:condition:right:vehicles":"motorcar","parking:lane:right":"parallel","source":"Yahoo aerial images","surface":"asphalt","startNodeId":"6228678504","endNodeId":"6228678503"},"geometry":{"type":"LineString","coordinates":[[103.8017149,1.4548216],[103.8019019,1.4549862]]}},{"type":"Feature","id":"way/665478853-0-0-0","properties":{"access":"yes","highway":"unclassified","horse":"no","lanes":"4","lanes:backward":"2","lanes:forward":"2","maxspeed":"50","name":"Senoko South Road","parking:condition:left:vehicles":"motorcar","parking:condition:right:vehicles":"hgv_articulated","parking:lane:both":"parallel","source":"Yahoo aerial images","surface":"asphalt","startNodeId":"6228669919","endNodeId":"6228669920"},"geometry":{"type":"LineString","coordinates":[[103.8026664,1.4556164],[103.8027844,1.4557236]]}},{"type":"Feature","id":"way/665478854-0-0-0","properties":{"access":"yes","highway":"unclassified","horse":"no","lanes":"4","lanes:backward":"2","lanes:forward":"2","maxspeed":"50","name":"Senoko South Road","source":"Yahoo aerial images","surface":"asphalt","startNodeId":"6228669920","endNodeId":"5272823434"},"geometry":{"type":"LineString","coordinates":[[103.8027844,1.4557236],[103.8029022,1.4558199]]}},{"type":"Feature","id":"way/665481794-0-0-0","properties":{"access":"yes","highway":"unclassified","horse":"no","lanes":"4","lanes:backward":"2","lanes:forward":"2","maxspeed":"50","name":"Senoko South Road","parking:condition:left:vehicles":"hgv_articulated","parking:lane:left":"parallel","source":"Yahoo aerial images","surface":"asphalt","startNodeId":"6228741958","endNodeId":"5272823016"},"geometry":{"type":"LineString","coordinates":[[103.8041362,1.4568525],[103.804304,1.4569946]]}},{"type":"Feature","id":"way/665481795-0-0-0","properties":{"access":"yes","highway":"unclassified","horse":"no","lanes":"4","lanes:backward":"2","lanes:forward":"2","maxspeed":"50","name":"Senoko South Road","parking:condition:left:vehicles":"hgv_articulated","parking:lane:left":"parallel","source":"Yahoo aerial images","surface":"asphalt","startNodeId":"6228741959","endNodeId":"5272823448"},"geometry":{"type":"LineString","coordinates":[[103.8032269,1.4560936],[103.8033845,1.456224]]}},{"type":"Feature","id":"way/665481796-0-0-0","properties":{"access":"yes","highway":"unclassified","horse":"no","lanes":"4","lanes:backward":"2","lanes:forward":"2","maxspeed":"50","name":"Senoko South Road","source":"Yahoo aerial images","surface":"asphalt","startNodeId":"6228741960","endNodeId":"5272823018"},"geometry":{"type":"LineString","coordinates":[[103.8046257,1.4572573],[103.804742,1.4573617]]}},{"type":"Feature","id":"way/665481797-0-0-0","properties":{"access":"yes","highway":"unclassified","horse":"no","lanes":"4","lanes:backward":"2","lanes:forward":"2","maxspeed":"50","name":"Senoko South Road","parking:condition:both:vehicles":"hgv_articulated","parking:lane:both":"parallel","source":"Yahoo aerial images","surface":"asphalt","startNodeId":"6228741961","endNodeId":"6228741958"},"geometry":{"type":"LineString","coordinates":[[103.8040169,1.4567492],[103.8041362,1.4568525]]}},{"type":"Feature","id":"way/665481798-0-0-0","properties":{"access":"yes","highway":"unclassified","horse":"no","lanes":"4","lanes:backward":"2","lanes:forward":"2","maxspeed":"50","name":"Senoko South Road","parking:condition:right:vehicles":"hgv_articulated","parking:lane:right":"parallel","source":"Yahoo aerial images","surface":"asphalt","startNodeId":"6228741962","endNodeId":"5272823438"},"geometry":{"type":"LineString","coordinates":[[103.8035394,1.4563564],[103.8036524,1.4564485]]}},{"type":"Feature","id":"way/665481799-0-0-0","properties":{"access":"yes","highway":"unclassified","horse":"no","lanes":"4","lanes:backward":"2","lanes:forward":"2","maxspeed":"50","name":"Senoko South Road","parking:condition:both:vehicles":"hgv_articulated","parking:lane:both":"parallel","source":"Yahoo aerial images","surface":"asphalt","startNodeId":"6228741963","endNodeId":"6228741959"},"geometry":{"type":"LineString","coordinates":[[103.8031009,1.4559877],[103.8032269,1.4560936]]}},{"type":"Feature","id":"way/665481909-0-0-0","properties":{"access":"yes","highway":"unclassified","horse":"no","lanes":"4","lanes:backward":"2","lanes:forward":"2","maxspeed":"50","name":"Senoko South Road","parking:condition:right:vehicles":"hgv_articulated","parking:lane:right":"parallel","source":"Yahoo aerial images","surface":"asphalt","turn:lanes:forward":"left;through|through","startNodeId":"6228744639","endNodeId":"5278500272"},"geometry":{"type":"LineString","coordinates":[[103.8049114,1.4574946],[103.8050279,1.4575946]]}},{"type":"Feature","id":"way/665481910-0-0-0","properties":{"access":"yes","highway":"unclassified","horse":"no","lanes":"4","lanes:backward":"2","lanes:forward":"2","maxspeed":"50","name":"Senoko South Road","parking:condition:both:vehicles":"hgv_articulated","parking:lane:both":"parallel","source":"Yahoo aerial images","surface":"asphalt","startNodeId":"6228744640","endNodeId":"6228741960"},"geometry":{"type":"LineString","coordinates":[[103.8044634,1.4571193],[103.8046257,1.4572573]]}},{"type":"Feature","id":"way/665495113-0-0-0","properties":{"highway":"service","parking:condition:left:vehicles":"motorcar","parking:lane:left":"perpendicular","startNodeId":"1436119515","endNodeId":"7986862257"},"geometry":{"type":"LineString","coordinates":[[103.8053927,1.4548211],[103.8054082,1.454796]]}},{"type":"Feature","id":"way/665495113-0-1-0","properties":{"highway":"service","parking:condition:left:vehicles":"motorcar","parking:lane:left":"perpendicular","startNodeId":"7986862257","endNodeId":"6228876145"},"geometry":{"type":"LineString","coordinates":[[103.8054082,1.454796],[103.8054287,1.4547628]]}},{"type":"Feature","id":"way/665495114-0-0-0","properties":{"highway":"residential","lanes":"4","lanes:backward":"2","lanes:forward":"2","lit":"yes","name":"Woodlands Sector 1","parking:condition:both:vehicles":"motorcar","parking:lane:both":"parallel","surface":"asphalt","startNodeId":"1436119515","endNodeId":"1436119646"},"geometry":{"type":"LineString","coordinates":[[103.8053927,1.4548211],[103.8049997,1.4545905]]}},{"type":"Feature","id":"way/686061293-0-0-0","properties":{"highway":"primary","lanes":"2","maxspeed":"70","name":"Admiralty Road West","name:en":"Admiralty Road West","name:zh":"\u6d77\u519b\u90e8\u897f\u8def","oneway":"yes","source":"Yahoo aerial images","surface":"asphalt","startNodeId":"1436128941","endNodeId":"11269919633"},"geometry":{"type":"LineString","coordinates":[[103.8024666,1.4578837],[103.8028515,1.4582476]]}},{"type":"Feature","id":"way/686061293-0-1-0","properties":{"highway":"primary","lanes":"2","maxspeed":"70","name":"Admiralty Road West","name:en":"Admiralty Road West","name:zh":"\u6d77\u519b\u90e8\u897f\u8def","oneway":"yes","source":"Yahoo aerial images","surface":"asphalt","startNodeId":"11269919633","endNodeId":"1436128953"},"geometry":{"type":"LineString","coordinates":[[103.8028515,1.4582476],[103.8030736,1.4584107]]}},{"type":"Feature","id":"way/686061293-0-2-0","properties":{"highway":"primary","lanes":"2","maxspeed":"70","name":"Admiralty Road West","name:en":"Admiralty Road West","name:zh":"\u6d77\u519b\u90e8\u897f\u8def","oneway":"yes","source":"Yahoo aerial images","surface":"asphalt","startNodeId":"1436128953","endNodeId":"way/686061293-0:2:1"},"geometry":{"type":"LineString","coordinates":[[103.8030736,1.4584107],[103.8037412,1.4590377]]}},{"type":"Feature","id":"way/696178058-0-0-0","properties":{"highway":"service","name":"Senoko South Road","oneway":"yes","startNodeId":"5272804431","endNodeId":"5272804430"},"geometry":{"type":"LineString","coordinates":[[103.8037486,1.4576461],[103.8035341,1.4574893]]}},{"type":"Feature","id":"way/696178058-0-1-0","properties":{"highway":"service","name":"Senoko South Road","oneway":"yes","startNodeId":"5272804430","endNodeId":"5272804429"},"geometry":{"type":"LineString","coordinates":[[103.8035341,1.4574893],[103.8034938,1.4574853]]}},{"type":"Feature","id":"way/696178058-0-2-0","properties":{"highway":"service","name":"Senoko South Road","oneway":"yes","startNodeId":"5272804429","endNodeId":"5272804428"},"geometry":{"type":"LineString","coordinates":[[103.8034938,1.4574853],[103.803463,1.4574946]]}},{"type":"Feature","id":"way/696178059-0-0-0","properties":{"highway":"service","name":"Senoko South Road","oneway":"yes","startNodeId":"4607036444","endNodeId":"7986565674"},"geometry":{"type":"LineString","coordinates":[[103.803796,1.4577259],[103.8037788,1.4576909]]}},{"type":"Feature","id":"way/696178059-0-1-0","properties":{"highway":"service","name":"Senoko South Road","oneway":"yes","startNodeId":"7986565674","endNodeId":"5272804431"},"geometry":{"type":"LineString","coordinates":[[103.8037788,1.4576909],[103.8037486,1.4576461]]}},{"type":"Feature","id":"way/933826529-0-0-0","properties":{"highway":"service","startNodeId":"8655151624","endNodeId":"8655151623"},"geometry":{"type":"LineString","coordinates":[[103.8058246,1.4590632],[103.8057607,1.4590038]]}},{"type":"Feature","id":"way/933826529-0-1-0","properties":{"highway":"service","startNodeId":"8655151623","endNodeId":"8655151622"},"geometry":{"type":"LineString","coordinates":[[103.8057607,1.4590038],[103.8056999,1.4589533]]}},{"type":"Feature","id":"way/933826529-0-2-0","properties":{"highway":"service","startNodeId":"8655151622","endNodeId":"8655151621"},"geometry":{"type":"LineString","coordinates":[[103.8056999,1.4589533],[103.8056745,1.4589533]]}},{"type":"Feature","id":"way/933826529-0-3-0","properties":{"highway":"service","startNodeId":"8655151621","endNodeId":"8655151620"},"geometry":{"type":"LineString","coordinates":[[103.8056745,1.4589533],[103.8056557,1.4589667]]}},{"type":"Feature","id":"way/933826529-0-4-0","properties":{"highway":"service","startNodeId":"8655151620","endNodeId":"8655151619"},"geometry":{"type":"LineString","coordinates":[[103.8056557,1.4589667],[103.8055283,1.4591396]]}}]}