{"type":"FeatureCollection","features":[{"type":"Feature","id":"way/33301503-0","properties":{"building":"yes","man_made":"reservoir_covered","natural":"water","water":"reservoir","clearanceGeometry":{"type":"Polygon","coordinates":[[[103.804463,1.3735672],[103.8043155,1.3735614],[103.8041741,1.3736042],[103.8040545,1.3736909],[103.80397,1.373812],[103.8039298,1.3739541],[103.8039383,1.3741015],[103.8039933,1.3742359],[103.8040888,1.3743454],[103.8042144,1.3744184],[103.8043569,1.3744469],[103.8045009,1.3744281],[103.8046312,1.3743638],[103.8047338,1.3742611],[103.8047979,1.3741307],[103.8048165,1.3739867],[103.8047877,1.3738443],[103.8047129,1.3737169],[103.8046006,1.3736211],[103.804463,1.3735672]]]},"clearanceHeight":1.7,"clearancePrepared":true},"geometry":{"type":"Polygon","coordinates":[[[103.8046006,1.3736211],[103.804463,1.3735672],[103.8043155,1.3735614],[103.8041741,1.3736042],[103.8040545,1.3736909],[103.80397,1.373812],[103.8039298,1.3739541],[103.8039383,1.3741015],[103.8039933,1.3742359],[103.8040888,1.3743454],[103.8042144,1.3744184],[103.8043569,1.3744469],[103.8045009,1.3744281],[103.8046312,1.3743638],[103.8047338,1.3742611],[103.8047979,1.3741307],[103.8048165,1.3739867],[103.8047877,1.3738443],[103.8047129,1.3737169],[103.8046006,1.3736211]]]}},{"type":"Feature","id":"way/33301506-0","properties":{"building":"yes","man_made":"reservoir_covered","name":"Island Service Reservoir","name:zh":"\u5c9b\u5c7f\u914d\u6c34\u5e93","natural":"water","operator":"PUB","water":"reservoir","clearanceGeometry":{"type":"Polygon","coordinates":[[[103.8028842,1.3739805],[103.8027572,1.3739053],[103.8026123,1.3738769],[103.8024663,1.3738986],[103.802336,1.3739677],[103.8022362,1.3740765],[103.8021786,1.3742123],[103.8021697,1.3743596],[103.8022066,1.374493],[103.8022835,1.3746081],[103.8023927,1.3746932],[103.802523,1.3747397],[103.8026614,1.3747429],[103.8027938,1.3747025],[103.8029069,1.3746226],[103.802989,1.3745112],[103.8030321,1.3743797],[103.80303,1.3742321],[103.8029788,1.3740938],[103.8028842,1.3739805]]]},"clearanceHeight":1.7,"clearancePrepared":true},"geometry":{"type":"Polygon","coordinates":[[[103.8029788,1.3740938],[103.8028842,1.3739805],[103.8027572,1.3739053],[103.8026123,1.3738769],[103.8024663,1.3738986],[103.802336,1.3739677],[103.8022362,1.3740765],[103.8021786,1.3742123],[103.8021697,1.3743596],[103.8022066,1.374493],[103.8022835,1.3746081],[103.8023927,1.3746932],[103.802523,1.3747397],[103.8026614,1.3747429],[103.8027938,1.3747025],[103.8029069,1.3746226],[103.802989,1.3745112],[103.8030321,1.3743797],[103.80303,1.3742321],[103.8029788,1.3740938]]]}},{"type":"Feature","id":"way/33301511-0","properties":{"building":"yes","man_made":"reservoir_covered","natural":"water","water":"reservoir","clearanceGeometry":{"type":"Polygon","coordinates":[[[103.8024304,1.3757943],[103.8022957,1.3757729],[103.802161,1.3757948],[103.8020399,1.3758576],[103.8019446,1.3759552],[103.8018846,1.3760777],[103.801866,1.3762128],[103.8018945,1.3763575],[103.8019702,1.3764841],[103.8020842,1.3765777],[103.8022232,1.3766273],[103.8023708,1.3766271],[103.8025096,1.3765771],[103.8026233,1.3764831],[103.8026986,1.3763563],[103.8027267,1.3762115],[103.8027077,1.3760764],[103.8026473,1.3759541],[103.8025517,1.3758568],[103.8024304,1.3757943]]]},"clearanceHeight":1.7,"clearancePrepared":true},"geometry":{"type":"Polygon","coordinates":[[[103.8025517,1.3758568],[103.8024304,1.3757943],[103.8022957,1.3757729],[103.802161,1.3757948],[103.8020399,1.3758576],[103.8019446,1.3759552],[103.8018846,1.3760777],[103.801866,1.3762128],[103.8018945,1.3763575],[103.8019702,1.3764841],[103.8020842,1.3765777],[103.8022232,1.3766273],[103.8023708,1.3766271],[103.8025096,1.3765771],[103.8026233,1.3764831],[103.8026986,1.3763563],[103.8027267,1.3762115],[103.8027077,1.3760764],[103.8026473,1.3759541],[103.8025517,1.3758568]]]}},{"type":"Feature","id":"way/33301513-0","properties":{"building":"yes","man_made":"reservoir_covered","natural":"water","water":"reservoir","clearanceGeometry":{"type":"Polygon","coordinates":[[[103.8025425,1.3748605],[103.8024209,1.3748111],[103.8022899,1.3748055],[103.8021646,1.3748444],[103.8020597,1.3749231],[103.8019875,1.3750326],[103.8019563,1.37516],[103.8019699,1.3752904],[103.8020213,1.3754011],[103.8021049,1.37549],[103.8022121,1.3755482],[103.8023323,1.3755699],[103.8024531,1.3755527],[103.8025624,1.3754985],[103.8026492,1.3754127],[103.8027047,1.375304],[103.8027232,1.3751833],[103.802703,1.375063],[103.8026403,1.3749478],[103.8025425,1.3748605]]]},"clearanceHeight":1.7,"clearancePrepared":true},"geometry":{"type":"Polygon","coordinates":[[[103.8026403,1.3749478],[103.8025425,1.3748605],[103.8024209,1.3748111],[103.8022899,1.3748055],[103.8021646,1.3748444],[103.8020597,1.3749231],[103.8019875,1.3750326],[103.8019563,1.37516],[103.8019699,1.3752904],[103.8020213,1.3754011],[103.8021049,1.37549],[103.8022121,1.3755482],[103.8023323,1.3755699],[103.8024531,1.3755527],[103.8025624,1.3754985],[103.8026492,1.3754127],[103.8027047,1.375304],[103.8027232,1.3751833],[103.802703,1.375063],[103.8026403,1.3749478]]]}},{"type":"Feature","id":"way/33301537-0","properties":{"building":"yes","man_made":"reservoir_covered","natural":"water","water":"reservoir","clearanceGeometry":{"type":"Polygon","coordinates":[[[103.8015842,1.3752286],[103.8014631,1.3752567],[103.8013575,1.3753224],[103.8012788,1.3754188],[103.8012357,1.3755354],[103.8012326,1.3756597],[103.8012703,1.3757792],[103.801345,1.3758798],[103.8014484,1.3759506],[103.8015692,1.3759838],[103.8016943,1.3759759],[103.8018099,1.3759275],[103.8019034,1.3758442],[103.8019647,1.3757349],[103.8019869,1.3756125],[103.8019684,1.3754896],[103.801911,1.3753792],[103.801821,1.3752934],[103.801708,1.3752413],[103.8015842,1.3752286]]]},"clearanceHeight":1.7,"clearancePrepared":true},"geometry":{"type":"Polygon","coordinates":[[[103.801708,1.3752413],[103.8015842,1.3752286],[103.8014631,1.3752567],[103.8013575,1.3753224],[103.8012788,1.3754188],[103.8012357,1.3755354],[103.8012326,1.3756597],[103.8012703,1.3757792],[103.801345,1.3758798],[103.8014484,1.3759506],[103.8015692,1.3759838],[103.8016943,1.3759759],[103.8018099,1.3759275],[103.8019034,1.3758442],[103.8019647,1.3757349],[103.8019869,1.3756125],[103.8019684,1.3754896],[103.801911,1.3753792],[103.801821,1.3752934],[103.801708,1.3752413]]]}},{"type":"Feature","id":"way/771060571-0","properties":{"building":"yes","clearanceGeometry":{"type":"Polygon","coordinates":[[[103.8036757,1.3740309],[103.803393,1.3741133],[103.8034353,1.3742584],[103.803718,1.374176],[103.8036757,1.3740309]]]},"clearanceHeight":1.7,"clearancePrepared":true},"geometry":{"type":"Polygon","coordinates":[[[103.803718,1.374176],[103.8036757,1.3740309],[103.803393,1.3741133],[103.8034353,1.3742584],[103.803718,1.374176]]]}},{"type":"Feature","id":"way/172498960-0-6-0","properties":{"bicycle":"yes","fixme":"Estimated!","foot":"yes","highway":"service","maxspeed":"40","motor_vehicle":"no","segregated":"no","smoothness":"good","surface":"asphalt","startNodeId":"2692490237","endNodeId":"2692490236"},"geometry":{"type":"LineString","coordinates":[[103.8060036,1.3749626],[103.8058501,1.3746625]]}},{"type":"Feature","id":"way/172498960-0-7-0","properties":{"bicycle":"yes","fixme":"Estimated!","foot":"yes","highway":"service","maxspeed":"40","motor_vehicle":"no","segregated":"no","smoothness":"good","surface":"asphalt","startNodeId":"2692490236","endNodeId":"12759479443"},"geometry":{"type":"LineString","coordinates":[[103.8058501,1.3746625],[103.805837,1.3746305]]}},{"type":"Feature","id":"way/172498960-0-8-0","properties":{"bicycle":"yes","fixme":"Estimated!","foot":"yes","highway":"service","maxspeed":"40","motor_vehicle":"no","segregated":"no","smoothness":"good","surface":"asphalt","startNodeId":"12759479443","endNodeId":"2692490235"},"geometry":{"type":"LineString","coordinates":[[103.805837,1.3746305],[103.8057731,1.3744746]]}},{"type":"Feature","id":"way/172498960-0-9-0","properties":{"bicycle":"yes","fixme":"Estimated!","foot":"yes","highway":"service","maxspeed":"40","motor_vehicle":"no","segregated":"no","smoothness":"good","surface":"asphalt","startNodeId":"2692490235","endNodeId":"1834026263"},"geometry":{"type":"LineString","coordinates":[[103.8057731,1.3744746],[103.805561,1.3738458]]}}]}