{"type":"FeatureCollection","features":[{"type":"Feature","id":"way/22775392-0-2-0","properties":{"destination":"Mandai Road","destination:to":"Mandai Avenue","highway":"motorway_link","lanes":"1","maxspeed":"50","name":"Seletar Expressway","oneway":"yes","surface":"asphalt"},"geometry":{"type":"LineString","coordinates":[[103.8016003,1.4166565],[103.8016723,1.4165436]]}},{"type":"Feature","id":"way/22775392-0-3-0","properties":{"destination":"Mandai Road","destination:to":"Mandai Avenue","highway":"motorway_link","lanes":"1","maxspeed":"50","name":"Seletar Expressway","oneway":"yes","surface":"asphalt"},"geometry":{"type":"LineString","coordinates":[[103.8016723,1.4165436],[103.801767,1.416449]]}},{"type":"Feature","id":"way/22775392-0-4-0","properties":{"destination":"Mandai Road","destination:to":"Mandai Avenue","highway":"motorway_link","lanes":"1","maxspeed":"50","name":"Seletar Expressway","oneway":"yes","surface":"asphalt"},"geometry":{"type":"LineString","coordinates":[[103.801767,1.416449],[103.8018717,1.4164032]]}},{"type":"Feature","id":"way/22775392-0-5-0","properties":{"destination":"Mandai Road","destination:to":"Mandai Avenue","highway":"motorway_link","lanes":"1","maxspeed":"50","name":"Seletar Expressway","oneway":"yes","surface":"asphalt"},"geometry":{"type":"LineString","coordinates":[[103.8018717,1.4164032],[103.8019236,1.4163924]]}},{"type":"Feature","id":"way/22775392-0-6-0","properties":{"destination":"Mandai Road","destination:to":"Mandai Avenue","highway":"motorway_link","lanes":"1","maxspeed":"50","name":"Seletar Expressway","oneway":"yes","surface":"asphalt"},"geometry":{"type":"LineString","coordinates":[[103.8019236,1.4163924],[103.8019509,1.4163824]]}},{"type":"Feature","id":"way/22775392-0-7-0","properties":{"destination":"Mandai Road","destination:to":"Mandai Avenue","highway":"motorway_link","lanes":"1","maxspeed":"50","name":"Seletar Expressway","oneway":"yes","surface":"asphalt"},"geometry":{"type":"LineString","coordinates":[[103.8019509,1.4163824],[103.8022049,1.4163148]]}},{"type":"Feature","id":"way/22775392-0-8-0","properties":{"destination":"Mandai Road","destination:to":"Mandai Avenue","highway":"motorway_link","lanes":"1","maxspeed":"50","name":"Seletar Expressway","oneway":"yes","surface":"asphalt"},"geometry":{"type":"LineString","coordinates":[[103.8022049,1.4163148],[103.802553,1.4162441]]}},{"type":"Feature","id":"way/22775393-0-0-0","properties":{"destination":"Mandai Road;Zoo","foot":"no","highway":"motorway_link","lanes":"1","maxspeed":"50","name":"Seletar Expressway","oneway":"yes","surface":"asphalt"},"geometry":{"type":"LineString","coordinates":[[103.8033118,1.4167105],[103.8032524,1.4167224]]}},{"type":"Feature","id":"way/22775393-0-1-0","properties":{"destination":"Mandai Road;Zoo","foot":"no","highway":"motorway_link","lanes":"1","maxspeed":"50","name":"Seletar Expressway","oneway":"yes","surface":"asphalt"},"geometry":{"type":"LineString","coordinates":[[103.8032524,1.4167224],[103.8031984,1.4167375]]}},{"type":"Feature","id":"way/22775393-0-2-0","properties":{"destination":"Mandai Road;Zoo","foot":"no","highway":"motorway_link","lanes":"1","maxspeed":"50","name":"Seletar Expressway","oneway":"yes","surface":"asphalt"},"geometry":{"type":"LineString","coordinates":[[103.8031984,1.4167375],[103.803132,1.4167771]]}},{"type":"Feature","id":"way/22775393-0-3-0","properties":{"destination":"Mandai Road;Zoo","foot":"no","highway":"motorway_link","lanes":"1","maxspeed":"50","name":"Seletar Expressway","oneway":"yes","surface":"asphalt"},"geometry":{"type":"LineString","coordinates":[[103.803132,1.4167771],[103.803053,1.4168322]]}},{"type":"Feature","id":"way/22775393-0-4-0","properties":{"destination":"Mandai Road;Zoo","foot":"no","highway":"motorway_link","lanes":"1","maxspeed":"50","name":"Seletar Expressway","oneway":"yes","surface":"asphalt"},"geometry":{"type":"LineString","coordinates":[[103.803053,1.4168322],[103.8024103,1.417274]]}},{"type":"Feature","id":"way/22775393-0-5-0","properties":{"destination":"Mandai Road;Zoo","foot":"no","highway":"motorway_link","lanes":"1","maxspeed":"50","name":"Seletar Expressway","oneway":"yes","surface":"asphalt"},"geometry":{"type":"LineString","coordinates":[[103.8024103,1.417274],[103.8022457,1.4173493]]}},{"type":"Feature","id":"way/22775393-0-6-0","properties":{"destination":"Mandai Road;Zoo","foot":"no","highway":"motorway_link","lanes":"1","maxspeed":"50","name":"Seletar Expressway","oneway":"yes","surface":"asphalt"},"geometry":{"type":"LineString","coordinates":[[103.8022457,1.4173493],[103.8020781,1.417375]]}},{"type":"Feature","id":"way/22775393-0-7-0","properties":{"destination":"Mandai Road;Zoo","foot":"no","highway":"motorway_link","lanes":"1","maxspeed":"50","name":"Seletar Expressway","oneway":"yes","surface":"asphalt"},"geometry":{"type":"LineString","coordinates":[[103.8020781,1.417375],[103.8019256,1.4173493]]}},{"type":"Feature","id":"way/22775393-0-8-0","properties":{"destination":"Mandai Road;Zoo","foot":"no","highway":"motorway_link","lanes":"1","maxspeed":"50","name":"Seletar Expressway","oneway":"yes","surface":"asphalt"},"geometry":{"type":"LineString","coordinates":[[103.8019256,1.4173493],[103.8017867,1.4172872]]}},{"type":"Feature","id":"way/22775393-0-9-0","properties":{"destination":"Mandai Road;Zoo","foot":"no","highway":"motorway_link","lanes":"1","maxspeed":"50","name":"Seletar Expressway","oneway":"yes","surface":"asphalt"},"geometry":{"type":"LineString","coordinates":[[103.8017867,1.4172872],[103.801651,1.4171635]]}},{"type":"Feature","id":"way/22775393-0-10-0","properties":{"destination":"Mandai Road;Zoo","foot":"no","highway":"motorway_link","lanes":"1","maxspeed":"50","name":"Seletar Expressway","oneway":"yes","surface":"asphalt"},"geometry":{"type":"LineString","coordinates":[[103.801651,1.4171635],[103.8015752,1.4170158]]}},{"type":"Feature","id":"way/22790767-0-0-0","properties":{"highway":"primary_link","lanes":"1","maxspeed":"50","name":"Mandai Road","oneway":"yes","surface":"asphalt"},"geometry":{"type":"LineString","coordinates":[[103.8049611,1.4142917],[103.8047841,1.4145853]]}},{"type":"Feature","id":"way/22790767-0-1-0","properties":{"highway":"primary_link","lanes":"1","maxspeed":"50","name":"Mandai Road","oneway":"yes","surface":"asphalt"},"geometry":{"type":"LineString","coordinates":[[103.8047841,1.4145853],[103.804548,1.4150222]]}},{"type":"Feature","id":"way/33795444-0-0-0","properties":{"destination":"Mandai Avenue;Sembawang Road","highway":"motorway_link","lanes":"1","maxspeed":"50","oneway":"yes","surface":"asphalt"},"geometry":{"type":"LineString","coordinates":[[103.8052074,1.4151903],[103.8052889,1.415164]]}},{"type":"Feature","id":"way/33795444-0-1-0","properties":{"destination":"Mandai Avenue;Sembawang Road","highway":"motorway_link","lanes":"1","maxspeed":"50","oneway":"yes","surface":"asphalt"},"geometry":{"type":"LineString","coordinates":[[103.8052889,1.415164],[103.8053101,1.4151562]]}},{"type":"Feature","id":"way/33795444-0-2-0","properties":{"destination":"Mandai Avenue;Sembawang Road","highway":"motorway_link","lanes":"1","maxspeed":"50","oneway":"yes","surface":"asphalt"},"geometry":{"type":"LineString","coordinates":[[103.8053101,1.4151562],[103.8053338,1.4151398]]}},{"type":"Feature","id":"way/33795444-0-3-0","properties":{"destination":"Mandai Avenue;Sembawang Road","highway":"motorway_link","lanes":"1","maxspeed":"50","oneway":"yes","surface":"asphalt"},"geometry":{"type":"LineString","coordinates":[[103.8053338,1.4151398],[103.805368,1.4151065]]}},{"type":"Feature","id":"way/33795444-0-4-0","properties":{"destination":"Mandai Avenue;Sembawang Road","highway":"motorway_link","lanes":"1","maxspeed":"50","oneway":"yes","surface":"asphalt"},"geometry":{"type":"LineString","coordinates":[[103.805368,1.4151065],[103.8056034,1.4148247]]}},{"type":"Feature","id":"way/33795444-0-5-0","properties":{"destination":"Mandai Avenue;Sembawang Road","highway":"motorway_link","lanes":"1","maxspeed":"50","oneway":"yes","surface":"asphalt"},"geometry":{"type":"LineString","coordinates":[[103.8056034,1.4148247],[103.8058188,1.4146384]]}},{"type":"Feature","id":"way/33795444-0-6-0","properties":{"destination":"Mandai Avenue;Sembawang Road","highway":"motorway_link","lanes":"1","maxspeed":"50","oneway":"yes","surface":"asphalt"},"geometry":{"type":"LineString","coordinates":[[103.8058188,1.4146384],[103.8059397,1.4145754]]}},{"type":"Feature","id":"way/33795444-0-7-0","properties":{"destination":"Mandai Avenue;Sembawang Road","highway":"motorway_link","lanes":"1","maxspeed":"50","oneway":"yes","surface":"asphalt"},"geometry":{"type":"LineString","coordinates":[[103.8059397,1.4145754],[103.8060392,1.4145338]]}},{"type":"Feature","id":"way/33795608-0-0-0","properties":{"highway":"primary","lanes":"3","maxspeed":"70","name":"Mandai Avenue","name:zh":"\u4e07\u793c\u5927\u9053","oneway":"yes","surface":"asphalt"},"geometry":{"type":"LineString","coordinates":[[103.8050521,1.4148008],[103.8051113,1.4147578]]}},{"type":"Feature","id":"way/33795610-0-0-0","properties":{"highway":"primary","lanes":"3","maxspeed":"70","name":"Mandai Road","name:en":"Mandai Road","name:zh":"\u4e07\u793c\u8def","oneway":"yes","surface":"asphalt"},"geometry":{"type":"LineString","coordinates":[[103.8049809,1.4146668],[103.8049274,1.4147152]]}},{"type":"Feature","id":"way/33795610-0-1-0","properties":{"highway":"primary","lanes":"3","maxspeed":"70","name":"Mandai Road","name:en":"Mandai Road","name:zh":"\u4e07\u793c\u8def","oneway":"yes","surface":"asphalt"},"geometry":{"type":"LineString","coordinates":[[103.8049274,1.4147152],[103.804548,1.4150222]]}},{"type":"Feature","id":"way/33795727-0-7-0","properties":{"destination":"BKE","destination:ref":"SLE","destination:ref:to":"BKE","highway":"motorway_link","lanes":"1","maxspeed":"50","name":"Mandai Road","oneway":"yes","surface":"asphalt"},"geometry":{"type":"LineString","coordinates":[[103.8016056,1.4172822],[103.8017056,1.4174638]]}},{"type":"Feature","id":"way/33795727-0-8-0","properties":{"destination":"BKE","destination:ref":"SLE","destination:ref:to":"BKE","highway":"motorway_link","lanes":"1","maxspeed":"50","name":"Mandai Road","oneway":"yes","surface":"asphalt"},"geometry":{"type":"LineString","coordinates":[[103.8017056,1.4174638],[103.801718,1.4175037]]}},{"type":"Feature","id":"way/33795727-0-9-0","properties":{"destination":"BKE","destination:ref":"SLE","destination:ref:to":"BKE","highway":"motorway_link","lanes":"1","maxspeed":"50","name":"Mandai Road","oneway":"yes","surface":"asphalt"},"geometry":{"type":"LineString","coordinates":[[103.801718,1.4175037],[103.8017251,1.4175436]]}},{"type":"Feature","id":"way/33795727-0-10-0","properties":{"destination":"BKE","destination:ref":"SLE","destination:ref:to":"BKE","highway":"motorway_link","lanes":"1","maxspeed":"50","name":"Mandai Road","oneway":"yes","surface":"asphalt"},"geometry":{"type":"LineString","coordinates":[[103.8017251,1.4175436],[103.8017283,1.417628]]}},{"type":"Feature","id":"way/33795727-0-11-0","properties":{"destination":"BKE","destination:ref":"SLE","destination:ref:to":"BKE","highway":"motorway_link","lanes":"1","maxspeed":"50","name":"Mandai Road","oneway":"yes","surface":"asphalt"},"geometry":{"type":"LineString","coordinates":[[103.8017283,1.417628],[103.8017244,1.4177078]]}},{"type":"Feature","id":"way/33795727-0-12-0","properties":{"destination":"BKE","destination:ref":"SLE","destination:ref:to":"BKE","highway":"motorway_link","lanes":"1","maxspeed":"50","name":"Mandai Road","oneway":"yes","surface":"asphalt"},"geometry":{"type":"LineString","coordinates":[[103.8017244,1.4177078],[103.8017066,1.4177853]]}},{"type":"Feature","id":"way/33795727-0-13-0","properties":{"destination":"BKE","destination:ref":"SLE","destination:ref:to":"BKE","highway":"motorway_link","lanes":"1","maxspeed":"50","name":"Mandai Road","oneway":"yes","surface":"asphalt"},"geometry":{"type":"LineString","coordinates":[[103.8017066,1.4177853],[103.8016822,1.4178486]]}},{"type":"Feature","id":"way/33795727-0-14-0","properties":{"destination":"BKE","destination:ref":"SLE","destination:ref:to":"BKE","highway":"motorway_link","lanes":"1","maxspeed":"50","name":"Mandai Road","oneway":"yes","surface":"asphalt"},"geometry":{"type":"LineString","coordinates":[[103.8016822,1.4178486],[103.8016461,1.4179072]]}},{"type":"Feature","id":"way/33795727-0-15-0","properties":{"destination":"BKE","destination:ref":"SLE","destination:ref:to":"BKE","highway":"motorway_link","lanes":"1","maxspeed":"50","name":"Mandai Road","oneway":"yes","surface":"asphalt"},"geometry":{"type":"LineString","coordinates":[[103.8016461,1.4179072],[103.8015609,1.4180149]]}},{"type":"Feature","id":"way/37584069-0-0-0","properties":{"bridge":"yes","highway":"primary","lanes":"3","layer":"1","maxspeed":"70","name":"Mandai Avenue","name:zh":"\u4e07\u793c\u5927\u9053","oneway":"yes","surface":"asphalt"},"geometry":{"type":"LineString","coordinates":[[103.8051574,1.4147259],[103.8053829,1.4145705]]}},{"type":"Feature","id":"way/37584069-0-1-0","properties":{"bridge":"yes","highway":"primary","lanes":"3","layer":"1","maxspeed":"70","name":"Mandai Avenue","name:zh":"\u4e07\u793c\u5927\u9053","oneway":"yes","surface":"asphalt"},"geometry":{"type":"LineString","coordinates":[[103.8053829,1.4145705],[103.8056541,1.4144356]]}},{"type":"Feature","id":"way/37584069-0-2-0","properties":{"bridge":"yes","highway":"primary","lanes":"3","layer":"1","maxspeed":"70","name":"Mandai Avenue","name:zh":"\u4e07\u793c\u5927\u9053","oneway":"yes","surface":"asphalt"},"geometry":{"type":"LineString","coordinates":[[103.8056541,1.4144356],[103.806093,1.4143361]]}},{"type":"Feature","id":"way/37584071-0-1-0","properties":{"bridge":"yes","highway":"primary","lanes":"3","layer":"1","maxspeed":"70","name":"Mandai Avenue","name:zh":"\u4e07\u793c\u5927\u9053","oneway":"yes","surface":"asphalt","turn:lanes":"through|through|through"},"geometry":{"type":"LineString","coordinates":[[103.8059186,1.4142319],[103.8055823,1.4143325]]}},{"type":"Feature","id":"way/37584072-0-0-0","properties":{"highway":"primary","lanes":"3","maxspeed":"70","name":"Mandai Avenue","name:zh":"\u4e07\u793c\u5927\u9053","oneway":"yes","surface":"asphalt","turn:lanes":"through|through|through"},"geometry":{"type":"LineString","coordinates":[[103.8051665,1.4145511],[103.8050575,1.4146165]]}},{"type":"Feature","id":"way/175052980-0-0-0","properties":{"highway":"primary","lanes":"3","maxspeed":"70","name":"Mandai Road","name:en":"Mandai Road","name:zh":"\u4e07\u793c\u8def","oneway":"yes","surface":"asphalt"},"geometry":{"type":"LineString","coordinates":[[103.8030073,1.4160177],[103.8027629,1.416081]]}},{"type":"Feature","id":"way/175052980-0-1-0","properties":{"highway":"primary","lanes":"3","maxspeed":"70","name":"Mandai Road","name:en":"Mandai Road","name:zh":"\u4e07\u793c\u8def","oneway":"yes","surface":"asphalt"},"geometry":{"type":"LineString","coordinates":[[103.8027629,1.416081],[103.8025403,1.4161092]]}},{"type":"Feature","id":"way/175052980-0-2-0","properties":{"highway":"primary","lanes":"3","maxspeed":"70","name":"Mandai Road","name:en":"Mandai Road","name:zh":"\u4e07\u793c\u8def","oneway":"yes","surface":"asphalt"},"geometry":{"type":"LineString","coordinates":[[103.8025403,1.4161092],[103.80226,1.4161091]]}},{"type":"Feature","id":"way/175052981-0-0-0","properties":{"highway":"primary_link","lanes":"1","maxspeed":"50","noname":"yes","oneway":"yes","surface":"asphalt"},"geometry":{"type":"LineString","coordinates":[[103.8053663,1.414429],[103.8051907,1.4144559]]}},{"type":"Feature","id":"way/175052981-0-1-0","properties":{"highway":"primary_link","lanes":"1","maxspeed":"50","noname":"yes","oneway":"yes","surface":"asphalt"},"geometry":{"type":"LineString","coordinates":[[103.8051907,1.4144559],[103.8051066,1.4144272]]}},{"type":"Feature","id":"way/175052981-0-2-0","properties":{"highway":"primary_link","lanes":"1","maxspeed":"50","noname":"yes","oneway":"yes","surface":"asphalt"},"geometry":{"type":"LineString","coordinates":[[103.8051066,1.4144272],[103.8050763,1.4143789]]}},{"type":"Feature","id":"way/175052981-0-3-0","properties":{"highway":"primary_link","lanes":"1","maxspeed":"50","noname":"yes","oneway":"yes","surface":"asphalt"},"geometry":{"type":"LineString","coordinates":[[103.8050763,1.4143789],[103.8050508,1.4143454]]}},{"type":"Feature","id":"way/175052981-0-4-0","properties":{"highway":"primary_link","lanes":"1","maxspeed":"50","noname":"yes","oneway":"yes","surface":"asphalt"},"geometry":{"type":"LineString","coordinates":[[103.8050508,1.4143454],[103.8050368,1.4142904]]}},{"type":"Feature","id":"way/464288929-0-0-0","properties":{"highway":"secondary","lanes":"1","maxspeed":"50","name":"Mandai Road","oneway":"yes","surface":"asphalt","turn:lanes":"right"},"geometry":{"type":"LineString","coordinates":[[103.8049611,1.4142917],[103.8049321,1.4143863]]}},{"type":"Feature","id":"way/464288929-0-1-0","properties":{"highway":"secondary","lanes":"1","maxspeed":"50","name":"Mandai Road","oneway":"yes","surface":"asphalt","turn:lanes":"right"},"geometry":{"type":"LineString","coordinates":[[103.8049321,1.4143863],[103.8049261,1.4144474]]}},{"type":"Feature","id":"way/464288929-0-2-0","properties":{"highway":"secondary","lanes":"1","maxspeed":"50","name":"Mandai Road","oneway":"yes","surface":"asphalt","turn:lanes":"right"},"geometry":{"type":"LineString","coordinates":[[103.8049261,1.4144474],[103.8049335,1.4145114]]}},{"type":"Feature","id":"way/464288929-0-3-0","properties":{"highway":"secondary","lanes":"1","maxspeed":"50","name":"Mandai Road","oneway":"yes","surface":"asphalt","turn:lanes":"right"},"geometry":{"type":"LineString","coordinates":[[103.8049335,1.4145114],[103.8049602,1.4145941]]}},{"type":"Feature","id":"way/464288929-0-4-0","properties":{"highway":"secondary","lanes":"1","maxspeed":"50","name":"Mandai Road","oneway":"yes","surface":"asphalt","turn:lanes":"right"},"geometry":{"type":"LineString","coordinates":[[103.8049602,1.4145941],[103.8049809,1.4146668]]}},{"type":"Feature","id":"way/480657797-0-0-0","properties":{"highway":"primary","lanes":"3","maxspeed":"70","name":"Mandai Avenue","name:zh":"\u4e07\u793c\u5927\u9053","oneway":"yes","surface":"asphalt","turn:lanes":"through|through|through"},"geometry":{"type":"LineString","coordinates":[[103.8053663,1.414429],[103.8051665,1.4145511]]}},{"type":"Feature","id":"way/480657799-0-0-0","properties":{"bridge":"yes","highway":"primary","lanes":"4","layer":"1","maxspeed":"70","name":"Mandai Avenue","name:zh":"\u4e07\u793c\u5927\u9053","oneway":"yes","surface":"asphalt","turn:lanes":"left|through|through|through"},"geometry":{"type":"LineString","coordinates":[[103.8055823,1.4143325],[103.8053663,1.414429]]}},{"type":"Feature","id":"way/480874183-0-1-1","properties":{"highway":"motorway","lanes":"3","maxspeed":"90","name":"Seletar Expressway","name:ms":"Lebuhraya Seletar","name:ta":"\u0b9a\u0bc6\u0bb2\u0bc7\u0ba4\u0bcd\u0ba4\u0bbe\u0bb0\u0bcd \u0bb5\u0bbf\u0bb0\u0bc8\u0bb5\u0bc1\u0b9a\u0bcd\u0b9a\u0bbe\u0bb2\u0bc8","name:zh":"\u5b9e\u91cc\u8fbe\u9ad8\u901f\u516c\u8def","oneway":"yes","ref":"SLE","ref:ta":"\u0b8e\u0bb8\u0bcd\u0b8e\u0bb2\u0bcd\u0b87","short_name:ta":"\u0b8e\u0bb8\u0bcd\u0b8e\u0bb2\u0bcd\u0b87","surface":"asphalt","wikidata":"Q1575163","wikipedia":"en:Seletar Expressway"},"geometry":{"type":"LineString","coordinates":[[103.8016095,1.4183804],[103.8023968,1.4177147]]}},{"type":"Feature","id":"way/480874183-0-2-0","properties":{"highway":"motorway","lanes":"3","maxspeed":"90","name":"Seletar Expressway","name:ms":"Lebuhraya Seletar","name:ta":"\u0b9a\u0bc6\u0bb2\u0bc7\u0ba4\u0bcd\u0ba4\u0bbe\u0bb0\u0bcd \u0bb5\u0bbf\u0bb0\u0bc8\u0bb5\u0bc1\u0b9a\u0bcd\u0b9a\u0bbe\u0bb2\u0bc8","name:zh":"\u5b9e\u91cc\u8fbe\u9ad8\u901f\u516c\u8def","oneway":"yes","ref":"SLE","ref:ta":"\u0b8e\u0bb8\u0bcd\u0b8e\u0bb2\u0bcd\u0b87","short_name:ta":"\u0b8e\u0bb8\u0bcd\u0b8e\u0bb2\u0bcd\u0b87","surface":"asphalt","wikidata":"Q1575163","wikipedia":"en:Seletar Expressway"},"geometry":{"type":"LineString","coordinates":[[103.8023968,1.4177147],[103.8030612,1.4171616]]}},{"type":"Feature","id":"way/480874183-0-2-1","properties":{"highway":"motorway","lanes":"3","maxspeed":"90","name":"Seletar Expressway","name:ms":"Lebuhraya Seletar","name:ta":"\u0b9a\u0bc6\u0bb2\u0bc7\u0ba4\u0bcd\u0ba4\u0bbe\u0bb0\u0bcd \u0bb5\u0bbf\u0bb0\u0bc8\u0bb5\u0bc1\u0b9a\u0bcd\u0b9a\u0bbe\u0bb2\u0bc8","name:zh":"\u5b9e\u91cc\u8fbe\u9ad8\u901f\u516c\u8def","oneway":"yes","ref":"SLE","ref:ta":"\u0b8e\u0bb8\u0bcd\u0b8e\u0bb2\u0bcd\u0b87","short_name:ta":"\u0b8e\u0bb8\u0bcd\u0b8e\u0bb2\u0bcd\u0b87","surface":"asphalt","wikidata":"Q1575163","wikipedia":"en:Seletar Expressway"},"geometry":{"type":"LineString","coordinates":[[103.8030612,1.4171616],[103.8037256,1.4166085]]}},{"type":"Feature","id":"way/480874183-0-3-0","properties":{"highway":"motorway","lanes":"3","maxspeed":"90","name":"Seletar Expressway","name:ms":"Lebuhraya Seletar","name:ta":"\u0b9a\u0bc6\u0bb2\u0bc7\u0ba4\u0bcd\u0ba4\u0bbe\u0bb0\u0bcd \u0bb5\u0bbf\u0bb0\u0bc8\u0bb5\u0bc1\u0b9a\u0bcd\u0b9a\u0bbe\u0bb2\u0bc8","name:zh":"\u5b9e\u91cc\u8fbe\u9ad8\u901f\u516c\u8def","oneway":"yes","ref":"SLE","ref:ta":"\u0b8e\u0bb8\u0bcd\u0b8e\u0bb2\u0bcd\u0b87","short_name:ta":"\u0b8e\u0bb8\u0bcd\u0b8e\u0bb2\u0bcd\u0b87","surface":"asphalt","wikidata":"Q1575163","wikipedia":"en:Seletar Expressway"},"geometry":{"type":"LineString","coordinates":[[103.8037256,1.4166085],[103.804324,1.4160608]]}},{"type":"Feature","id":"way/480874186-0-0-0","properties":{"highway":"motorway","lanes":"4","maxspeed":"90","name":"Seletar Expressway","name:ms":"Lebuhraya Seletar","name:ta":"\u0b9a\u0bc6\u0bb2\u0bc7\u0ba4\u0bcd\u0ba4\u0bbe\u0bb0\u0bcd \u0bb5\u0bbf\u0bb0\u0bc8\u0bb5\u0bc1\u0b9a\u0bcd\u0b9a\u0bbe\u0bb2\u0bc8","name:zh":"\u5b9e\u91cc\u8fbe\u9ad8\u901f\u516c\u8def","oneway":"yes","ref":"SLE","ref:ta":"\u0b8e\u0bb8\u0bcd\u0b8e\u0bb2\u0bcd\u0b87","short_name:ta":"\u0b8e\u0bb8\u0bcd\u0b8e\u0bb2\u0bcd\u0b87","surface":"asphalt","turn:lanes":"left|through|through|through","wikidata":"Q1575163","wikipedia":"en:Seletar Expressway"},"geometry":{"type":"LineString","coordinates":[[103.8047634,1.4156821],[103.8052074,1.4151903]]}},{"type":"Feature","id":"way/480874189-0-0-0","properties":{"highway":"motorway","lanes":"3","maxheight":"4.5","maxspeed":"90","name":"Seletar Expressway","name:ms":"Lebuhraya Seletar","name:ta":"\u0b9a\u0bc6\u0bb2\u0bc7\u0ba4\u0bcd\u0ba4\u0bbe\u0bb0\u0bcd \u0bb5\u0bbf\u0bb0\u0bc8\u0bb5\u0bc1\u0b9a\u0bcd\u0b9a\u0bbe\u0bb2\u0bc8","name:zh":"\u5b9e\u91cc\u8fbe\u9ad8\u901f\u516c\u8def","oneway":"yes","ref":"SLE","ref:ta":"\u0b8e\u0bb8\u0bcd\u0b8e\u0bb2\u0bcd\u0b87","short_name:ta":"\u0b8e\u0bb8\u0bcd\u0b8e\u0bb2\u0bcd\u0b87","surface":"asphalt","wikidata":"Q1575163","wikipedia":"en:Seletar Expressway"},"geometry":{"type":"LineString","coordinates":[[103.8052074,1.4151903],[103.8053338,1.4150279]]}},{"type":"Feature","id":"way/480874189-0-1-0","properties":{"highway":"motorway","lanes":"3","maxheight":"4.5","maxspeed":"90","name":"Seletar Expressway","name:ms":"Lebuhraya Seletar","name:ta":"\u0b9a\u0bc6\u0bb2\u0bc7\u0ba4\u0bcd\u0ba4\u0bbe\u0bb0\u0bcd \u0bb5\u0bbf\u0bb0\u0bc8\u0bb5\u0bc1\u0b9a\u0bcd\u0b9a\u0bbe\u0bb2\u0bc8","name:zh":"\u5b9e\u91cc\u8fbe\u9ad8\u901f\u516c\u8def","oneway":"yes","ref":"SLE","ref:ta":"\u0b8e\u0bb8\u0bcd\u0b8e\u0bb2\u0bcd\u0b87","short_name:ta":"\u0b8e\u0bb8\u0bcd\u0b8e\u0bb2\u0bcd\u0b87","surface":"asphalt","wikidata":"Q1575163","wikipedia":"en:Seletar Expressway"},"geometry":{"type":"LineString","coordinates":[[103.8053338,1.4150279],[103.8054255,1.4148928]]}},{"type":"Feature","id":"way/480874189-0-2-0","properties":{"highway":"motorway","lanes":"3","maxheight":"4.5","maxspeed":"90","name":"Seletar Expressway","name:ms":"Lebuhraya Seletar","name:ta":"\u0b9a\u0bc6\u0bb2\u0bc7\u0ba4\u0bcd\u0ba4\u0bbe\u0bb0\u0bcd \u0bb5\u0bbf\u0bb0\u0bc8\u0bb5\u0bc1\u0b9a\u0bcd\u0b9a\u0bbe\u0bb2\u0bc8","name:zh":"\u5b9e\u91cc\u8fbe\u9ad8\u901f\u516c\u8def","oneway":"yes","ref":"SLE","ref:ta":"\u0b8e\u0bb8\u0bcd\u0b8e\u0bb2\u0bcd\u0b87","short_name:ta":"\u0b8e\u0bb8\u0bcd\u0b8e\u0bb2\u0bcd\u0b87","surface":"asphalt","wikidata":"Q1575163","wikipedia":"en:Seletar Expressway"},"geometry":{"type":"LineString","coordinates":[[103.8054255,1.4148928],[103.8055377,1.4147027]]}},{"type":"Feature","id":"way/480874189-0-3-0","properties":{"highway":"motorway","lanes":"3","maxheight":"4.5","maxspeed":"90","name":"Seletar Expressway","name:ms":"Lebuhraya Seletar","name:ta":"\u0b9a\u0bc6\u0bb2\u0bc7\u0ba4\u0bcd\u0ba4\u0bbe\u0bb0\u0bcd \u0bb5\u0bbf\u0bb0\u0bc8\u0bb5\u0bc1\u0b9a\u0bcd\u0b9a\u0bbe\u0bb2\u0bc8","name:zh":"\u5b9e\u91cc\u8fbe\u9ad8\u901f\u516c\u8def","oneway":"yes","ref":"SLE","ref:ta":"\u0b8e\u0bb8\u0bcd\u0b8e\u0bb2\u0bcd\u0b87","short_name:ta":"\u0b8e\u0bb8\u0bcd\u0b8e\u0bb2\u0bcd\u0b87","surface":"asphalt","wikidata":"Q1575163","wikipedia":"en:Seletar Expressway"},"geometry":{"type":"LineString","coordinates":[[103.8055377,1.4147027],[103.8056997,1.4144488]]}},{"type":"Feature","id":"way/480874196-0-0-0","properties":{"highway":"motorway","lanes":"3","maxspeed":"90","name":"Seletar Expressway","name:ms":"Lebuhraya Seletar","name:ta":"\u0b9a\u0bc6\u0bb2\u0bc7\u0ba4\u0bcd\u0ba4\u0bbe\u0bb0\u0bcd \u0bb5\u0bbf\u0bb0\u0bc8\u0bb5\u0bc1\u0b9a\u0bcd\u0b9a\u0bbe\u0bb2\u0bc8","name:zh":"\u5b9e\u91cc\u8fbe\u9ad8\u901f\u516c\u8def","oneway":"yes","ref":"SLE","ref:ta":"\u0b8e\u0bb8\u0bcd\u0b8e\u0bb2\u0bcd\u0b87","short_name:ta":"\u0b8e\u0bb8\u0bcd\u0b8e\u0bb2\u0bcd\u0b87","surface":"asphalt","wikidata":"Q1575163","wikipedia":"en:Seletar Expressway"},"geometry":{"type":"LineString","coordinates":[[103.8052294,1.4148491],[103.8046295,1.4155532]]}},{"type":"Feature","id":"way/480874196-0-1-0","properties":{"highway":"motorway","lanes":"3","maxspeed":"90","name":"Seletar Expressway","name:ms":"Lebuhraya Seletar","name:ta":"\u0b9a\u0bc6\u0bb2\u0bc7\u0ba4\u0bcd\u0ba4\u0bbe\u0bb0\u0bcd \u0bb5\u0bbf\u0bb0\u0bc8\u0bb5\u0bc1\u0b9a\u0bcd\u0b9a\u0bbe\u0bb2\u0bc8","name:zh":"\u5b9e\u91cc\u8fbe\u9ad8\u901f\u516c\u8def","oneway":"yes","ref":"SLE","ref:ta":"\u0b8e\u0bb8\u0bcd\u0b8e\u0bb2\u0bcd\u0b87","short_name:ta":"\u0b8e\u0bb8\u0bcd\u0b8e\u0bb2\u0bcd\u0b87","surface":"asphalt","wikidata":"Q1575163","wikipedia":"en:Seletar Expressway"},"geometry":{"type":"LineString","coordinates":[[103.8046295,1.4155532],[103.8041291,1.4160363]]}},{"type":"Feature","id":"way/480874199-0-2-0","properties":{"highway":"motorway","lanes":"3","maxheight":"4.5","maxspeed":"90","name":"Seletar Expressway","name:ms":"Lebuhraya Seletar","name:ta":"\u0b9a\u0bc6\u0bb2\u0bc7\u0ba4\u0bcd\u0ba4\u0bbe\u0bb0\u0bcd \u0bb5\u0bbf\u0bb0\u0bc8\u0bb5\u0bc1\u0b9a\u0bcd\u0b9a\u0bbe\u0bb2\u0bc8","name:zh":"\u5b9e\u91cc\u8fbe\u9ad8\u901f\u516c\u8def","oneway":"yes","ref":"SLE","ref:ta":"\u0b8e\u0bb8\u0bcd\u0b8e\u0bb2\u0bcd\u0b87","short_name:ta":"\u0b8e\u0bb8\u0bcd\u0b8e\u0bb2\u0bcd\u0b87","surface":"asphalt","wikidata":"Q1575163","wikipedia":"en:Seletar Expressway"},"geometry":{"type":"LineString","coordinates":[[103.805566,1.414379],[103.8052294,1.4148491]]}},{"type":"Feature","id":"way/537431150-0-0-0","properties":{"highway":"secondary","lanes":"1","maxspeed":"50","name":"Mandai Road","oneway":"yes","surface":"asphalt"},"geometry":{"type":"LineString","coordinates":[[103.8049809,1.4146668],[103.8050521,1.4148008]]}},{"type":"Feature","id":"way/637343206-0-0-0","properties":{"highway":"motorway","lanes":"3","maxspeed":"90","name":"Seletar Expressway","name:ms":"Lebuhraya Seletar","name:ta":"\u0b9a\u0bc6\u0bb2\u0bc7\u0ba4\u0bcd\u0ba4\u0bbe\u0bb0\u0bcd \u0bb5\u0bbf\u0bb0\u0bc8\u0bb5\u0bc1\u0b9a\u0bcd\u0b9a\u0bbe\u0bb2\u0bc8","name:zh":"\u5b9e\u91cc\u8fbe\u9ad8\u901f\u516c\u8def","oneway":"yes","ref":"SLE","ref:ta":"\u0b8e\u0bb8\u0bcd\u0b8e\u0bb2\u0bcd\u0b87","short_name:ta":"\u0b8e\u0bb8\u0bcd\u0b8e\u0bb2\u0bcd\u0b87","surface":"asphalt","turn:lanes":"through|through|through","wikidata":"Q1575163","wikipedia":"en:Seletar Expressway"},"geometry":{"type":"LineString","coordinates":[[103.8041291,1.4160363],[103.8035287,1.4165462]]}},{"type":"Feature","id":"way/637343207-0-0-0","properties":{"highway":"motorway","lanes":"3","maxspeed":"90","name":"Seletar Expressway","name:ms":"Lebuhraya Seletar","name:ta":"\u0b9a\u0bc6\u0bb2\u0bc7\u0ba4\u0bcd\u0ba4\u0bbe\u0bb0\u0bcd \u0bb5\u0bbf\u0bb0\u0bc8\u0bb5\u0bc1\u0b9a\u0bcd\u0b9a\u0bbe\u0bb2\u0bc8","name:zh":"\u5b9e\u91cc\u8fbe\u9ad8\u901f\u516c\u8def","oneway":"yes","ref":"SLE","ref:ta":"\u0b8e\u0bb8\u0bcd\u0b8e\u0bb2\u0bcd\u0b87","short_name:ta":"\u0b8e\u0bb8\u0bcd\u0b8e\u0bb2\u0bcd\u0b87","surface":"asphalt","wikidata":"Q1575163","wikipedia":"en:Seletar Expressway"},"geometry":{"type":"LineString","coordinates":[[103.8031695,1.4168354],[103.8023789,1.417532]]}},{"type":"Feature","id":"way/637343207-0-1-0","properties":{"highway":"motorway","lanes":"3","maxspeed":"90","name":"Seletar Expressway","name:ms":"Lebuhraya Seletar","name:ta":"\u0b9a\u0bc6\u0bb2\u0bc7\u0ba4\u0bcd\u0ba4\u0bbe\u0bb0\u0bcd \u0bb5\u0bbf\u0bb0\u0bc8\u0bb5\u0bc1\u0b9a\u0bcd\u0b9a\u0bbe\u0bb2\u0bc8","name:zh":"\u5b9e\u91cc\u8fbe\u9ad8\u901f\u516c\u8def","oneway":"yes","ref":"SLE","ref:ta":"\u0b8e\u0bb8\u0bcd\u0b8e\u0bb2\u0bcd\u0b87","short_name:ta":"\u0b8e\u0bb8\u0bcd\u0b8e\u0bb2\u0bcd\u0b87","surface":"asphalt","wikidata":"Q1575163","wikipedia":"en:Seletar Expressway"},"geometry":{"type":"LineString","coordinates":[[103.8023789,1.417532],[103.8014698,1.4182784]]}},{"type":"Feature","id":"way/638459993-0-0-0","properties":{"highway":"primary","lanes":"3","maxspeed":"70","name":"Mandai Road","name:en":"Mandai Road","name:zh":"\u4e07\u793c\u8def","oneway":"yes","surface":"asphalt"},"geometry":{"type":"LineString","coordinates":[[103.802553,1.4162441],[103.8028329,1.4162006]]}},{"type":"Feature","id":"way/638459993-0-1-0","properties":{"highway":"primary","lanes":"3","maxspeed":"70","name":"Mandai Road","name:en":"Mandai Road","name:zh":"\u4e07\u793c\u8def","oneway":"yes","surface":"asphalt"},"geometry":{"type":"LineString","coordinates":[[103.8028329,1.4162006],[103.8031127,1.416126]]}},{"type":"Feature","id":"way/638459993-0-2-0","properties":{"highway":"primary","lanes":"3","maxspeed":"70","name":"Mandai Road","name:en":"Mandai Road","name:zh":"\u4e07\u793c\u8def","oneway":"yes","surface":"asphalt"},"geometry":{"type":"LineString","coordinates":[[103.8031127,1.416126],[103.8033889,1.4160054]]}},{"type":"Feature","id":"way/638459993-0-3-0","properties":{"highway":"primary","lanes":"3","maxspeed":"70","name":"Mandai Road","name:en":"Mandai Road","name:zh":"\u4e07\u793c\u8def","oneway":"yes","surface":"asphalt"},"geometry":{"type":"LineString","coordinates":[[103.8033889,1.4160054],[103.8035411,1.4159391]]}},{"type":"Feature","id":"way/638459993-0-4-0","properties":{"highway":"primary","lanes":"3","maxspeed":"70","name":"Mandai Road","name:en":"Mandai Road","name:zh":"\u4e07\u793c\u8def","oneway":"yes","surface":"asphalt"},"geometry":{"type":"LineString","coordinates":[[103.8035411,1.4159391],[103.8036818,1.4158654]]}},{"type":"Feature","id":"way/638459993-0-5-0","properties":{"highway":"primary","lanes":"3","maxspeed":"70","name":"Mandai Road","name:en":"Mandai Road","name:zh":"\u4e07\u793c\u8def","oneway":"yes","surface":"asphalt"},"geometry":{"type":"LineString","coordinates":[[103.8036818,1.4158654],[103.8039385,1.4156888]]}},{"type":"Feature","id":"way/638459993-0-6-0","properties":{"highway":"primary","lanes":"3","maxspeed":"70","name":"Mandai Road","name:en":"Mandai Road","name:zh":"\u4e07\u793c\u8def","oneway":"yes","surface":"asphalt"},"geometry":{"type":"LineString","coordinates":[[103.8039385,1.4156888],[103.8041678,1.4154836]]}},{"type":"Feature","id":"way/638459993-0-7-0","properties":{"highway":"primary","lanes":"3","maxspeed":"70","name":"Mandai Road","name:en":"Mandai Road","name:zh":"\u4e07\u793c\u8def","oneway":"yes","surface":"asphalt"},"geometry":{"type":"LineString","coordinates":[[103.8041678,1.4154836],[103.8042864,1.4153905]]}},{"type":"Feature","id":"way/639914794-0-1-0","properties":{"highway":"primary","lanes":"3","maxspeed":"70","name":"Mandai Road","name:en":"Mandai Road","name:zh":"\u4e07\u793c\u8def","oneway":"yes","surface":"asphalt"},"geometry":{"type":"LineString","coordinates":[[103.8016787,1.41617],[103.802065,1.4162301]]}},{"type":"Feature","id":"way/639914794-0-2-0","properties":{"highway":"primary","lanes":"3","maxspeed":"70","name":"Mandai Road","name:en":"Mandai Road","name:zh":"\u4e07\u793c\u8def","oneway":"yes","surface":"asphalt"},"geometry":{"type":"LineString","coordinates":[[103.802065,1.4162301],[103.8023056,1.4162558]]}},{"type":"Feature","id":"way/639914794-0-3-0","properties":{"highway":"primary","lanes":"3","maxspeed":"70","name":"Mandai Road","name:en":"Mandai Road","name:zh":"\u4e07\u793c\u8def","oneway":"yes","surface":"asphalt"},"geometry":{"type":"LineString","coordinates":[[103.8023056,1.4162558],[103.802553,1.4162441]]}},{"type":"Feature","id":"way/649566271-0-0-0","properties":{"highway":"motorway","lanes":"3","maxspeed":"90","name":"Seletar Expressway","name:ms":"Lebuhraya Seletar","name:ta":"\u0b9a\u0bc6\u0bb2\u0bc7\u0ba4\u0bcd\u0ba4\u0bbe\u0bb0\u0bcd \u0bb5\u0bbf\u0bb0\u0bc8\u0bb5\u0bc1\u0b9a\u0bcd\u0b9a\u0bbe\u0bb2\u0bc8","name:zh":"\u5b9e\u91cc\u8fbe\u9ad8\u901f\u516c\u8def","oneway":"yes","ref":"SLE","ref:ta":"\u0b8e\u0bb8\u0bcd\u0b8e\u0bb2\u0bcd\u0b87","short_name:ta":"\u0b8e\u0bb8\u0bcd\u0b8e\u0bb2\u0bcd\u0b87","surface":"asphalt","turn:lanes":"through|through|through","wikidata":"Q1575163","wikipedia":"en:Seletar Expressway"},"geometry":{"type":"LineString","coordinates":[[103.804324,1.4160608],[103.8047634,1.4156821]]}},{"type":"Feature","id":"way/649603753-0-0-0","properties":{"highway":"motorway","lanes":"3","maxspeed":"90","name":"Seletar Expressway","name:ms":"Lebuhraya Seletar","name:ta":"\u0b9a\u0bc6\u0bb2\u0bc7\u0ba4\u0bcd\u0ba4\u0bbe\u0bb0\u0bcd \u0bb5\u0bbf\u0bb0\u0bc8\u0bb5\u0bc1\u0b9a\u0bcd\u0b9a\u0bbe\u0bb2\u0bc8","name:zh":"\u5b9e\u91cc\u8fbe\u9ad8\u901f\u516c\u8def","oneway":"yes","ref":"SLE","ref:ta":"\u0b8e\u0bb8\u0bcd\u0b8e\u0bb2\u0bcd\u0b87","short_name:ta":"\u0b8e\u0bb8\u0bcd\u0b8e\u0bb2\u0bcd\u0b87","surface":"asphalt","wikidata":"Q1575163","wikipedia":"en:Seletar Expressway"},"geometry":{"type":"LineString","coordinates":[[103.8033118,1.4167105],[103.8031695,1.4168354]]}},{"type":"Feature","id":"way/649633916-0-0-0","properties":{"highway":"motorway","lanes":"4","maxspeed":"90","name":"Seletar Expressway","name:ms":"Lebuhraya Seletar","name:ta":"\u0b9a\u0bc6\u0bb2\u0bc7\u0ba4\u0bcd\u0ba4\u0bbe\u0bb0\u0bcd \u0bb5\u0bbf\u0bb0\u0bc8\u0bb5\u0bc1\u0b9a\u0bcd\u0b9a\u0bbe\u0bb2\u0bc8","name:zh":"\u5b9e\u91cc\u8fbe\u9ad8\u901f\u516c\u8def","oneway":"yes","ref":"SLE","ref:ta":"\u0b8e\u0bb8\u0bcd\u0b8e\u0bb2\u0bcd\u0b87","short_name:ta":"\u0b8e\u0bb8\u0bcd\u0b8e\u0bb2\u0bcd\u0b87","surface":"asphalt","turn:lanes":"left|through|through|through","wikidata":"Q1575163","wikipedia":"en:Seletar Expressway"},"geometry":{"type":"LineString","coordinates":[[103.8035287,1.4165462],[103.8033118,1.4167105]]}},{"type":"Feature","id":"way/655522419-0-0-0","properties":{"highway":"primary","lanes":"4","maxspeed":"70","name":"Mandai Road","name:en":"Mandai Road","name:zh":"\u4e07\u793c\u8def","oneway":"yes","surface":"asphalt","turn:lanes":"through|through|through|right"},"geometry":{"type":"LineString","coordinates":[[103.8042864,1.4153905],[103.8046742,1.4151061]]}},{"type":"Feature","id":"way/655522419-0-1-0","properties":{"highway":"primary","lanes":"4","maxspeed":"70","name":"Mandai Road","name:en":"Mandai Road","name:zh":"\u4e07\u793c\u8def","oneway":"yes","surface":"asphalt","turn:lanes":"through|through|through|right"},"geometry":{"type":"LineString","coordinates":[[103.8046742,1.4151061],[103.8050114,1.4148357]]}},{"type":"Feature","id":"way/655522419-0-2-0","properties":{"highway":"primary","lanes":"4","maxspeed":"70","name":"Mandai Road","name:en":"Mandai Road","name:zh":"\u4e07\u793c\u8def","oneway":"yes","surface":"asphalt","turn:lanes":"through|through|through|right"},"geometry":{"type":"LineString","coordinates":[[103.8050114,1.4148357],[103.8050521,1.4148008]]}},{"type":"Feature","id":"way/681524009-0-0-0","properties":{"highway":"primary","lanes":"3","maxspeed":"70","name":"Mandai Avenue","name:zh":"\u4e07\u793c\u5927\u9053","oneway":"yes","surface":"asphalt"},"geometry":{"type":"LineString","coordinates":[[103.8051113,1.4147578],[103.8051574,1.4147259]]}},{"type":"Feature","id":"way/681524010-0-0-0","properties":{"highway":"primary","lanes":"3","maxspeed":"70","name":"Mandai Avenue","name:zh":"\u4e07\u793c\u5927\u9053","oneway":"yes","surface":"asphalt","turn:lanes":"through|through|through"},"geometry":{"type":"LineString","coordinates":[[103.8050575,1.4146165],[103.8049809,1.4146668]]}},{"type":"Feature","id":"way/681524011-0-0-0","properties":{"highway":"secondary","lanes":"1","maxspeed":"50","name":"Mandai Road","oneway":"yes"},"geometry":{"type":"LineString","coordinates":[[103.8051113,1.4147578],[103.8050575,1.4146165]]}},{"type":"Feature","id":"way/681524013-0-0-0","properties":{"highway":"secondary","lanes":"1","maxspeed":"50","name":"Mandai Road","oneway":"yes"},"geometry":{"type":"LineString","coordinates":[[103.8050575,1.4146165],[103.8050286,1.4145448]]}},{"type":"Feature","id":"way/681524013-0-1-0","properties":{"highway":"secondary","lanes":"1","maxspeed":"50","name":"Mandai Road","oneway":"yes"},"geometry":{"type":"LineString","coordinates":[[103.8050286,1.4145448],[103.805016,1.4144688]]}},{"type":"Feature","id":"way/681524013-0-2-0","properties":{"highway":"secondary","lanes":"1","maxspeed":"50","name":"Mandai Road","oneway":"yes"},"geometry":{"type":"LineString","coordinates":[[103.805016,1.4144688],[103.8050099,1.4144145]]}},{"type":"Feature","id":"way/681524013-0-3-0","properties":{"highway":"secondary","lanes":"1","maxspeed":"50","name":"Mandai Road","oneway":"yes"},"geometry":{"type":"LineString","coordinates":[[103.8050099,1.4144145],[103.8050039,1.4143474]]}},{"type":"Feature","id":"way/681524013-0-4-0","properties":{"highway":"secondary","lanes":"1","maxspeed":"50","name":"Mandai Road","oneway":"yes"},"geometry":{"type":"LineString","coordinates":[[103.8050039,1.4143474],[103.8049995,1.4142335]]}},{"type":"Feature","id":"way/701676679-0-0-0","properties":{"highway":"primary","lanes":"3","maxspeed":"70","name":"Mandai Road","name:en":"Mandai Road","name:zh":"\u4e07\u793c\u8def","oneway":"yes","surface":"asphalt","turn:lanes":"through|through|through"},"geometry":{"type":"LineString","coordinates":[[103.8036372,1.4157067],[103.80329,1.4158879]]}},{"type":"Feature","id":"way/701676679-0-1-0","properties":{"highway":"primary","lanes":"3","maxspeed":"70","name":"Mandai Road","name:en":"Mandai Road","name:zh":"\u4e07\u793c\u8def","oneway":"yes","surface":"asphalt","turn:lanes":"through|through|through"},"geometry":{"type":"LineString","coordinates":[[103.80329,1.4158879],[103.8030073,1.4160177]]}},{"type":"Feature","id":"way/701676680-0-0-0","properties":{"highway":"primary","lanes":"3","maxspeed":"70","name":"Mandai Road","name:en":"Mandai Road","name:zh":"\u4e07\u793c\u8def","oneway":"yes","surface":"asphalt"},"geometry":{"type":"LineString","coordinates":[[103.804548,1.4150222],[103.8040865,1.415364]]}},{"type":"Feature","id":"way/701676680-0-1-0","properties":{"highway":"primary","lanes":"3","maxspeed":"70","name":"Mandai Road","name:en":"Mandai Road","name:zh":"\u4e07\u793c\u8def","oneway":"yes","surface":"asphalt"},"geometry":{"type":"LineString","coordinates":[[103.8040865,1.415364],[103.8036372,1.4157067]]}},{"type":"Feature","id":"way/713273383-0-0-0","properties":{"highway":"primary","lanes":"3","maxspeed":"70","name":"Mandai Road","name:en":"Mandai Road","name:zh":"\u4e07\u793c\u8def","oneway":"yes","surface":"asphalt","turn:lanes":"through|through|through"},"geometry":{"type":"LineString","coordinates":[[103.80226,1.4161091],[103.802091,1.4160984]]}},{"type":"Feature","id":"way/713273383-0-1-0","properties":{"highway":"primary","lanes":"3","maxspeed":"70","name":"Mandai Road","name:en":"Mandai Road","name:zh":"\u4e07\u793c\u8def","oneway":"yes","surface":"asphalt","turn:lanes":"through|through|through"},"geometry":{"type":"LineString","coordinates":[[103.802091,1.4160984],[103.8017131,1.4160413]]}},{"type":"Feature","id":"way/713273383-0-2-0","properties":{"highway":"primary","lanes":"3","maxspeed":"70","name":"Mandai Road","name:en":"Mandai Road","name:zh":"\u4e07\u793c\u8def","oneway":"yes","surface":"asphalt","turn:lanes":"through|through|through"},"geometry":{"type":"LineString","coordinates":[[103.8017131,1.4160413],[103.801638,1.4160312]]}},{"type":"Feature","id":"way/760683826-0-0-0","properties":{"highway":"secondary","lanes":"1","maxspeed":"50","name":"Mandai Road","oneway":"yes","surface":"asphalt"},"geometry":{"type":"LineString","coordinates":[[103.8049995,1.4142335],[103.8049611,1.4142917]]}}]}