{"type":"FeatureCollection","features":[{"type":"Feature","id":"way/298033598-0","properties":{"building":"yes","man_made":"gasometer"},"geometry":{"type":"Polygon","coordinates":[[[103.7936723,1.2079226],[103.7936694,1.2079471],[103.7936761,1.2079708],[103.7936913,1.2079902],[103.7937128,1.2080022],[103.7937373,1.2080051],[103.7937611,1.2079984],[103.7937804,1.2079832],[103.7937925,1.2079617],[103.7937954,1.2079372],[103.7937887,1.2079135],[103.7937734,1.2078941],[103.7937519,1.2078821],[103.7937274,1.2078792],[103.7937037,1.2078859],[103.7936843,1.2079011],[103.7936723,1.2079226]]]}},{"type":"Feature","id":"way/298033600-0","properties":{"building":"yes","man_made":"gasometer"},"geometry":{"type":"Polygon","coordinates":[[[103.7925439,1.2099565],[103.7925288,1.2100238],[103.7925407,1.2100918],[103.7925776,1.2101502],[103.7926341,1.2101899],[103.7927015,1.210205],[103.7927695,1.2101931],[103.7928278,1.2101562],[103.7928676,1.2100997],[103.7928827,1.2100323],[103.7928708,1.2099643],[103.7928338,1.209906],[103.7927774,1.2098663],[103.79271,1.2098512],[103.792642,1.209863],[103.7925836,1.2099],[103.7925439,1.2099565]]]}},{"type":"Feature","id":"way/298033608-0","properties":{"building":"yes","man_made":"gasometer"},"geometry":{"type":"Polygon","coordinates":[[[103.7953008,1.2076036],[103.7952805,1.2076716],[103.7952878,1.2077423],[103.7953216,1.2078047],[103.7953767,1.2078495],[103.7954447,1.2078698],[103.7955153,1.2078625],[103.7955778,1.2078288],[103.7956225,1.2077737],[103.7956428,1.2077057],[103.7956356,1.2076351],[103.7956018,1.2075726],[103.7955467,1.2075278],[103.7954787,1.2075075],[103.7954081,1.2075148],[103.7953456,1.2075486],[103.7953008,1.2076036]]]}},{"type":"Feature","id":"way/298033609-0","properties":{"building":"yes","man_made":"gasometer"},"geometry":{"type":"Polygon","coordinates":[[[103.7934634,1.2090109],[103.7934611,1.2090904],[103.7934894,1.2091647],[103.793544,1.2092225],[103.7936166,1.2092551],[103.7936961,1.2092574],[103.7937704,1.2092291],[103.7938282,1.2091745],[103.7938608,1.2091019],[103.7938631,1.2090225],[103.7938348,1.2089481],[103.7937802,1.2088903],[103.7937076,1.2088578],[103.7936281,1.2088555],[103.7935538,1.2088838],[103.7934959,1.2089383],[103.7934634,1.2090109]]]}},{"type":"Feature","id":"way/298033614-0","properties":{"building":"yes","man_made":"gasometer"},"geometry":{"type":"Polygon","coordinates":[[[103.7935302,1.2078256],[103.7935273,1.20785],[103.793534,1.2078738],[103.7935492,1.2078931],[103.7935707,1.2079052],[103.7935952,1.2079081],[103.7936189,1.2079014],[103.7936383,1.2078861],[103.7936503,1.2078646],[103.7936532,1.2078401],[103.7936465,1.2078164],[103.7936313,1.207797],[103.7936098,1.207785],[103.7935853,1.2077821],[103.7935616,1.2077888],[103.7935422,1.2078041],[103.7935302,1.2078256]]]}},{"type":"Feature","id":"way/298033616-0","properties":{"building":"yes","man_made":"gasometer"},"geometry":{"type":"Polygon","coordinates":[[[103.7932437,1.2076498],[103.7932408,1.2076742],[103.7932475,1.207698],[103.7932627,1.2077173],[103.7932842,1.2077294],[103.7933087,1.2077323],[103.7933324,1.2077256],[103.7933518,1.2077103],[103.7933639,1.2076888],[103.7933668,1.2076643],[103.7933601,1.2076406],[103.7933448,1.2076213],[103.7933233,1.2076092],[103.7932988,1.2076063],[103.7932751,1.207613],[103.7932557,1.2076283],[103.7932437,1.2076498]]]}},{"type":"Feature","id":"way/298033618-0","properties":{"building":"yes","man_made":"gasometer"},"geometry":{"type":"Polygon","coordinates":[[[103.793761,1.2085687],[103.7937617,1.2086513],[103.793794,1.2087273],[103.7938529,1.2087851],[103.7939294,1.2088161],[103.794012,1.2088154],[103.794088,1.2087832],[103.7941459,1.2087243],[103.7941768,1.2086478],[103.7941761,1.2085652],[103.7941439,1.2084892],[103.794085,1.2084314],[103.7940084,1.2084004],[103.7939259,1.2084011],[103.7938499,1.2084334],[103.793792,1.2084922],[103.793761,1.2085687]]]}},{"type":"Feature","id":"way/298033621-0","properties":{"building":"yes","man_made":"gasometer"},"geometry":{"type":"Polygon","coordinates":[[[103.7942325,1.207702],[103.794222,1.2077608],[103.7942348,1.2078191],[103.794269,1.2078682],[103.7943193,1.2079004],[103.7943781,1.2079109],[103.7944365,1.2078981],[103.7944855,1.2078639],[103.7945178,1.2078136],[103.7945283,1.2077548],[103.7945155,1.2076964],[103.7944813,1.2076474],[103.794431,1.2076152],[103.7943721,1.2076047],[103.7943138,1.2076175],[103.7942647,1.2076517],[103.7942325,1.207702]]]}},{"type":"Feature","id":"way/298033625-0","properties":{"building":"yes","man_made":"gasometer"},"geometry":{"type":"Polygon","coordinates":[[[103.793384,1.2077325],[103.7933811,1.207757],[103.7933878,1.2077807],[103.7934031,1.2078001],[103.7934246,1.2078121],[103.7934491,1.207815],[103.7934728,1.2078083],[103.7934922,1.207793],[103.7935042,1.2077715],[103.7935071,1.2077471],[103.7935004,1.2077233],[103.7934852,1.207704],[103.7934637,1.2076919],[103.7934392,1.207689],[103.7934154,1.2076957],[103.7933961,1.207711],[103.793384,1.2077325]]]}},{"type":"Feature","id":"way/298033637-0","properties":{"building":"yes","man_made":"gasometer"},"geometry":{"type":"Polygon","coordinates":[[[103.7924867,1.2093933],[103.7924716,1.2094606],[103.7924834,1.2095287],[103.7925204,1.209587],[103.7925769,1.2096267],[103.7926443,1.2096418],[103.7927123,1.2096299],[103.7927706,1.209593],[103.7928104,1.2095365],[103.7928254,1.2094691],[103.7928136,1.2094011],[103.7927766,1.2093428],[103.7927201,1.2093031],[103.7926528,1.209288],[103.7925847,1.2092998],[103.7925264,1.2093368],[103.7924867,1.2093933]]]}},{"type":"Feature","id":"way/298033640-0","properties":{"building":"yes","man_made":"gasometer"},"geometry":{"type":"Polygon","coordinates":[[[103.7929935,1.2079158],[103.7929879,1.2079651],[103.7930016,1.2080127],[103.7930325,1.2080515],[103.7930759,1.2080755],[103.7931252,1.2080811],[103.7931729,1.2080674],[103.7932117,1.2080365],[103.7932357,1.2079931],[103.7932413,1.2079438],[103.7932276,1.2078962],[103.7931967,1.2078574],[103.7931533,1.2078334],[103.793104,1.2078278],[103.7930563,1.2078415],[103.7930175,1.2078724],[103.7929935,1.2079158]]]}},{"type":"Feature","id":"way/298033642-0","properties":{"building":"yes","man_made":"gasometer"},"geometry":{"type":"Polygon","coordinates":[[[103.7932427,1.2081139],[103.7932371,1.2081632],[103.7932508,1.2082109],[103.7932817,1.2082496],[103.7933251,1.2082737],[103.7933744,1.2082792],[103.7934221,1.2082655],[103.7934609,1.2082346],[103.7934849,1.2081912],[103.7934905,1.208142],[103.7934768,1.2080943],[103.7934459,1.2080555],[103.7934025,1.2080315],[103.7933532,1.2080259],[103.7933055,1.2080396],[103.7932667,1.2080705],[103.7932427,1.2081139]]]}},{"type":"Feature","id":"way/298033647-0","properties":{"building":"yes","man_made":"gasometer"},"geometry":{"type":"Polygon","coordinates":[[[103.792875,1.2096454],[103.7928599,1.2097128],[103.7928718,1.2097808],[103.7929087,1.2098391],[103.7929652,1.2098789],[103.7930326,1.2098939],[103.7931006,1.2098821],[103.793159,1.2098451],[103.7931987,1.2097887],[103.7932138,1.2097213],[103.7932019,1.2096533],[103.793165,1.209595],[103.7931085,1.2095553],[103.7930411,1.2095402],[103.7929731,1.209552],[103.7929147,1.209589],[103.792875,1.2096454]]]}},{"type":"Feature","id":"way/298033648-0","properties":{"building":"yes","man_made":"gasometer"},"geometry":{"type":"Polygon","coordinates":[[[103.7944859,1.2080282],[103.7944604,1.2081064],[103.7944667,1.2081883],[103.7945039,1.2082616],[103.7945664,1.208315],[103.7946445,1.2083405],[103.7947265,1.2083342],[103.7947998,1.2082969],[103.7948532,1.2082345],[103.7948787,1.2081564],[103.7948724,1.2080745],[103.7948352,1.2080012],[103.7947727,1.2079477],[103.7946946,1.2079222],[103.7946126,1.2079286],[103.7945393,1.2079658],[103.7944859,1.2080282]]]}},{"type":"Feature","id":"way/616049962-0","properties":{"building":"yes","man_made":"storage_tank"},"geometry":{"type":"Polygon","coordinates":[[[103.7942211,1.2079883],[103.7941864,1.2080037],[103.7941588,1.2080297],[103.7941414,1.2080635],[103.7941363,1.2081011],[103.794144,1.2081383],[103.7941637,1.2081708],[103.7941914,1.2081939],[103.794225,1.208207],[103.794261,1.2082089],[103.7942958,1.2081991],[103.7943257,1.2081789],[103.7943476,1.2081503],[103.7943593,1.2081161],[103.7943596,1.2080801],[103.7943484,1.2080458],[103.794327,1.2080168],[103.7942957,1.2079953],[103.794259,1.2079854],[103.7942211,1.2079883]]]}},{"type":"Feature","id":"way/616049963-0","properties":{"building":"yes","man_made":"storage_tank"},"geometry":{"type":"Polygon","coordinates":[[[103.7943308,1.2083346],[103.7942993,1.2083526],[103.7942755,1.20838],[103.7942621,1.2084136],[103.7942603,1.2084498],[103.7942706,1.2084845],[103.7942917,1.2085139],[103.7943206,1.2085345],[103.7943546,1.2085446],[103.79439,1.2085433],[103.7944231,1.2085307],[103.7944505,1.2085081],[103.7944691,1.208478],[103.794477,1.2084434],[103.7944734,1.2084082],[103.7944586,1.2083759],[103.7944343,1.2083502],[103.7944022,1.2083333],[103.7943664,1.2083279],[103.7943308,1.2083346]]]}},{"type":"Feature","id":"way/616049964-0","properties":{"building":"yes"},"geometry":{"type":"Polygon","coordinates":[[[103.7942716,1.2089307],[103.7941143,1.2091542],[103.7942383,1.2092414],[103.7943956,1.2090179],[103.7942716,1.2089307]]]}},{"type":"Feature","id":"way/616049965-0","properties":{"building":"yes"},"geometry":{"type":"Polygon","coordinates":[[[103.794102,1.2091942],[103.7939668,1.2093853],[103.7940522,1.2094457],[103.7941874,1.2092546],[103.794102,1.2091942]]]}},{"type":"Feature","id":"way/616049966-0","properties":{"building":"yes","man_made":"storage_tank"},"geometry":{"type":"Polygon","coordinates":[[[103.7939145,1.2094575],[103.7939053,1.2094598],[103.7938973,1.2094649],[103.7938913,1.2094722],[103.7938879,1.209481],[103.7938873,1.2094904],[103.7938897,1.2094996],[103.7938948,1.2095075],[103.793903,1.2095139],[103.7939129,1.2095172],[103.7939233,1.2095169],[103.793933,1.2095131],[103.7939408,1.2095062],[103.7939457,1.2094971],[103.7939473,1.2094868],[103.7939453,1.2094766],[103.7939399,1.2094677],[103.7939327,1.2094616],[103.7939239,1.2094581],[103.7939145,1.2094575]]]}},{"type":"Feature","id":"way/1254230070-0","properties":{"building":"yes","man_made":"storage_tank"},"geometry":{"type":"Polygon","coordinates":[[[103.7928176,1.2075859],[103.7927671,1.2075717],[103.7927147,1.207574],[103.7926657,1.2075925],[103.7926249,1.2076255],[103.7925966,1.2076696],[103.7925835,1.2077204],[103.7925869,1.2077727],[103.7926088,1.2078249],[103.792647,1.2078667],[103.7926971,1.2078931],[103.7927531,1.2079011],[103.7928086,1.2078896],[103.792857,1.2078602],[103.7928926,1.2078161],[103.7929112,1.2077627],[103.7929107,1.207706],[103.7928931,1.2076566],[103.792861,1.2076152],[103.7928176,1.2075859]]]}},{"type":"Feature","id":"way/298033663-0-0-0","properties":{"highway":"service"},"geometry":{"type":"LineString","coordinates":[[103.7922918,1.210699],[103.7930024,1.210266]]}},{"type":"Feature","id":"way/298033663-0-1-0","properties":{"highway":"service"},"geometry":{"type":"LineString","coordinates":[[103.7930024,1.210266],[103.7934779,1.209782]]}},{"type":"Feature","id":"way/298033663-0-2-0","properties":{"highway":"service"},"geometry":{"type":"LineString","coordinates":[[103.7934779,1.209782],[103.7934949,1.2096745]]}},{"type":"Feature","id":"way/298033663-0-3-0","properties":{"highway":"service"},"geometry":{"type":"LineString","coordinates":[[103.7934949,1.2096745],[103.7934383,1.2096009]]}},{"type":"Feature","id":"way/298033663-0-4-0","properties":{"highway":"service"},"geometry":{"type":"LineString","coordinates":[[103.7934383,1.2096009],[103.7930193,1.2093377]]}},{"type":"Feature","id":"way/298033663-0-5-0","properties":{"highway":"service"},"geometry":{"type":"LineString","coordinates":[[103.7930193,1.2093377],[103.7924277,1.2088848]]}},{"type":"Feature","id":"way/298033670-0-0-0","properties":{"highway":"service"},"geometry":{"type":"LineString","coordinates":[[103.7937771,1.2095958],[103.7942535,1.2089133]]}},{"type":"Feature","id":"way/298033670-0-1-0","properties":{"highway":"service"},"geometry":{"type":"LineString","coordinates":[[103.7942535,1.2089133],[103.7945698,1.2088513]]}},{"type":"Feature","id":"way/298033670-0-2-0","properties":{"highway":"service"},"geometry":{"type":"LineString","coordinates":[[103.7945698,1.2088513],[103.7953084,1.2081989]]}},{"type":"Feature","id":"way/298033670-0-3-0","properties":{"highway":"service"},"geometry":{"type":"LineString","coordinates":[[103.7953084,1.2081989],[103.7952544,1.2081289]]}},{"type":"Feature","id":"way/298033670-0-4-0","properties":{"highway":"service"},"geometry":{"type":"LineString","coordinates":[[103.7952544,1.2081289],[103.7945602,1.2074627]]}},{"type":"Feature","id":"way/298033681-0-0-0","properties":{"highway":"service"},"geometry":{"type":"LineString","coordinates":[[103.7940232,1.2078131],[103.7938852,1.2077446]]}},{"type":"Feature","id":"way/646241471-0-0-0","properties":{"highway":"service"},"geometry":{"type":"LineString","coordinates":[[103.794755,1.2074833],[103.7953895,1.2081142]]}},{"type":"Feature","id":"way/646241471-0-1-0","properties":{"highway":"service"},"geometry":{"type":"LineString","coordinates":[[103.7953895,1.2081142],[103.7954493,1.2081535]]}},{"type":"Feature","id":"way/646241471-0-2-0","properties":{"highway":"service"},"geometry":{"type":"LineString","coordinates":[[103.7954493,1.2081535],[103.7954953,1.2081469]]}},{"type":"Feature","id":"way/646241471-0-3-0","properties":{"highway":"service"},"geometry":{"type":"LineString","coordinates":[[103.7954953,1.2081469],[103.7964259,1.2074786]]}},{"type":"Feature","id":"way/646653725-0-3-0","properties":{"highway":"service"},"geometry":{"type":"LineString","coordinates":[[103.7940053,1.2077026],[103.7940232,1.2078131]]}},{"type":"Feature","id":"way/646653726-0-2-0","properties":{"highway":"service"},"geometry":{"type":"LineString","coordinates":[[103.7926004,1.2106622],[103.7930335,1.2104103]]}},{"type":"Feature","id":"way/646653726-0-3-0","properties":{"highway":"service"},"geometry":{"type":"LineString","coordinates":[[103.7930335,1.2104103],[103.7931806,1.2102842]]}},{"type":"Feature","id":"way/646653726-0-4-0","properties":{"highway":"service"},"geometry":{"type":"LineString","coordinates":[[103.7931806,1.2102842],[103.793637,1.2098179]]}},{"type":"Feature","id":"way/646653726-0-5-0","properties":{"highway":"service"},"geometry":{"type":"LineString","coordinates":[[103.793637,1.2098179],[103.7937771,1.2095958]]}},{"type":"Feature","id":"way/646653728-0-0-0","properties":{"highway":"service"},"geometry":{"type":"LineString","coordinates":[[103.7940232,1.2078131],[103.7940413,1.2079247]]}},{"type":"Feature","id":"way/646653728-0-1-0","properties":{"highway":"service"},"geometry":{"type":"LineString","coordinates":[[103.7940413,1.2079247],[103.7938192,1.2082489]]}},{"type":"Feature","id":"way/646653728-0-2-0","properties":{"highway":"service"},"geometry":{"type":"LineString","coordinates":[[103.7938192,1.2082489],[103.7937131,1.2082649]]}},{"type":"Feature","id":"way/646653728-0-3-0","properties":{"highway":"service"},"geometry":{"type":"LineString","coordinates":[[103.7937131,1.2082649],[103.7931206,1.2091575]]}},{"type":"Feature","id":"way/646653728-0-4-0","properties":{"highway":"service"},"geometry":{"type":"LineString","coordinates":[[103.7931206,1.2091575],[103.7937771,1.2095958]]}},{"type":"Feature","id":"way/692939714-0-1-0","properties":{"highway":"service"},"geometry":{"type":"LineString","coordinates":[[103.7926161,1.2081826],[103.7926617,1.2082188]]}},{"type":"Feature","id":"way/692939714-0-2-0","properties":{"highway":"service"},"geometry":{"type":"LineString","coordinates":[[103.7926617,1.2082188],[103.7926765,1.2082523]]}},{"type":"Feature","id":"way/692939714-0-3-0","properties":{"highway":"service"},"geometry":{"type":"LineString","coordinates":[[103.7926765,1.2082523],[103.7926671,1.2082818]]}}]}