{"type":"FeatureCollection","features":[{"type":"Feature","id":"relation/7081257-0","properties":{"addr:street":"Sixth Avenue","building":"yes","name":"Dynasty Garden II","type":"multipolygon"},"geometry":{"type":"Polygon","coordinates":[[[103.7918909,1.3231619],[103.7918709,1.3231368],[103.7919196,1.3230979],[103.7918348,1.3229916],[103.791883,1.3229533],[103.7919673,1.323059],[103.7920629,1.3229827],[103.7919814,1.3228806],[103.7919581,1.3228992],[103.7919043,1.3228319],[103.7918485,1.3228764],[103.791806,1.3228232],[103.7916869,1.3229182],[103.791734,1.3229772],[103.7916937,1.3230093],[103.7917367,1.3230633],[103.791689,1.3231014],[103.7917435,1.3231696],[103.791688,1.3232139],[103.7917768,1.3233252],[103.7918895,1.3232354],[103.7918542,1.3231912],[103.7918909,1.3231619]]]}},{"type":"Feature","id":"relation/7081257-1","properties":{"addr:street":"Sixth Avenue","building":"yes","name":"Dynasty Garden II","type":"multipolygon"},"geometry":{"type":"Polygon","coordinates":[[[103.7919803,1.3232967],[103.7919959,1.3233137],[103.791859,1.3234389],[103.7919377,1.323525],[103.7922194,1.3232676],[103.792125,1.3231644],[103.7919803,1.3232967]]]}},{"type":"Feature","id":"way/451914533-0","properties":{"addr:housenumber":"46","addr:street":"Ming Teck Park","building":"yes"},"geometry":{"type":"Polygon","coordinates":[[[103.7888382,1.3198777],[103.7886759,1.3199774],[103.7887085,1.3200304],[103.7888708,1.3199307],[103.7888382,1.3198777]]]}},{"type":"Feature","id":"way/451914540-0","properties":{"building":"yes","source":"Kaart Ground Survey 2017"},"geometry":{"type":"Polygon","coordinates":[[[103.7894619,1.3205072],[103.7894406,1.3204676],[103.7894249,1.3204384],[103.7892854,1.3205134],[103.7893436,1.3206218],[103.7894832,1.3205469],[103.7894619,1.3205072]]]}},{"type":"Feature","id":"way/451914548-0","properties":{"addr:housenumber":"64","addr:street":"Ming Teck Park","building":"yes"},"geometry":{"type":"Polygon","coordinates":[[[103.7891612,1.3203878],[103.7889587,1.3204992],[103.7889958,1.3205665],[103.7891982,1.3204551],[103.7891612,1.3203878]]]}},{"type":"Feature","id":"way/451914549-0","properties":{"addr:housenumber":"52","addr:street":"Ming Teck Park","building":"yes"},"geometry":{"type":"Polygon","coordinates":[[[103.7888542,1.3202161],[103.7889682,1.3201556],[103.7889405,1.3201034],[103.7888265,1.3201639],[103.7888542,1.3202161]]]}},{"type":"Feature","id":"way/451914552-0","properties":{"building":"yes"},"geometry":{"type":"Polygon","coordinates":[[[103.7889262,1.320057],[103.7888777,1.3199896],[103.788768,1.3200685],[103.7888165,1.3201359],[103.7889262,1.320057]]]}},{"type":"Feature","id":"way/451914554-0","properties":{"addr:housenumber":"500","addr:street":"Ming Teck Park","building":"yes"},"geometry":{"type":"Polygon","coordinates":[[[103.7896709,1.3208801],[103.7896303,1.3208045],[103.7894768,1.3208869],[103.7895174,1.3209625],[103.7896709,1.3208801]]]}},{"type":"Feature","id":"way/451914555-0","properties":{"building":"yes","source":"Kaart Ground Survey 2017"},"geometry":{"type":"Polygon","coordinates":[[[103.7894067,1.3204182],[103.7893955,1.3203961],[103.7893778,1.3203615],[103.7893663,1.320339],[103.7893625,1.3203409],[103.7892349,1.320406],[103.7892753,1.3204852],[103.7894067,1.3204182]]]}},{"type":"Feature","id":"way/451914557-0","properties":{"building":"yes","source":"Kaart Ground Survey 2017"},"geometry":{"type":"Polygon","coordinates":[[[103.7893625,1.3203409],[103.7893399,1.3202965],[103.7893028,1.320224],[103.7892754,1.3201703],[103.7892528,1.3201818],[103.7891478,1.3202354],[103.7892349,1.320406],[103.7893625,1.3203409]]]}},{"type":"Feature","id":"way/451914558-0","properties":{"building":"yes","source":"Kaart Ground Survey 2017"},"geometry":{"type":"Polygon","coordinates":[[[103.789185,1.3200699],[103.7891661,1.3200328],[103.7891438,1.3199891],[103.7891301,1.3199623],[103.7890074,1.3200249],[103.7890623,1.3201325],[103.7890885,1.3201191],[103.789185,1.3200699]]]}},{"type":"Feature","id":"way/451914559-0","properties":{"building":"yes","source":"Kaart Ground Survey 2017"},"geometry":{"type":"Polygon","coordinates":[[[103.7892528,1.3201818],[103.7892365,1.3201498],[103.7892098,1.3200974],[103.7891935,1.3200655],[103.789185,1.3200699],[103.7890885,1.3201191],[103.7891478,1.3202354],[103.7892528,1.3201818]]]}},{"type":"Feature","id":"way/451914560-0","properties":{"building":"yes","source":"Kaart Ground Survey 2017"},"geometry":{"type":"Polygon","coordinates":[[[103.7896168,1.3207956],[103.7895864,1.320739],[103.789556,1.3206825],[103.7895245,1.3206238],[103.7894996,1.3205775],[103.7894832,1.3205469],[103.7893436,1.3206218],[103.7893251,1.3206318],[103.7894587,1.3208805],[103.7896168,1.3207956]]]}},{"type":"Feature","id":"way/451914565-0","properties":{"addr:housenumber":"119","addr:street":"Ming Teck Park","building":"yes"},"geometry":{"type":"Polygon","coordinates":[[[103.7886705,1.3208112],[103.7888469,1.320752],[103.7888285,1.3206971],[103.788652,1.3207563],[103.7886705,1.3208112]]]}},{"type":"Feature","id":"way/451915833-0","properties":{"building":"yes"},"geometry":{"type":"Polygon","coordinates":[[[103.7905234,1.3208633],[103.7903294,1.3209126],[103.7903648,1.3210517],[103.7905587,1.3210024],[103.7905234,1.3208633]]]}},{"type":"Feature","id":"way/451915834-0","properties":{"building":"yes"},"geometry":{"type":"Polygon","coordinates":[[[103.7905125,1.3208462],[103.7904741,1.3206953],[103.7902656,1.3207483],[103.7903039,1.3208992],[103.7905125,1.3208462]]]}},{"type":"Feature","id":"way/451915839-0","properties":{"building":"yes"},"geometry":{"type":"Polygon","coordinates":[[[103.7908637,1.3214019],[103.7910342,1.3212685],[103.7909539,1.321166],[103.7907834,1.3212994],[103.7908637,1.3214019]]]}},{"type":"Feature","id":"way/451915841-0","properties":{"building":"yes"},"geometry":{"type":"Polygon","coordinates":[[[103.7902578,1.3205589],[103.7904568,1.3205137],[103.7904158,1.3203331],[103.7902168,1.3203783],[103.7902578,1.3205589]]]}},{"type":"Feature","id":"way/451915844-0","properties":{"building":"yes"},"geometry":{"type":"Polygon","coordinates":[[[103.7908107,1.3213533],[103.790715,1.321231],[103.7905977,1.3213227],[103.7906935,1.321445],[103.7908107,1.3213533]]]}},{"type":"Feature","id":"way/451915846-0","properties":{"building":"yes"},"geometry":{"type":"Polygon","coordinates":[[[103.7907767,1.3208603],[103.7906793,1.3207974],[103.7905901,1.3209355],[103.7906875,1.3209984],[103.7907767,1.3208603]]]}},{"type":"Feature","id":"way/451915848-0","properties":{"building":"yes"},"geometry":{"type":"Polygon","coordinates":[[[103.7908048,1.3211546],[103.7908014,1.3210238],[103.7906485,1.3210278],[103.790652,1.3211586],[103.7908048,1.3211546]]]}},{"type":"Feature","id":"way/451915851-0","properties":{"building":"yes"},"geometry":{"type":"Polygon","coordinates":[[[103.7904621,1.3214239],[103.7905707,1.3215627],[103.7906922,1.3214676],[103.7905836,1.3213289],[103.7904621,1.3214239]]]}},{"type":"Feature","id":"way/451915855-0","properties":{"addr:housenumber":"507","addr:street":"Sixth Avenue","building":"yes","source":"Kaart Ground Survey 2017"},"geometry":{"type":"Polygon","coordinates":[[[103.7901652,1.3209543],[103.790206,1.321115],[103.7903703,1.3210733],[103.7903648,1.3210517],[103.7903294,1.3209126],[103.7901652,1.3209543]]]}},{"type":"Feature","id":"way/451915866-0","properties":{"building":"yes"},"geometry":{"type":"Polygon","coordinates":[[[103.7901,1.3202818],[103.790096,1.3202265],[103.7901363,1.3202236],[103.7901262,1.3200834],[103.7899922,1.3200929],[103.7900062,1.3202884],[103.7901,1.3202818]]]}},{"type":"Feature","id":"way/451915869-0","properties":{"building":"yes"},"geometry":{"type":"Polygon","coordinates":[[[103.7896018,1.3200383],[103.7896453,1.3200327],[103.7896585,1.3201349],[103.7898127,1.320115],[103.789789,1.3199305],[103.7895911,1.3199559],[103.7896018,1.3200383]]]}},{"type":"Feature","id":"way/451915871-0","properties":{"building":"yes"},"geometry":{"type":"Polygon","coordinates":[[[103.790228,1.320717],[103.7900122,1.3207718],[103.7900457,1.3209035],[103.7901227,1.320884],[103.7901364,1.3209377],[103.7902751,1.3209025],[103.790228,1.320717]]]}},{"type":"Feature","id":"way/451915872-0","properties":{"building":"yes"},"geometry":{"type":"Polygon","coordinates":[[[103.7898402,1.3204915],[103.7898664,1.320607],[103.7898861,1.3206025],[103.7899001,1.320664],[103.7900599,1.3206277],[103.7900196,1.3204507],[103.7898402,1.3204915]]]}},{"type":"Feature","id":"way/451915873-0","properties":{"building":"yes"},"geometry":{"type":"Polygon","coordinates":[[[103.7899673,1.3202777],[103.789828,1.3201837],[103.7897329,1.3203245],[103.789797,1.3203678],[103.7897862,1.3203838],[103.7898614,1.3204346],[103.7899673,1.3202777]]]}},{"type":"Feature","id":"way/451915875-0","properties":{"building":"yes"},"geometry":{"type":"Polygon","coordinates":[[[103.79042,1.3203051],[103.7904459,1.3204191],[103.7904702,1.3204136],[103.7904823,1.3204668],[103.7906906,1.3204194],[103.7906526,1.3202522],[103.79042,1.3203051]]]}},{"type":"Feature","id":"way/451915877-0","properties":{"building":"yes"},"geometry":{"type":"Polygon","coordinates":[[[103.7903038,1.3201745],[103.7903072,1.3202092],[103.7904052,1.3201998],[103.7903876,1.3200175],[103.7902066,1.3200349],[103.7902208,1.3201825],[103.7903038,1.3201745]]]}},{"type":"Feature","id":"way/451915880-0","properties":{"building":"yes"},"geometry":{"type":"Polygon","coordinates":[[[103.7900782,1.3205881],[103.7901167,1.3205794],[103.790123,1.3206074],[103.7902463,1.3205794],[103.7902068,1.3204059],[103.7900451,1.3204426],[103.7900782,1.3205881]]]}},{"type":"Feature","id":"way/451915883-0","properties":{"building":"yes"},"geometry":{"type":"Polygon","coordinates":[[[103.790641,1.3208024],[103.7906354,1.3207805],[103.7907111,1.3207613],[103.7906748,1.3206183],[103.790565,1.3206461],[103.7905688,1.3206607],[103.7904857,1.3206818],[103.7905239,1.3208321],[103.790641,1.3208024]]]}},{"type":"Feature","id":"way/451915886-0","properties":{"building":"yes"},"geometry":{"type":"Polygon","coordinates":[[[103.7905681,1.3198581],[103.790459,1.3198692],[103.7904634,1.3199118],[103.7904008,1.3199182],[103.790415,1.3200572],[103.7904775,1.3200508],[103.7904818,1.3200931],[103.7905909,1.320082],[103.7905681,1.3198581]]]}},{"type":"Feature","id":"way/451922151-0","properties":{"building":"yes"},"geometry":{"type":"Polygon","coordinates":[[[103.7913302,1.320569],[103.7913302,1.3206079],[103.7914469,1.3206079],[103.7914469,1.320569],[103.7915052,1.320569],[103.7915052,1.3205375],[103.7915663,1.3205375],[103.7915663,1.3204456],[103.7914992,1.3204456],[103.7914992,1.3204322],[103.7914342,1.3204322],[103.7914342,1.3203934],[103.7913081,1.3203934],[103.7913081,1.3204322],[103.7911767,1.3204322],[103.7911767,1.320569],[103.7913302,1.320569]]]}},{"type":"Feature","id":"way/451922164-0","properties":{"addr:housenumber":"69F","addr:street":"Jalan Lim Tai See","building":"yes"},"geometry":{"type":"Polygon","coordinates":[[[103.7919644,1.3211337],[103.7919704,1.3212608],[103.792027,1.3212581],[103.792021,1.3211311],[103.7919644,1.3211337]]]}},{"type":"Feature","id":"way/451922168-0","properties":{"addr:housenumber":"117","addr:street":"Jalan Lim Tai See","building":"yes"},"geometry":{"type":"Polygon","coordinates":[[[103.7910841,1.3216825],[103.7911714,1.3218067],[103.7912179,1.321774],[103.7911306,1.3216498],[103.7910841,1.3216825]]]}},{"type":"Feature","id":"way/451922170-0","properties":{"building":"yes"},"geometry":{"type":"Polygon","coordinates":[[[103.7914563,1.3213346],[103.7914138,1.3212204],[103.7912229,1.3212914],[103.7912653,1.3214056],[103.7914563,1.3213346]]]}},{"type":"Feature","id":"way/451922176-0","properties":{"building":"yes"},"geometry":{"type":"Polygon","coordinates":[[[103.7912416,1.3212486],[103.7914053,1.3211536],[103.7913477,1.3210545],[103.791184,1.3211495],[103.7912416,1.3212486]]]}},{"type":"Feature","id":"way/451922180-0","properties":{"building":"yes"},"geometry":{"type":"Polygon","coordinates":[[[103.7913235,1.3210262],[103.7912373,1.3208779],[103.7910965,1.3209597],[103.7911827,1.321108],[103.7913235,1.3210262]]]}},{"type":"Feature","id":"way/451922186-0","properties":{"building":"yes"},"geometry":{"type":"Polygon","coordinates":[[[103.7924517,1.3214771],[103.792634,1.3215656],[103.7926934,1.3214432],[103.7925111,1.3213547],[103.7924517,1.3214771]]]}},{"type":"Feature","id":"way/451922199-0","properties":{"addr:housenumber":"71K","addr:street":"Jalan Lim Tai See","building":"yes"},"geometry":{"type":"Polygon","coordinates":[[[103.7920418,1.3210012],[103.7920473,1.3211181],[103.7921068,1.3211153],[103.7921013,1.3209984],[103.7920418,1.3210012]]]}},{"type":"Feature","id":"way/451922200-0","properties":{"building":"yes"},"geometry":{"type":"Polygon","coordinates":[[[103.7922853,1.3216207],[103.7923242,1.3214196],[103.7921825,1.3213922],[103.7921436,1.3215933],[103.7922853,1.3216207]]]}},{"type":"Feature","id":"way/451922203-0","properties":{"building":"yes"},"geometry":{"type":"Polygon","coordinates":[[[103.7921711,1.3213725],[103.7920511,1.3213493],[103.7920102,1.3215607],[103.7921302,1.3215839],[103.7921711,1.3213725]]]}},{"type":"Feature","id":"way/451922216-0","properties":{"building":"yes"},"geometry":{"type":"Polygon","coordinates":[[[103.7913354,1.3215263],[103.7915086,1.3214619],[103.7914672,1.3213506],[103.791294,1.321415],[103.7913354,1.3215263]]]}},{"type":"Feature","id":"way/451922217-0","properties":{"addr:housenumber":"101","addr:street":"Jalan Lim Tai See","building":"yes"},"geometry":{"type":"Polygon","coordinates":[[[103.7908369,1.3218176],[103.790737,1.3216755],[103.7906902,1.3217083],[103.7907901,1.3218504],[103.7908369,1.3218176]]]}},{"type":"Feature","id":"way/451922230-0","properties":{"building":"yes"},"geometry":{"type":"Polygon","coordinates":[[[103.7922271,1.3213509],[103.792263,1.3211656],[103.7921231,1.3211386],[103.7920873,1.3213238],[103.7922271,1.3213509]]]}},{"type":"Feature","id":"way/451922239-0","properties":{"building":"yes"},"geometry":{"type":"Polygon","coordinates":[[[103.7911351,1.3208358],[103.7910453,1.3206934],[103.7908602,1.32081],[103.79095,1.3209525],[103.7911351,1.3208358]]]}},{"type":"Feature","id":"way/451922248-0","properties":{"addr:housenumber":"69C","addr:street":"Jalan Lim Tai See","building":"yes"},"geometry":{"type":"Polygon","coordinates":[[[103.7915619,1.321462],[103.7919566,1.3215748],[103.7920084,1.3213934],[103.7918449,1.3213467],[103.7918329,1.3213885],[103.7916018,1.3213225],[103.7915619,1.321462]]]}},{"type":"Feature","id":"way/451922249-0","properties":{"building":"yes"},"geometry":{"type":"Polygon","coordinates":[[[103.7908635,1.3205382],[103.7910553,1.3205382],[103.7910553,1.3203907],[103.7910016,1.3203907],[103.7910016,1.3203411],[103.7908635,1.3203411],[103.7908635,1.3205382]]]}},{"type":"Feature","id":"way/451922261-0","properties":{"building":"yes"},"geometry":{"type":"Polygon","coordinates":[[[103.7914824,1.3202512],[103.7913936,1.3200068],[103.7912818,1.3200475],[103.7912979,1.3200917],[103.7911254,1.3201543],[103.7911981,1.3203545],[103.7914824,1.3202512]]]}},{"type":"Feature","id":"way/451922263-0","properties":{"addr:city":"Singapore","addr:country":"SG","addr:housenumber":"9A","addr:street":"Astrid Hill","building":"detached"},"geometry":{"type":"Polygon","coordinates":[[[103.7924713,1.3203935],[103.7923851,1.3203939],[103.7923858,1.3205239],[103.7922453,1.3205246],[103.792246,1.3206711],[103.7923932,1.3206703],[103.7923935,1.3207259],[103.792473,1.3207254],[103.7924713,1.3203935]]]}},{"type":"Feature","id":"way/451922274-0","properties":{"addr:housenumber":"71Z","addr:street":"Jalan Lim Tai See","building":"yes"},"geometry":{"type":"Polygon","coordinates":[[[103.7913694,1.3209931],[103.7913652,1.3208572],[103.791311,1.3208589],[103.7913152,1.3209947],[103.7913694,1.3209931]]]}},{"type":"Feature","id":"way/451922286-0","properties":{"addr:city":"Singapore","addr:country":"SG","addr:housenumber":"8","addr:street":"Astrid Hill","building":"detached"},"geometry":{"type":"Polygon","coordinates":[[[103.7918475,1.3205481],[103.7918477,1.3205667],[103.7918426,1.3205783],[103.7918436,1.3206935],[103.7919594,1.3206925],[103.7919587,1.3206016],[103.7920656,1.3206007],[103.7920649,1.3205152],[103.7921813,1.3205142],[103.7921798,1.3203472],[103.792103,1.3203479],[103.7921037,1.3204211],[103.7920556,1.3204216],[103.7920552,1.3203747],[103.79194,1.3203757],[103.7919395,1.3203239],[103.7918765,1.3203245],[103.7918776,1.3204473],[103.7917811,1.3204481],[103.79178,1.3203379],[103.7917007,1.3203386],[103.7917016,1.3204414],[103.7916418,1.320442],[103.7916428,1.32055],[103.7918475,1.3205481]]]}},{"type":"Feature","id":"way/451922294-0","properties":{"addr:city":"Singapore","addr:country":"SG","addr:housenumber":"20","addr:street":"Astrid Hill","building":"detached"},"geometry":{"type":"Polygon","coordinates":[[[103.7926887,1.3200532],[103.7926403,1.3199562],[103.7924519,1.3200502],[103.7923898,1.3199257],[103.792261,1.31999],[103.7923716,1.3202114],[103.7926887,1.3200532]]]}},{"type":"Feature","id":"way/451925741-0","properties":{"building":"yes"},"geometry":{"type":"Polygon","coordinates":[[[103.7921101,1.3224413],[103.7920889,1.3224193],[103.7921349,1.3223752],[103.7921561,1.3223972],[103.7922006,1.3223545],[103.7920924,1.3222418],[103.7918916,1.3224343],[103.7919604,1.3225061],[103.791999,1.3224691],[103.7920383,1.3225101],[103.7921101,1.3224413]]]}},{"type":"Feature","id":"way/451925768-0","properties":{"building":"yes"},"geometry":{"type":"Polygon","coordinates":[[[103.7913975,1.3227745],[103.7915236,1.3226874],[103.7914241,1.3225436],[103.791298,1.3226307],[103.7913975,1.3227745]]]}},{"type":"Feature","id":"way/451925773-0","properties":{"building":"yes"},"geometry":{"type":"Polygon","coordinates":[[[103.7922668,1.3235034],[103.7923634,1.32362],[103.7924782,1.323525],[103.7923816,1.3234084],[103.7922668,1.3235034]]]}},{"type":"Feature","id":"way/451925786-0","properties":{"building":"yes"},"geometry":{"type":"Polygon","coordinates":[[[103.7912846,1.3221782],[103.7912012,1.3220846],[103.7910416,1.3222267],[103.791125,1.3223204],[103.7912846,1.3221782]]]}},{"type":"Feature","id":"way/451925788-0","properties":{"building":"yes"},"geometry":{"type":"Polygon","coordinates":[[[103.7919927,1.3222419],[103.7920614,1.3221759],[103.7919608,1.3220713],[103.7918921,1.3221373],[103.7919927,1.3222419]]]}},{"type":"Feature","id":"way/451925800-0","properties":{"building":"yes"},"geometry":{"type":"Polygon","coordinates":[[[103.7921448,1.3226802],[103.7922448,1.3225972],[103.7921438,1.3224754],[103.7920437,1.3225583],[103.7921448,1.3226802]]]}},{"type":"Feature","id":"way/451925805-0","properties":{"building":"yes"},"geometry":{"type":"Polygon","coordinates":[[[103.7922526,1.3225563],[103.7923625,1.3224651],[103.792273,1.3223572],[103.792163,1.3224484],[103.7922526,1.3225563]]]}},{"type":"Feature","id":"way/451925818-0","properties":{"building":"yes"},"geometry":{"type":"Polygon","coordinates":[[[103.7914399,1.3221596],[103.7914509,1.3222996],[103.7916484,1.322284],[103.7916373,1.322144],[103.7914399,1.3221596]]]}},{"type":"Feature","id":"way/451925821-0","properties":{"building":"yes"},"geometry":{"type":"Polygon","coordinates":[[[103.7926727,1.3229807],[103.7925872,1.3228796],[103.7922737,1.3231448],[103.7923592,1.3232458],[103.7926727,1.3229807]]]}},{"type":"Feature","id":"way/451925824-0","properties":{"building":"yes"},"geometry":{"type":"Polygon","coordinates":[[[103.7915664,1.3219224],[103.7915569,1.3218015],[103.791373,1.321816],[103.7913825,1.3219369],[103.7915664,1.3219224]]]}},{"type":"Feature","id":"way/451925839-0","properties":{"building":"yes"},"geometry":{"type":"Polygon","coordinates":[[[103.7917673,1.3218946],[103.7917553,1.3217425],[103.7915757,1.3217566],[103.7915877,1.3219087],[103.7917673,1.3218946]]]}},{"type":"Feature","id":"way/451925844-0","properties":{"building":"yes"},"geometry":{"type":"Polygon","coordinates":[[[103.7915433,1.3226611],[103.7916454,1.3225905],[103.791553,1.3224569],[103.7914509,1.3225275],[103.7915433,1.3226611]]]}},{"type":"Feature","id":"way/451925866-0","properties":{"building":"yes"},"geometry":{"type":"Polygon","coordinates":[[[103.7914818,1.3224315],[103.7916253,1.3224202],[103.7916158,1.3223003],[103.7914724,1.3223116],[103.7914818,1.3224315]]]}},{"type":"Feature","id":"way/451925868-0","properties":{"building":"yes"},"geometry":{"type":"Polygon","coordinates":[[[103.791526,1.3216313],[103.791357,1.3216446],[103.7913678,1.3217813],[103.7915367,1.321768],[103.791526,1.3216313]]]}},{"type":"Feature","id":"way/451925880-0","properties":{"building":"yes"},"geometry":{"type":"Polygon","coordinates":[[[103.7917676,1.3219711],[103.79164,1.3219811],[103.7916573,1.3222003],[103.7917849,1.3221903],[103.7917676,1.3219711]]]}},{"type":"Feature","id":"way/451925884-0","properties":{"building":"yes"},"geometry":{"type":"Polygon","coordinates":[[[103.792279,1.3221648],[103.7924238,1.3220515],[103.7923097,1.3219059],[103.792165,1.3220192],[103.792279,1.3221648]]]}},{"type":"Feature","id":"way/451925886-0","properties":{"building":"yes"},"geometry":{"type":"Polygon","coordinates":[[[103.792416,1.3223317],[103.7926224,1.3221702],[103.7925001,1.3220141],[103.7922938,1.3221755],[103.792416,1.3223317]]]}},{"type":"Feature","id":"way/451925889-0","properties":{"building":"yes"},"geometry":{"type":"Polygon","coordinates":[[[103.7914399,1.3221596],[103.7916373,1.322144],[103.791626,1.3219999],[103.7914047,1.3220174],[103.791416,1.3221615],[103.7914399,1.3221596]]]}},{"type":"Feature","id":"way/451925907-0","properties":{"building":"yes"},"geometry":{"type":"Polygon","coordinates":[[[103.7922824,1.3236618],[103.7922048,1.3235525],[103.7921731,1.3235749],[103.7921406,1.3235291],[103.7920154,1.3236179],[103.7921255,1.323773],[103.7922824,1.3236618]]]}},{"type":"Feature","id":"way/451925916-0","properties":{"building":"yes"},"geometry":{"type":"Polygon","coordinates":[[[103.7921228,1.3219642],[103.7921745,1.3219652],[103.792294,1.3218732],[103.7922965,1.3217313],[103.7920249,1.3217264],[103.7920223,1.3218683],[103.7921228,1.3219642]]]}},{"type":"Feature","id":"way/451925921-0","properties":{"building":"yes"},"geometry":{"type":"Polygon","coordinates":[[[103.7922097,1.323051],[103.7922357,1.3230299],[103.7922561,1.323055],[103.7925854,1.3227879],[103.7924688,1.3226441],[103.7921134,1.3229324],[103.7922097,1.323051]]]}},{"type":"Feature","id":"way/451925934-0","properties":{"building":"yes"},"geometry":{"type":"Polygon","coordinates":[[[103.7922591,1.3240091],[103.7923719,1.3239199],[103.7924002,1.3239558],[103.7926686,1.3237436],[103.7925629,1.3236098],[103.7924183,1.3237241],[103.7924023,1.323704],[103.7921657,1.323891],[103.7922591,1.3240091]]]}},{"type":"Feature","id":"way/451925938-0","properties":{"building":"yes"},"geometry":{"type":"Polygon","coordinates":[[[103.7919622,1.3226258],[103.7919357,1.3225938],[103.7918362,1.3226763],[103.7919016,1.322755],[103.7919267,1.3227342],[103.7920088,1.3228332],[103.7921338,1.3227296],[103.7920128,1.3225838],[103.7919622,1.3226258]]]}},{"type":"Feature","id":"way/451925940-0","properties":{"building":"yes"},"geometry":{"type":"Polygon","coordinates":[[[103.7926603,1.3218665],[103.7925519,1.321728],[103.7925196,1.3217533],[103.7924968,1.3217242],[103.7923823,1.3218138],[103.7923995,1.3218357],[103.7923097,1.3219059],[103.7924238,1.3220515],[103.7926603,1.3218665]]]}},{"type":"Feature","id":"way/544854502-0","properties":{"building":"yes"},"geometry":{"type":"Polygon","coordinates":[[[103.7924467,1.3241223],[103.7923802,1.3240415],[103.7922949,1.3241117],[103.7923614,1.3241925],[103.7924467,1.3241223]]]}},{"type":"Feature","id":"way/544854503-0","properties":{"building":"yes"},"geometry":{"type":"Polygon","coordinates":[[[103.7925548,1.3240321],[103.7924886,1.3239517],[103.7924033,1.3240219],[103.7924695,1.3241023],[103.7925548,1.3240321]]]}},{"type":"Feature","id":"way/544854504-0","properties":{"building":"yes"},"geometry":{"type":"Polygon","coordinates":[[[103.7926596,1.3239446],[103.7925936,1.3238646],[103.7925084,1.3239348],[103.7925744,1.3240148],[103.7926596,1.3239446]]]}},{"type":"Feature","id":"way/544854511-0","properties":{"building":"yes"},"geometry":{"type":"Polygon","coordinates":[[[103.7925945,1.3242418],[103.7925279,1.3241612],[103.7924428,1.3242316],[103.7925094,1.3243122],[103.7925945,1.3242418]]]}},{"type":"Feature","id":"way/945738092-0","properties":{"addr:city":"Singapore","addr:country":"SG","addr:housenumber":"4","addr:street":"Astrid Hill","building":"detached"},"geometry":{"type":"Polygon","coordinates":[[[103.7916432,1.3199525],[103.7916336,1.3200369],[103.7918162,1.3200844],[103.7918332,1.3200191],[103.7918904,1.320034],[103.791903,1.3199858],[103.791667,1.3199089],[103.7916284,1.3198593],[103.7914735,1.3199197],[103.791495,1.31998],[103.7916432,1.3199525]]]}},{"type":"Feature","id":"way/1177621315-0","properties":{"addr:housenumber":"78","addr:street":"Ming Teck Park","building":"yes"},"geometry":{"type":"Polygon","coordinates":[[[103.7892239,1.3210513],[103.7894371,1.320932],[103.789403,1.3208711],[103.7891898,1.3209904],[103.7892239,1.3210513]]]}},{"type":"Feature","id":"way/1177621316-0","properties":{"addr:housenumber":"76","addr:street":"Ming Teck Park","building":"yes"},"geometry":{"type":"Polygon","coordinates":[[[103.7891898,1.3209904],[103.789403,1.3208711],[103.7893689,1.3208102],[103.7891557,1.3209295],[103.7891898,1.3209904]]]}},{"type":"Feature","id":"way/1177621317-0","properties":{"addr:housenumber":"74","addr:street":"Ming Teck Park","building":"yes"},"geometry":{"type":"Polygon","coordinates":[[[103.7891557,1.3209295],[103.7893689,1.3208102],[103.7893348,1.3207493],[103.7891216,1.3208686],[103.7891557,1.3209295]]]}},{"type":"Feature","id":"way/1177621318-0","properties":{"addr:housenumber":"72","addr:street":"Ming Teck Park","building":"yes"},"geometry":{"type":"Polygon","coordinates":[[[103.7891216,1.3208686],[103.7893348,1.3207493],[103.7893007,1.3206884],[103.7890875,1.3208077],[103.7891216,1.3208686]]]}},{"type":"Feature","id":"way/1177621319-0","properties":{"addr:housenumber":"70","addr:street":"Ming Teck Park","building":"yes"},"geometry":{"type":"Polygon","coordinates":[[[103.7890875,1.3208077],[103.7893007,1.3206884],[103.7892666,1.3206275],[103.7890534,1.3207468],[103.7890875,1.3208077]]]}},{"type":"Feature","id":"way/1177621320-0","properties":{"addr:housenumber":"68","addr:street":"Ming Teck Park","building":"yes"},"geometry":{"type":"Polygon","coordinates":[[[103.7890534,1.3207468],[103.7892666,1.3206275],[103.7892325,1.3205666],[103.7890193,1.3206859],[103.7890534,1.3207468]]]}},{"type":"Feature","id":"way/1177621321-0","properties":{"addr:housenumber":"66","addr:street":"Ming Teck Park","building":"yes"},"geometry":{"type":"Polygon","coordinates":[[[103.7890327,1.3206335],[103.7892352,1.3205221],[103.7891982,1.3204551],[103.7889958,1.3205665],[103.7890327,1.3206335]]]}},{"type":"Feature","id":"way/1177621322-0","properties":{"addr:housenumber":"62","addr:street":"Ming Teck Park","building":"yes"},"geometry":{"type":"Polygon","coordinates":[[[103.7889927,1.320477],[103.7891068,1.3204165],[103.789079,1.3203643],[103.788965,1.3204248],[103.7889927,1.320477]]]}},{"type":"Feature","id":"way/1177621323-0","properties":{"addr:housenumber":"60","addr:street":"Ming Teck Park","building":"yes"},"geometry":{"type":"Polygon","coordinates":[[[103.788965,1.3204248],[103.789079,1.3203643],[103.7890513,1.3203121],[103.7889373,1.3203726],[103.788965,1.3204248]]]}},{"type":"Feature","id":"way/1177621324-0","properties":{"addr:housenumber":"58","addr:street":"Ming Teck Park","building":"yes"},"geometry":{"type":"Polygon","coordinates":[[[103.7889373,1.3203726],[103.7890513,1.3203121],[103.7890236,1.3202599],[103.7889096,1.3203204],[103.7889373,1.3203726]]]}},{"type":"Feature","id":"way/1177621325-0","properties":{"addr:housenumber":"56","addr:street":"Ming Teck Park","building":"yes"},"geometry":{"type":"Polygon","coordinates":[[[103.7889096,1.3203204],[103.7890236,1.3202599],[103.7889959,1.3202077],[103.7888819,1.3202683],[103.7889096,1.3203204]]]}},{"type":"Feature","id":"way/1177621326-0","properties":{"addr:housenumber":"54","addr:street":"Ming Teck Park","building":"yes"},"geometry":{"type":"Polygon","coordinates":[[[103.7888819,1.3202683],[103.7889959,1.3202077],[103.7889682,1.3201556],[103.7888542,1.3202161],[103.7888819,1.3202683]]]}},{"type":"Feature","id":"way/1177621327-0","properties":{"addr:housenumber":"117","addr:street":"Ming Teck Park","building":"yes"},"geometry":{"type":"Polygon","coordinates":[[[103.7886491,1.3207167],[103.7888476,1.3206524],[103.7888292,1.3205956],[103.7886307,1.32066],[103.7886491,1.3207167]]]}},{"type":"Feature","id":"way/1177621328-0","properties":{"addr:housenumber":"115","addr:street":"Ming Teck Park","building":"yes"},"geometry":{"type":"Polygon","coordinates":[[[103.7886307,1.32066],[103.7888292,1.3205956],[103.7888108,1.3205388],[103.7886123,1.3206032],[103.7886307,1.32066]]]}},{"type":"Feature","id":"way/1177621329-0","properties":{"addr:housenumber":"113","addr:street":"Ming Teck Park","building":"yes"},"geometry":{"type":"Polygon","coordinates":[[[103.7886123,1.3206032],[103.7888108,1.3205388],[103.7887924,1.3204821],[103.7885939,1.3205464],[103.7886123,1.3206032]]]}},{"type":"Feature","id":"way/1177621330-0","properties":{"addr:housenumber":"111","addr:street":"Ming Teck Park","building":"yes"},"geometry":{"type":"Polygon","coordinates":[[[103.7885939,1.3205464],[103.7887924,1.3204821],[103.7887739,1.3204253],[103.7885755,1.3204896],[103.7885939,1.3205464]]]}},{"type":"Feature","id":"way/1177621331-0","properties":{"addr:housenumber":"109","addr:street":"Ming Teck Park","building":"yes"},"geometry":{"type":"Polygon","coordinates":[[[103.7885755,1.3204896],[103.7887739,1.3204253],[103.7887555,1.3203685],[103.788557,1.3204329],[103.7885755,1.3204896]]]}},{"type":"Feature","id":"way/1177621332-0","properties":{"addr:housenumber":"107","addr:street":"Ming Teck Park","building":"yes"},"geometry":{"type":"Polygon","coordinates":[[[103.788557,1.3204329],[103.7887555,1.3203685],[103.7887371,1.3203117],[103.7885386,1.3203761],[103.788557,1.3204329]]]}},{"type":"Feature","id":"way/1177621333-0","properties":{"addr:housenumber":"105","addr:street":"Ming Teck Park","building":"yes"},"geometry":{"type":"Polygon","coordinates":[[[103.7885386,1.3203761],[103.7887371,1.3203117],[103.7887187,1.320255],[103.7885202,1.3203193],[103.7885386,1.3203761]]]}},{"type":"Feature","id":"way/1177621334-0","properties":{"addr:housenumber":"103","addr:street":"Ming Teck Park","building":"yes"},"geometry":{"type":"Polygon","coordinates":[[[103.7885202,1.3203193],[103.7887187,1.320255],[103.7887003,1.3201982],[103.7885018,1.3202625],[103.7885202,1.3203193]]]}},{"type":"Feature","id":"way/1177621335-0","properties":{"addr:housenumber":"137","addr:street":"Ming Teck Park","building":"yes"},"geometry":{"type":"Polygon","coordinates":[[[103.7888366,1.3213059],[103.789013,1.3212467],[103.7889946,1.3211918],[103.7888182,1.321251],[103.7888366,1.3213059]]]}},{"type":"Feature","id":"way/1177621336-0","properties":{"addr:housenumber":"135","addr:street":"Ming Teck Park","building":"yes"},"geometry":{"type":"Polygon","coordinates":[[[103.7888182,1.321251],[103.7889946,1.3211918],[103.7889761,1.3211368],[103.7887997,1.321196],[103.7888182,1.321251]]]}},{"type":"Feature","id":"way/1177621337-0","properties":{"addr:housenumber":"133","addr:street":"Ming Teck Park","building":"yes"},"geometry":{"type":"Polygon","coordinates":[[[103.7887997,1.321196],[103.7889761,1.3211368],[103.7889577,1.3210818],[103.7887812,1.321141],[103.7887997,1.321196]]]}},{"type":"Feature","id":"way/1177621338-0","properties":{"addr:housenumber":"131","addr:street":"Ming Teck Park","building":"yes"},"geometry":{"type":"Polygon","coordinates":[[[103.7887812,1.321141],[103.7889577,1.3210818],[103.7889392,1.3210269],[103.7887628,1.3210861],[103.7887812,1.321141]]]}},{"type":"Feature","id":"way/1177621339-0","properties":{"addr:housenumber":"129","addr:street":"Ming Teck Park","building":"yes"},"geometry":{"type":"Polygon","coordinates":[[[103.7887628,1.3210861],[103.7889392,1.3210269],[103.7889207,1.3209719],[103.7887443,1.3210311],[103.7887628,1.3210861]]]}},{"type":"Feature","id":"way/1177621340-0","properties":{"addr:housenumber":"127","addr:street":"Ming Teck Park","building":"yes"},"geometry":{"type":"Polygon","coordinates":[[[103.7887443,1.3210311],[103.7889207,1.3209719],[103.7889023,1.3209169],[103.7887259,1.3209761],[103.7887443,1.3210311]]]}},{"type":"Feature","id":"way/1177621341-0","properties":{"addr:housenumber":"125","addr:street":"Ming Teck Park","building":"yes"},"geometry":{"type":"Polygon","coordinates":[[[103.7887259,1.3209761],[103.7889023,1.3209169],[103.7888838,1.320862],[103.7887074,1.3209212],[103.7887259,1.3209761]]]}},{"type":"Feature","id":"way/1177621342-0","properties":{"addr:housenumber":"123","addr:street":"Ming Teck Park","building":"yes"},"geometry":{"type":"Polygon","coordinates":[[[103.7887074,1.3209212],[103.7888838,1.320862],[103.7888654,1.320807],[103.788689,1.3208662],[103.7887074,1.3209212]]]}},{"type":"Feature","id":"way/1177621343-0","properties":{"addr:housenumber":"121","addr:street":"Ming Teck Park","building":"yes"},"geometry":{"type":"Polygon","coordinates":[[[103.788689,1.3208662],[103.7888654,1.320807],[103.7888469,1.320752],[103.7886705,1.3208112],[103.788689,1.3208662]]]}},{"type":"Feature","id":"way/1177621381-0","properties":{"addr:housenumber":"115","addr:street":"Jalan Lim Tai See","building":"yes"},"geometry":{"type":"Polygon","coordinates":[[[103.7911643,1.3215876],[103.7910644,1.3214455],[103.7910176,1.3214784],[103.7911175,1.3216205],[103.7911643,1.3215876]]]}},{"type":"Feature","id":"way/1177621382-0","properties":{"addr:housenumber":"113","addr:street":"Jalan Lim Tai See","building":"yes"},"geometry":{"type":"Polygon","coordinates":[[[103.7911175,1.3216205],[103.7910176,1.3214784],[103.7909708,1.3215112],[103.7910708,1.3216533],[103.7911175,1.3216205]]]}},{"type":"Feature","id":"way/1177621383-0","properties":{"addr:housenumber":"111","addr:street":"Jalan Lim Tai See","building":"yes"},"geometry":{"type":"Polygon","coordinates":[[[103.7910708,1.3216533],[103.7909708,1.3215112],[103.7909241,1.3215441],[103.791024,1.3216861],[103.7910708,1.3216533]]]}},{"type":"Feature","id":"way/1177621384-0","properties":{"addr:housenumber":"109","addr:street":"Jalan Lim Tai See","building":"yes"},"geometry":{"type":"Polygon","coordinates":[[[103.791024,1.3216861],[103.7909241,1.3215441],[103.7908773,1.3215769],[103.7909772,1.321719],[103.791024,1.3216861]]]}},{"type":"Feature","id":"way/1177621385-0","properties":{"addr:housenumber":"107","addr:street":"Jalan Lim Tai See","building":"yes"},"geometry":{"type":"Polygon","coordinates":[[[103.7909772,1.321719],[103.7908773,1.3215769],[103.7908305,1.3216098],[103.7909304,1.3217519],[103.7909772,1.321719]]]}},{"type":"Feature","id":"way/1177621386-0","properties":{"addr:housenumber":"105","addr:street":"Jalan Lim Tai See","building":"yes"},"geometry":{"type":"Polygon","coordinates":[[[103.7909304,1.3217519],[103.7908305,1.3216098],[103.7907838,1.3216426],[103.7908837,1.3217847],[103.7909304,1.3217519]]]}},{"type":"Feature","id":"way/1177621387-0","properties":{"addr:housenumber":"103","addr:street":"Jalan Lim Tai See","building":"yes"},"geometry":{"type":"Polygon","coordinates":[[[103.7908837,1.3217847],[103.7907838,1.3216426],[103.790737,1.3216755],[103.7908369,1.3218176],[103.7908837,1.3217847]]]}},{"type":"Feature","id":"way/1177621388-0","properties":{"addr:housenumber":"129","addr:street":"Jalan Lim Tai See","building":"yes"},"geometry":{"type":"Polygon","coordinates":[[[103.7908048,1.3218786],[103.7908921,1.3220028],[103.7909386,1.3219701],[103.7908513,1.3218459],[103.7908048,1.3218786]]]}},{"type":"Feature","id":"way/1177621389-0","properties":{"addr:housenumber":"127","addr:street":"Jalan Lim Tai See","building":"yes"},"geometry":{"type":"Polygon","coordinates":[[[103.7908513,1.3218459],[103.7909386,1.3219701],[103.7909852,1.3219374],[103.7908979,1.3218132],[103.7908513,1.3218459]]]}},{"type":"Feature","id":"way/1177621390-0","properties":{"addr:housenumber":"125","addr:street":"Jalan Lim Tai See","building":"yes"},"geometry":{"type":"Polygon","coordinates":[[[103.7908979,1.3218132],[103.7909852,1.3219374],[103.7910317,1.3219047],[103.7909444,1.3217805],[103.7908979,1.3218132]]]}},{"type":"Feature","id":"way/1177621391-0","properties":{"addr:housenumber":"123","addr:street":"Jalan Lim Tai See","building":"yes"},"geometry":{"type":"Polygon","coordinates":[[[103.7909444,1.3217805],[103.7910317,1.3219047],[103.7910783,1.3218721],[103.790991,1.3217479],[103.7909444,1.3217805]]]}},{"type":"Feature","id":"way/1177621392-0","properties":{"addr:housenumber":"121","addr:street":"Jalan Lim Tai See","building":"yes"},"geometry":{"type":"Polygon","coordinates":[[[103.790991,1.3217479],[103.7910783,1.3218721],[103.7911248,1.3218394],[103.7910375,1.3217152],[103.790991,1.3217479]]]}},{"type":"Feature","id":"way/1177621393-0","properties":{"addr:housenumber":"119","addr:street":"Jalan Lim Tai See","building":"yes"},"geometry":{"type":"Polygon","coordinates":[[[103.7910375,1.3217152],[103.7911248,1.3218394],[103.7911714,1.3218067],[103.7910841,1.3216825],[103.7910375,1.3217152]]]}},{"type":"Feature","id":"way/1177621399-0","properties":{"addr:housenumber":"532","addr:street":"Sixth Avenue","building":"yes","source":"Kaart Ground Survey 2017"},"geometry":{"type":"Polygon","coordinates":[[[103.7889876,1.3200025],[103.7891023,1.3199248],[103.7890666,1.3198722],[103.7889519,1.3199499],[103.7889876,1.3200025]]]}},{"type":"Feature","id":"way/1177621408-0","properties":{"addr:housenumber":"80","addr:street":"Ming Teck Park","building":"yes"},"geometry":{"type":"Polygon","coordinates":[[[103.7899232,1.3212383],[103.7899098,1.3210881],[103.7898469,1.3210937],[103.7898604,1.3212439],[103.7899232,1.3212383]]]}},{"type":"Feature","id":"way/1177621409-0","properties":{"addr:housenumber":"82","addr:street":"Ming Teck Park","building":"yes"},"geometry":{"type":"Polygon","coordinates":[[[103.7898604,1.3212439],[103.7898469,1.3210937],[103.7897841,1.3210993],[103.7897975,1.3212495],[103.7898604,1.3212439]]]}},{"type":"Feature","id":"way/1177621410-0","properties":{"addr:housenumber":"84","addr:street":"Ming Teck Park","building":"yes"},"geometry":{"type":"Polygon","coordinates":[[[103.7897975,1.3212495],[103.7897841,1.3210993],[103.7897213,1.321105],[103.7897347,1.3212551],[103.7897975,1.3212495]]]}},{"type":"Feature","id":"way/1177621411-0","properties":{"addr:housenumber":"86","addr:street":"Ming Teck Park","building":"yes"},"geometry":{"type":"Polygon","coordinates":[[[103.7897347,1.3212551],[103.7897213,1.321105],[103.7896584,1.3211106],[103.7896718,1.3212607],[103.7897347,1.3212551]]]}},{"type":"Feature","id":"way/1177621412-0","properties":{"addr:housenumber":"90","addr:street":"Ming Teck Park","building":"yes"},"geometry":{"type":"Polygon","coordinates":[[[103.7895799,1.321308],[103.7895477,1.3210935],[103.7894817,1.3211034],[103.7895139,1.3213179],[103.7895799,1.321308]]]}},{"type":"Feature","id":"way/1177621413-0","properties":{"addr:housenumber":"92","addr:street":"Ming Teck Park","building":"yes"},"geometry":{"type":"Polygon","coordinates":[[[103.7895139,1.3213179],[103.7894817,1.3211034],[103.7894157,1.3211133],[103.7894479,1.3213278],[103.7895139,1.3213179]]]}},{"type":"Feature","id":"way/1177621414-0","properties":{"addr:housenumber":"94","addr:street":"Ming Teck Park","building":"yes"},"geometry":{"type":"Polygon","coordinates":[[[103.7894479,1.3213278],[103.7894157,1.3211133],[103.7893498,1.3211232],[103.7893819,1.3213377],[103.7894479,1.3213278]]]}},{"type":"Feature","id":"way/1177621415-0","properties":{"addr:housenumber":"96","addr:street":"Ming Teck Park","building":"yes"},"geometry":{"type":"Polygon","coordinates":[[[103.7893819,1.3213377],[103.7893498,1.3211232],[103.7892838,1.3211331],[103.789316,1.3213476],[103.7893819,1.3213377]]]}},{"type":"Feature","id":"way/1177621416-0","properties":{"addr:housenumber":"98","addr:street":"Ming Teck Park","building":"yes"},"geometry":{"type":"Polygon","coordinates":[[[103.789316,1.3213476],[103.7892838,1.3211331],[103.7892178,1.321143],[103.78925,1.3213575],[103.789316,1.3213476]]]}},{"type":"Feature","id":"way/1177621417-0","properties":{"addr:housenumber":"100","addr:street":"Ming Teck Park","building":"yes"},"geometry":{"type":"Polygon","coordinates":[[[103.78925,1.3213575],[103.7892178,1.321143],[103.7891518,1.3211529],[103.789184,1.3213674],[103.78925,1.3213575]]]}},{"type":"Feature","id":"way/1177621418-0","properties":{"addr:housenumber":"88","addr:street":"Ming Teck Park","building":"yes"},"geometry":{"type":"Polygon","coordinates":[[[103.7896718,1.3212607],[103.7896584,1.3211106],[103.7895956,1.3211162],[103.789609,1.3212663],[103.7896718,1.3212607]]]}},{"type":"Feature","id":"way/1177621419-0","properties":{"addr:housenumber":"101","addr:street":"Ming Teck Park","building":"yes"},"geometry":{"type":"Polygon","coordinates":[[[103.7884296,1.32016],[103.7885607,1.3200645],[103.7885284,1.3200202],[103.7883973,1.3201157],[103.7884296,1.32016]]]}},{"type":"Feature","id":"way/1177621420-0","properties":{"addr:housenumber":"99","addr:street":"Ming Teck Park","building":"yes"},"geometry":{"type":"Polygon","coordinates":[[[103.7883973,1.3201157],[103.7885284,1.3200202],[103.7884961,1.3199759],[103.788365,1.3200714],[103.7883973,1.3201157]]]}},{"type":"Feature","id":"way/1177621421-0","properties":{"addr:housenumber":"97","addr:street":"Ming Teck Park","building":"yes"},"geometry":{"type":"Polygon","coordinates":[[[103.788365,1.3200714],[103.7884961,1.3199759],[103.7884638,1.3199316],[103.7883327,1.3200271],[103.788365,1.3200714]]]}},{"type":"Feature","id":"way/1177621422-0","properties":{"addr:housenumber":"95","addr:street":"Ming Teck Park","building":"yes"},"geometry":{"type":"Polygon","coordinates":[[[103.7883327,1.3200271],[103.7884638,1.3199316],[103.7884316,1.3198872],[103.7883005,1.3199827],[103.7883327,1.3200271]]]}},{"type":"Feature","id":"way/1177621425-0","properties":{"addr:housenumber":"71L","addr:street":"Jalan Lim Tai See","building":"yes"},"geometry":{"type":"Polygon","coordinates":[[[103.7920738,1.3209712],[103.7920696,1.3208354],[103.7920154,1.320837],[103.7920196,1.3209729],[103.7920738,1.3209712]]]}},{"type":"Feature","id":"way/1177621426-0","properties":{"addr:housenumber":"71M","addr:street":"Jalan Lim Tai See","building":"yes"},"geometry":{"type":"Polygon","coordinates":[[[103.7920196,1.3209729],[103.7920154,1.320837],[103.7919612,1.3208387],[103.7919654,1.3209746],[103.7920196,1.3209729]]]}},{"type":"Feature","id":"way/1177621427-0","properties":{"addr:housenumber":"71N","addr:street":"Jalan Lim Tai See","building":"yes"},"geometry":{"type":"Polygon","coordinates":[[[103.7919654,1.3209746],[103.7919612,1.3208387],[103.791907,1.3208404],[103.7919112,1.3209763],[103.7919654,1.3209746]]]}},{"type":"Feature","id":"way/1177621428-0","properties":{"addr:housenumber":"71P","addr:street":"Jalan Lim Tai See","building":"yes"},"geometry":{"type":"Polygon","coordinates":[[[103.7919112,1.3209763],[103.791907,1.3208404],[103.7918528,1.3208421],[103.791857,1.3209779],[103.7919112,1.3209763]]]}},{"type":"Feature","id":"way/1177621429-0","properties":{"addr:housenumber":"71Q","addr:street":"Jalan Lim Tai See","building":"yes"},"geometry":{"type":"Polygon","coordinates":[[[103.791857,1.3209779],[103.7918528,1.3208421],[103.7917986,1.3208438],[103.7918029,1.3209796],[103.791857,1.3209779]]]}},{"type":"Feature","id":"way/1177621430-0","properties":{"addr:housenumber":"71R","addr:street":"Jalan Lim Tai See","building":"yes"},"geometry":{"type":"Polygon","coordinates":[[[103.7918029,1.3209796],[103.7917986,1.3208438],[103.7917445,1.3208454],[103.7917487,1.3209813],[103.7918029,1.3209796]]]}},{"type":"Feature","id":"way/1177621431-0","properties":{"addr:housenumber":"71S","addr:street":"Jalan Lim Tai See","building":"yes"},"geometry":{"type":"Polygon","coordinates":[[[103.7917487,1.3209813],[103.7917445,1.3208454],[103.7916903,1.3208471],[103.7916945,1.320983],[103.7917487,1.3209813]]]}},{"type":"Feature","id":"way/1177621432-0","properties":{"addr:housenumber":"71T","addr:street":"Jalan Lim Tai See","building":"yes"},"geometry":{"type":"Polygon","coordinates":[[[103.7916945,1.320983],[103.7916903,1.3208471],[103.7916361,1.3208488],[103.7916403,1.3209847],[103.7916945,1.320983]]]}},{"type":"Feature","id":"way/1177621433-0","properties":{"addr:housenumber":"71U","addr:street":"Jalan Lim Tai See","building":"yes"},"geometry":{"type":"Polygon","coordinates":[[[103.7916403,1.3209847],[103.7916361,1.3208488],[103.7915819,1.3208505],[103.7915861,1.3209863],[103.7916403,1.3209847]]]}},{"type":"Feature","id":"way/1177621434-0","properties":{"addr:housenumber":"71V","addr:street":"Jalan Lim Tai See","building":"yes"},"geometry":{"type":"Polygon","coordinates":[[[103.7915861,1.3209863],[103.7915819,1.3208505],[103.7915277,1.3208522],[103.7915319,1.320988],[103.7915861,1.3209863]]]}},{"type":"Feature","id":"way/1177621435-0","properties":{"addr:housenumber":"71W","addr:street":"Jalan Lim Tai See","building":"yes"},"geometry":{"type":"Polygon","coordinates":[[[103.7915319,1.320988],[103.7915277,1.3208522],[103.7914735,1.3208538],[103.7914777,1.3209897],[103.7915319,1.320988]]]}},{"type":"Feature","id":"way/1177621436-0","properties":{"addr:housenumber":"71X","addr:street":"Jalan Lim Tai See","building":"yes"},"geometry":{"type":"Polygon","coordinates":[[[103.7914777,1.3209897],[103.7914735,1.3208538],[103.7914193,1.3208555],[103.7914236,1.3209914],[103.7914777,1.3209897]]]}},{"type":"Feature","id":"way/1177621437-0","properties":{"addr:housenumber":"71Y","addr:street":"Jalan Lim Tai See","building":"yes"},"geometry":{"type":"Polygon","coordinates":[[[103.7914236,1.3209914],[103.7914193,1.3208555],[103.7913652,1.3208572],[103.7913694,1.3209931],[103.7914236,1.3209914]]]}},{"type":"Feature","id":"way/1177621438-0","properties":{"addr:housenumber":"71A","addr:street":"Jalan Lim Tai See","building":"yes"},"geometry":{"type":"Polygon","coordinates":[[[103.7915066,1.3210262],[103.791512,1.3211432],[103.7915715,1.3211404],[103.7915661,1.3210234],[103.7915066,1.3210262]]]}},{"type":"Feature","id":"way/1177621439-0","properties":{"addr:housenumber":"71B","addr:street":"Jalan Lim Tai See","building":"yes"},"geometry":{"type":"Polygon","coordinates":[[[103.7915661,1.3210234],[103.7915715,1.3211404],[103.791631,1.3211376],[103.7916255,1.3210206],[103.7915661,1.3210234]]]}},{"type":"Feature","id":"way/1177621440-0","properties":{"addr:housenumber":"71C","addr:street":"Jalan Lim Tai See","building":"yes"},"geometry":{"type":"Polygon","coordinates":[[[103.7916255,1.3210206],[103.791631,1.3211376],[103.7916904,1.3211348],[103.791685,1.3210179],[103.7916255,1.3210206]]]}},{"type":"Feature","id":"way/1177621441-0","properties":{"addr:housenumber":"71D","addr:street":"Jalan Lim Tai See","building":"yes"},"geometry":{"type":"Polygon","coordinates":[[[103.791685,1.3210179],[103.7916904,1.3211348],[103.7917499,1.321132],[103.7917445,1.3210151],[103.791685,1.3210179]]]}},{"type":"Feature","id":"way/1177621442-0","properties":{"addr:housenumber":"71E","addr:street":"Jalan Lim Tai See","building":"yes"},"geometry":{"type":"Polygon","coordinates":[[[103.7917445,1.3210151],[103.7917499,1.321132],[103.7918094,1.3211293],[103.791804,1.3210123],[103.7917445,1.3210151]]]}},{"type":"Feature","id":"way/1177621443-0","properties":{"addr:housenumber":"71F","addr:street":"Jalan Lim Tai See","building":"yes"},"geometry":{"type":"Polygon","coordinates":[[[103.791804,1.3210123],[103.7918094,1.3211293],[103.7918689,1.3211265],[103.7918634,1.3210095],[103.791804,1.3210123]]]}},{"type":"Feature","id":"way/1177621444-0","properties":{"addr:housenumber":"71G","addr:street":"Jalan Lim Tai See","building":"yes"},"geometry":{"type":"Polygon","coordinates":[[[103.7918634,1.3210095],[103.7918689,1.3211265],[103.7919284,1.3211237],[103.7919229,1.3210067],[103.7918634,1.3210095]]]}},{"type":"Feature","id":"way/1177621445-0","properties":{"addr:housenumber":"71H","addr:street":"Jalan Lim Tai See","building":"yes"},"geometry":{"type":"Polygon","coordinates":[[[103.7919229,1.3210067],[103.7919284,1.3211237],[103.7919878,1.3211209],[103.7919824,1.321004],[103.7919229,1.3210067]]]}},{"type":"Feature","id":"way/1177621446-0","properties":{"addr:housenumber":"71J","addr:street":"Jalan Lim Tai See","building":"yes"},"geometry":{"type":"Polygon","coordinates":[[[103.7919824,1.321004],[103.7919878,1.3211209],[103.7920473,1.3211181],[103.7920418,1.3210012],[103.7919824,1.321004]]]}},{"type":"Feature","id":"way/1177621447-0","properties":{"addr:housenumber":"69P","addr:street":"Jalan Lim Tai See","building":"yes"},"geometry":{"type":"Polygon","coordinates":[[[103.791512,1.3211549],[103.7915179,1.321282],[103.7915745,1.3212793],[103.7915686,1.3211523],[103.791512,1.3211549]]]}},{"type":"Feature","id":"way/1177621448-0","properties":{"addr:housenumber":"69N","addr:street":"Jalan Lim Tai See","building":"yes"},"geometry":{"type":"Polygon","coordinates":[[[103.7915686,1.3211523],[103.7915745,1.3212793],[103.791631,1.3212767],[103.7916251,1.3211496],[103.7915686,1.3211523]]]}},{"type":"Feature","id":"way/1177621449-0","properties":{"addr:housenumber":"69M","addr:street":"Jalan Lim Tai See","building":"yes"},"geometry":{"type":"Polygon","coordinates":[[[103.7916251,1.3211496],[103.791631,1.3212767],[103.7916876,1.321274],[103.7916817,1.321147],[103.7916251,1.3211496]]]}},{"type":"Feature","id":"way/1177621450-0","properties":{"addr:housenumber":"69L","addr:street":"Jalan Lim Tai See","building":"yes"},"geometry":{"type":"Polygon","coordinates":[[[103.7916817,1.321147],[103.7916876,1.321274],[103.7917442,1.3212714],[103.7917382,1.3211443],[103.7916817,1.321147]]]}},{"type":"Feature","id":"way/1177621451-0","properties":{"addr:housenumber":"69K","addr:street":"Jalan Lim Tai See","building":"yes"},"geometry":{"type":"Polygon","coordinates":[[[103.7917382,1.3211443],[103.7917442,1.3212714],[103.7918007,1.3212687],[103.7917948,1.3211417],[103.7917382,1.3211443]]]}},{"type":"Feature","id":"way/1177621452-0","properties":{"addr:housenumber":"69J","addr:street":"Jalan Lim Tai See","building":"yes"},"geometry":{"type":"Polygon","coordinates":[[[103.7917948,1.3211417],[103.7918007,1.3212687],[103.7918573,1.3212661],[103.7918513,1.321139],[103.7917948,1.3211417]]]}},{"type":"Feature","id":"way/1177621453-0","properties":{"addr:housenumber":"69H","addr:street":"Jalan Lim Tai See","building":"yes"},"geometry":{"type":"Polygon","coordinates":[[[103.7918513,1.321139],[103.7918573,1.3212661],[103.7919139,1.3212634],[103.7919079,1.3211364],[103.7918513,1.321139]]]}},{"type":"Feature","id":"way/1177621454-0","properties":{"addr:housenumber":"69G","addr:street":"Jalan Lim Tai See","building":"yes"},"geometry":{"type":"Polygon","coordinates":[[[103.7919079,1.3211364],[103.7919139,1.3212634],[103.7919704,1.3212608],[103.7919644,1.3211337],[103.7919079,1.3211364]]]}},{"type":"Feature","id":"way/23101954-0-1-0","properties":{"highway":"residential","lanes":"2","lanes:backward":"1","lanes:forward":"1","maxspeed":"40","name":"Jalan Lim Tai See","sidewalk:both":"separate","surface":"asphalt"},"geometry":{"type":"LineString","coordinates":[[103.7926443,1.3217143],[103.7923524,1.3216739]]}},{"type":"Feature","id":"way/23101954-0-2-0","properties":{"highway":"residential","lanes":"2","lanes:backward":"1","lanes:forward":"1","maxspeed":"40","name":"Jalan Lim Tai See","sidewalk:both":"separate","surface":"asphalt"},"geometry":{"type":"LineString","coordinates":[[103.7923524,1.3216739],[103.7921695,1.3216485]]}},{"type":"Feature","id":"way/23102037-0-0-0","properties":{"highway":"residential","lanes":"2","lit":"yes","maxspeed":"50","name":"Astrid Hill","smoothness":"excellent","surface":"asphalt"},"geometry":{"type":"LineString","coordinates":[[103.7921032,1.3200383],[103.7921072,1.320102]]}},{"type":"Feature","id":"way/23102037-0-1-0","properties":{"highway":"residential","lanes":"2","lit":"yes","maxspeed":"50","name":"Astrid Hill","smoothness":"excellent","surface":"asphalt"},"geometry":{"type":"LineString","coordinates":[[103.7921072,1.320102],[103.7921189,1.3201582]]}},{"type":"Feature","id":"way/23102037-0-2-0","properties":{"highway":"residential","lanes":"2","lit":"yes","maxspeed":"50","name":"Astrid Hill","smoothness":"excellent","surface":"asphalt"},"geometry":{"type":"LineString","coordinates":[[103.7921189,1.3201582],[103.7921487,1.3202088]]}},{"type":"Feature","id":"way/23102037-0-3-0","properties":{"highway":"residential","lanes":"2","lit":"yes","maxspeed":"50","name":"Astrid Hill","smoothness":"excellent","surface":"asphalt"},"geometry":{"type":"LineString","coordinates":[[103.7921487,1.3202088],[103.7921823,1.3202441]]}},{"type":"Feature","id":"way/23102037-0-4-0","properties":{"highway":"residential","lanes":"2","lit":"yes","maxspeed":"50","name":"Astrid Hill","smoothness":"excellent","surface":"asphalt"},"geometry":{"type":"LineString","coordinates":[[103.7921823,1.3202441],[103.792242,1.3202803]]}},{"type":"Feature","id":"way/23102037-0-5-0","properties":{"highway":"residential","lanes":"2","lit":"yes","maxspeed":"50","name":"Astrid Hill","smoothness":"excellent","surface":"asphalt"},"geometry":{"type":"LineString","coordinates":[[103.792242,1.3202803],[103.7923016,1.3202917]]}},{"type":"Feature","id":"way/23102037-0-6-0","properties":{"highway":"residential","lanes":"2","lit":"yes","maxspeed":"50","name":"Astrid Hill","smoothness":"excellent","surface":"asphalt"},"geometry":{"type":"LineString","coordinates":[[103.7923016,1.3202917],[103.7925189,1.3202971]]}},{"type":"Feature","id":"way/23102037-0-7-0","properties":{"highway":"residential","lanes":"2","lit":"yes","maxspeed":"50","name":"Astrid Hill","smoothness":"excellent","surface":"asphalt"},"geometry":{"type":"LineString","coordinates":[[103.7925189,1.3202971],[103.7925839,1.3203125]]}},{"type":"Feature","id":"way/174886275-0-0-0","properties":{"highway":"residential","lanes":"2","lanes:backward":"1","lanes:forward":"1","maxspeed":"50","name":"Sixth Avenue","name:zh":"\u7b2c\u516d\u9053","sidewalk":"left","surface":"asphalt"},"geometry":{"type":"LineString","coordinates":[[103.7913305,1.3229429],[103.79138,1.3229113]]}},{"type":"Feature","id":"way/174886275-0-1-0","properties":{"highway":"residential","lanes":"2","lanes:backward":"1","lanes:forward":"1","maxspeed":"50","name":"Sixth Avenue","name:zh":"\u7b2c\u516d\u9053","sidewalk":"left","surface":"asphalt"},"geometry":{"type":"LineString","coordinates":[[103.79138,1.3229113],[103.7916693,1.3227265]]}},{"type":"Feature","id":"way/174886275-0-2-0","properties":{"highway":"residential","lanes":"2","lanes:backward":"1","lanes:forward":"1","maxspeed":"50","name":"Sixth Avenue","name:zh":"\u7b2c\u516d\u9053","sidewalk":"left","surface":"asphalt"},"geometry":{"type":"LineString","coordinates":[[103.7916693,1.3227265],[103.7917417,1.3226354]]}},{"type":"Feature","id":"way/174886275-0-3-0","properties":{"highway":"residential","lanes":"2","lanes:backward":"1","lanes:forward":"1","maxspeed":"50","name":"Sixth Avenue","name:zh":"\u7b2c\u516d\u9053","sidewalk":"left","surface":"asphalt"},"geometry":{"type":"LineString","coordinates":[[103.7917417,1.3226354],[103.7917873,1.3225576]]}},{"type":"Feature","id":"way/174886275-0-4-0","properties":{"highway":"residential","lanes":"2","lanes:backward":"1","lanes:forward":"1","maxspeed":"50","name":"Sixth Avenue","name:zh":"\u7b2c\u516d\u9053","sidewalk":"left","surface":"asphalt"},"geometry":{"type":"LineString","coordinates":[[103.7917873,1.3225576],[103.7918072,1.3224355]]}},{"type":"Feature","id":"way/229680514-0-0-0","properties":{"highway":"residential","lanes":"2","lanes:backward":"1","lanes:forward":"1","lit":"yes","maxspeed":"50","name":"Ming Teck Park","oneway":"no","surface":"asphalt"},"geometry":{"type":"LineString","coordinates":[[103.789968,1.3209544],[103.7899229,1.3209614]]}},{"type":"Feature","id":"way/229680514-0-1-0","properties":{"highway":"residential","lanes":"2","lanes:backward":"1","lanes:forward":"1","lit":"yes","maxspeed":"50","name":"Ming Teck Park","oneway":"no","surface":"asphalt"},"geometry":{"type":"LineString","coordinates":[[103.7899229,1.3209614],[103.7891105,1.3210881]]}},{"type":"Feature","id":"way/252807262-0-4-0","properties":{"highway":"service"},"geometry":{"type":"LineString","coordinates":[[103.7907319,1.3199337],[103.7906957,1.3200879]]}},{"type":"Feature","id":"way/252807262-0-5-0","properties":{"highway":"service"},"geometry":{"type":"LineString","coordinates":[[103.7906957,1.3200879],[103.7907509,1.3205024]]}},{"type":"Feature","id":"way/252807262-0-6-0","properties":{"highway":"service"},"geometry":{"type":"LineString","coordinates":[[103.7907509,1.3205024],[103.7908431,1.32105]]}},{"type":"Feature","id":"way/464960736-0-0-0","properties":{"highway":"residential","lanes":"2","lanes:backward":"1","lanes:forward":"1","lit":"yes","maxspeed":"50","name":"Ming Teck Park","oneway":"no","surface":"asphalt"},"geometry":{"type":"LineString","coordinates":[[103.7891105,1.3210881],[103.788971,1.3207114]]}},{"type":"Feature","id":"way/464960736-0-1-0","properties":{"highway":"residential","lanes":"2","lanes:backward":"1","lanes:forward":"1","lit":"yes","maxspeed":"50","name":"Ming Teck Park","oneway":"no","surface":"asphalt"},"geometry":{"type":"LineString","coordinates":[[103.788971,1.3207114],[103.7888463,1.3204258]]}},{"type":"Feature","id":"way/464960736-0-2-0","properties":{"highway":"residential","lanes":"2","lanes:backward":"1","lanes:forward":"1","lit":"yes","maxspeed":"50","name":"Ming Teck Park","oneway":"no","surface":"asphalt"},"geometry":{"type":"LineString","coordinates":[[103.7888463,1.3204258],[103.7887564,1.32023]]}},{"type":"Feature","id":"way/464960736-0-3-0","properties":{"highway":"residential","lanes":"2","lanes:backward":"1","lanes:forward":"1","lit":"yes","maxspeed":"50","name":"Ming Teck Park","oneway":"no","surface":"asphalt"},"geometry":{"type":"LineString","coordinates":[[103.7887564,1.32023],[103.7886465,1.3200397]]}},{"type":"Feature","id":"way/464960746-0-0-0","properties":{"highway":"residential","lanes":"2","lanes:backward":"1","lanes:forward":"1","maxspeed":"40","name":"Jalan Lim Tai See","sidewalk:both":"separate","surface":"asphalt","turn:lanes:backward":"left;through","turn:lanes:forward":"left;through"},"geometry":{"type":"LineString","coordinates":[[103.7912777,1.3216122],[103.7912824,1.3216443]]}},{"type":"Feature","id":"way/464960746-0-1-0","properties":{"highway":"residential","lanes":"2","lanes:backward":"1","lanes:forward":"1","maxspeed":"40","name":"Jalan Lim Tai See","sidewalk:both":"separate","surface":"asphalt","turn:lanes:backward":"left;through","turn:lanes:forward":"left;through"},"geometry":{"type":"LineString","coordinates":[[103.7912824,1.3216443],[103.7913147,1.3218638]]}},{"type":"Feature","id":"way/464960746-0-2-0","properties":{"highway":"residential","lanes":"2","lanes:backward":"1","lanes:forward":"1","maxspeed":"40","name":"Jalan Lim Tai See","sidewalk:both":"separate","surface":"asphalt","turn:lanes:backward":"left;through","turn:lanes:forward":"left;through"},"geometry":{"type":"LineString","coordinates":[[103.7913147,1.3218638],[103.7913187,1.321891]]}},{"type":"Feature","id":"way/464960749-0-4-0","properties":{"highway":"residential","lanes":"2","lanes:backward":"1","lanes:forward":"1","lit":"yes","maxspeed":"50","name":"Astrid Hill","smoothness":"excellent","surface":"asphalt"},"geometry":{"type":"LineString","coordinates":[[103.7921675,1.319927],[103.792126,1.3199693]]}},{"type":"Feature","id":"way/464960749-0-5-0","properties":{"highway":"residential","lanes":"2","lanes:backward":"1","lanes:forward":"1","lit":"yes","maxspeed":"50","name":"Astrid Hill","smoothness":"excellent","surface":"asphalt"},"geometry":{"type":"LineString","coordinates":[[103.792126,1.3199693],[103.7921125,1.3200008]]}},{"type":"Feature","id":"way/464960749-0-6-0","properties":{"highway":"residential","lanes":"2","lanes:backward":"1","lanes:forward":"1","lit":"yes","maxspeed":"50","name":"Astrid Hill","smoothness":"excellent","surface":"asphalt"},"geometry":{"type":"LineString","coordinates":[[103.7921125,1.3200008],[103.7921032,1.3200383]]}},{"type":"Feature","id":"way/464961733-0-0-0","properties":{"highway":"residential","maxspeed":"40","name":"Jalan Lim Tai See","sidewalk:both":"separate","surface":"asphalt"},"geometry":{"type":"LineString","coordinates":[[103.7913187,1.321891],[103.79132,1.3219193]]}},{"type":"Feature","id":"way/464961733-0-1-0","properties":{"highway":"residential","maxspeed":"40","name":"Jalan Lim Tai See","sidewalk:both":"separate","surface":"asphalt"},"geometry":{"type":"LineString","coordinates":[[103.79132,1.3219193],[103.7913335,1.322202]]}},{"type":"Feature","id":"way/464961734-0-0-0","properties":{"highway":"residential","lanes":"2","lanes:backward":"1","lanes:forward":"1","maxspeed":"40","name":"Jalan Lim Tai See","sidewalk:both":"separate","surface":"asphalt","turn:lanes:backward":"through;right","turn:lanes:forward":"through;right"},"geometry":{"type":"LineString","coordinates":[[103.7912777,1.3216122],[103.7912652,1.3215915]]}},{"type":"Feature","id":"way/464961734-0-1-0","properties":{"highway":"residential","lanes":"2","lanes:backward":"1","lanes:forward":"1","maxspeed":"40","name":"Jalan Lim Tai See","sidewalk:both":"separate","surface":"asphalt","turn:lanes:backward":"through;right","turn:lanes:forward":"through;right"},"geometry":{"type":"LineString","coordinates":[[103.7912652,1.3215915],[103.7911281,1.3213644]]}},{"type":"Feature","id":"way/464961734-0-2-0","properties":{"highway":"residential","lanes":"2","lanes:backward":"1","lanes:forward":"1","maxspeed":"40","name":"Jalan Lim Tai See","sidewalk:both":"separate","surface":"asphalt","turn:lanes:backward":"through;right","turn:lanes:forward":"through;right"},"geometry":{"type":"LineString","coordinates":[[103.7911281,1.3213644],[103.7911108,1.3213363]]}},{"type":"Feature","id":"way/464961735-0-0-0","properties":{"highway":"residential","lanes":"2","lanes:backward":"1","lanes:forward":"1","maxspeed":"50","name":"Sixth Avenue","name:zh":"\u7b2c\u516d\u9053","surface":"asphalt"},"geometry":{"type":"LineString","coordinates":[[103.7898472,1.3207676],[103.7898896,1.3207541]]}},{"type":"Feature","id":"way/464961735-0-1-0","properties":{"highway":"residential","lanes":"2","lanes:backward":"1","lanes:forward":"1","maxspeed":"50","name":"Sixth Avenue","name:zh":"\u7b2c\u516d\u9053","surface":"asphalt"},"geometry":{"type":"LineString","coordinates":[[103.7898896,1.3207541],[103.7906755,1.3205089]]}},{"type":"Feature","id":"way/481067780-0-0-0","properties":{"highway":"residential","lanes":"2","lanes:backward":"1","lanes:forward":"1","maxspeed":"50","name":"Sixth Avenue","name:zh":"\u7b2c\u516d\u9053","sidewalk":"both","surface":"asphalt"},"geometry":{"type":"LineString","coordinates":[[103.7901279,1.3211931],[103.7901869,1.3211862]]}},{"type":"Feature","id":"way/481067780-0-1-0","properties":{"highway":"residential","lanes":"2","lanes:backward":"1","lanes:forward":"1","maxspeed":"50","name":"Sixth Avenue","name:zh":"\u7b2c\u516d\u9053","sidewalk":"both","surface":"asphalt"},"geometry":{"type":"LineString","coordinates":[[103.7901869,1.3211862],[103.790574,1.3211408]]}},{"type":"Feature","id":"way/481079136-0-0-0","properties":{"highway":"secondary","lanes":"2","lanes:backward":"1","lanes:forward":"1","lit":"yes","maxspeed":"50","name":"Sixth Avenue","name:zh":"\u7b2c\u516d\u9053","oneway":"no","sidewalk":"left","surface":"asphalt"},"geometry":{"type":"LineString","coordinates":[[103.7904106,1.3216071],[103.7908392,1.3222252]]}},{"type":"Feature","id":"way/481079136-0-1-0","properties":{"highway":"secondary","lanes":"2","lanes:backward":"1","lanes:forward":"1","lit":"yes","maxspeed":"50","name":"Sixth Avenue","name:zh":"\u7b2c\u516d\u9053","oneway":"no","sidewalk":"left","surface":"asphalt"},"geometry":{"type":"LineString","coordinates":[[103.7908392,1.3222252],[103.7912141,1.3227634]]}},{"type":"Feature","id":"way/481079136-0-2-0","properties":{"highway":"secondary","lanes":"2","lanes:backward":"1","lanes:forward":"1","lit":"yes","maxspeed":"50","name":"Sixth Avenue","name:zh":"\u7b2c\u516d\u9053","oneway":"no","sidewalk":"left","surface":"asphalt"},"geometry":{"type":"LineString","coordinates":[[103.7912141,1.3227634],[103.7912996,1.3228952]]}},{"type":"Feature","id":"way/481079136-0-3-0","properties":{"highway":"secondary","lanes":"2","lanes:backward":"1","lanes:forward":"1","lit":"yes","maxspeed":"50","name":"Sixth Avenue","name:zh":"\u7b2c\u516d\u9053","oneway":"no","sidewalk":"left","surface":"asphalt"},"geometry":{"type":"LineString","coordinates":[[103.7912996,1.3228952],[103.7913305,1.3229429]]}},{"type":"Feature","id":"way/533407738-0-0-0","properties":{"highway":"residential","maxspeed":"50","name":"Ming Teck Park","oneway":"no","sidewalk":"right","surface":"asphalt"},"geometry":{"type":"LineString","coordinates":[[103.7891105,1.3210881],[103.7891226,1.3212919]]}},{"type":"Feature","id":"way/533412847-0-0-0","properties":{"highway":"residential","maxspeed":"40","name":"Lim Tai See Walk","sidewalk:both":"separate"},"geometry":{"type":"LineString","coordinates":[[103.7924613,1.3224814],[103.7924174,1.3225175]]}},{"type":"Feature","id":"way/533412847-0-1-0","properties":{"highway":"residential","maxspeed":"40","name":"Lim Tai See Walk","sidewalk:both":"separate"},"geometry":{"type":"LineString","coordinates":[[103.7924174,1.3225175],[103.7920908,1.3227845]]}},{"type":"Feature","id":"way/544854501-0-0-0","properties":{"highway":"service","lanes":"2","lanes:backward":"1","lanes:forward":"1"},"geometry":{"type":"LineString","coordinates":[[103.7922999,1.3244403],[103.7923653,1.3244024]]}},{"type":"Feature","id":"way/544854501-0-1-0","properties":{"highway":"service","lanes":"2","lanes:backward":"1","lanes:forward":"1"},"geometry":{"type":"LineString","coordinates":[[103.7923653,1.3244024],[103.7924727,1.3243401]]}},{"type":"Feature","id":"way/639964484-0-0-0","properties":{"highway":"secondary","lanes":"2","lanes:backward":"1","lanes:forward":"1","lit":"yes","maxspeed":"50","name":"Sixth Avenue","name:zh":"\u7b2c\u516d\u9053","oneway":"no","sidewalk":"left","surface":"asphalt"},"geometry":{"type":"LineString","coordinates":[[103.7919795,1.3239616],[103.7922999,1.3244403]]}},{"type":"Feature","id":"way/639964487-0-0-0","properties":{"highway":"secondary","lanes":"2","lanes:backward":"1","lanes:forward":"1","lit":"yes","maxspeed":"50","name":"Sixth Avenue","name:zh":"\u7b2c\u516d\u9053","oneway":"no","sidewalk":"left","surface":"asphalt"},"geometry":{"type":"LineString","coordinates":[[103.791794,1.3236682],[103.7919337,1.3238932]]}},{"type":"Feature","id":"way/639964487-0-1-0","properties":{"highway":"secondary","lanes":"2","lanes:backward":"1","lanes:forward":"1","lit":"yes","maxspeed":"50","name":"Sixth Avenue","name:zh":"\u7b2c\u516d\u9053","oneway":"no","sidewalk":"left","surface":"asphalt"},"geometry":{"type":"LineString","coordinates":[[103.7919337,1.3238932],[103.7919795,1.3239616]]}},{"type":"Feature","id":"way/640205935-0-0-0","properties":{"highway":"secondary","lanes":"2","lanes:backward":"1","lanes:forward":"1","lit":"yes","maxspeed":"50","name":"Sixth Avenue","name:zh":"\u7b2c\u516d\u9053","oneway":"no","sidewalk":"left","surface":"asphalt"},"geometry":{"type":"LineString","coordinates":[[103.7913305,1.3229429],[103.791638,1.3234168]]}},{"type":"Feature","id":"way/640205935-0-1-0","properties":{"highway":"secondary","lanes":"2","lanes:backward":"1","lanes:forward":"1","lit":"yes","maxspeed":"50","name":"Sixth Avenue","name:zh":"\u7b2c\u516d\u9053","oneway":"no","sidewalk":"left","surface":"asphalt"},"geometry":{"type":"LineString","coordinates":[[103.791638,1.3234168],[103.791794,1.3236682]]}},{"type":"Feature","id":"way/640344721-0-1-0","properties":{"highway":"secondary","lanes":"2","lanes:backward":"1","lanes:forward":"1","lit":"yes","maxspeed":"50","name":"Sixth Avenue","name:zh":"\u7b2c\u516d\u9053","oneway":"no","sidewalk:both":"separate","surface":"asphalt"},"geometry":{"type":"LineString","coordinates":[[103.7891103,1.3197044],[103.7894945,1.3202599]]}},{"type":"Feature","id":"way/640344721-0-2-0","properties":{"highway":"secondary","lanes":"2","lanes:backward":"1","lanes:forward":"1","lit":"yes","maxspeed":"50","name":"Sixth Avenue","name:zh":"\u7b2c\u516d\u9053","oneway":"no","sidewalk:both":"separate","surface":"asphalt"},"geometry":{"type":"LineString","coordinates":[[103.7894945,1.3202599],[103.7898472,1.3207676]]}},{"type":"Feature","id":"way/641063535-0-0-0","properties":{"highway":"secondary","lanes":"2","lanes:backward":"1","lanes:forward":"1","lit":"yes","maxspeed":"50","name":"Sixth Avenue","name:zh":"\u7b2c\u516d\u9053","oneway":"no","surface":"asphalt"},"geometry":{"type":"LineString","coordinates":[[103.7901279,1.3211931],[103.7902577,1.3213847]]}},{"type":"Feature","id":"way/641063535-0-1-0","properties":{"highway":"secondary","lanes":"2","lanes:backward":"1","lanes:forward":"1","lit":"yes","maxspeed":"50","name":"Sixth Avenue","name:zh":"\u7b2c\u516d\u9053","oneway":"no","surface":"asphalt"},"geometry":{"type":"LineString","coordinates":[[103.7902577,1.3213847],[103.7904106,1.3216071]]}},{"type":"Feature","id":"way/641063536-0-0-0","properties":{"highway":"secondary","lanes":"2","lanes:backward":"1","lanes:forward":"1","lit":"yes","maxspeed":"50","name":"Sixth Avenue","name:zh":"\u7b2c\u516d\u9053","oneway":"no","sidewalk:both":"separate","surface":"asphalt"},"geometry":{"type":"LineString","coordinates":[[103.7898472,1.3207676],[103.789968,1.3209544]]}},{"type":"Feature","id":"way/641063537-0-0-0","properties":{"highway":"secondary","lanes":"2","lanes:backward":"1","lanes:forward":"1","lit":"yes","maxspeed":"50","name":"Sixth Avenue","name:zh":"\u7b2c\u516d\u9053","oneway":"no","surface":"asphalt"},"geometry":{"type":"LineString","coordinates":[[103.789968,1.3209544],[103.7899987,1.3210022]]}},{"type":"Feature","id":"way/641063537-0-1-0","properties":{"highway":"secondary","lanes":"2","lanes:backward":"1","lanes:forward":"1","lit":"yes","maxspeed":"50","name":"Sixth Avenue","name:zh":"\u7b2c\u516d\u9053","oneway":"no","surface":"asphalt"},"geometry":{"type":"LineString","coordinates":[[103.7899987,1.3210022],[103.7901279,1.3211931]]}},{"type":"Feature","id":"way/641129067-0-0-0","properties":{"highway":"residential","lanes":"2","lanes:backward":"1","lanes:forward":"1","maxspeed":"40","name":"Jalan Lim Tai See","sidewalk:both":"separate"},"geometry":{"type":"LineString","coordinates":[[103.7911108,1.3213363],[103.7910912,1.3213034]]}},{"type":"Feature","id":"way/641129067-0-1-0","properties":{"highway":"residential","lanes":"2","lanes:backward":"1","lanes:forward":"1","maxspeed":"40","name":"Jalan Lim Tai See","sidewalk:both":"separate"},"geometry":{"type":"LineString","coordinates":[[103.7910912,1.3213034],[103.7910363,1.3211793]]}},{"type":"Feature","id":"way/645333064-0-0-0","properties":{"highway":"residential","maxspeed":"40","name":"Jalan Lim Tai See","sidewalk:both":"separate","surface":"asphalt"},"geometry":{"type":"LineString","coordinates":[[103.7913187,1.321891],[103.7912914,1.3219091]]}},{"type":"Feature","id":"way/645333064-0-1-0","properties":{"highway":"residential","maxspeed":"40","name":"Jalan Lim Tai See","sidewalk:both":"separate","surface":"asphalt"},"geometry":{"type":"LineString","coordinates":[[103.7912914,1.3219091],[103.7910726,1.3220549]]}},{"type":"Feature","id":"way/646873324-0-0-0","properties":{"highway":"residential","lanes":"2","lanes:backward":"1","lanes:forward":"1","maxspeed":"40","name":"Lim Tai See Walk","sidewalk:both":"separate","surface":"asphalt"},"geometry":{"type":"LineString","coordinates":[[103.7921907,1.3221548],[103.7919353,1.3218476]]}},{"type":"Feature","id":"way/646873324-0-1-0","properties":{"highway":"residential","lanes":"2","lanes:backward":"1","lanes:forward":"1","maxspeed":"40","name":"Lim Tai See Walk","sidewalk:both":"separate","surface":"asphalt"},"geometry":{"type":"LineString","coordinates":[[103.7919353,1.3218476],[103.7919055,1.3217954]]}},{"type":"Feature","id":"way/646873324-0-2-0","properties":{"highway":"residential","lanes":"2","lanes:backward":"1","lanes:forward":"1","maxspeed":"40","name":"Lim Tai See Walk","sidewalk:both":"separate","surface":"asphalt"},"geometry":{"type":"LineString","coordinates":[[103.7919055,1.3217954],[103.7918948,1.3217518]]}},{"type":"Feature","id":"way/646873324-0-3-0","properties":{"highway":"residential","lanes":"2","lanes:backward":"1","lanes:forward":"1","maxspeed":"40","name":"Lim Tai See Walk","sidewalk:both":"separate","surface":"asphalt"},"geometry":{"type":"LineString","coordinates":[[103.7918948,1.3217518],[103.7918974,1.32167]]}},{"type":"Feature","id":"way/646873324-0-4-0","properties":{"highway":"residential","lanes":"2","lanes:backward":"1","lanes:forward":"1","maxspeed":"40","name":"Lim Tai See Walk","sidewalk:both":"separate","surface":"asphalt"},"geometry":{"type":"LineString","coordinates":[[103.7918974,1.32167],[103.7918986,1.3216325]]}},{"type":"Feature","id":"way/646873327-0-0-0","properties":{"highway":"residential","lanes":"2","lanes:backward":"1","lanes:forward":"1","maxspeed":"40","name":"Jalan Lim Tai See","sidewalk:both":"separate","surface":"asphalt","turn:lanes:forward":"left;right"},"geometry":{"type":"LineString","coordinates":[[103.7915503,1.3215396],[103.7915319,1.3215358]]}},{"type":"Feature","id":"way/646873327-0-1-0","properties":{"highway":"residential","lanes":"2","lanes:backward":"1","lanes:forward":"1","maxspeed":"40","name":"Jalan Lim Tai See","sidewalk:both":"separate","surface":"asphalt","turn:lanes:forward":"left;right"},"geometry":{"type":"LineString","coordinates":[[103.7915319,1.3215358],[103.7913049,1.3216041]]}},{"type":"Feature","id":"way/646873327-0-2-0","properties":{"highway":"residential","lanes":"2","lanes:backward":"1","lanes:forward":"1","maxspeed":"40","name":"Jalan Lim Tai See","sidewalk:both":"separate","surface":"asphalt","turn:lanes:forward":"left;right"},"geometry":{"type":"LineString","coordinates":[[103.7913049,1.3216041],[103.7912777,1.3216122]]}},{"type":"Feature","id":"way/646874734-0-0-0","properties":{"highway":"residential","lanes":"2","lanes:backward":"1","lanes:forward":"1","maxspeed":"40","name":"Jalan Lim Tai See","sidewalk:both":"separate","surface":"asphalt","turn:lanes:backward":"left;right"},"geometry":{"type":"LineString","coordinates":[[103.7911108,1.3213363],[103.7910781,1.3213507]]}},{"type":"Feature","id":"way/646874734-0-1-0","properties":{"highway":"residential","lanes":"2","lanes:backward":"1","lanes:forward":"1","maxspeed":"40","name":"Jalan Lim Tai See","sidewalk:both":"separate","surface":"asphalt","turn:lanes:backward":"left;right"},"geometry":{"type":"LineString","coordinates":[[103.7910781,1.3213507],[103.7907949,1.3215294]]}},{"type":"Feature","id":"way/646876968-0-2-0","properties":{"highway":"residential","lanes":"2","lanes:backward":"1","lanes:forward":"1","maxspeed":"40","name":"Lim Tai See Walk","surface":"asphalt","turn:lanes:backward":"left;through"},"geometry":{"type":"LineString","coordinates":[[103.7925054,1.3225336],[103.7924613,1.3224814]]}},{"type":"Feature","id":"way/651172650-0-0-0","properties":{"highway":"residential","lanes":"2","lanes:backward":"1","lanes:forward":"1","maxspeed":"40","name":"Jalan Lim Tai See","sidewalk:both":"separate","surface":"asphalt","turn:lanes:forward":"through;right"},"geometry":{"type":"LineString","coordinates":[[103.7921695,1.3216485],[103.7918986,1.3216325]]}},{"type":"Feature","id":"way/656150532-0-0-0","properties":{"highway":"service"},"geometry":{"type":"LineString","coordinates":[[103.7924727,1.3243401],[103.7923841,1.3242134]]}},{"type":"Feature","id":"way/711719173-0-0-0","properties":{"highway":"residential","lanes":"2","lanes:backward":"1","lanes:forward":"1","maxspeed":"40","name":"Jalan Lim Tai See","sidewalk:both":"separate","surface":"asphalt","turn:lanes:backward":"left;through"},"geometry":{"type":"LineString","coordinates":[[103.7918986,1.3216325],[103.7918628,1.3216216]]}},{"type":"Feature","id":"way/711719173-0-1-0","properties":{"highway":"residential","lanes":"2","lanes:backward":"1","lanes:forward":"1","maxspeed":"40","name":"Jalan Lim Tai See","sidewalk:both":"separate","surface":"asphalt","turn:lanes:backward":"left;through"},"geometry":{"type":"LineString","coordinates":[[103.7918628,1.3216216],[103.7915503,1.3215396]]}},{"type":"Feature","id":"way/933262312-0-0-0","properties":{"highway":"residential"},"geometry":{"type":"LineString","coordinates":[[103.7923524,1.3216739],[103.7923559,1.3216488]]}},{"type":"Feature","id":"way/933262312-0-1-0","properties":{"highway":"residential"},"geometry":{"type":"LineString","coordinates":[[103.7923559,1.3216488],[103.7923982,1.3213777]]}},{"type":"Feature","id":"way/933262312-0-2-0","properties":{"highway":"residential"},"geometry":{"type":"LineString","coordinates":[[103.7923982,1.3213777],[103.792415,1.3212369]]}},{"type":"Feature","id":"way/1287279253-0-0-0","properties":{"highway":"residential","lanes":"2","lanes:backward":"1","lanes:forward":"1","maxspeed":"40","name":"Lim Tai See Walk","surface":"asphalt"},"geometry":{"type":"LineString","coordinates":[[103.7924613,1.3224814],[103.7924326,1.3224466]]}},{"type":"Feature","id":"way/1287279253-0-1-0","properties":{"highway":"residential","lanes":"2","lanes:backward":"1","lanes:forward":"1","maxspeed":"40","name":"Lim Tai See Walk","surface":"asphalt"},"geometry":{"type":"LineString","coordinates":[[103.7924326,1.3224466],[103.7923025,1.3222892]]}},{"type":"Feature","id":"way/1287279253-0-2-0","properties":{"highway":"residential","lanes":"2","lanes:backward":"1","lanes:forward":"1","maxspeed":"40","name":"Lim Tai See Walk","surface":"asphalt"},"geometry":{"type":"LineString","coordinates":[[103.7923025,1.3222892],[103.7921907,1.3221548]]}}]}