{"type":"FeatureCollection","features":[{"type":"Feature","id":"way/1170343077-0","properties":{"addr:housenumber":"93","addr:street":"Rosewood Drive","building":"residential","name":"93"},"geometry":{"type":"Polygon","coordinates":[[[103.7855,1.4277022],[103.7854948,1.4275313],[103.7852487,1.4275387],[103.7852538,1.4277096],[103.7855,1.4277022]]]}},{"type":"Feature","id":"way/1170343078-0","properties":{"addr:housenumber":"91","addr:street":"Rosewood Drive","building":"residential","name":"91"},"geometry":{"type":"Polygon","coordinates":[[[103.7858719,1.4276961],[103.7858667,1.4275252],[103.7856206,1.4275326],[103.7856257,1.4277036],[103.7858719,1.4276961]]]}},{"type":"Feature","id":"way/1170343079-0","properties":{"addr:housenumber":"89","addr:street":"Rosewood Drive","building":"residential","name":"89"},"geometry":{"type":"Polygon","coordinates":[[[103.7862619,1.4276861],[103.7862567,1.4275152],[103.7860106,1.4275226],[103.7860157,1.4276935],[103.7862619,1.4276861]]]}},{"type":"Feature","id":"way/1170343080-0","properties":{"addr:housenumber":"95","addr:street":"Rosewood Drive","building":"residential","name":"95"},"geometry":{"type":"Polygon","coordinates":[[[103.7854789,1.4274202],[103.7854737,1.4272493],[103.7852276,1.4272567],[103.7852327,1.4274276],[103.7854789,1.4274202]]]}},{"type":"Feature","id":"way/1170343081-0","properties":{"addr:housenumber":"97","addr:street":"Rosewood Drive","building":"residential","name":"97"},"geometry":{"type":"Polygon","coordinates":[[[103.7858101,1.427345],[103.7858049,1.4271741],[103.7855588,1.4271815],[103.7855639,1.4273524],[103.7858101,1.427345]]]}},{"type":"Feature","id":"way/1170343082-0","properties":{"addr:housenumber":"99","addr:street":"Rosewood Drive","building":"residential","name":"99"},"geometry":{"type":"Polygon","coordinates":[[[103.7861257,1.4273551],[103.7861206,1.4271842],[103.7858744,1.4271916],[103.7858796,1.4273625],[103.7861257,1.4273551]]]}},{"type":"Feature","id":"way/1335101551-0","properties":{"building":"yes","building:levels":"1","power":"substation"},"geometry":{"type":"Polygon","coordinates":[[[103.784675,1.4271734],[103.7848039,1.4271733],[103.7848038,1.4271663],[103.7849261,1.4271662],[103.784926,1.4271048],[103.7846749,1.427105],[103.784675,1.4271734]]]}},{"type":"Feature","id":"way/1335101552-0","properties":{"addr:city":"Singapore","addr:country":"SG","addr:housenumber":"452","addr:postcode":"730452","addr:street":"Rosewood Drive","amenity":"parking","building":"parking","building:levels":"6","parking":"multi-storey","roof:level":"1","roof:material":"grass","roof:shape":"flat"},"geometry":{"type":"Polygon","coordinates":[[[103.784361,1.4274355],[103.7845736,1.4274353],[103.7846752,1.4274353],[103.784675,1.4271734],[103.7846749,1.427105],[103.7846187,1.4271051],[103.7839929,1.4271055],[103.783993,1.4271927],[103.7839932,1.4274358],[103.784361,1.4274355]]]}},{"type":"Feature","id":"way/22774351-0-0-0","properties":{"destination":"Mandai Avenue;Upper Thomson Road","destination:ref":"SLE","destination:ref:to":"CTE;TPE","highway":"motorway_link","lanes":"2","maxspeed":"50","oneway":"yes","source":"Yahoo aerial images","surface":"asphalt"},"geometry":{"type":"LineString","coordinates":[[103.7867847,1.427901],[103.7867493,1.427346]]}},{"type":"Feature","id":"way/22774351-0-1-0","properties":{"destination":"Mandai Avenue;Upper Thomson Road","destination:ref":"SLE","destination:ref:to":"CTE;TPE","highway":"motorway_link","lanes":"2","maxspeed":"50","oneway":"yes","source":"Yahoo aerial images","surface":"asphalt"},"geometry":{"type":"LineString","coordinates":[[103.7867493,1.427346],[103.7867493,1.42711]]}},{"type":"Feature","id":"way/22774351-0-2-0","properties":{"destination":"Mandai Avenue;Upper Thomson Road","destination:ref":"SLE","destination:ref:to":"CTE;TPE","highway":"motorway_link","lanes":"2","maxspeed":"50","oneway":"yes","source":"Yahoo aerial images","surface":"asphalt"},"geometry":{"type":"LineString","coordinates":[[103.7867493,1.42711],[103.7867815,1.426917]]}},{"type":"Feature","id":"way/22774351-0-3-0","properties":{"destination":"Mandai Avenue;Upper Thomson Road","destination:ref":"SLE","destination:ref:to":"CTE;TPE","highway":"motorway_link","lanes":"2","maxspeed":"50","oneway":"yes","source":"Yahoo aerial images","surface":"asphalt"},"geometry":{"type":"LineString","coordinates":[[103.7867815,1.426917],[103.7868673,1.4267454]]}},{"type":"Feature","id":"way/22774351-0-4-0","properties":{"destination":"Mandai Avenue;Upper Thomson Road","destination:ref":"SLE","destination:ref:to":"CTE;TPE","highway":"motorway_link","lanes":"2","maxspeed":"50","oneway":"yes","source":"Yahoo aerial images","surface":"asphalt"},"geometry":{"type":"LineString","coordinates":[[103.7868673,1.4267454],[103.7870068,1.4266059]]}},{"type":"Feature","id":"way/22774351-0-5-0","properties":{"destination":"Mandai Avenue;Upper Thomson Road","destination:ref":"SLE","destination:ref:to":"CTE;TPE","highway":"motorway_link","lanes":"2","maxspeed":"50","oneway":"yes","source":"Yahoo aerial images","surface":"asphalt"},"geometry":{"type":"LineString","coordinates":[[103.7870068,1.4266059],[103.7872535,1.426445]]}},{"type":"Feature","id":"way/22774351-0-6-0","properties":{"destination":"Mandai Avenue;Upper Thomson Road","destination:ref":"SLE","destination:ref:to":"CTE;TPE","highway":"motorway_link","lanes":"2","maxspeed":"50","oneway":"yes","source":"Yahoo aerial images","surface":"asphalt"},"geometry":{"type":"LineString","coordinates":[[103.7872535,1.426445],[103.7878865,1.4261984]]}},{"type":"Feature","id":"way/22774352-0-1-0","properties":{"destination":"Woodlands Avenue 2;Admiralty Road","highway":"motorway_link","lanes":"1","maxspeed":"50","oneway":"yes","source":"Yahoo aerial images","surface":"asphalt"},"geometry":{"type":"LineString","coordinates":[[103.7836039,1.4266925],[103.7836269,1.4266974]]}},{"type":"Feature","id":"way/22774352-0-2-0","properties":{"destination":"Woodlands Avenue 2;Admiralty Road","highway":"motorway_link","lanes":"1","maxspeed":"50","oneway":"yes","source":"Yahoo aerial images","surface":"asphalt"},"geometry":{"type":"LineString","coordinates":[[103.7836269,1.4266974],[103.7836577,1.4267001]]}},{"type":"Feature","id":"way/22774352-0-3-0","properties":{"destination":"Woodlands Avenue 2;Admiralty Road","highway":"motorway_link","lanes":"1","maxspeed":"50","oneway":"yes","source":"Yahoo aerial images","surface":"asphalt"},"geometry":{"type":"LineString","coordinates":[[103.7836577,1.4267001],[103.7837045,1.4267032]]}},{"type":"Feature","id":"way/22774352-0-4-0","properties":{"destination":"Woodlands Avenue 2;Admiralty Road","highway":"motorway_link","lanes":"1","maxspeed":"50","oneway":"yes","source":"Yahoo aerial images","surface":"asphalt"},"geometry":{"type":"LineString","coordinates":[[103.7837045,1.4267032],[103.7844765,1.4267555]]}},{"type":"Feature","id":"way/22774352-0-5-0","properties":{"destination":"Woodlands Avenue 2;Admiralty Road","highway":"motorway_link","lanes":"1","maxspeed":"50","oneway":"yes","source":"Yahoo aerial images","surface":"asphalt"},"geometry":{"type":"LineString","coordinates":[[103.7844765,1.4267555],[103.7849897,1.4267346]]}},{"type":"Feature","id":"way/22774352-0-6-0","properties":{"destination":"Woodlands Avenue 2;Admiralty Road","highway":"motorway_link","lanes":"1","maxspeed":"50","oneway":"yes","source":"Yahoo aerial images","surface":"asphalt"},"geometry":{"type":"LineString","coordinates":[[103.7849897,1.4267346],[103.7856053,1.4267228]]}},{"type":"Feature","id":"way/22774352-0-7-0","properties":{"destination":"Woodlands Avenue 2;Admiralty Road","highway":"motorway_link","lanes":"1","maxspeed":"50","oneway":"yes","source":"Yahoo aerial images","surface":"asphalt"},"geometry":{"type":"LineString","coordinates":[[103.7856053,1.4267228],[103.7859475,1.4267544]]}},{"type":"Feature","id":"way/22774352-0-8-0","properties":{"destination":"Woodlands Avenue 2;Admiralty Road","highway":"motorway_link","lanes":"1","maxspeed":"50","oneway":"yes","source":"Yahoo aerial images","surface":"asphalt"},"geometry":{"type":"LineString","coordinates":[[103.7859475,1.4267544],[103.7861513,1.4268515]]}},{"type":"Feature","id":"way/22774352-0-9-0","properties":{"destination":"Woodlands Avenue 2;Admiralty Road","highway":"motorway_link","lanes":"1","maxspeed":"50","oneway":"yes","source":"Yahoo aerial images","surface":"asphalt"},"geometry":{"type":"LineString","coordinates":[[103.7861513,1.4268515],[103.7862885,1.4269757]]}},{"type":"Feature","id":"way/22774352-0-10-0","properties":{"destination":"Woodlands Avenue 2;Admiralty Road","highway":"motorway_link","lanes":"1","maxspeed":"50","oneway":"yes","source":"Yahoo aerial images","surface":"asphalt"},"geometry":{"type":"LineString","coordinates":[[103.7862885,1.4269757],[103.7864167,1.4271744]]}},{"type":"Feature","id":"way/95840984-0-0-0","properties":{"destination":"Woodlands Avenue 2;Admiralty Road","highway":"motorway_link","lanes":"1","maxspeed":"50","oneway":"yes","source":"Yahoo aerial images"},"geometry":{"type":"LineString","coordinates":[[103.7868242,1.4260915],[103.7867321,1.4260675]]}},{"type":"Feature","id":"way/95840984-0-1-0","properties":{"destination":"Woodlands Avenue 2;Admiralty Road","highway":"motorway_link","lanes":"1","maxspeed":"50","oneway":"yes","source":"Yahoo aerial images"},"geometry":{"type":"LineString","coordinates":[[103.7867321,1.4260675],[103.7866922,1.4260661]]}},{"type":"Feature","id":"way/95840984-0-2-0","properties":{"destination":"Woodlands Avenue 2;Admiralty Road","highway":"motorway_link","lanes":"1","maxspeed":"50","oneway":"yes","source":"Yahoo aerial images"},"geometry":{"type":"LineString","coordinates":[[103.7866922,1.4260661],[103.7866586,1.4260704]]}},{"type":"Feature","id":"way/95840984-0-3-0","properties":{"destination":"Woodlands Avenue 2;Admiralty Road","highway":"motorway_link","lanes":"1","maxspeed":"50","oneway":"yes","source":"Yahoo aerial images"},"geometry":{"type":"LineString","coordinates":[[103.7866586,1.4260704],[103.7866371,1.4260714]]}},{"type":"Feature","id":"way/95840984-0-4-0","properties":{"destination":"Woodlands Avenue 2;Admiralty Road","highway":"motorway_link","lanes":"1","maxspeed":"50","oneway":"yes","source":"Yahoo aerial images"},"geometry":{"type":"LineString","coordinates":[[103.7866371,1.4260714],[103.7865541,1.4260798]]}},{"type":"Feature","id":"way/95840986-0-0-0","properties":{"bridge":"yes","destination":"Woodlands Avenue 2;Admiralty Road","highway":"motorway_link","lanes":"1","layer":"1","maxspeed":"50","oneway":"yes","source":"Yahoo aerial images","surface":"asphalt"},"geometry":{"type":"LineString","coordinates":[[103.7865541,1.4260798],[103.7862128,1.4261125]]}},{"type":"Feature","id":"way/95840986-0-1-0","properties":{"bridge":"yes","destination":"Woodlands Avenue 2;Admiralty Road","highway":"motorway_link","lanes":"1","layer":"1","maxspeed":"50","oneway":"yes","source":"Yahoo aerial images","surface":"asphalt"},"geometry":{"type":"LineString","coordinates":[[103.7862128,1.4261125],[103.7858816,1.4261268]]}},{"type":"Feature","id":"way/95840986-0-2-0","properties":{"bridge":"yes","destination":"Woodlands Avenue 2;Admiralty Road","highway":"motorway_link","lanes":"1","layer":"1","maxspeed":"50","oneway":"yes","source":"Yahoo aerial images","surface":"asphalt"},"geometry":{"type":"LineString","coordinates":[[103.7858816,1.4261268],[103.7857193,1.4261233]]}},{"type":"Feature","id":"way/95840997-0-0-0","properties":{"destination":"Woodlands Avenue 2;Admiralty Road","highway":"motorway_link","lanes":"2","maxspeed":"50","name":"Woodlands Avenue 2","oneway":"yes","source":"Yahoo aerial images","surface":"asphalt"},"geometry":{"type":"LineString","coordinates":[[103.7851947,1.425136],[103.7852759,1.4250833]]}},{"type":"Feature","id":"way/95840997-0-1-0","properties":{"destination":"Woodlands Avenue 2;Admiralty Road","highway":"motorway_link","lanes":"2","maxspeed":"50","name":"Woodlands Avenue 2","oneway":"yes","source":"Yahoo aerial images","surface":"asphalt"},"geometry":{"type":"LineString","coordinates":[[103.7852759,1.4250833],[103.7853527,1.4250512]]}},{"type":"Feature","id":"way/95840997-0-2-0","properties":{"destination":"Woodlands Avenue 2;Admiralty Road","highway":"motorway_link","lanes":"2","maxspeed":"50","name":"Woodlands Avenue 2","oneway":"yes","source":"Yahoo aerial images","surface":"asphalt"},"geometry":{"type":"LineString","coordinates":[[103.7853527,1.4250512],[103.7854454,1.4250243]]}},{"type":"Feature","id":"way/95840997-0-3-0","properties":{"destination":"Woodlands Avenue 2;Admiralty Road","highway":"motorway_link","lanes":"2","maxspeed":"50","name":"Woodlands Avenue 2","oneway":"yes","source":"Yahoo aerial images","surface":"asphalt"},"geometry":{"type":"LineString","coordinates":[[103.7854454,1.4250243],[103.7855588,1.425022]]}},{"type":"Feature","id":"way/95840997-0-4-0","properties":{"destination":"Woodlands Avenue 2;Admiralty Road","highway":"motorway_link","lanes":"2","maxspeed":"50","name":"Woodlands Avenue 2","oneway":"yes","source":"Yahoo aerial images","surface":"asphalt"},"geometry":{"type":"LineString","coordinates":[[103.7855588,1.425022],[103.785672,1.425047]]}},{"type":"Feature","id":"way/95840997-0-5-0","properties":{"destination":"Woodlands Avenue 2;Admiralty Road","highway":"motorway_link","lanes":"2","maxspeed":"50","name":"Woodlands Avenue 2","oneway":"yes","source":"Yahoo aerial images","surface":"asphalt"},"geometry":{"type":"LineString","coordinates":[[103.785672,1.425047],[103.785768,1.4250868]]}},{"type":"Feature","id":"way/95840997-0-6-0","properties":{"destination":"Woodlands Avenue 2;Admiralty Road","highway":"motorway_link","lanes":"2","maxspeed":"50","name":"Woodlands Avenue 2","oneway":"yes","source":"Yahoo aerial images","surface":"asphalt"},"geometry":{"type":"LineString","coordinates":[[103.785768,1.4250868],[103.7858505,1.4251407]]}},{"type":"Feature","id":"way/95840997-0-7-0","properties":{"destination":"Woodlands Avenue 2;Admiralty Road","highway":"motorway_link","lanes":"2","maxspeed":"50","name":"Woodlands Avenue 2","oneway":"yes","source":"Yahoo aerial images","surface":"asphalt"},"geometry":{"type":"LineString","coordinates":[[103.7858505,1.4251407],[103.785905,1.4251832]]}},{"type":"Feature","id":"way/95840997-0-8-0","properties":{"destination":"Woodlands Avenue 2;Admiralty Road","highway":"motorway_link","lanes":"2","maxspeed":"50","name":"Woodlands Avenue 2","oneway":"yes","source":"Yahoo aerial images","surface":"asphalt"},"geometry":{"type":"LineString","coordinates":[[103.785905,1.4251832],[103.7859618,1.4252409]]}},{"type":"Feature","id":"way/95840997-0-9-0","properties":{"destination":"Woodlands Avenue 2;Admiralty Road","highway":"motorway_link","lanes":"2","maxspeed":"50","name":"Woodlands Avenue 2","oneway":"yes","source":"Yahoo aerial images","surface":"asphalt"},"geometry":{"type":"LineString","coordinates":[[103.7859618,1.4252409],[103.7860374,1.4253506]]}},{"type":"Feature","id":"way/95840997-0-10-0","properties":{"destination":"Woodlands Avenue 2;Admiralty Road","highway":"motorway_link","lanes":"2","maxspeed":"50","name":"Woodlands Avenue 2","oneway":"yes","source":"Yahoo aerial images","surface":"asphalt"},"geometry":{"type":"LineString","coordinates":[[103.7860374,1.4253506],[103.7861461,1.425626]]}},{"type":"Feature","id":"way/95840997-0-11-0","properties":{"destination":"Woodlands Avenue 2;Admiralty Road","highway":"motorway_link","lanes":"2","maxspeed":"50","name":"Woodlands Avenue 2","oneway":"yes","source":"Yahoo aerial images","surface":"asphalt"},"geometry":{"type":"LineString","coordinates":[[103.7861461,1.425626],[103.7862212,1.4259336]]}},{"type":"Feature","id":"way/95840997-0-12-0","properties":{"destination":"Woodlands Avenue 2;Admiralty Road","highway":"motorway_link","lanes":"2","maxspeed":"50","name":"Woodlands Avenue 2","oneway":"yes","source":"Yahoo aerial images","surface":"asphalt"},"geometry":{"type":"LineString","coordinates":[[103.7862212,1.4259336],[103.786496,1.4272083]]}},{"type":"Feature","id":"way/95841000-0-0-0","properties":{"highway":"motorway","lanes":"3","maxspeed":"90","name":"Seletar Expressway","name:ms":"Lebuhraya Seletar","name:ta":"\u0b9a\u0bc6\u0bb2\u0bc7\u0ba4\u0bcd\u0ba4\u0bbe\u0bb0\u0bcd \u0bb5\u0bbf\u0bb0\u0bc8\u0bb5\u0bc1\u0b9a\u0bcd\u0b9a\u0bbe\u0bb2\u0bc8","name:zh":"\u5b9e\u91cc\u8fbe\u9ad8\u901f\u516c\u8def","oneway":"yes","ref":"SLE","ref:ta":"\u0b8e\u0bb8\u0bcd\u0b8e\u0bb2\u0bcd\u0b87","short_name:ta":"\u0b8e\u0bb8\u0bcd\u0b8e\u0bb2\u0bcd\u0b87","surface":"asphalt","wikidata":"Q1575163","wikipedia":"en:Seletar Expressway"},"geometry":{"type":"LineString","coordinates":[[103.7868242,1.4260915],[103.7865709,1.4261568]]}},{"type":"Feature","id":"way/95841001-0-0-0","properties":{"destination":"Turf Club Avenue","destination:ref":"SLE","destination:ref:to":"BKE","highway":"motorway_link","lanes":"2","maxspeed":"50","name":"Woodlands Avenue 2","oneway":"yes","source":"Yahoo aerial images","surface":"asphalt"},"geometry":{"type":"LineString","coordinates":[[103.7867847,1.427901],[103.7865201,1.4266879]]}},{"type":"Feature","id":"way/95841002-0-0-0","properties":{"highway":"motorway","lanes":"3","maxspeed":"90","name":"Seletar Expressway","name:ms":"Lebuhraya Seletar","name:ta":"\u0b9a\u0bc6\u0bb2\u0bc7\u0ba4\u0bcd\u0ba4\u0bbe\u0bb0\u0bcd \u0bb5\u0bbf\u0bb0\u0bc8\u0bb5\u0bc1\u0b9a\u0bcd\u0b9a\u0bbe\u0bb2\u0bc8","name:zh":"\u5b9e\u91cc\u8fbe\u9ad8\u901f\u516c\u8def","oneway":"yes","ref":"SLE","ref:ta":"\u0b8e\u0bb8\u0bcd\u0b8e\u0bb2\u0bcd\u0b87","short_name:ta":"\u0b8e\u0bb8\u0bcd\u0b8e\u0bb2\u0bcd\u0b87","surface":"asphalt","wikidata":"Q1575163","wikipedia":"en:Seletar Expressway"},"geometry":{"type":"LineString","coordinates":[[103.7867815,1.4262842],[103.7875539,1.4261125]]}},{"type":"Feature","id":"way/95841002-0-1-0","properties":{"highway":"motorway","lanes":"3","maxspeed":"90","name":"Seletar Expressway","name:ms":"Lebuhraya Seletar","name:ta":"\u0b9a\u0bc6\u0bb2\u0bc7\u0ba4\u0bcd\u0ba4\u0bbe\u0bb0\u0bcd \u0bb5\u0bbf\u0bb0\u0bc8\u0bb5\u0bc1\u0b9a\u0bcd\u0b9a\u0bbe\u0bb2\u0bc8","name:zh":"\u5b9e\u91cc\u8fbe\u9ad8\u901f\u516c\u8def","oneway":"yes","ref":"SLE","ref:ta":"\u0b8e\u0bb8\u0bcd\u0b8e\u0bb2\u0bcd\u0b87","short_name:ta":"\u0b8e\u0bb8\u0bcd\u0b8e\u0bb2\u0bcd\u0b87","surface":"asphalt","wikidata":"Q1575163","wikipedia":"en:Seletar Expressway"},"geometry":{"type":"LineString","coordinates":[[103.7875539,1.4261125],[103.7882942,1.4259088]]}},{"type":"Feature","id":"way/95841003-0-0-0","properties":{"bridge":"yes","highway":"motorway","lanes":"3","layer":"1","maxspeed":"90","name":"Seletar Expressway","name:ms":"Lebuhraya Seletar","name:ta":"\u0b9a\u0bc6\u0bb2\u0bc7\u0ba4\u0bcd\u0ba4\u0bbe\u0bb0\u0bcd \u0bb5\u0bbf\u0bb0\u0bc8\u0bb5\u0bc1\u0b9a\u0bcd\u0b9a\u0bbe\u0bb2\u0bc8","name:zh":"\u5b9e\u91cc\u8fbe\u9ad8\u901f\u516c\u8def","oneway":"yes","ref":"SLE","ref:ta":"\u0b8e\u0bb8\u0bcd\u0b8e\u0bb2\u0bcd\u0b87","short_name:ta":"\u0b8e\u0bb8\u0bcd\u0b8e\u0bb2\u0bcd\u0b87","surface":"asphalt","wikidata":"Q1575163","wikipedia":"en:Seletar Expressway"},"geometry":{"type":"LineString","coordinates":[[103.7856335,1.4264879],[103.7862772,1.4263807]]}},{"type":"Feature","id":"way/95841003-0-1-0","properties":{"bridge":"yes","highway":"motorway","lanes":"3","layer":"1","maxspeed":"90","name":"Seletar Expressway","name:ms":"Lebuhraya Seletar","name:ta":"\u0b9a\u0bc6\u0bb2\u0bc7\u0ba4\u0bcd\u0ba4\u0bbe\u0bb0\u0bcd \u0bb5\u0bbf\u0bb0\u0bc8\u0bb5\u0bc1\u0b9a\u0bcd\u0b9a\u0bbe\u0bb2\u0bc8","name:zh":"\u5b9e\u91cc\u8fbe\u9ad8\u901f\u516c\u8def","oneway":"yes","ref":"SLE","ref:ta":"\u0b8e\u0bb8\u0bcd\u0b8e\u0bb2\u0bcd\u0b87","short_name:ta":"\u0b8e\u0bb8\u0bcd\u0b8e\u0bb2\u0bcd\u0b87","surface":"asphalt","wikidata":"Q1575163","wikipedia":"en:Seletar Expressway"},"geometry":{"type":"LineString","coordinates":[[103.7862772,1.4263807],[103.7867815,1.4262842]]}},{"type":"Feature","id":"way/95841004-0-0-0","properties":{"bridge":"yes","highway":"motorway","lanes":"3","layer":"1","maxspeed":"90","name":"Seletar Expressway","name:ms":"Lebuhraya Seletar","name:ta":"\u0b9a\u0bc6\u0bb2\u0bc7\u0ba4\u0bcd\u0ba4\u0bbe\u0bb0\u0bcd \u0bb5\u0bbf\u0bb0\u0bc8\u0bb5\u0bc1\u0b9a\u0bcd\u0b9a\u0bbe\u0bb2\u0bc8","name:zh":"\u5b9e\u91cc\u8fbe\u9ad8\u901f\u516c\u8def","oneway":"yes","ref":"SLE","ref:ta":"\u0b8e\u0bb8\u0bcd\u0b8e\u0bb2\u0bcd\u0b87","short_name:ta":"\u0b8e\u0bb8\u0bcd\u0b8e\u0bb2\u0bcd\u0b87","surface":"asphalt","wikidata":"Q1575163","wikipedia":"en:Seletar Expressway"},"geometry":{"type":"LineString","coordinates":[[103.7865709,1.4261568],[103.7855584,1.4263378]]}},{"type":"Feature","id":"way/95841005-0-0-0","properties":{"highway":"motorway","lanes":"3","maxspeed":"90","name":"Seletar Expressway","name:ms":"Lebuhraya Seletar","name:ta":"\u0b9a\u0bc6\u0bb2\u0bc7\u0ba4\u0bcd\u0ba4\u0bbe\u0bb0\u0bcd \u0bb5\u0bbf\u0bb0\u0bc8\u0bb5\u0bc1\u0b9a\u0bcd\u0b9a\u0bbe\u0bb2\u0bc8","name:zh":"\u5b9e\u91cc\u8fbe\u9ad8\u901f\u516c\u8def","oneway":"yes","ref":"SLE","ref:ta":"\u0b8e\u0bb8\u0bcd\u0b8e\u0bb2\u0bcd\u0b87","short_name:ta":"\u0b8e\u0bb8\u0bcd\u0b8e\u0bb2\u0bcd\u0b87","surface":"asphalt","wikidata":"Q1575163","wikipedia":"en:Seletar Expressway"},"geometry":{"type":"LineString","coordinates":[[103.7855584,1.4263378],[103.784625,1.4264343]]}},{"type":"Feature","id":"way/95841005-0-1-0","properties":{"highway":"motorway","lanes":"3","maxspeed":"90","name":"Seletar Expressway","name:ms":"Lebuhraya Seletar","name:ta":"\u0b9a\u0bc6\u0bb2\u0bc7\u0ba4\u0bcd\u0ba4\u0bbe\u0bb0\u0bcd \u0bb5\u0bbf\u0bb0\u0bc8\u0bb5\u0bc1\u0b9a\u0bcd\u0b9a\u0bbe\u0bb2\u0bc8","name:zh":"\u5b9e\u91cc\u8fbe\u9ad8\u901f\u516c\u8def","oneway":"yes","ref":"SLE","ref:ta":"\u0b8e\u0bb8\u0bcd\u0b8e\u0bb2\u0bcd\u0b87","short_name:ta":"\u0b8e\u0bb8\u0bcd\u0b8e\u0bb2\u0bcd\u0b87","surface":"asphalt","wikidata":"Q1575163","wikipedia":"en:Seletar Expressway"},"geometry":{"type":"LineString","coordinates":[[103.784625,1.4264343],[103.7838254,1.4264834]]}},{"type":"Feature","id":"way/480923884-0-0-0","properties":{"destination":"Turf Club Avenue","destination:ref":"SLE","destination:ref:to":"BKE","highway":"motorway_link","lanes":"2","maxheight":"4.5","maxspeed":"50","oneway":"yes","source":"Yahoo aerial images","surface":"asphalt"},"geometry":{"type":"LineString","coordinates":[[103.7865201,1.4266879],[103.7863201,1.4257586]]}},{"type":"Feature","id":"way/480923887-0-0-0","properties":{"destination":"Turf Club Avenue","destination:ref":"SLE","destination:ref:to":"BKE","highway":"motorway_link","lanes":"2","maxspeed":"50","oneway":"yes","source":"Yahoo aerial images","surface":"asphalt"},"geometry":{"type":"LineString","coordinates":[[103.7863201,1.4257586],[103.786245,1.4254797]]}},{"type":"Feature","id":"way/480923887-0-1-0","properties":{"destination":"Turf Club Avenue","destination:ref":"SLE","destination:ref:to":"BKE","highway":"motorway_link","lanes":"2","maxspeed":"50","oneway":"yes","source":"Yahoo aerial images","surface":"asphalt"},"geometry":{"type":"LineString","coordinates":[[103.786245,1.4254797],[103.7861806,1.4253081]]}},{"type":"Feature","id":"way/480923887-0-2-0","properties":{"destination":"Turf Club Avenue","destination:ref":"SLE","destination:ref:to":"BKE","highway":"motorway_link","lanes":"2","maxspeed":"50","oneway":"yes","source":"Yahoo aerial images","surface":"asphalt"},"geometry":{"type":"LineString","coordinates":[[103.7861806,1.4253081],[103.7860841,1.425158]]}},{"type":"Feature","id":"way/480923887-0-3-0","properties":{"destination":"Turf Club Avenue","destination:ref":"SLE","destination:ref:to":"BKE","highway":"motorway_link","lanes":"2","maxspeed":"50","oneway":"yes","source":"Yahoo aerial images","surface":"asphalt"},"geometry":{"type":"LineString","coordinates":[[103.7860841,1.425158],[103.7859768,1.42504]]}},{"type":"Feature","id":"way/480923887-0-4-0","properties":{"destination":"Turf Club Avenue","destination:ref":"SLE","destination:ref:to":"BKE","highway":"motorway_link","lanes":"2","maxspeed":"50","oneway":"yes","source":"Yahoo aerial images","surface":"asphalt"},"geometry":{"type":"LineString","coordinates":[[103.7859768,1.42504],[103.7858373,1.4249435]]}},{"type":"Feature","id":"way/480923887-0-5-0","properties":{"destination":"Turf Club Avenue","destination:ref":"SLE","destination:ref:to":"BKE","highway":"motorway_link","lanes":"2","maxspeed":"50","oneway":"yes","source":"Yahoo aerial images","surface":"asphalt"},"geometry":{"type":"LineString","coordinates":[[103.7858373,1.4249435],[103.7856549,1.4248898]]}},{"type":"Feature","id":"way/480923887-0-6-0","properties":{"destination":"Turf Club Avenue","destination:ref":"SLE","destination:ref:to":"BKE","highway":"motorway_link","lanes":"2","maxspeed":"50","oneway":"yes","source":"Yahoo aerial images","surface":"asphalt"},"geometry":{"type":"LineString","coordinates":[[103.7856549,1.4248898],[103.7854725,1.4248791]]}},{"type":"Feature","id":"way/480923887-0-7-0","properties":{"destination":"Turf Club Avenue","destination:ref":"SLE","destination:ref:to":"BKE","highway":"motorway_link","lanes":"2","maxspeed":"50","oneway":"yes","source":"Yahoo aerial images","surface":"asphalt"},"geometry":{"type":"LineString","coordinates":[[103.7854725,1.4248791],[103.7853223,1.4249113]]}},{"type":"Feature","id":"way/480923887-0-8-0","properties":{"destination":"Turf Club Avenue","destination:ref":"SLE","destination:ref:to":"BKE","highway":"motorway_link","lanes":"2","maxspeed":"50","oneway":"yes","source":"Yahoo aerial images","surface":"asphalt"},"geometry":{"type":"LineString","coordinates":[[103.7853223,1.4249113],[103.7851614,1.4249864]]}},{"type":"Feature","id":"way/480923887-0-9-0","properties":{"destination":"Turf Club Avenue","destination:ref":"SLE","destination:ref:to":"BKE","highway":"motorway_link","lanes":"2","maxspeed":"50","oneway":"yes","source":"Yahoo aerial images","surface":"asphalt"},"geometry":{"type":"LineString","coordinates":[[103.7851614,1.4249864],[103.7850541,1.4250936]]}},{"type":"Feature","id":"way/480923887-0-10-0","properties":{"destination":"Turf Club Avenue","destination:ref":"SLE","destination:ref:to":"BKE","highway":"motorway_link","lanes":"2","maxspeed":"50","oneway":"yes","source":"Yahoo aerial images","surface":"asphalt"},"geometry":{"type":"LineString","coordinates":[[103.7850541,1.4250936],[103.7849361,1.4252652]]}},{"type":"Feature","id":"way/480923887-0-11-0","properties":{"destination":"Turf Club Avenue","destination:ref":"SLE","destination:ref:to":"BKE","highway":"motorway_link","lanes":"2","maxspeed":"50","oneway":"yes","source":"Yahoo aerial images","surface":"asphalt"},"geometry":{"type":"LineString","coordinates":[[103.7849361,1.4252652],[103.7847215,1.4257157]]}},{"type":"Feature","id":"way/480923887-0-12-0","properties":{"destination":"Turf Club Avenue","destination:ref":"SLE","destination:ref:to":"BKE","highway":"motorway_link","lanes":"2","maxspeed":"50","oneway":"yes","source":"Yahoo aerial images","surface":"asphalt"},"geometry":{"type":"LineString","coordinates":[[103.7847215,1.4257157],[103.7846035,1.4259088]]}},{"type":"Feature","id":"way/480923887-0-13-0","properties":{"destination":"Turf Club Avenue","destination:ref":"SLE","destination:ref:to":"BKE","highway":"motorway_link","lanes":"2","maxspeed":"50","oneway":"yes","source":"Yahoo aerial images","surface":"asphalt"},"geometry":{"type":"LineString","coordinates":[[103.7846035,1.4259088],[103.7844748,1.4260589]]}},{"type":"Feature","id":"way/480923887-0-14-0","properties":{"destination":"Turf Club Avenue","destination:ref":"SLE","destination:ref:to":"BKE","highway":"motorway_link","lanes":"2","maxspeed":"50","oneway":"yes","source":"Yahoo aerial images","surface":"asphalt"},"geometry":{"type":"LineString","coordinates":[[103.7844748,1.4260589],[103.7843567,1.4261554]]}},{"type":"Feature","id":"way/480923887-0-15-0","properties":{"destination":"Turf Club Avenue","destination:ref":"SLE","destination:ref:to":"BKE","highway":"motorway_link","lanes":"2","maxspeed":"50","oneway":"yes","source":"Yahoo aerial images","surface":"asphalt"},"geometry":{"type":"LineString","coordinates":[[103.7843567,1.4261554],[103.7842065,1.426252]]}},{"type":"Feature","id":"way/480923889-0-0-0","properties":{"destination":"Turf Club Avenue","destination:ref":"SLE","destination:ref:to":"BKE","highway":"motorway_link","lanes":"1","maxspeed":"50","oneway":"yes","source":"Yahoo aerial images","surface":"asphalt"},"geometry":{"type":"LineString","coordinates":[[103.7842065,1.426252],[103.7840134,1.4263056]]}},{"type":"Feature","id":"way/480923889-0-1-0","properties":{"destination":"Turf Club Avenue","destination:ref":"SLE","destination:ref:to":"BKE","highway":"motorway_link","lanes":"1","maxspeed":"50","oneway":"yes","source":"Yahoo aerial images","surface":"asphalt"},"geometry":{"type":"LineString","coordinates":[[103.7840134,1.4263056],[103.7837452,1.4263485]]}},{"type":"Feature","id":"way/637676153-0-0-0","properties":{"highway":"motorway","lanes":"3","maxspeed":"90","name":"Seletar Expressway","name:ms":"Lebuhraya Seletar","name:ta":"\u0b9a\u0bc6\u0bb2\u0bc7\u0ba4\u0bcd\u0ba4\u0bbe\u0bb0\u0bcd \u0bb5\u0bbf\u0bb0\u0bc8\u0bb5\u0bc1\u0b9a\u0bcd\u0b9a\u0bbe\u0bb2\u0bc8","name:zh":"\u5b9e\u91cc\u8fbe\u9ad8\u901f\u516c\u8def","oneway":"yes","ref":"SLE","ref:ta":"\u0b8e\u0bb8\u0bcd\u0b8e\u0bb2\u0bcd\u0b87","short_name:ta":"\u0b8e\u0bb8\u0bcd\u0b8e\u0bb2\u0bcd\u0b87","surface":"asphalt","turn:lanes":"left;through|through|through","wikidata":"Q1575163","wikipedia":"en:Seletar Expressway"},"geometry":{"type":"LineString","coordinates":[[103.7886469,1.4256138],[103.787432,1.4259429]]}},{"type":"Feature","id":"way/637710382-0-0-0","properties":{"highway":"motorway","lanes":"3","maxspeed":"90","name":"Seletar Expressway","name:ms":"Lebuhraya Seletar","name:ta":"\u0b9a\u0bc6\u0bb2\u0bc7\u0ba4\u0bcd\u0ba4\u0bbe\u0bb0\u0bcd \u0bb5\u0bbf\u0bb0\u0bc8\u0bb5\u0bc1\u0b9a\u0bcd\u0b9a\u0bbe\u0bb2\u0bc8","name:zh":"\u5b9e\u91cc\u8fbe\u9ad8\u901f\u516c\u8def","oneway":"yes","ref":"SLE","ref:ta":"\u0b8e\u0bb8\u0bcd\u0b8e\u0bb2\u0bcd\u0b87","short_name:ta":"\u0b8e\u0bb8\u0bcd\u0b8e\u0bb2\u0bcd\u0b87","surface":"asphalt","wikidata":"Q1575163","wikipedia":"en:Seletar Expressway"},"geometry":{"type":"LineString","coordinates":[[103.7835251,1.4266536],[103.7844318,1.4266166]]}},{"type":"Feature","id":"way/637710382-0-1-0","properties":{"highway":"motorway","lanes":"3","maxspeed":"90","name":"Seletar Expressway","name:ms":"Lebuhraya Seletar","name:ta":"\u0b9a\u0bc6\u0bb2\u0bc7\u0ba4\u0bcd\u0ba4\u0bbe\u0bb0\u0bcd \u0bb5\u0bbf\u0bb0\u0bc8\u0bb5\u0bc1\u0b9a\u0bcd\u0b9a\u0bbe\u0bb2\u0bc8","name:zh":"\u5b9e\u91cc\u8fbe\u9ad8\u901f\u516c\u8def","oneway":"yes","ref":"SLE","ref:ta":"\u0b8e\u0bb8\u0bcd\u0b8e\u0bb2\u0bcd\u0b87","short_name:ta":"\u0b8e\u0bb8\u0bcd\u0b8e\u0bb2\u0bcd\u0b87","surface":"asphalt","wikidata":"Q1575163","wikipedia":"en:Seletar Expressway"},"geometry":{"type":"LineString","coordinates":[[103.7844318,1.4266166],[103.7851185,1.4265523]]}},{"type":"Feature","id":"way/637710382-0-2-0","properties":{"highway":"motorway","lanes":"3","maxspeed":"90","name":"Seletar Expressway","name:ms":"Lebuhraya Seletar","name:ta":"\u0b9a\u0bc6\u0bb2\u0bc7\u0ba4\u0bcd\u0ba4\u0bbe\u0bb0\u0bcd \u0bb5\u0bbf\u0bb0\u0bc8\u0bb5\u0bc1\u0b9a\u0bcd\u0b9a\u0bbe\u0bb2\u0bc8","name:zh":"\u5b9e\u91cc\u8fbe\u9ad8\u901f\u516c\u8def","oneway":"yes","ref":"SLE","ref:ta":"\u0b8e\u0bb8\u0bcd\u0b8e\u0bb2\u0bcd\u0b87","short_name:ta":"\u0b8e\u0bb8\u0bcd\u0b8e\u0bb2\u0bcd\u0b87","surface":"asphalt","wikidata":"Q1575163","wikipedia":"en:Seletar Expressway"},"geometry":{"type":"LineString","coordinates":[[103.7851185,1.4265523],[103.7856335,1.4264879]]}},{"type":"Feature","id":"way/637721399-0-0-0","properties":{"destination":"Woodlands Avenue 2;Admiralty Road","highway":"motorway_link","lanes":"1","maxspeed":"50","oneway":"yes","source":"Yahoo aerial images","surface":"asphalt"},"geometry":{"type":"LineString","coordinates":[[103.7857193,1.4261233],[103.7855476,1.4261125]]}},{"type":"Feature","id":"way/637721399-0-1-0","properties":{"destination":"Woodlands Avenue 2;Admiralty Road","highway":"motorway_link","lanes":"1","maxspeed":"50","oneway":"yes","source":"Yahoo aerial images","surface":"asphalt"},"geometry":{"type":"LineString","coordinates":[[103.7855476,1.4261125],[103.7854095,1.4260834]]}},{"type":"Feature","id":"way/637721399-0-2-0","properties":{"destination":"Woodlands Avenue 2;Admiralty Road","highway":"motorway_link","lanes":"1","maxspeed":"50","oneway":"yes","source":"Yahoo aerial images","surface":"asphalt"},"geometry":{"type":"LineString","coordinates":[[103.7854095,1.4260834],[103.7852902,1.4260321]]}},{"type":"Feature","id":"way/637721399-0-3-0","properties":{"destination":"Woodlands Avenue 2;Admiralty Road","highway":"motorway_link","lanes":"1","maxspeed":"50","oneway":"yes","source":"Yahoo aerial images","surface":"asphalt"},"geometry":{"type":"LineString","coordinates":[[103.7852902,1.4260321],[103.785192,1.4259598]]}},{"type":"Feature","id":"way/637721400-0-0-0","properties":{"highway":"motorway","lanes":"3","maxspeed":"90","name":"Seletar Expressway","name:ms":"Lebuhraya Seletar","name:ta":"\u0b9a\u0bc6\u0bb2\u0bc7\u0ba4\u0bcd\u0ba4\u0bbe\u0bb0\u0bcd \u0bb5\u0bbf\u0bb0\u0bc8\u0bb5\u0bc1\u0b9a\u0bcd\u0b9a\u0bbe\u0bb2\u0bc8","name:zh":"\u5b9e\u91cc\u8fbe\u9ad8\u901f\u516c\u8def","oneway":"yes","ref":"SLE","ref:ta":"\u0b8e\u0bb8\u0bcd\u0b8e\u0bb2\u0bcd\u0b87","short_name:ta":"\u0b8e\u0bb8\u0bcd\u0b8e\u0bb2\u0bcd\u0b87","surface":"asphalt","turn:lanes":"slight_left;through|through|through","wikidata":"Q1575163","wikipedia":"en:Seletar Expressway"},"geometry":{"type":"LineString","coordinates":[[103.787432,1.4259429],[103.7868242,1.4260915]]}},{"type":"Feature","id":"way/646666862-0-2-0","properties":{"highway":"residential","lanes":"2","lanes:backward":"1","lanes:forward":"1","maxspeed":"50","name":"Rosewood Drive","source":"Yahoo aerial images","surface":"asphalt","turn:lanes:backward":"through;right"},"geometry":{"type":"LineString","coordinates":[[103.7850844,1.4278678],[103.7850737,1.4273063]]}},{"type":"Feature","id":"way/646666862-0-3-0","properties":{"highway":"residential","lanes":"2","lanes:backward":"1","lanes:forward":"1","maxspeed":"50","name":"Rosewood Drive","source":"Yahoo aerial images","surface":"asphalt","turn:lanes:backward":"through;right"},"geometry":{"type":"LineString","coordinates":[[103.7850737,1.4273063],[103.785072,1.4272166]]}},{"type":"Feature","id":"way/1266018875-0-0-0","properties":{"destination":"Woodlands Avenue 2;Admiralty Road","highway":"motorway_link","lanes":"2","maxspeed":"50","oneway":"yes","source":"Yahoo aerial images","surface":"asphalt"},"geometry":{"type":"LineString","coordinates":[[103.785192,1.4259598],[103.785115,1.4258851]]}},{"type":"Feature","id":"way/1266018875-0-1-0","properties":{"destination":"Woodlands Avenue 2;Admiralty Road","highway":"motorway_link","lanes":"2","maxspeed":"50","oneway":"yes","source":"Yahoo aerial images","surface":"asphalt"},"geometry":{"type":"LineString","coordinates":[[103.785115,1.4258851],[103.7850583,1.4258034]]}},{"type":"Feature","id":"way/1266018875-0-2-0","properties":{"destination":"Woodlands Avenue 2;Admiralty Road","highway":"motorway_link","lanes":"2","maxspeed":"50","oneway":"yes","source":"Yahoo aerial images","surface":"asphalt"},"geometry":{"type":"LineString","coordinates":[[103.7850583,1.4258034],[103.7850241,1.4257232]]}},{"type":"Feature","id":"way/1266018875-0-3-0","properties":{"destination":"Woodlands Avenue 2;Admiralty Road","highway":"motorway_link","lanes":"2","maxspeed":"50","oneway":"yes","source":"Yahoo aerial images","surface":"asphalt"},"geometry":{"type":"LineString","coordinates":[[103.7850241,1.4257232],[103.7849972,1.4256327]]}},{"type":"Feature","id":"way/1266018875-0-4-0","properties":{"destination":"Woodlands Avenue 2;Admiralty Road","highway":"motorway_link","lanes":"2","maxspeed":"50","oneway":"yes","source":"Yahoo aerial images","surface":"asphalt"},"geometry":{"type":"LineString","coordinates":[[103.7849972,1.4256327],[103.7849973,1.4255386]]}},{"type":"Feature","id":"way/1266018875-0-5-0","properties":{"destination":"Woodlands Avenue 2;Admiralty Road","highway":"motorway_link","lanes":"2","maxspeed":"50","oneway":"yes","source":"Yahoo aerial images","surface":"asphalt"},"geometry":{"type":"LineString","coordinates":[[103.7849973,1.4255386],[103.7849991,1.425469]]}},{"type":"Feature","id":"way/1266018875-0-6-0","properties":{"destination":"Woodlands Avenue 2;Admiralty Road","highway":"motorway_link","lanes":"2","maxspeed":"50","oneway":"yes","source":"Yahoo aerial images","surface":"asphalt"},"geometry":{"type":"LineString","coordinates":[[103.7849991,1.425469],[103.7850165,1.42538]]}},{"type":"Feature","id":"way/1266018875-0-7-0","properties":{"destination":"Woodlands Avenue 2;Admiralty Road","highway":"motorway_link","lanes":"2","maxspeed":"50","oneway":"yes","source":"Yahoo aerial images","surface":"asphalt"},"geometry":{"type":"LineString","coordinates":[[103.7850165,1.42538],[103.7850583,1.4252979]]}},{"type":"Feature","id":"way/1266018875-0-8-0","properties":{"destination":"Woodlands Avenue 2;Admiralty Road","highway":"motorway_link","lanes":"2","maxspeed":"50","oneway":"yes","source":"Yahoo aerial images","surface":"asphalt"},"geometry":{"type":"LineString","coordinates":[[103.7850583,1.4252979],[103.7851176,1.4252114]]}},{"type":"Feature","id":"way/1266018875-0-9-0","properties":{"destination":"Woodlands Avenue 2;Admiralty Road","highway":"motorway_link","lanes":"2","maxspeed":"50","oneway":"yes","source":"Yahoo aerial images","surface":"asphalt"},"geometry":{"type":"LineString","coordinates":[[103.7851176,1.4252114],[103.7851947,1.425136]]}}]}