{"type":"FeatureCollection","features":[{"type":"Feature","id":"way/177015835-0","properties":{"building":"yes","clearanceGeometry":{"type":"Polygon","coordinates":[[[103.7753038,1.2272088],[103.7754835,1.2271405],[103.7753342,1.2267478],[103.7751544,1.2268161],[103.7753038,1.2272088]]]},"clearanceHeight":1.7,"clearancePrepared":true},"geometry":{"type":"Polygon","coordinates":[[[103.7751544,1.2268161],[103.7753038,1.2272088],[103.7754835,1.2271405],[103.7753342,1.2267478],[103.7751544,1.2268161]]]}},{"type":"Feature","id":"way/177015838-0","properties":{"building":"yes","clearanceGeometry":{"type":"Polygon","coordinates":[[[103.7750077,1.22678],[103.7753996,1.2266319],[103.7753587,1.2265237],[103.7749668,1.2266718],[103.7750077,1.22678]]]},"clearanceHeight":1.7,"clearancePrepared":true},"geometry":{"type":"Polygon","coordinates":[[[103.7749668,1.2266718],[103.7750077,1.22678],[103.7753996,1.2266319],[103.7753587,1.2265237],[103.7749668,1.2266718]]]}},{"type":"Feature","id":"way/177015845-0","properties":{"building":"yes","clearanceGeometry":{"type":"Polygon","coordinates":[[[103.774567,1.2262746],[103.7752927,1.2255875],[103.7751717,1.2254597],[103.77444710169553,1.2261458567518717],[103.77451452055861,1.2262192146721795],[103.774567,1.2262746]]]},"clearanceHeight":1.7,"clearancePrepared":true},"geometry":{"type":"Polygon","coordinates":[[[103.774446,1.2261469],[103.774567,1.2262746],[103.7752927,1.2255875],[103.7751717,1.2254597],[103.774446,1.2261469]]]}},{"type":"Feature","id":"way/177015854-0","properties":{"building":"yes","clearanceGeometry":{"type":"Polygon","coordinates":[[[103.7756602,1.2269963],[103.7756552,1.226819],[103.7755156,1.2268229],[103.7755206,1.2270003],[103.7756602,1.2269963]]]},"clearanceHeight":1.7,"clearancePrepared":true},"geometry":{"type":"Polygon","coordinates":[[[103.7755206,1.2270003],[103.7756602,1.2269963],[103.7756552,1.226819],[103.7755156,1.2268229],[103.7755206,1.2270003]]]}},{"type":"Feature","id":"way/177015856-0","properties":{"building":"yes","clearanceGeometry":{"type":"Polygon","coordinates":[[[103.7757086,1.2263485],[103.7756272,1.2264264],[103.7757003,1.226766],[103.7760943,1.2263891],[103.7759431,1.2262514],[103.7757086,1.2263485]]]},"clearanceHeight":1.7,"clearancePrepared":true},"geometry":{"type":"Polygon","coordinates":[[[103.7759431,1.2262514],[103.7757086,1.2263485],[103.7756272,1.2264264],[103.7757003,1.226766],[103.7760943,1.2263891],[103.7759431,1.2262514]]]}},{"type":"Feature","id":"way/177015858-0","properties":{"building":"yes","clearanceGeometry":{"type":"Polygon","coordinates":[[[103.7759503,1.22589],[103.7760511,1.2257919],[103.7763354,1.2260839],[103.7764543,1.2259682],[103.7759823,1.2254836],[103.7757627,1.2256974],[103.7759503,1.22589]]]},"clearanceHeight":1.7,"clearancePrepared":true},"geometry":{"type":"Polygon","coordinates":[[[103.7757627,1.2256974],[103.7759503,1.22589],[103.7760511,1.2257919],[103.7763354,1.2260839],[103.7764543,1.2259682],[103.7759823,1.2254836],[103.7757627,1.2256974]]]}},{"type":"Feature","id":"way/425943041-0","properties":{"building":"yes","clearanceGeometry":{"type":"Polygon","coordinates":[[[103.778078,1.226177],[103.7782707,1.2258158],[103.778125,1.2257382],[103.7779324,1.2260994],[103.778078,1.226177]]]},"clearanceHeight":1.7,"clearancePrepared":true},"geometry":{"type":"Polygon","coordinates":[[[103.7779324,1.2260994],[103.778078,1.226177],[103.7782707,1.2258158],[103.778125,1.2257382],[103.7779324,1.2260994]]]}},{"type":"Feature","id":"way/425943043-0","properties":{"building":"yes","clearanceGeometry":{"type":"Polygon","coordinates":[[[103.7772608,1.2267138],[103.7775069,1.2262735],[103.7770948,1.2260433],[103.7768587,1.2264658],[103.7768755,1.2264752],[103.776857,1.2265084],[103.7769729,1.2265731],[103.7771473,1.2262609],[103.7771126,1.2262415],[103.7771299,1.2262105],[103.7773449,1.2263305],[103.7773172,1.22638],[103.7772982,1.2263694],[103.7772086,1.2265296],[103.7770935,1.2264653],[103.7770275,1.2265834],[103.7772608,1.2267138]]]},"clearanceHeight":1.7,"clearancePrepared":true},"geometry":{"type":"Polygon","coordinates":[[[103.7770275,1.2265834],[103.7772608,1.2267138],[103.7775069,1.2262735],[103.7770948,1.2260433],[103.7768587,1.2264658],[103.7768755,1.2264752],[103.776857,1.2265084],[103.7769729,1.2265731],[103.7771473,1.2262609],[103.7771126,1.2262415],[103.7771299,1.2262105],[103.7773449,1.2263305],[103.7773172,1.22638],[103.7772982,1.2263694],[103.7772086,1.2265296],[103.7770935,1.2264653],[103.7770275,1.2265834]]]}},{"type":"Feature","id":"way/626599649-0","properties":{"building":"yes","clearanceGeometry":{"type":"Polygon","coordinates":[[[103.7764225,1.2270088],[103.776283,1.2269619],[103.776264,1.2270182],[103.7764035,1.2270651],[103.7764225,1.2270088]]]},"clearanceHeight":1.7,"clearancePrepared":true},"geometry":{"type":"Polygon","coordinates":[[[103.7764035,1.2270651],[103.7764225,1.2270088],[103.776283,1.2269619],[103.776264,1.2270182],[103.7764035,1.2270651]]]}},{"type":"Feature","id":"way/626599650-0","properties":{"building":"yes","clearanceGeometry":{"type":"Polygon","coordinates":[[[103.7763136,1.2270756],[103.7761393,1.2270139],[103.7761031,1.227116],[103.7762775,1.2271777],[103.7763136,1.2270756]]]},"clearanceHeight":1.7,"clearancePrepared":true},"geometry":{"type":"Polygon","coordinates":[[[103.7762775,1.2271777],[103.7763136,1.2270756],[103.7761393,1.2270139],[103.7761031,1.227116],[103.7762775,1.2271777]]]}},{"type":"Feature","id":"way/626599652-0","properties":{"building":"yes","clearanceGeometry":{"type":"Polygon","coordinates":[[[103.7762427,1.2274453],[103.77618397132115,1.2273725402920124],[103.7761025557883,1.2274417316001083],[103.7761595,1.2275123],[103.7762427,1.2274453]]]},"clearanceHeight":1.7,"clearancePrepared":true},"geometry":{"type":"Polygon","coordinates":[[[103.7761595,1.2275123],[103.7762427,1.2274453],[103.7761728,1.2273587],[103.7760897,1.2274258],[103.7761595,1.2275123]]]}},{"type":"Feature","id":"way/626599655-0","properties":{"building":"yes","clearanceGeometry":{"type":"Polygon","coordinates":[[[103.7754426,1.2261647],[103.7753721,1.22623],[103.7754408,1.2263041],[103.7755113,1.2262388],[103.7754426,1.2261647]]]},"clearanceHeight":1.7,"clearancePrepared":true},"geometry":{"type":"Polygon","coordinates":[[[103.7755113,1.2262388],[103.7754426,1.2261647],[103.7753721,1.22623],[103.7754408,1.2263041],[103.7755113,1.2262388]]]}},{"type":"Feature","id":"way/626599656-0","properties":{"building":"yes","clearanceGeometry":{"type":"Polygon","coordinates":[[[103.7756399,1.2259796],[103.7756028,1.2259383],[103.7754533,1.2260725],[103.7754867,1.2261096],[103.7755502,1.2261803],[103.7756151,1.226122],[103.7756519,1.226089],[103.7755922,1.2260225],[103.7756399,1.2259796]]]},"clearanceHeight":1.7,"clearancePrepared":true},"geometry":{"type":"Polygon","coordinates":[[[103.7755922,1.2260225],[103.7756399,1.2259796],[103.7756028,1.2259383],[103.7754533,1.2260725],[103.7754867,1.2261096],[103.7755502,1.2261803],[103.7756151,1.226122],[103.7756519,1.226089],[103.7755922,1.2260225]]]}},{"type":"Feature","id":"way/626599657-0","properties":{"building":"yes","clearanceGeometry":{"type":"Polygon","coordinates":[[[103.7756118,1.2262487],[103.7756767,1.2261905],[103.7756151,1.226122],[103.7755502,1.2261803],[103.7756118,1.2262487]]]},"clearanceHeight":1.7,"clearancePrepared":true},"geometry":{"type":"Polygon","coordinates":[[[103.7755502,1.2261803],[103.7756118,1.2262487],[103.7756767,1.2261905],[103.7756151,1.226122],[103.7755502,1.2261803]]]}},{"type":"Feature","id":"way/626599658-0","properties":{"building":"yes","clearanceGeometry":{"type":"Polygon","coordinates":[[[103.7754867,1.2261096],[103.7754348,1.2261562],[103.7754426,1.2261647],[103.7755113,1.2262388],[103.7755425,1.2262727],[103.7756118,1.2262487],[103.7755502,1.2261803],[103.7754867,1.2261096]]]},"clearanceHeight":1.7,"clearancePrepared":true},"geometry":{"type":"Polygon","coordinates":[[[103.7755502,1.2261803],[103.7754867,1.2261096],[103.7754348,1.2261562],[103.7754426,1.2261647],[103.7755113,1.2262388],[103.7755425,1.2262727],[103.7756118,1.2262487],[103.7755502,1.2261803]]]}},{"type":"Feature","id":"way/626599659-0","properties":{"building":"yes","clearanceGeometry":{"type":"Polygon","coordinates":[[[103.7754394,1.225908],[103.7753702,1.225971],[103.775452,1.2260608],[103.7755212,1.2259978],[103.7754394,1.225908]]]},"clearanceHeight":1.7,"clearancePrepared":true},"geometry":{"type":"Polygon","coordinates":[[[103.7755212,1.2259978],[103.7754394,1.225908],[103.7753702,1.225971],[103.775452,1.2260608],[103.7755212,1.2259978]]]}},{"type":"Feature","id":"way/626599660-0","properties":{"building":"yes","clearanceGeometry":{"type":"Polygon","coordinates":[[[103.7754867,1.2261096],[103.7754533,1.2260725],[103.7754002,1.2260133],[103.7752823,1.2261192],[103.7753688,1.2262155],[103.7754348,1.2261562],[103.7754867,1.2261096]]]},"clearanceHeight":1.7,"clearancePrepared":true},"geometry":{"type":"Polygon","coordinates":[[[103.7754348,1.2261562],[103.7754867,1.2261096],[103.7754533,1.2260725],[103.7754002,1.2260133],[103.7752823,1.2261192],[103.7753688,1.2262155],[103.7754348,1.2261562]]]}},{"type":"Feature","id":"way/626599690-0","properties":{"building":"yes","clearanceGeometry":{"type":"Polygon","coordinates":[[[103.7753025,1.2262982],[103.7752001,1.2261839],[103.7751308,1.2262485],[103.7752086,1.226334],[103.7753025,1.2262982]]]},"clearanceHeight":1.7,"clearancePrepared":true},"geometry":{"type":"Polygon","coordinates":[[[103.7752086,1.226334],[103.7753025,1.2262982],[103.7752001,1.2261839],[103.7751308,1.2262485],[103.7752086,1.226334]]]}},{"type":"Feature","id":"way/626599691-0","properties":{"building":"yes","clearanceGeometry":{"type":"Polygon","coordinates":[[[103.7749726,1.2264242],[103.7749994,1.2264944],[103.7753293,1.2263683],[103.7753025,1.2262982],[103.7752086,1.226334],[103.7749726,1.2264242]]]},"clearanceHeight":1.7,"clearancePrepared":true},"geometry":{"type":"Polygon","coordinates":[[[103.7752086,1.226334],[103.7749726,1.2264242],[103.7749994,1.2264944],[103.7753293,1.2263683],[103.7753025,1.2262982],[103.7752086,1.226334]]]}},{"type":"Feature","id":"way/626599692-0","properties":{"building":"yes","clearanceGeometry":{"type":"Polygon","coordinates":[[[103.7751076,1.2260847],[103.7750383,1.2261493],[103.7751308,1.2262485],[103.7752001,1.2261839],[103.7751076,1.2260847]]]},"clearanceHeight":1.7,"clearancePrepared":true},"geometry":{"type":"Polygon","coordinates":[[[103.7752001,1.2261839],[103.7751076,1.2260847],[103.7750383,1.2261493],[103.7751308,1.2262485],[103.7752001,1.2261839]]]}},{"type":"Feature","id":"way/626599693-0","properties":{"building":"yes","clearanceGeometry":{"type":"Polygon","coordinates":[[[103.7749401,1.2264347],[103.77482389528878,1.2263171316123689],[103.77474640818944,1.2263885137224932],[103.7748653,1.2265087],[103.7749401,1.2264347]]]},"clearanceHeight":1.7,"clearancePrepared":true},"geometry":{"type":"Polygon","coordinates":[[[103.7748653,1.2265087],[103.7749401,1.2264347],[103.7748208,1.226314],[103.7747459,1.226388],[103.7748653,1.2265087]]]}},{"type":"Feature","id":"way/626599694-0","properties":{"building":"yes","clearanceGeometry":{"type":"Polygon","coordinates":[[[103.77653361630502,1.2274572948682412],[103.77655971851033,1.227459471961749],[103.7766221,1.2272045],[103.7767535,1.2271187],[103.776889,1.2269833],[103.7768233,1.2269176],[103.7767012,1.227045],[103.7765229,1.2271697],[103.7764719,1.2274459],[103.77653361630502,1.2274572948682412]]]},"clearanceHeight":1.7,"clearancePrepared":true},"geometry":{"type":"Polygon","coordinates":[[[103.7764719,1.2274459],[103.7765591,1.227462],[103.7766221,1.2272045],[103.7767535,1.2271187],[103.776889,1.2269833],[103.7768233,1.2269176],[103.7767012,1.227045],[103.7765229,1.2271697],[103.7764719,1.2274459]]]}},{"type":"Feature","id":"way/626599695-0","properties":{"building":"yes","clearanceGeometry":{"type":"Polygon","coordinates":[[[103.7763137,1.2268834],[103.7765029,1.2269607],[103.7764783,1.227021],[103.7765795,1.2270623],[103.7766482,1.2268944],[103.7762632,1.2267371],[103.7761906,1.2269145],[103.7762852,1.2269532],[103.7763137,1.2268834]]]},"clearanceHeight":1.7,"clearancePrepared":true},"geometry":{"type":"Polygon","coordinates":[[[103.7762852,1.2269532],[103.7763137,1.2268834],[103.7765029,1.2269607],[103.7764783,1.227021],[103.7765795,1.2270623],[103.7766482,1.2268944],[103.7762632,1.2267371],[103.7761906,1.2269145],[103.7762852,1.2269532]]]}},{"type":"Feature","id":"way/626599696-0","properties":{"building":"yes","clearanceGeometry":{"type":"Polygon","coordinates":[[[103.7773349,1.2273207],[103.77728431814816,1.2272075196132999],[103.77721966714795,1.2272447899749954],[103.77691021065476,1.2273782354430025],[103.7769594,1.2274883],[103.7773349,1.2273207]]]},"clearanceHeight":1.7,"clearancePrepared":true},"geometry":{"type":"Polygon","coordinates":[[[103.7769594,1.2274883],[103.7773349,1.2273207],[103.7772806,1.2271992],[103.7769051,1.2273668],[103.7769594,1.2274883]]]}},{"type":"Feature","id":"way/626599697-0","properties":{"building":"yes","clearanceGeometry":{"type":"Polygon","coordinates":[[[103.7769775,1.2283341],[103.7768756,1.2280713],[103.77678753903305,1.228105432874796],[103.77679341706012,1.2281417709852722],[103.7768823,1.228371],[103.7769775,1.2283341]]]},"clearanceHeight":1.7,"clearancePrepared":true},"geometry":{"type":"Polygon","coordinates":[[[103.7768823,1.228371],[103.7769775,1.2283341],[103.7768756,1.2280713],[103.7767804,1.2281082],[103.7768823,1.228371]]]}},{"type":"Feature","id":"way/626599698-0","properties":{"building":"yes","clearanceGeometry":{"type":"Polygon","coordinates":[[[103.7765701,1.227591],[103.7764464,1.2275719],[103.7764116,1.2277972],[103.7765352,1.2278163],[103.7765701,1.227591]]]},"clearanceHeight":1.7,"clearancePrepared":true},"geometry":{"type":"Polygon","coordinates":[[[103.7765352,1.2278163],[103.7765701,1.227591],[103.7764464,1.2275719],[103.7764116,1.2277972],[103.7765352,1.2278163]]]}},{"type":"Feature","id":"way/626599699-0","properties":{"building":"yes","clearanceGeometry":{"type":"Polygon","coordinates":[[[103.7762688,1.2280801],[103.7761916,1.2280412],[103.7760495,1.2283228],[103.7761266,1.2283617],[103.7762688,1.2280801]]]},"clearanceHeight":1.7,"clearancePrepared":true},"geometry":{"type":"Polygon","coordinates":[[[103.7761266,1.2283617],[103.7762688,1.2280801],[103.7761916,1.2280412],[103.7760495,1.2283228],[103.7761266,1.2283617]]]}},{"type":"Feature","id":"way/626599700-0","properties":{"building":"yes","clearanceGeometry":{"type":"Polygon","coordinates":[[[103.7766711,1.2283985],[103.7765819,1.2283456],[103.7764625,1.2285467],[103.7765517,1.2285996],[103.7766711,1.2283985]]]},"clearanceHeight":1.7,"clearancePrepared":true},"geometry":{"type":"Polygon","coordinates":[[[103.7765517,1.2285996],[103.7766711,1.2283985],[103.7765819,1.2283456],[103.7764625,1.2285467],[103.7765517,1.2285996]]]}},{"type":"Feature","id":"node/1874850699","properties":{"highway":"crossing"},"geometry":{"type":"Point","coordinates":[103.7763186,1.2256642]}},{"type":"Feature","id":"node/1874850720","properties":{"highway":"crossing"},"geometry":{"type":"Point","coordinates":[103.7765439,1.226132]}},{"type":"Feature","id":"node/1874850750","properties":{"highway":"crossing"},"geometry":{"type":"Point","coordinates":[103.776093,1.2265534]}},{"type":"Feature","id":"way/425943044-0-0-0","properties":{"highway":"service","lanes":"2","lanes:backward":"1","lanes:forward":"1","startNodeId":"4252709083","endNodeId":"4252709072"},"geometry":{"type":"LineString","coordinates":[[103.7777029,1.2262635],[103.7774224,1.2268485]]}},{"type":"Feature","id":"way/425943044-0-1-0","properties":{"highway":"service","lanes":"2","lanes:backward":"1","lanes:forward":"1","startNodeId":"4252709072","endNodeId":"4252709073"},"geometry":{"type":"LineString","coordinates":[[103.7774224,1.2268485],[103.7774071,1.2268997]]}},{"type":"Feature","id":"way/425943045-0-0-0","properties":{"highway":"service","startNodeId":"4252709082","endNodeId":"4252709078"},"geometry":{"type":"LineString","coordinates":[[103.7770924,1.2259314],[103.7772609,1.2258954]]}},{"type":"Feature","id":"way/425943045-0-1-0","properties":{"highway":"service","startNodeId":"4252709078","endNodeId":"5966615046"},"geometry":{"type":"LineString","coordinates":[[103.7772609,1.2258954],[103.7773157,1.225852]]}},{"type":"Feature","id":"way/425943046-0-0-0","properties":{"highway":"service","lanes":"2","lanes:backward":"1","lanes:forward":"1","turn:lanes:backward":"through","turn:lanes:forward":"through","startNodeId":"4252709082","endNodeId":"4252709083"},"geometry":{"type":"LineString","coordinates":[[103.7770924,1.2259314],[103.7777029,1.2262635]]}},{"type":"Feature","id":"way/626599651-0-0-0","properties":{"highway":"service","startNodeId":"5915573428","endNodeId":"1874850980"},"geometry":{"type":"LineString","coordinates":[[103.7761836,1.2273198],[103.7757387,1.2276979]]}},{"type":"Feature","id":"way/626599653-0-0-0","properties":{"highway":"service","startNodeId":"5915573434","endNodeId":"6485196381"},"geometry":{"type":"LineString","coordinates":[[103.7755022,1.2256373],[103.774648,1.2264242]]}},{"type":"Feature","id":"way/626599654-0-0-0","properties":{"highway":"service","startNodeId":"5915573435","endNodeId":"6485196377"},"geometry":{"type":"LineString","coordinates":[[103.7762036,1.2264335],[103.7759808,1.2261619]]}},{"type":"Feature","id":"way/626599654-0-1-0","properties":{"highway":"service","startNodeId":"6485196377","endNodeId":"5915573434"},"geometry":{"type":"LineString","coordinates":[[103.7759808,1.2261619],[103.7755022,1.2256373]]}},{"type":"Feature","id":"way/631878596-0-0-0","properties":{"highway":"service","lanes":"2","lanes:backward":"1","lanes:forward":"1","startNodeId":"5966539938","endNodeId":"5966539937"},"geometry":{"type":"LineString","coordinates":[[103.7766528,1.2275078],[103.776425,1.2274888]]}},{"type":"Feature","id":"way/631878596-0-1-0","properties":{"highway":"service","lanes":"2","lanes:backward":"1","lanes:forward":"1","startNodeId":"5966539937","endNodeId":"5966539936"},"geometry":{"type":"LineString","coordinates":[[103.776425,1.2274888],[103.7764022,1.2275049]]}},{"type":"Feature","id":"way/631878596-0-2-0","properties":{"highway":"service","lanes":"2","lanes:backward":"1","lanes:forward":"1","startNodeId":"5966539936","endNodeId":"5966539935"},"geometry":{"type":"LineString","coordinates":[[103.7764022,1.2275049],[103.7763566,1.2277596]]}},{"type":"Feature","id":"way/631878596-0-3-0","properties":{"highway":"service","lanes":"2","lanes:backward":"1","lanes:forward":"1","startNodeId":"5966539935","endNodeId":"5966539934"},"geometry":{"type":"LineString","coordinates":[[103.7763566,1.2277596],[103.7763727,1.2278307]]}},{"type":"Feature","id":"way/631878596-0-4-0","properties":{"highway":"service","lanes":"2","lanes:backward":"1","lanes:forward":"1","startNodeId":"5966539934","endNodeId":"5966539933"},"geometry":{"type":"LineString","coordinates":[[103.7763727,1.2278307],[103.7765993,1.2282423]]}},{"type":"Feature","id":"way/631878596-0-5-0","properties":{"highway":"service","lanes":"2","lanes:backward":"1","lanes:forward":"1","startNodeId":"5966539933","endNodeId":"5966539932"},"geometry":{"type":"LineString","coordinates":[[103.7765993,1.2282423],[103.776657,1.2282544]]}},{"type":"Feature","id":"way/631878596-0-6-0","properties":{"highway":"service","lanes":"2","lanes:backward":"1","lanes:forward":"1","startNodeId":"5966539932","endNodeId":"5966539931"},"geometry":{"type":"LineString","coordinates":[[103.776657,1.2282544],[103.7767677,1.228236]]}},{"type":"Feature","id":"way/631878598-0-0-0","properties":{"highway":"service","lanes":"2","lanes:backward":"1","lanes:forward":"1","startNodeId":"5966539942","endNodeId":"5966539941"},"geometry":{"type":"LineString","coordinates":[[103.7766955,1.2274268],[103.7772015,1.2272086]]}},{"type":"Feature","id":"way/631878598-0-1-0","properties":{"highway":"service","lanes":"2","lanes:backward":"1","lanes:forward":"1","startNodeId":"5966539941","endNodeId":"5966539940"},"geometry":{"type":"LineString","coordinates":[[103.7772015,1.2272086],[103.7772806,1.227163]]}},{"type":"Feature","id":"way/631878599-0-0-0","properties":{"highway":"service","startNodeId":"5966539945","endNodeId":"5966539944"},"geometry":{"type":"LineString","coordinates":[[103.7769791,1.2269166],[103.7768742,1.2268734]]}},{"type":"Feature","id":"way/631878599-0-1-0","properties":{"highway":"service","startNodeId":"5966539944","endNodeId":"5966539943"},"geometry":{"type":"LineString","coordinates":[[103.7768742,1.2268734],[103.7768327,1.226876]]}},{"type":"Feature","id":"way/631878600-0-0-0","properties":{"highway":"service","lanes":"1","oneway":"yes","turn:lanes":"left;through;right","startNodeId":"5966539950","endNodeId":"5966539952"},"geometry":{"type":"LineString","coordinates":[[103.7760321,1.2284944],[103.7760133,1.228371]]}},{"type":"Feature","id":"way/631878600-0-1-0","properties":{"highway":"service","lanes":"1","oneway":"yes","turn:lanes":"left;through;right","startNodeId":"5966539952","endNodeId":"5966539951"},"geometry":{"type":"LineString","coordinates":[[103.7760133,1.228371],[103.775572,1.22786]]}},{"type":"Feature","id":"way/631878601-0-0-0","properties":{"highway":"service","lanes":"1","oneway":"yes","startNodeId":"5966539951","endNodeId":"6485196376"},"geometry":{"type":"LineString","coordinates":[[103.775572,1.22786],[103.7754714,1.2278374]]}},{"type":"Feature","id":"way/631878601-0-1-0","properties":{"highway":"service","lanes":"1","oneway":"yes","startNodeId":"6485196376","endNodeId":"5966539949"},"geometry":{"type":"LineString","coordinates":[[103.7754714,1.2278374],[103.7755149,1.2279238]]}},{"type":"Feature","id":"way/631878601-0-2-0","properties":{"highway":"service","lanes":"1","oneway":"yes","startNodeId":"5966539949","endNodeId":"5966539948"},"geometry":{"type":"LineString","coordinates":[[103.7755149,1.2279238],[103.7756807,1.228194]]}},{"type":"Feature","id":"way/631878601-0-3-0","properties":{"highway":"service","lanes":"1","oneway":"yes","startNodeId":"5966539948","endNodeId":"5966539947"},"geometry":{"type":"LineString","coordinates":[[103.7756807,1.228194],[103.775965,1.2284702]]}},{"type":"Feature","id":"way/631878601-0-4-0","properties":{"highway":"service","lanes":"1","oneway":"yes","startNodeId":"5966539947","endNodeId":"5966539950"},"geometry":{"type":"LineString","coordinates":[[103.775965,1.2284702],[103.7760321,1.2284944]]}},{"type":"Feature","id":"way/631878602-0-0-0","properties":{"highway":"service","lanes":"2","lanes:backward":"1","lanes:forward":"1","startNodeId":"5966539931","endNodeId":"5966539958"},"geometry":{"type":"LineString","coordinates":[[103.7767677,1.228236],[103.7768098,1.2283683]]}},{"type":"Feature","id":"way/631878602-0-1-0","properties":{"highway":"service","lanes":"2","lanes:backward":"1","lanes:forward":"1","startNodeId":"5966539958","endNodeId":"5966539957"},"geometry":{"type":"LineString","coordinates":[[103.7768098,1.2283683],[103.7767911,1.2284434]]}},{"type":"Feature","id":"way/631878602-0-2-0","properties":{"highway":"service","lanes":"2","lanes:backward":"1","lanes:forward":"1","startNodeId":"5966539957","endNodeId":"6487053066"},"geometry":{"type":"LineString","coordinates":[[103.7767911,1.2284434],[103.7767589,1.2285185]]}},{"type":"Feature","id":"way/631878602-0-3-0","properties":{"highway":"service","lanes":"2","lanes:backward":"1","lanes:forward":"1","startNodeId":"6487053066","endNodeId":"5966539956"},"geometry":{"type":"LineString","coordinates":[[103.7767589,1.2285185],[103.7764478,1.2290361]]}},{"type":"Feature","id":"way/631878602-0-4-0","properties":{"highway":"service","lanes":"2","lanes:backward":"1","lanes:forward":"1","startNodeId":"5966539956","endNodeId":"5966539955"},"geometry":{"type":"LineString","coordinates":[[103.7764478,1.2290361],[103.7763941,1.2291031]]}},{"type":"Feature","id":"way/631878603-0-0-0","properties":{"highway":"service","startNodeId":"5966539969","endNodeId":"5966539968"},"geometry":{"type":"LineString","coordinates":[[103.776012,1.2266192],[103.7761823,1.2266829]]}},{"type":"Feature","id":"way/631878603-0-1-0","properties":{"highway":"service","startNodeId":"5966539968","endNodeId":"5966539967"},"geometry":{"type":"LineString","coordinates":[[103.7761823,1.2266829],[103.776264,1.2266615]]}},{"type":"Feature","id":"way/631878603-0-2-0","properties":{"highway":"service","startNodeId":"5966539967","endNodeId":"5966539966"},"geometry":{"type":"LineString","coordinates":[[103.776264,1.2266615],[103.7766396,1.2267916]]}},{"type":"Feature","id":"way/631879885-0-0-0","properties":{"highway":"service","lanes":"2","lanes:backward":"1","lanes:forward":"1","startNodeId":"5966539969","endNodeId":"5966551887"},"geometry":{"type":"LineString","coordinates":[[103.776012,1.2266192],[103.7759703,1.2266549]]}},{"type":"Feature","id":"way/631879886-0-0-0","properties":{"highway":"service","lanes":"2","lanes:backward":"1","lanes:forward":"1","startNodeId":"5966551887","endNodeId":"1874850796"},"geometry":{"type":"LineString","coordinates":[[103.7759703,1.2266549],[103.7758059,1.2268222]]}},{"type":"Feature","id":"way/631879886-0-1-0","properties":{"highway":"service","lanes":"2","lanes:backward":"1","lanes:forward":"1","startNodeId":"1874850796","endNodeId":"1874850804"},"geometry":{"type":"LineString","coordinates":[[103.7758059,1.2268222],[103.7757638,1.2269053]]}},{"type":"Feature","id":"way/631879886-0-2-0","properties":{"highway":"service","lanes":"2","lanes:backward":"1","lanes:forward":"1","startNodeId":"1874850804","endNodeId":"1874850886"},"geometry":{"type":"LineString","coordinates":[[103.7757638,1.2269053],[103.7757527,1.2274223]]}},{"type":"Feature","id":"way/631879886-0-3-0","properties":{"highway":"service","lanes":"2","lanes:backward":"1","lanes:forward":"1","startNodeId":"1874850886","endNodeId":"1874850961"},"geometry":{"type":"LineString","coordinates":[[103.7757527,1.2274223],[103.7757578,1.2276468]]}},{"type":"Feature","id":"way/631879886-0-4-0","properties":{"highway":"service","lanes":"2","lanes:backward":"1","lanes:forward":"1","startNodeId":"1874850961","endNodeId":"1874850980"},"geometry":{"type":"LineString","coordinates":[[103.7757578,1.2276468],[103.7757387,1.2276979]]}},{"type":"Feature","id":"way/631888653-0-0-0","properties":{"highway":"service","startNodeId":"5966615043","endNodeId":"5966615042"},"geometry":{"type":"LineString","coordinates":[[103.777935,1.2258149],[103.7776028,1.2256188]]}},{"type":"Feature","id":"way/631888654-0-0-0","properties":{"highway":"service","startNodeId":"5966615045","endNodeId":"5966615044"},"geometry":{"type":"LineString","coordinates":[[103.7778642,1.2259517],[103.7775555,1.2257833]]}},{"type":"Feature","id":"way/631888655-0-0-0","properties":{"highway":"service","startNodeId":"5966615047","endNodeId":"5966615046"},"geometry":{"type":"LineString","coordinates":[[103.7777805,1.2261136],[103.7773157,1.225852]]}},{"type":"Feature","id":"way/631907932-0-0-0","properties":{"highway":"service","startNodeId":"5966823982","endNodeId":"5966823981"},"geometry":{"type":"LineString","coordinates":[[103.7777951,1.2260853],[103.778045,1.2262123]]}},{"type":"Feature","id":"way/631907932-0-1-0","properties":{"highway":"service","startNodeId":"5966823981","endNodeId":"5966823980"},"geometry":{"type":"LineString","coordinates":[[103.778045,1.2262123],[103.7780558,1.2262606]]}},{"type":"Feature","id":"way/631907932-0-2-0","properties":{"highway":"service","startNodeId":"5966823980","endNodeId":"5966823979"},"geometry":{"type":"LineString","coordinates":[[103.7780558,1.2262606],[103.7778881,1.2265717]]}},{"type":"Feature","id":"way/640287718-0-0-0","properties":{"highway":"service","startNodeId":"5966615045","endNodeId":"5966823982"},"geometry":{"type":"LineString","coordinates":[[103.7778642,1.2259517],[103.7777951,1.2260853]]}},{"type":"Feature","id":"way/640289260-0-0-0","properties":{"highway":"service","startNodeId":"5966615047","endNodeId":"4252709083"},"geometry":{"type":"LineString","coordinates":[[103.7777805,1.2261136],[103.7777029,1.2262635]]}},{"type":"Feature","id":"way/640289611-0-0-0","properties":{"highway":"service","startNodeId":"1874850712","endNodeId":"4252709082"},"geometry":{"type":"LineString","coordinates":[[103.7766676,1.2260198],[103.7770924,1.2259314]]}},{"type":"Feature","id":"way/640290224-0-0-0","properties":{"highway":"service","startNodeId":"5966615043","endNodeId":"5966615045"},"geometry":{"type":"LineString","coordinates":[[103.777935,1.2258149],[103.7778642,1.2259517]]}},{"type":"Feature","id":"way/640291079-0-0-0","properties":{"highway":"service","startNodeId":"4252709081","endNodeId":"5966615043"},"geometry":{"type":"LineString","coordinates":[[103.7780265,1.2256381],[103.777935,1.2258149]]}},{"type":"Feature","id":"way/640294988-0-0-0","properties":{"highway":"service","startNodeId":"5966539966","endNodeId":"5966539965"},"geometry":{"type":"LineString","coordinates":[[103.7766396,1.2267916],[103.7766771,1.2267822]]}},{"type":"Feature","id":"way/640294988-0-1-0","properties":{"highway":"service","startNodeId":"5966539965","endNodeId":"5966539964"},"geometry":{"type":"LineString","coordinates":[[103.7766771,1.2267822],[103.7767079,1.2267299]]}},{"type":"Feature","id":"way/640294988-0-2-0","properties":{"highway":"service","startNodeId":"5966539964","endNodeId":"5966539963"},"geometry":{"type":"LineString","coordinates":[[103.7767079,1.2267299],[103.7767472,1.2266696]]}},{"type":"Feature","id":"way/640294989-0-0-0","properties":{"highway":"service","lanes":"2","lanes:backward":"1","lanes:forward":"1","startNodeId":"5966539962","endNodeId":"4252709075"},"geometry":{"type":"LineString","coordinates":[[103.7770544,1.2267836],[103.7768664,1.2267139]]}},{"type":"Feature","id":"way/640294989-0-1-0","properties":{"highway":"service","lanes":"2","lanes:backward":"1","lanes:forward":"1","startNodeId":"4252709075","endNodeId":"5966539963"},"geometry":{"type":"LineString","coordinates":[[103.7768664,1.2267139],[103.7767472,1.2266696]]}},{"type":"Feature","id":"way/640318742-0-0-0","properties":{"highway":"service","lanes":"2","lanes:backward":"1","lanes:forward":"1","startNodeId":"5966539945","endNodeId":"5966539946"},"geometry":{"type":"LineString","coordinates":[[103.7769791,1.2269166],[103.7769693,1.2269338]]}},{"type":"Feature","id":"way/640318742-0-1-0","properties":{"highway":"service","lanes":"2","lanes:backward":"1","lanes:forward":"1","startNodeId":"5966539946","endNodeId":"5966539961"},"geometry":{"type":"LineString","coordinates":[[103.7769693,1.2269338],[103.7767066,1.2273976]]}},{"type":"Feature","id":"way/640318742-0-2-0","properties":{"highway":"service","lanes":"2","lanes:backward":"1","lanes:forward":"1","startNodeId":"5966539961","endNodeId":"5966539942"},"geometry":{"type":"LineString","coordinates":[[103.7767066,1.2273976],[103.7766955,1.2274268]]}},{"type":"Feature","id":"way/640318743-0-0-0","properties":{"highway":"service","lanes":"2","lanes:backward":"1","lanes:forward":"1","turn:lanes:backward":"left","turn:lanes:forward":"left;through","startNodeId":"5966539962","endNodeId":"5966539945"},"geometry":{"type":"LineString","coordinates":[[103.7770544,1.2267836],[103.7769791,1.2269166]]}},{"type":"Feature","id":"way/640322768-0-0-0","properties":{"highway":"service","lanes":"2","lanes:backward":"1","lanes:forward":"1","startNodeId":"5966539938","endNodeId":"5966539960"},"geometry":{"type":"LineString","coordinates":[[103.7766528,1.2275078],[103.7766556,1.2275317]]}},{"type":"Feature","id":"way/640322768-0-1-0","properties":{"highway":"service","lanes":"2","lanes:backward":"1","lanes:forward":"1","startNodeId":"5966539960","endNodeId":"5966539959"},"geometry":{"type":"LineString","coordinates":[[103.7766556,1.2275317],[103.7766798,1.2276926]]}},{"type":"Feature","id":"way/640322768-0-2-0","properties":{"highway":"service","lanes":"2","lanes:backward":"1","lanes:forward":"1","startNodeId":"5966539959","endNodeId":"5966539931"},"geometry":{"type":"LineString","coordinates":[[103.7766798,1.2276926],[103.7767677,1.228236]]}},{"type":"Feature","id":"way/641205425-0-0-0","properties":{"highway":"service","lanes":"2","lanes:backward":"1","lanes:forward":"1","startNodeId":"5915573435","endNodeId":"1874850750"},"geometry":{"type":"LineString","coordinates":[[103.7762036,1.2264335],[103.776093,1.2265534]]}},{"type":"Feature","id":"way/643414568-0-0-0","properties":{"highway":"service","lanes":"2","lanes:backward":"1","lanes:forward":"1","startNodeId":"6039121450","endNodeId":"5915573435"},"geometry":{"type":"LineString","coordinates":[[103.7763901,1.2262928],[103.7762036,1.2264335]]}},{"type":"Feature","id":"way/643414569-0-0-0","properties":{"highway":"service","lanes":"2","lanes:backward":"1","lanes:forward":"1","startNodeId":"5966539963","endNodeId":"4252709076"},"geometry":{"type":"LineString","coordinates":[[103.7767472,1.2266696],[103.7766188,1.2266284]]}},{"type":"Feature","id":"way/643414569-0-1-0","properties":{"highway":"service","lanes":"2","lanes:backward":"1","lanes:forward":"1","startNodeId":"4252709076","endNodeId":"6485196295"},"geometry":{"type":"LineString","coordinates":[[103.7766188,1.2266284],[103.7762386,1.2264698]]}},{"type":"Feature","id":"way/643414569-0-2-0","properties":{"highway":"service","lanes":"2","lanes:backward":"1","lanes:forward":"1","startNodeId":"6485196295","endNodeId":"5915573435"},"geometry":{"type":"LineString","coordinates":[[103.7762386,1.2264698],[103.7762036,1.2264335]]}},{"type":"Feature","id":"way/643421436-0-0-0","properties":{"highway":"service","startNodeId":"5966615046","endNodeId":"4252709079"},"geometry":{"type":"LineString","coordinates":[[103.7773157,1.225852],[103.7774873,1.2257163]]}},{"type":"Feature","id":"way/643421436-0-1-0","properties":{"highway":"service","startNodeId":"4252709079","endNodeId":"5966615042"},"geometry":{"type":"LineString","coordinates":[[103.7774873,1.2257163],[103.7776028,1.2256188]]}},{"type":"Feature","id":"way/643422304-0-0-0","properties":{"highway":"service","lanes":"2","lanes:backward":"1","lanes:forward":"1","startNodeId":"4252709073","endNodeId":"4252709074"},"geometry":{"type":"LineString","coordinates":[[103.7774071,1.2268997],[103.7771749,1.2268234]]}},{"type":"Feature","id":"way/643422304-0-1-0","properties":{"highway":"service","lanes":"2","lanes:backward":"1","lanes:forward":"1","startNodeId":"4252709074","endNodeId":"5966539962"},"geometry":{"type":"LineString","coordinates":[[103.7771749,1.2268234],[103.7770544,1.2267836]]}},{"type":"Feature","id":"way/644357178-0-7-0","properties":{"highway":"service","startNodeId":"5915573465","endNodeId":"1874850699"},"geometry":{"type":"LineString","coordinates":[[103.7762265,1.2255688],[103.7763186,1.2256642]]}},{"type":"Feature","id":"way/644357178-0-8-0","properties":{"highway":"service","startNodeId":"1874850699","endNodeId":"1874850706"},"geometry":{"type":"LineString","coordinates":[[103.7763186,1.2256642],[103.7764934,1.2258735]]}},{"type":"Feature","id":"way/644357178-0-9-0","properties":{"highway":"service","startNodeId":"1874850706","endNodeId":"1874850709"},"geometry":{"type":"LineString","coordinates":[[103.7764934,1.2258735],[103.7765996,1.2259886]]}},{"type":"Feature","id":"way/644357178-0-10-0","properties":{"highway":"service","startNodeId":"1874850709","endNodeId":"1874850712"},"geometry":{"type":"LineString","coordinates":[[103.7765996,1.2259886],[103.7766676,1.2260198]]}},{"type":"Feature","id":"way/644357179-0-0-0","properties":{"highway":"service","startNodeId":"1874850712","endNodeId":"1874850714"},"geometry":{"type":"LineString","coordinates":[[103.7766676,1.2260198],[103.7766059,1.2260724]]}},{"type":"Feature","id":"way/644357179-0-1-0","properties":{"highway":"service","startNodeId":"1874850714","endNodeId":"1874850720"},"geometry":{"type":"LineString","coordinates":[[103.7766059,1.2260724],[103.7765439,1.226132]]}},{"type":"Feature","id":"way/644357179-0-2-0","properties":{"highway":"service","startNodeId":"1874850720","endNodeId":"6039121450"},"geometry":{"type":"LineString","coordinates":[[103.7765439,1.226132],[103.7763901,1.2262928]]}},{"type":"Feature","id":"way/644357895-0-0-0","properties":{"highway":"service","lanes":"2","lanes:backward":"1","lanes:forward":"1","turn:lanes:backward":"through;right","turn:lanes:forward":"left;through;right","startNodeId":"1874850980","endNodeId":"1874850999"},"geometry":{"type":"LineString","coordinates":[[103.7757387,1.2276979],[103.7756836,1.227757]]}},{"type":"Feature","id":"way/644357895-0-1-0","properties":{"highway":"service","lanes":"2","lanes:backward":"1","lanes:forward":"1","turn:lanes:backward":"through;right","turn:lanes:forward":"left;through;right","startNodeId":"1874850999","endNodeId":"5966539951"},"geometry":{"type":"LineString","coordinates":[[103.7756836,1.227757],[103.775572,1.22786]]}},{"type":"Feature","id":"way/644357898-0-0-0","properties":{"highway":"service","lanes":"2","lanes:backward":"1","lanes:forward":"1","startNodeId":"5966539949","endNodeId":"1874851170"},"geometry":{"type":"LineString","coordinates":[[103.7755149,1.2279238],[103.7753178,1.2280947]]}},{"type":"Feature","id":"way/644357898-0-1-0","properties":{"highway":"service","lanes":"2","lanes:backward":"1","lanes:forward":"1","startNodeId":"1874851170","endNodeId":"1874851649"},"geometry":{"type":"LineString","coordinates":[[103.7753178,1.2280947],[103.7742806,1.2290811]]}},{"type":"Feature","id":"way/644377018-0-0-0","properties":{"highway":"service","startNodeId":"5915573940","endNodeId":"5915573946"},"geometry":{"type":"LineString","coordinates":[[103.7743608,1.2261117],[103.775201,1.2253226]]}},{"type":"Feature","id":"way/669863573-0-0-0","properties":{"highway":"service","lanes":"2","lanes:backward":"1","lanes:forward":"1","turn:lanes:backward":"left;through","turn:lanes:forward":"through","startNodeId":"1874850750","endNodeId":"5966539969"},"geometry":{"type":"LineString","coordinates":[[103.776093,1.2265534],[103.776012,1.2266192]]}},{"type":"Feature","id":"way/670151052-0-0-0","properties":{"highway":"service","lanes":"2","lanes:backward":"1","lanes:forward":"1","turn:lanes:forward":"through","startNodeId":"5966539940","endNodeId":"6039422485"},"geometry":{"type":"LineString","coordinates":[[103.7772806,1.227163],[103.7773664,1.2270074]]}},{"type":"Feature","id":"way/670151052-0-1-0","properties":{"highway":"service","lanes":"2","lanes:backward":"1","lanes:forward":"1","turn:lanes:forward":"through","startNodeId":"6039422485","endNodeId":"4252709073"},"geometry":{"type":"LineString","coordinates":[[103.7773664,1.2270074],[103.7774071,1.2268997]]}},{"type":"Feature","id":"way/691172806-0-0-1","properties":{"highway":"service","startNodeId":"way/691172806-0:0:1","endNodeId":"6485196307"},"geometry":{"type":"LineString","coordinates":[[103.775277,1.2301985],[103.77626,1.2292908]]}},{"type":"Feature","id":"way/691172806-0-1-0","properties":{"highway":"service","startNodeId":"6485196307","endNodeId":"6485196306"},"geometry":{"type":"LineString","coordinates":[[103.77626,1.2292908],[103.7763432,1.2291755]]}},{"type":"Feature","id":"way/691172806-0-2-0","properties":{"highway":"service","startNodeId":"6485196306","endNodeId":"5966539955"},"geometry":{"type":"LineString","coordinates":[[103.7763432,1.2291755],[103.7763941,1.2291031]]}},{"type":"Feature","id":"way/691172807-0-0-0","properties":{"highway":"service","startNodeId":"5966539954","endNodeId":"6487053065"},"geometry":{"type":"LineString","coordinates":[[103.7760535,1.2287169],[103.7759784,1.2287411]]}},{"type":"Feature","id":"way/691172807-0-1-0","properties":{"highway":"service","startNodeId":"6487053065","endNodeId":"6485196310"},"geometry":{"type":"LineString","coordinates":[[103.7759784,1.2287411],[103.7759248,1.2287813]]}},{"type":"Feature","id":"way/691172807-0-2-0","properties":{"highway":"service","startNodeId":"6485196310","endNodeId":"6485196309"},"geometry":{"type":"LineString","coordinates":[[103.7759248,1.2287813],[103.7751308,1.2294758]]}},{"type":"Feature","id":"way/691172807-0-3-0","properties":{"highway":"service","startNodeId":"6485196309","endNodeId":"6485196308"},"geometry":{"type":"LineString","coordinates":[[103.7751308,1.2294758],[103.7748411,1.2295402]]}},{"type":"Feature","id":"way/691172807-0-4-0","properties":{"highway":"service","startNodeId":"6485196308","endNodeId":"6485196371"},"geometry":{"type":"LineString","coordinates":[[103.7748411,1.2295402],[103.7746453,1.2295214]]}},{"type":"Feature","id":"way/691172821-0-3-0","properties":{"highway":"service","startNodeId":"6485196372","endNodeId":"6485196371"},"geometry":{"type":"LineString","coordinates":[[103.7746292,1.2294624],[103.7746453,1.2295214]]}},{"type":"Feature","id":"way/691172821-0-4-0","properties":{"highway":"service","startNodeId":"6485196371","endNodeId":"6485196370"},"geometry":{"type":"LineString","coordinates":[[103.7746453,1.2295214],[103.7746319,1.229567]]}},{"type":"Feature","id":"way/691172822-0-0-0","properties":{"highway":"service","startNodeId":"6485196376","endNodeId":"6485196375"},"geometry":{"type":"LineString","coordinates":[[103.7754714,1.2278374],[103.7751228,1.2273963]]}},{"type":"Feature","id":"way/691172822-0-1-0","properties":{"highway":"service","startNodeId":"6485196375","endNodeId":"6485196323"},"geometry":{"type":"LineString","coordinates":[[103.7751228,1.2273963],[103.7748868,1.2271405]]}},{"type":"Feature","id":"way/691172822-0-2-0","properties":{"highway":"service","startNodeId":"6485196323","endNodeId":"6485196374"},"geometry":{"type":"LineString","coordinates":[[103.7748868,1.2271405],[103.7748197,1.2270678]]}},{"type":"Feature","id":"way/691172823-0-0-0","properties":{"highway":"service","startNodeId":"6485196381","endNodeId":"6485196380"},"geometry":{"type":"LineString","coordinates":[[103.774648,1.2264242],[103.7748143,1.2265878]]}},{"type":"Feature","id":"way/691172823-0-1-0","properties":{"highway":"service","startNodeId":"6485196380","endNodeId":"6485196379"},"geometry":{"type":"LineString","coordinates":[[103.7748143,1.2265878],[103.7748679,1.2265931]]}},{"type":"Feature","id":"way/691172823-0-2-0","properties":{"highway":"service","startNodeId":"6485196379","endNodeId":"6485196378"},"geometry":{"type":"LineString","coordinates":[[103.7748679,1.2265931],[103.774927,1.2265797]]}},{"type":"Feature","id":"way/691172823-0-3-0","properties":{"highway":"service","startNodeId":"6485196378","endNodeId":"6485196377"},"geometry":{"type":"LineString","coordinates":[[103.774927,1.2265797],[103.7759808,1.2261619]]}},{"type":"Feature","id":"way/727987022-0-0-0","properties":{"highway":"service","lanes":"2","lanes:backward":"1","lanes:forward":"1","startNodeId":"5966539954","endNodeId":"5966539953"},"geometry":{"type":"LineString","coordinates":[[103.7760535,1.2287169],[103.7760437,1.2286155]]}},{"type":"Feature","id":"way/727987022-0-1-0","properties":{"highway":"service","lanes":"2","lanes:backward":"1","lanes:forward":"1","startNodeId":"5966539953","endNodeId":"5966539950"},"geometry":{"type":"LineString","coordinates":[[103.7760437,1.2286155],[103.7760321,1.2284944]]}},{"type":"Feature","id":"way/727987023-0-0-0","properties":{"highway":"service","lanes":"2","lanes:backward":"1","lanes:forward":"1","startNodeId":"5966539955","endNodeId":"5966539954"},"geometry":{"type":"LineString","coordinates":[[103.7763941,1.2291031],[103.7760535,1.2287169]]}},{"type":"Feature","id":"way/729004252-0-0-0","properties":{"highway":"service","lanes":"2","lanes:backward":"1","lanes:forward":"1","startNodeId":"5966539942","endNodeId":"5966539938"},"geometry":{"type":"LineString","coordinates":[[103.7766955,1.2274268],[103.7766528,1.2275078]]}},{"type":"Feature","id":"way/730056043-0-0-0","properties":{"highway":"service","lanes":"2","lanes:backward":"1","lanes:forward":"1","startNodeId":"5966539951","endNodeId":"5966539949"},"geometry":{"type":"LineString","coordinates":[[103.775572,1.22786],[103.7755149,1.2279238]]}},{"type":"Feature","id":"way/732810633-0-0-0","properties":{"highway":"service","startNodeId":"5966823982","endNodeId":"5966615047"},"geometry":{"type":"LineString","coordinates":[[103.7777951,1.2260853],[103.7777805,1.2261136]]}}]}