{"type":"FeatureCollection","features":[{"type":"Feature","id":"way/194286861-0","properties":{"addr:city":"Singapore","addr:country":"SG","addr:housenumber":"30","addr:street":"Marsiling Lane","building":"industrial","building:levels":"3","name":"Sing Lun Building","clearanceGeometry":{"type":"Polygon","coordinates":[[[103.7748425,1.4459216],[103.7749932,1.4463239],[103.7753002,1.446209],[103.7751495,1.4458067],[103.7748425,1.4459216]]]},"clearanceHeight":1.7,"clearancePrepared":true},"geometry":{"type":"Polygon","coordinates":[[[103.7751495,1.4458067],[103.7748425,1.4459216],[103.7749932,1.4463239],[103.7753002,1.446209],[103.7751495,1.4458067]]]}},{"type":"Feature","id":"way/194286868-0","properties":{"addr:city":"Singapore","addr:country":"SG","addr:housenumber":"30A","addr:street":"Marsiling Lane","building":"industrial","building:levels":"2","clearanceGeometry":{"type":"Polygon","coordinates":[[[103.774435,1.4460465],[103.7745899,1.4464723],[103.7748869,1.4463644],[103.774732,1.4459385],[103.774435,1.4460465]]]},"clearanceHeight":1.7,"clearancePrepared":true},"geometry":{"type":"Polygon","coordinates":[[[103.774732,1.4459385],[103.774435,1.4460465],[103.7745899,1.4464723],[103.7748869,1.4463644],[103.774732,1.4459385]]]}},{"type":"Feature","id":"way/194286886-0","properties":{"addr:city":"Singapore","addr:country":"SG","addr:housenumber":"28","addr:postcode":"739152","addr:street":"Marsiling Lane","building":"industrial","building:levels":"3","name":"GES Building","clearanceGeometry":{"type":"Polygon","coordinates":[[[103.7761126,1.4455051],[103.7760475,1.4453256],[103.7758628,1.4453923],[103.7758867,1.4454559],[103.7756416,1.4455417],[103.7756861,1.4456599],[103.7753453,1.4457951],[103.7754486,1.44609],[103.7763436,1.4457497],[103.7762284,1.4454556],[103.7761126,1.4455051]]]},"clearanceHeight":1.7,"clearancePrepared":true},"geometry":{"type":"Polygon","coordinates":[[[103.7762284,1.4454556],[103.7761126,1.4455051],[103.7760475,1.4453256],[103.7758628,1.4453923],[103.7758867,1.4454559],[103.7756416,1.4455417],[103.7756861,1.4456599],[103.7753453,1.4457951],[103.7754486,1.44609],[103.7763436,1.4457497],[103.7762284,1.4454556]]]}},{"type":"Feature","id":"way/453250441-0","properties":{"building":"industrial","clearanceGeometry":{"type":"Polygon","coordinates":[[[103.7782212,1.4461049],[103.7781768,1.4461141],[103.7781678,1.4460703],[103.7781265,1.4460788],[103.7780536,1.4457259],[103.7778977,1.4457581],[103.7780126,1.4463139],[103.7782541,1.446264],[103.7782212,1.4461049]]]},"clearanceHeight":1.7,"clearancePrepared":true},"geometry":{"type":"Polygon","coordinates":[[[103.7782541,1.446264],[103.7782212,1.4461049],[103.7781768,1.4461141],[103.7781678,1.4460703],[103.7781265,1.4460788],[103.7780536,1.4457259],[103.7778977,1.4457581],[103.7780126,1.4463139],[103.7782541,1.446264]]]}},{"type":"Feature","id":"node/244325420","properties":{"highway":"traffic_signals"},"geometry":{"type":"Point","coordinates":[103.7772148,1.446727]}},{"type":"Feature","id":"node/244326017","properties":{"highway":"traffic_signals"},"geometry":{"type":"Point","coordinates":[103.7773334,1.4467016]}},{"type":"Feature","id":"node/244500521","properties":{"highway":"traffic_signals"},"geometry":{"type":"Point","coordinates":[103.7773629,1.4468531]}},{"type":"Feature","id":"node/244500595","properties":{"highway":"traffic_signals"},"geometry":{"type":"Point","coordinates":[103.7772415,1.4468772]}},{"type":"Feature","id":"node/7990455615","properties":{"button_operated":"yes","crossing":"traffic_signals","highway":"crossing","tactile_paving":"yes","traffic_signals:sound":"no"},"geometry":{"type":"Point","coordinates":[103.7772517,1.4469309]}},{"type":"Feature","id":"node/7990455616","properties":{"button_operated":"yes","crossing":"traffic_signals","highway":"crossing","tactile_paving":"yes","traffic_signals:sound":"no"},"geometry":{"type":"Point","coordinates":[103.7773745,1.44691]}},{"type":"Feature","id":"node/7990455618","properties":{"button_operated":"no","crossing":"traffic_signals","highway":"crossing","tactile_paving":"yes","traffic_signals:sound":"no"},"geometry":{"type":"Point","coordinates":[103.7774467,1.4468314]}},{"type":"Feature","id":"node/7990455619","properties":{"button_operated":"no","crossing":"traffic_signals","highway":"crossing","tactile_paving":"yes","traffic_signals:sound":"no"},"geometry":{"type":"Point","coordinates":[103.7774119,1.4466844]}},{"type":"Feature","id":"node/7990455621","properties":{"crossing:signals":"yes","highway":"crossing","tactile_paving":"yes","traffic_signals:sound":"no"},"geometry":{"type":"Point","coordinates":[103.7773219,1.4466337]}},{"type":"Feature","id":"node/7990455622","properties":{"crossing:signals":"yes","highway":"crossing","tactile_paving":"yes","traffic_signals:sound":"no"},"geometry":{"type":"Point","coordinates":[103.777202,1.4466619]}},{"type":"Feature","id":"node/7990470897","properties":{"highway":"crossing"},"geometry":{"type":"Point","coordinates":[103.7784953,1.4462328]}},{"type":"Feature","id":"node/7990470907","properties":{"highway":"crossing"},"geometry":{"type":"Point","coordinates":[103.7776141,1.4490299]}},{"type":"Feature","id":"node/7990483981","properties":{"highway":"crossing"},"geometry":{"type":"Point","coordinates":[103.7746815,1.4458134]}},{"type":"Feature","id":"node/8002903458","properties":{"highway":"crossing"},"geometry":{"type":"Point","coordinates":[103.7766851,1.4491543]}},{"type":"Feature","id":"way/22762774-0-6-0","properties":{"highway":"primary","lanes":"3","maxspeed":"60","name":"Riverside Road","name:en":"Riverside Road","name:zh":"\u6cb3\u8fb9\u8def","oneway":"yes","parking:condition:left:vehicles":"hgv","parking:lane:left":"parallel","source":"Yahoo aerial images","surface":"asphalt","startNodeId":"1868431563","endNodeId":"244325171"},"geometry":{"type":"LineString","coordinates":[[103.7790154,1.4457916],[103.7787625,1.4461069]]}},{"type":"Feature","id":"way/22775167-0-0-0","properties":{"highway":"residential","lanes":"2","lanes:backward":"1","lanes:forward":"1","maxspeed":"50","name":"Marsiling Crescent","parking:condition:left:vehicles":"hgv","parking:lane:left":"parallel","source":"Yahoo aerial images","surface":"asphalt","startNodeId":"5284251107","endNodeId":"7990717049"},"geometry":{"type":"LineString","coordinates":[[103.7753711,1.4487485],[103.7754074,1.4487743]]}},{"type":"Feature","id":"way/22775167-0-1-0","properties":{"highway":"residential","lanes":"2","lanes:backward":"1","lanes:forward":"1","maxspeed":"50","name":"Marsiling Crescent","parking:condition:left:vehicles":"hgv","parking:lane:left":"parallel","source":"Yahoo aerial images","surface":"asphalt","startNodeId":"7990717049","endNodeId":"7990717048"},"geometry":{"type":"LineString","coordinates":[[103.7754074,1.4487743],[103.775437,1.4487953]]}},{"type":"Feature","id":"way/22775167-0-2-0","properties":{"highway":"residential","lanes":"2","lanes:backward":"1","lanes:forward":"1","maxspeed":"50","name":"Marsiling Crescent","parking:condition:left:vehicles":"hgv","parking:lane:left":"parallel","source":"Yahoo aerial images","surface":"asphalt","startNodeId":"7990717048","endNodeId":"4612790389"},"geometry":{"type":"LineString","coordinates":[[103.775437,1.4487953],[103.7754988,1.4488393]]}},{"type":"Feature","id":"way/22775167-0-3-0","properties":{"highway":"residential","lanes":"2","lanes:backward":"1","lanes:forward":"1","maxspeed":"50","name":"Marsiling Crescent","parking:condition:left:vehicles":"hgv","parking:lane:left":"parallel","source":"Yahoo aerial images","surface":"asphalt","startNodeId":"4612790389","endNodeId":"244500517"},"geometry":{"type":"LineString","coordinates":[[103.7754988,1.4488393],[103.7760259,1.4490565]]}},{"type":"Feature","id":"way/22775167-0-4-0","properties":{"highway":"residential","lanes":"2","lanes:backward":"1","lanes:forward":"1","maxspeed":"50","name":"Marsiling Crescent","parking:condition:left:vehicles":"hgv","parking:lane:left":"parallel","source":"Yahoo aerial images","surface":"asphalt","startNodeId":"244500517","endNodeId":"5680785938"},"geometry":{"type":"LineString","coordinates":[[103.7760259,1.4490565],[103.7760657,1.4490693]]}},{"type":"Feature","id":"way/22775168-0-0-0","properties":{"highway":"primary","lanes":"3","maxspeed":"60","name":"Riverside Road","name:en":"Riverside Road","name:zh":"\u6cb3\u8fb9\u8def","oneway":"yes","parking:condition:left:vehicles":"hgv","parking:lane:left":"parallel","source":"Yahoo aerial images","surface":"asphalt","startNodeId":"244500528","endNodeId":"1868431565"},"geometry":{"type":"LineString","coordinates":[[103.7788968,1.4461536],[103.7791019,1.4458534]]}},{"type":"Feature","id":"way/22775170-0-0-0","properties":{"highway":"primary","lanes":"4","maxspeed":"60","name":"Riverside Road","name:en":"Riverside Road","name:zh":"\u6cb3\u8fb9\u8def","oneway":"yes","surface":"asphalt","startNodeId":"244326017","endNodeId":"244325420"},"geometry":{"type":"LineString","coordinates":[[103.7773334,1.4467016],[103.7772148,1.446727]]}},{"type":"Feature","id":"way/22775171-0-0-0","properties":{"highway":"primary","lanes":"3","maxspeed":"60","name":"Riverside Road","name:en":"Riverside Road","name:zh":"\u6cb3\u8fb9\u8def","oneway":"yes","sidewalk:left":"separate","sidewalk:right":"no","surface":"asphalt","startNodeId":"244500595","endNodeId":"244500521"},"geometry":{"type":"LineString","coordinates":[[103.7772415,1.4468772],[103.7773629,1.4468531]]}},{"type":"Feature","id":"way/135852122-0-0-0","properties":{"highway":"service","lanes":"2","lanes:backward":"1","lanes:forward":"1","service":"parking_aisle","turn:lanes:backward":"left;right","turn:lanes:forward":"left","startNodeId":"244500518","endNodeId":"8002903458"},"geometry":{"type":"LineString","coordinates":[[103.7766897,1.449208],[103.7766851,1.4491543]]}},{"type":"Feature","id":"way/135852122-0-1-0","properties":{"highway":"service","lanes":"2","lanes:backward":"1","lanes:forward":"1","service":"parking_aisle","turn:lanes:backward":"left;right","turn:lanes:forward":"left","startNodeId":"8002903458","endNodeId":"1491185138"},"geometry":{"type":"LineString","coordinates":[[103.7766851,1.4491543],[103.7766717,1.4489659]]}},{"type":"Feature","id":"way/135852124-0-0-0","properties":{"highway":"service","lanes":"1","oneway":"yes","parking:condition:both:vehicles":"hgv","parking:lane:both":"perpendicular","service":"parking_aisle","turn:lanes":"through","startNodeId":"1491185136","endNodeId":"way/135852124-0:0:1"},"geometry":{"type":"LineString","coordinates":[[103.7769807,1.4488907],[103.7767209,1.4476289]]}},{"type":"Feature","id":"way/135852124-0-0-1","properties":{"highway":"service","lanes":"1","oneway":"yes","parking:condition:both:vehicles":"hgv","parking:lane:both":"perpendicular","service":"parking_aisle","turn:lanes":"through","startNodeId":"way/135852124-0:0:1","endNodeId":"7001593717"},"geometry":{"type":"LineString","coordinates":[[103.7767209,1.4476289],[103.7764612,1.446367]]}},{"type":"Feature","id":"way/135852129-0-0-0","properties":{"highway":"service","lanes":"1","oneway":"yes","parking:condition:both:vehicles":"hgv","parking:lane:both":"perpendicular","service":"parking_aisle","turn:lanes":"through","startNodeId":"1491185134","endNodeId":"7001593724"},"geometry":{"type":"LineString","coordinates":[[103.7773083,1.4488046],[103.7773155,1.4487883]]}},{"type":"Feature","id":"way/135852129-0-1-0","properties":{"highway":"service","lanes":"1","oneway":"yes","parking:condition:both:vehicles":"hgv","parking:lane:both":"perpendicular","service":"parking_aisle","turn:lanes":"through","startNodeId":"7001593724","endNodeId":"way/135852129-0:1:1"},"geometry":{"type":"LineString","coordinates":[[103.7773155,1.4487883],[103.7770533,1.447528]]}},{"type":"Feature","id":"way/135852129-0-1-1","properties":{"highway":"service","lanes":"1","oneway":"yes","parking:condition:both:vehicles":"hgv","parking:lane:both":"perpendicular","service":"parking_aisle","turn:lanes":"through","startNodeId":"way/135852129-0:1:1","endNodeId":"7001593718"},"geometry":{"type":"LineString","coordinates":[[103.7770533,1.447528],[103.7767911,1.4462678]]}},{"type":"Feature","id":"way/260577414-0-0-0","properties":{"bridge":"yes","highway":"primary","lanes":"2","layer":"1","maxspeed":"60","name":"Admiralty Road","name:en":"Admiralty Road","name:zh":"\u6d77\u519b\u90e8\u8def","oneway":"yes","source":"Yahoo aerial images","surface":"asphalt","startNodeId":"244325423","endNodeId":"244325424"},"geometry":{"type":"LineString","coordinates":[[103.7779715,1.4497434],[103.7780418,1.4498876]]}},{"type":"Feature","id":"way/260577417-0-0-0","properties":{"bridge":"yes","highway":"primary","lanes":"2","layer":"1","maxspeed":"60","name":"Admiralty Road","name:en":"Admiralty Road","name:zh":"\u6d77\u519b\u90e8\u8def","oneway":"yes","source":"Yahoo aerial images","surface":"asphalt","startNodeId":"2661021010","endNodeId":"244326077"},"geometry":{"type":"LineString","coordinates":[[103.7781023,1.4498088],[103.778039,1.449658]]}},{"type":"Feature","id":"way/481117336-0-0-0","properties":{"highway":"primary","lanes":"4","maxspeed":"60","name":"Admiralty Road","name:en":"Admiralty Road","name:zh":"\u6d77\u519b\u90e8\u8def","oneway":"yes","sidewalk:left":"separate","sidewalk:right":"no","source":"Yahoo aerial images","surface":"asphalt","startNodeId":"244500521","endNodeId":"244326017"},"geometry":{"type":"LineString","coordinates":[[103.7773629,1.4468531],[103.7773334,1.4467016]]}},{"type":"Feature","id":"way/481117337-0-0-0","properties":{"highway":"primary","lanes":"3","maxspeed":"60","name":"Admiralty Road","name:en":"Admiralty Road","name:zh":"\u6d77\u519b\u90e8\u8def","oneway":"yes","sidewalk:left":"separate","sidewalk:right":"no","source":"Yahoo aerial images","surface":"asphalt","turn:lanes":"left;through|through|through","startNodeId":"4740622266","endNodeId":"14091134951"},"geometry":{"type":"LineString","coordinates":[[103.7775495,1.4477657],[103.7773924,1.4469975]]}},{"type":"Feature","id":"way/481117337-0-1-0","properties":{"highway":"primary","lanes":"3","maxspeed":"60","name":"Admiralty Road","name:en":"Admiralty Road","name:zh":"\u6d77\u519b\u90e8\u8def","oneway":"yes","sidewalk:left":"separate","sidewalk:right":"no","source":"Yahoo aerial images","surface":"asphalt","turn:lanes":"left;through|through|through","startNodeId":"14091134951","endNodeId":"7990455616"},"geometry":{"type":"LineString","coordinates":[[103.7773924,1.4469975],[103.7773745,1.44691]]}},{"type":"Feature","id":"way/481117337-0-2-0","properties":{"highway":"primary","lanes":"3","maxspeed":"60","name":"Admiralty Road","name:en":"Admiralty Road","name:zh":"\u6d77\u519b\u90e8\u8def","oneway":"yes","sidewalk:left":"separate","sidewalk:right":"no","source":"Yahoo aerial images","surface":"asphalt","turn:lanes":"left;through|through|through","startNodeId":"7990455616","endNodeId":"244500521"},"geometry":{"type":"LineString","coordinates":[[103.7773745,1.44691],[103.7773629,1.4468531]]}},{"type":"Feature","id":"way/481117338-0-0-0","properties":{"highway":"primary","lanes":"2","maxspeed":"60","name":"Admiralty Road","name:en":"Admiralty Road","name:zh":"\u6d77\u519b\u90e8\u8def","oneway":"yes","sidewalk:left":"separate","sidewalk:right":"no","source":"Yahoo aerial images","surface":"asphalt","startNodeId":"244326077","endNodeId":"8964580276"},"geometry":{"type":"LineString","coordinates":[[103.778039,1.449658],[103.7779759,1.4495091]]}},{"type":"Feature","id":"way/481117338-0-1-0","properties":{"highway":"primary","lanes":"2","maxspeed":"60","name":"Admiralty Road","name:en":"Admiralty Road","name:zh":"\u6d77\u519b\u90e8\u8def","oneway":"yes","sidewalk:left":"separate","sidewalk:right":"no","source":"Yahoo aerial images","surface":"asphalt","startNodeId":"8964580276","endNodeId":"2661021005"},"geometry":{"type":"LineString","coordinates":[[103.7779759,1.4495091],[103.7779137,1.4493238]]}},{"type":"Feature","id":"way/481117338-0-2-0","properties":{"highway":"primary","lanes":"2","maxspeed":"60","name":"Admiralty Road","name:en":"Admiralty Road","name:zh":"\u6d77\u519b\u90e8\u8def","oneway":"yes","sidewalk:left":"separate","sidewalk:right":"no","source":"Yahoo aerial images","surface":"asphalt","startNodeId":"2661021005","endNodeId":"244325781"},"geometry":{"type":"LineString","coordinates":[[103.7779137,1.4493238],[103.7778284,1.4490039]]}},{"type":"Feature","id":"way/481117338-0-3-0","properties":{"highway":"primary","lanes":"2","maxspeed":"60","name":"Admiralty Road","name:en":"Admiralty Road","name:zh":"\u6d77\u519b\u90e8\u8def","oneway":"yes","sidewalk:left":"separate","sidewalk:right":"no","source":"Yahoo aerial images","surface":"asphalt","startNodeId":"244325781","endNodeId":"4740622266"},"geometry":{"type":"LineString","coordinates":[[103.7778284,1.4490039],[103.7775495,1.4477657]]}},{"type":"Feature","id":"way/537349473-0-5-0","properties":{"highway":"primary","lanes":"2","maxspeed":"60","name":"Admiralty Road","name:en":"Admiralty Road","name:zh":"\u6d77\u519b\u90e8\u8def","oneway":"yes","sidewalk:left":"separate","sidewalk:right":"no","source":"Yahoo aerial images","surface":"asphalt","startNodeId":"244325700","endNodeId":"8001755775"},"geometry":{"type":"LineString","coordinates":[[103.7782838,1.4501177],[103.7781327,1.4498635]]}},{"type":"Feature","id":"way/537349473-0-6-0","properties":{"highway":"primary","lanes":"2","maxspeed":"60","name":"Admiralty Road","name:en":"Admiralty Road","name:zh":"\u6d77\u519b\u90e8\u8def","oneway":"yes","sidewalk:left":"separate","sidewalk:right":"no","source":"Yahoo aerial images","surface":"asphalt","startNodeId":"8001755775","endNodeId":"2661021010"},"geometry":{"type":"LineString","coordinates":[[103.7781327,1.4498635],[103.7781023,1.4498088]]}},{"type":"Feature","id":"way/537349476-0-0-0","properties":{"highway":"primary","lanes":"3","maxspeed":"60","name":"Admiralty Road","name:en":"Admiralty Road","name:zh":"\u6d77\u519b\u90e8\u8def","oneway":"yes","sidewalk:left":"separate","sidewalk:right":"no","source":"Yahoo aerial images","surface":"asphalt","startNodeId":"244326017","endNodeId":"7990455621"},"geometry":{"type":"LineString","coordinates":[[103.7773334,1.4467016],[103.7773219,1.4466337]]}},{"type":"Feature","id":"way/537349476-0-1-0","properties":{"highway":"primary","lanes":"3","maxspeed":"60","name":"Admiralty Road","name:en":"Admiralty Road","name:zh":"\u6d77\u519b\u90e8\u8def","oneway":"yes","sidewalk:left":"separate","sidewalk:right":"no","source":"Yahoo aerial images","surface":"asphalt","startNodeId":"7990455621","endNodeId":"4740622265"},"geometry":{"type":"LineString","coordinates":[[103.7773219,1.4466337],[103.7772398,1.4461482]]}},{"type":"Feature","id":"way/537349477-0-0-0","properties":{"highway":"primary","lanes":"4","maxspeed":"60","name":"Admiralty Road","name:en":"Admiralty Road","name:zh":"\u6d77\u519b\u90e8\u8def","oneway":"yes","sidewalk:left":"separate","sidewalk:right":"no","source":"Yahoo aerial images","surface":"asphalt","startNodeId":"244325420","endNodeId":"244500595"},"geometry":{"type":"LineString","coordinates":[[103.7772148,1.446727],[103.7772415,1.4468772]]}},{"type":"Feature","id":"way/537349479-0-0-0","properties":{"highway":"primary","lanes":"2","maxspeed":"60","name":"Admiralty Road","name:en":"Admiralty Road","name:zh":"\u6d77\u519b\u90e8\u8def","oneway":"yes","sidewalk:left":"separate","sidewalk:right":"no","source":"Yahoo aerial images","surface":"asphalt","startNodeId":"244500595","endNodeId":"7990455615"},"geometry":{"type":"LineString","coordinates":[[103.7772415,1.4468772],[103.7772517,1.4469309]]}},{"type":"Feature","id":"way/537349479-0-1-0","properties":{"highway":"primary","lanes":"2","maxspeed":"60","name":"Admiralty Road","name:en":"Admiralty Road","name:zh":"\u6d77\u519b\u90e8\u8def","oneway":"yes","sidewalk:left":"separate","sidewalk:right":"no","source":"Yahoo aerial images","surface":"asphalt","startNodeId":"7990455615","endNodeId":"way/537349479-0:1:1"},"geometry":{"type":"LineString","coordinates":[[103.7772517,1.4469309],[103.777494,1.4479701]]}},{"type":"Feature","id":"way/537349479-0-1-1","properties":{"highway":"primary","lanes":"2","maxspeed":"60","name":"Admiralty Road","name:en":"Admiralty Road","name:zh":"\u6d77\u519b\u90e8\u8def","oneway":"yes","sidewalk:left":"separate","sidewalk:right":"no","source":"Yahoo aerial images","surface":"asphalt","startNodeId":"way/537349479-0:1:1","endNodeId":"244325422"},"geometry":{"type":"LineString","coordinates":[[103.777494,1.4479701],[103.7777362,1.4490093]]}},{"type":"Feature","id":"way/537349479-0-2-0","properties":{"highway":"primary","lanes":"2","maxspeed":"60","name":"Admiralty Road","name:en":"Admiralty Road","name:zh":"\u6d77\u519b\u90e8\u8def","oneway":"yes","sidewalk:left":"separate","sidewalk:right":"no","source":"Yahoo aerial images","surface":"asphalt","startNodeId":"244325422","endNodeId":"2661021006"},"geometry":{"type":"LineString","coordinates":[[103.7777362,1.4490093],[103.7778294,1.4493554]]}},{"type":"Feature","id":"way/537349479-0-3-0","properties":{"highway":"primary","lanes":"2","maxspeed":"60","name":"Admiralty Road","name:en":"Admiralty Road","name:zh":"\u6d77\u519b\u90e8\u8def","oneway":"yes","sidewalk:left":"separate","sidewalk:right":"no","source":"Yahoo aerial images","surface":"asphalt","startNodeId":"2661021006","endNodeId":"8964580277"},"geometry":{"type":"LineString","coordinates":[[103.7778294,1.4493554],[103.7778894,1.4495498]]}},{"type":"Feature","id":"way/537349479-0-4-0","properties":{"highway":"primary","lanes":"2","maxspeed":"60","name":"Admiralty Road","name:en":"Admiralty Road","name:zh":"\u6d77\u519b\u90e8\u8def","oneway":"yes","sidewalk:left":"separate","sidewalk:right":"no","source":"Yahoo aerial images","surface":"asphalt","startNodeId":"8964580277","endNodeId":"244325423"},"geometry":{"type":"LineString","coordinates":[[103.7778894,1.4495498],[103.7779715,1.4497434]]}},{"type":"Feature","id":"way/596258778-0-0-0","properties":{"highway":"residential","lanes":"2","maxspeed":"50","name":"Marsiling Lane","oneway":"yes","startNodeId":"5680785991","endNodeId":"5680785992"},"geometry":{"type":"LineString","coordinates":[[103.7746739,1.4457746],[103.7748096,1.4457343]]}},{"type":"Feature","id":"way/635626410-0-0-0","properties":{"highway":"primary","lanes":"3","maxspeed":"60","name":"Admiralty Road","name:en":"Admiralty Road","name:zh":"\u6d77\u519b\u90e8\u8def","oneway":"yes","sidewalk:left":"separate","sidewalk:right":"no","source":"Yahoo aerial images","surface":"asphalt","startNodeId":"5277959573","endNodeId":"6041528856"},"geometry":{"type":"LineString","coordinates":[[103.7769393,1.445659],[103.7769721,1.4458227]]}},{"type":"Feature","id":"way/639262309-0-0-0","properties":{"highway":"residential","lanes":"2","lanes:backward":"1","lanes:forward":"1","maxspeed":"50","name":"Marsiling Crescent","source":"Yahoo aerial images","surface":"asphalt","turn:lanes:backward":"through","turn:lanes:forward":"left","startNodeId":"244500519","endNodeId":"7990470907"},"geometry":{"type":"LineString","coordinates":[[103.777331,1.4490831],[103.7776141,1.4490299]]}},{"type":"Feature","id":"way/639262309-0-1-0","properties":{"highway":"residential","lanes":"2","lanes:backward":"1","lanes:forward":"1","maxspeed":"50","name":"Marsiling Crescent","source":"Yahoo aerial images","surface":"asphalt","turn:lanes:backward":"through","turn:lanes:forward":"left","startNodeId":"7990470907","endNodeId":"244325422"},"geometry":{"type":"LineString","coordinates":[[103.7776141,1.4490299],[103.7777362,1.4490093]]}},{"type":"Feature","id":"way/641127109-0-0-0","properties":{"highway":"primary","lanes":"4","maxspeed":"60","name":"Admiralty Road","name:en":"Admiralty Road","name:zh":"\u6d77\u519b\u90e8\u8def","oneway":"yes","sidewalk:left":"separate","sidewalk:right":"no","source":"Yahoo aerial images","surface":"asphalt","turn:lanes":"through|through|right|right","startNodeId":"6038555305","endNodeId":"7990455622"},"geometry":{"type":"LineString","coordinates":[[103.7770125,1.445994],[103.777202,1.4466619]]}},{"type":"Feature","id":"way/641127109-0-1-0","properties":{"highway":"primary","lanes":"4","maxspeed":"60","name":"Admiralty Road","name:en":"Admiralty Road","name:zh":"\u6d77\u519b\u90e8\u8def","oneway":"yes","sidewalk:left":"separate","sidewalk:right":"no","source":"Yahoo aerial images","surface":"asphalt","turn:lanes":"through|through|right|right","startNodeId":"7990455622","endNodeId":"244325420"},"geometry":{"type":"LineString","coordinates":[[103.777202,1.4466619],[103.7772148,1.446727]]}},{"type":"Feature","id":"way/641550339-0-0-0","properties":{"highway":"primary","lanes":"3","maxspeed":"60","name":"Admiralty Road","name:en":"Admiralty Road","name:zh":"\u6d77\u519b\u90e8\u8def","oneway":"yes","sidewalk:left":"separate","sidewalk:right":"no","source":"Yahoo aerial images","surface":"asphalt","startNodeId":"6041528856","endNodeId":"6038555305"},"geometry":{"type":"LineString","coordinates":[[103.7769721,1.4458227],[103.7770125,1.445994]]}},{"type":"Feature","id":"way/646194142-0-1-0","properties":{"highway":"residential","lanes":"2","lanes:backward":"1","lanes:forward":"1","maxspeed":"50","name":"Marsiling Crescent","parking:condition:left:vehicles":"hgv","parking:lane:left":"parallel","source":"Yahoo aerial images","surface":"asphalt","startNodeId":"244500511","endNodeId":"5680785944"},"geometry":{"type":"LineString","coordinates":[[103.7746794,1.4479156],[103.7747961,1.4480716]]}},{"type":"Feature","id":"way/646200905-0-0-0","properties":{"highway":"residential","lanes":"2","lanes:backward":"1","lanes:forward":"1","maxspeed":"50","name":"Marsiling Crescent","parking:condition:left:vehicles":"hgv","parking:lane:left":"parallel","source":"Yahoo aerial images","surface":"asphalt","startNodeId":"244500518","endNodeId":"244500519"},"geometry":{"type":"LineString","coordinates":[[103.7766897,1.449208],[103.777331,1.4490831]]}},{"type":"Feature","id":"way/646200907-0-0-0","properties":{"highway":"residential","lanes":"2","lanes:backward":"1","lanes:forward":"1","maxspeed":"50","name":"Marsiling Crescent","parking:condition:left:vehicles":"hgv","parking:lane:left":"parallel","source":"Yahoo aerial images","surface":"asphalt","startNodeId":"5680785944","endNodeId":"244500513"},"geometry":{"type":"LineString","coordinates":[[103.7747961,1.4480716],[103.7752252,1.4486449]]}},{"type":"Feature","id":"way/646200907-0-1-0","properties":{"highway":"residential","lanes":"2","lanes:backward":"1","lanes:forward":"1","maxspeed":"50","name":"Marsiling Crescent","parking:condition:left:vehicles":"hgv","parking:lane:left":"parallel","source":"Yahoo aerial images","surface":"asphalt","startNodeId":"244500513","endNodeId":"5284251107"},"geometry":{"type":"LineString","coordinates":[[103.7752252,1.4486449],[103.7753711,1.4487485]]}},{"type":"Feature","id":"way/646200908-0-0-0","properties":{"highway":"residential","lanes":"2","lanes:backward":"1","lanes:forward":"1","maxspeed":"50","name":"Marsiling Crescent","parking:condition:left:vehicles":"hgv","parking:lane:left":"parallel","source":"Yahoo aerial images","surface":"asphalt","startNodeId":"5680785938","endNodeId":"1491185145"},"geometry":{"type":"LineString","coordinates":[[103.7760657,1.4490693],[103.7763517,1.4491611]]}},{"type":"Feature","id":"way/646200908-0-1-0","properties":{"highway":"residential","lanes":"2","lanes:backward":"1","lanes:forward":"1","maxspeed":"50","name":"Marsiling Crescent","parking:condition:left:vehicles":"hgv","parking:lane:left":"parallel","source":"Yahoo aerial images","surface":"asphalt","startNodeId":"1491185145","endNodeId":"244500518"},"geometry":{"type":"LineString","coordinates":[[103.7763517,1.4491611],[103.7766897,1.449208]]}},{"type":"Feature","id":"way/646939862-0-0-0","properties":{"highway":"service","startNodeId":"5277959562","endNodeId":"5680785991"},"geometry":{"type":"LineString","coordinates":[[103.774654,1.4456863],[103.7746739,1.4457746]]}},{"type":"Feature","id":"way/649517187-0-0-0","properties":{"highway":"primary","lanes":"3","maxspeed":"60","name":"Admiralty Road","name:en":"Admiralty Road","name:zh":"\u6d77\u519b\u90e8\u8def","oneway":"yes","sidewalk:left":"separate","sidewalk:right":"no","source":"Yahoo aerial images","surface":"asphalt","turn:lanes":"left;through|through|through","startNodeId":"4740622265","endNodeId":"6095348633"},"geometry":{"type":"LineString","coordinates":[[103.7772398,1.4461482],[103.7770902,1.4455264]]}},{"type":"Feature","id":"way/655227143-0-0-0","properties":{"highway":"primary","lanes":"2","maxspeed":"60","name":"Admiralty Road","name:en":"Admiralty Road","name:zh":"\u6d77\u519b\u90e8\u8def","oneway":"yes","source":"Yahoo aerial images","surface":"asphalt","startNodeId":"244325424","endNodeId":"2661021012"},"geometry":{"type":"LineString","coordinates":[[103.7780418,1.4498876],[103.7782145,1.4501746]]}},{"type":"Feature","id":"way/664945745-0-0-0","properties":{"highway":"primary","lanes":"3","maxspeed":"60","name":"Riverside Road","name:en":"Riverside Road","name:zh":"\u6cb3\u8fb9\u8def","oneway":"yes","source":"Yahoo aerial images","surface":"asphalt","startNodeId":"244325171","endNodeId":"1868431566"},"geometry":{"type":"LineString","coordinates":[[103.7787625,1.4461069],[103.7785528,1.4463052]]}},{"type":"Feature","id":"way/664945747-0-0-0","properties":{"highway":"primary","lanes":"3","maxspeed":"60","name":"Riverside Road","name:en":"Riverside Road","name:zh":"\u6cb3\u8fb9\u8def","oneway":"yes","parking:condition:left:vehicles":"hgv","parking:lane:left":"parallel","source":"Yahoo aerial images","surface":"asphalt","startNodeId":"6223924687","endNodeId":"244500522"},"geometry":{"type":"LineString","coordinates":[[103.7779579,1.4466888],[103.7782958,1.4465933]]}},{"type":"Feature","id":"way/664945747-0-1-0","properties":{"highway":"primary","lanes":"3","maxspeed":"60","name":"Riverside Road","name:en":"Riverside Road","name:zh":"\u6cb3\u8fb9\u8def","oneway":"yes","parking:condition:left:vehicles":"hgv","parking:lane:left":"parallel","source":"Yahoo aerial images","surface":"asphalt","startNodeId":"244500522","endNodeId":"1868431568"},"geometry":{"type":"LineString","coordinates":[[103.7782958,1.4465933],[103.7785952,1.4464199]]}},{"type":"Feature","id":"way/664945747-0-2-0","properties":{"highway":"primary","lanes":"3","maxspeed":"60","name":"Riverside Road","name:en":"Riverside Road","name:zh":"\u6cb3\u8fb9\u8def","oneway":"yes","parking:condition:left:vehicles":"hgv","parking:lane:left":"parallel","source":"Yahoo aerial images","surface":"asphalt","startNodeId":"1868431568","endNodeId":"244500528"},"geometry":{"type":"LineString","coordinates":[[103.7785952,1.4464199],[103.7788968,1.4461536]]}},{"type":"Feature","id":"way/664945748-0-0-0","properties":{"highway":"primary","lanes":"3","maxspeed":"60","name":"Riverside Road","name:en":"Riverside Road","name:zh":"\u6cb3\u8fb9\u8def","oneway":"yes","source":"Yahoo aerial images","surface":"asphalt","startNodeId":"244500521","endNodeId":"7990455618"},"geometry":{"type":"LineString","coordinates":[[103.7773629,1.4468531],[103.7774467,1.4468314]]}},{"type":"Feature","id":"way/664945748-0-1-0","properties":{"highway":"primary","lanes":"3","maxspeed":"60","name":"Riverside Road","name:en":"Riverside Road","name:zh":"\u6cb3\u8fb9\u8def","oneway":"yes","source":"Yahoo aerial images","surface":"asphalt","startNodeId":"7990455618","endNodeId":"6223924687"},"geometry":{"type":"LineString","coordinates":[[103.7774467,1.4468314],[103.7779579,1.4466888]]}},{"type":"Feature","id":"way/664945751-0-0-0","properties":{"highway":"service","lanes":"1","oneway":"yes","parking:condition:left:vehicles":"motorcycle","parking:lane:left":"parallel","service":"parking_aisle","startNodeId":"1491185113","endNodeId":"7001593723"},"geometry":{"type":"LineString","coordinates":[[103.7767315,1.4460584],[103.7766969,1.446051]]}},{"type":"Feature","id":"way/664945751-0-1-0","properties":{"highway":"service","lanes":"1","oneway":"yes","parking:condition:left:vehicles":"motorcycle","parking:lane:left":"parallel","service":"parking_aisle","startNodeId":"7001593723","endNodeId":"6224016625"},"geometry":{"type":"LineString","coordinates":[[103.7766969,1.446051],[103.7766315,1.4460633]]}},{"type":"Feature","id":"way/664945752-0-0-0","properties":{"highway":"service","lanes":"1","oneway":"yes","parking:condition:left:vehicles":"hgv","parking:lane:left":"perpendicular","service":"parking_aisle","startNodeId":"1491185136","endNodeId":"6231957469"},"geometry":{"type":"LineString","coordinates":[[103.7769807,1.4488907],[103.777172,1.4488439]]}},{"type":"Feature","id":"way/664945753-0-0-0","properties":{"highway":"service","lanes":"1","oneway":"yes","parking:condition:left:vehicles":"motorcycle","parking:lane:left":"parallel","service":"parking_aisle","startNodeId":"1491185138","endNodeId":"6231957468"},"geometry":{"type":"LineString","coordinates":[[103.7766717,1.4489659],[103.7768186,1.4489318]]}},{"type":"Feature","id":"way/664945754-0-0-0","properties":{"highway":"service","lanes":"1","oneway":"yes","parking:condition:both:vehicles":"hgv","parking:lane:both":"perpendicular","service":"parking_aisle","turn:lanes":"through","startNodeId":"1491185117","endNodeId":"way/664945754-0:0:1"},"geometry":{"type":"LineString","coordinates":[[103.7760737,1.4462385],[103.7763452,1.4474705]]}},{"type":"Feature","id":"way/664945754-0-0-1","properties":{"highway":"service","lanes":"1","oneway":"yes","parking:condition:both:vehicles":"hgv","parking:lane:both":"perpendicular","service":"parking_aisle","turn:lanes":"through","startNodeId":"way/664945754-0:0:1","endNodeId":"7001593720"},"geometry":{"type":"LineString","coordinates":[[103.7763452,1.4474705],[103.7766167,1.4487025]]}},{"type":"Feature","id":"way/664945755-0-0-0","properties":{"highway":"service","lanes":"1","oneway":"yes","parking:condition:left:vehicles":"hgv","parking:lane:left":"perpendicular","service":"parking_aisle","startNodeId":"1491185115","endNodeId":"7001593719"},"geometry":{"type":"LineString","coordinates":[[103.7764064,1.4461218],[103.7762453,1.4461566]]}},{"type":"Feature","id":"way/664956640-0-0-0","properties":{"highway":"service","lanes":"1","oneway":"yes","parking:condition:left:vehicles":"motorcycle","parking:condition:right:vehicles":"hgv_articulated","parking:lane:left":"parallel","parking:lane:right":"perpendicular","service":"parking_aisle","turn:lanes":"through;right","startNodeId":"6224016624","endNodeId":"1491185138"},"geometry":{"type":"LineString","coordinates":[[103.776657,1.4489023],[103.7766717,1.4489659]]}},{"type":"Feature","id":"way/664956641-0-0-0","properties":{"highway":"service","lanes":"1","oneway":"yes","parking:condition:left:vehicles":"hgv","parking:lane:left":"perpendicular","service":"parking_aisle","turn:lanes":"through","startNodeId":"6224016625","endNodeId":"1491185115"},"geometry":{"type":"LineString","coordinates":[[103.7766315,1.4460633],[103.7764064,1.4461218]]}},{"type":"Feature","id":"way/664956642-0-0-0","properties":{"highway":"service","lanes":"1","oneway":"yes","parking:condition:left:vehicles":"motorcycle","parking:lane:left":"parallel","service":"parking_aisle","startNodeId":"6224016626","endNodeId":"7001593721"},"geometry":{"type":"LineString","coordinates":[[103.7761098,1.4461861],[103.776077,1.4462042]]}},{"type":"Feature","id":"way/664956642-0-1-0","properties":{"highway":"service","lanes":"1","oneway":"yes","parking:condition:left:vehicles":"motorcycle","parking:lane:left":"parallel","service":"parking_aisle","startNodeId":"7001593721","endNodeId":"1491185117"},"geometry":{"type":"LineString","coordinates":[[103.776077,1.4462042],[103.7760737,1.4462385]]}},{"type":"Feature","id":"way/665773566-0-0-0","properties":{"highway":"service","lanes":"1","oneway":"yes","parking:condition:left:vehicles":"motorcycle","parking:lane:left":"perpendicular","service":"parking_aisle","turn:lanes":"right","startNodeId":"6231957469","endNodeId":"7001593725"},"geometry":{"type":"LineString","coordinates":[[103.777172,1.4488439],[103.7772913,1.4488161]]}},{"type":"Feature","id":"way/665773566-0-1-0","properties":{"highway":"service","lanes":"1","oneway":"yes","parking:condition:left:vehicles":"motorcycle","parking:lane:left":"perpendicular","service":"parking_aisle","turn:lanes":"right","startNodeId":"7001593725","endNodeId":"1491185134"},"geometry":{"type":"LineString","coordinates":[[103.7772913,1.4488161],[103.7773083,1.4488046]]}},{"type":"Feature","id":"way/665773567-0-0-0","properties":{"highway":"service","lanes":"1","oneway":"yes","parking:condition:left:vehicles":"hgv","parking:lane:left":"parallel","service":"parking_aisle","turn:lanes":"through;right","startNodeId":"6231957468","endNodeId":"1491185136"},"geometry":{"type":"LineString","coordinates":[[103.7768186,1.4489318],[103.7769807,1.4488907]]}},{"type":"Feature","id":"way/676964385-0-0-0","properties":{"highway":"service","lanes":"1","oneway":"yes","turn:lanes":"through","startNodeId":"5277959571","endNodeId":"5277959572"},"geometry":{"type":"LineString","coordinates":[[103.7767448,1.4457052],[103.7764827,1.4457704]]}},{"type":"Feature","id":"way/676964385-0-1-0","properties":{"highway":"service","lanes":"1","oneway":"yes","turn:lanes":"through","startNodeId":"5277959572","endNodeId":"6339122825"},"geometry":{"type":"LineString","coordinates":[[103.7764827,1.4457704],[103.7764491,1.4457745]]}},{"type":"Feature","id":"way/676964386-0-0-0","properties":{"highway":"service","lanes":"1","oneway":"yes","turn:lanes":"left;through","startNodeId":"6339122817","endNodeId":"5277959571"},"geometry":{"type":"LineString","coordinates":[[103.7768085,1.44569],[103.7767448,1.4457052]]}},{"type":"Feature","id":"way/709876254-0-0-0","properties":{"highway":"primary","lanes":"3","maxspeed":"60","name":"Riverside Road","name:en":"Riverside Road","name:zh":"\u6cb3\u8fb9\u8def","oneway":"yes","source":"Yahoo aerial images","surface":"asphalt","turn:lanes":"left|left|right","startNodeId":"1868431566","endNodeId":"244325169"},"geometry":{"type":"LineString","coordinates":[[103.7785528,1.4463052],[103.7782304,1.4464904]]}},{"type":"Feature","id":"way/709876255-0-0-0","properties":{"highway":"primary","lanes":"4","maxspeed":"60","name":"Riverside Road","name:en":"Riverside Road","name:zh":"\u6cb3\u8fb9\u8def","oneway":"yes","source":"Yahoo aerial images","surface":"asphalt","turn:lanes":"left|left|right|right","startNodeId":"244325169","endNodeId":"7990455619"},"geometry":{"type":"LineString","coordinates":[[103.7782304,1.4464904],[103.7774119,1.4466844]]}},{"type":"Feature","id":"way/709876255-0-1-0","properties":{"highway":"primary","lanes":"4","maxspeed":"60","name":"Riverside Road","name:en":"Riverside Road","name:zh":"\u6cb3\u8fb9\u8def","oneway":"yes","source":"Yahoo aerial images","surface":"asphalt","turn:lanes":"left|left|right|right","startNodeId":"7990455619","endNodeId":"244326017"},"geometry":{"type":"LineString","coordinates":[[103.7774119,1.4466844],[103.7773334,1.4467016]]}},{"type":"Feature","id":"way/748676991-0-0-0","properties":{"highway":"service","lanes":"1","oneway":"yes","parking:condition:both:vehicles":"hgv","parking:lane:both":"perpendicular","service":"parking_aisle","turn:lanes":"right","startNodeId":"7001593717","endNodeId":"1491185115"},"geometry":{"type":"LineString","coordinates":[[103.7764612,1.446367],[103.7764064,1.4461218]]}},{"type":"Feature","id":"way/748676992-0-0-0","properties":{"highway":"service","lanes":"1","oneway":"yes","parking:condition:both:vehicles":"hgv","parking:lane:both":"perpendicular","service":"parking_aisle","turn:lanes":"right","startNodeId":"7001593718","endNodeId":"7001593722"},"geometry":{"type":"LineString","coordinates":[[103.7767911,1.4462678],[103.7767509,1.4460855]]}},{"type":"Feature","id":"way/748676992-0-1-0","properties":{"highway":"service","lanes":"1","oneway":"yes","parking:condition:both:vehicles":"hgv","parking:lane:both":"perpendicular","service":"parking_aisle","turn:lanes":"right","startNodeId":"7001593722","endNodeId":"1491185113"},"geometry":{"type":"LineString","coordinates":[[103.7767509,1.4460855],[103.7767315,1.4460584]]}},{"type":"Feature","id":"way/748676993-0-0-0","properties":{"highway":"service","lanes":"1","oneway":"yes","parking:condition:left:vehicles":"hgv","parking:lane:left":"perpendicular","service":"parking_aisle","turn:lanes":"right","startNodeId":"7001593719","endNodeId":"6224016626"},"geometry":{"type":"LineString","coordinates":[[103.7762453,1.4461566],[103.7761098,1.4461861]]}},{"type":"Feature","id":"way/748676994-0-0-0","properties":{"highway":"service","lanes":"1","oneway":"yes","parking:condition:both:vehicles":"hgv","parking:lane:both":"perpendicular","service":"parking_aisle","turn:lanes":"through;right","startNodeId":"7001593720","endNodeId":"6224016624"},"geometry":{"type":"LineString","coordinates":[[103.7766167,1.4487025],[103.776657,1.4489023]]}}]}