{"type":"FeatureCollection","features":[{"type":"Feature","id":"way/453236036-0","properties":{"building":"yes"},"geometry":{"type":"Polygon","coordinates":[[[103.7788784,1.4086095],[103.7789424,1.4084885],[103.7788065,1.4084168],[103.7787425,1.4085378],[103.7788784,1.4086095]]]}},{"type":"Feature","id":"way/453501377-0","properties":{"building":"yes"},"geometry":{"type":"Polygon","coordinates":[[[103.7749556,1.4076306],[103.7750173,1.4076306],[103.7750173,1.4075529],[103.7749556,1.4075529],[103.7749556,1.4076306]]]}},{"type":"Feature","id":"way/453501378-0","properties":{"building":"yes"},"geometry":{"type":"Polygon","coordinates":[[[103.7750602,1.4070595],[103.7751729,1.4070595],[103.7751729,1.4069576],[103.7750602,1.4069576],[103.7750602,1.4070595]]]}},{"type":"Feature","id":"way/453501379-0","properties":{"building":"yes"},"geometry":{"type":"Polygon","coordinates":[[[103.7750468,1.4075904],[103.7751649,1.4075904],[103.7751649,1.4074778],[103.7750468,1.4074778],[103.7750468,1.4075904]]]}},{"type":"Feature","id":"way/453501381-0","properties":{"building":"yes"},"geometry":{"type":"Polygon","coordinates":[[[103.7753495,1.4086717],[103.7755345,1.408677],[103.7755377,1.4085691],[103.7753526,1.4085637],[103.7753495,1.4086717]]]}},{"type":"Feature","id":"way/453501382-0","properties":{"building":"yes"},"geometry":{"type":"Polygon","coordinates":[[[103.7749945,1.4087168],[103.7751715,1.4087195],[103.7751729,1.4086281],[103.7749959,1.4086254],[103.7749945,1.4087168]]]}},{"type":"Feature","id":"way/453501383-0","properties":{"building":"yes"},"geometry":{"type":"Polygon","coordinates":[[[103.7749235,1.40836],[103.7749258,1.4084859],[103.775355,1.4084779],[103.7753526,1.4083519],[103.7749235,1.40836]]]}},{"type":"Feature","id":"way/453501384-0","properties":{"building":"yes"},"geometry":{"type":"Polygon","coordinates":[[[103.774894,1.4081846],[103.775562,1.4081841],[103.7755616,1.4077483],[103.7748993,1.4077489],[103.7748994,1.4078829],[103.7754974,1.4078824],[103.7754975,1.4080406],[103.7748939,1.4080411],[103.774894,1.4081846]]]}},{"type":"Feature","id":"way/453501394-0","properties":{"building":"yes"},"geometry":{"type":"Polygon","coordinates":[[[103.7747233,1.4099283],[103.7747222,1.4098109],[103.7747208,1.4096668],[103.775077,1.4096635],[103.7750756,1.4095181],[103.7745705,1.4095229],[103.774573,1.4097964],[103.7745744,1.4099297],[103.7747233,1.4099283]]]}},{"type":"Feature","id":"way/453501395-0","properties":{"building":"yes"},"geometry":{"type":"Polygon","coordinates":[[[103.7750931,1.4095018],[103.775092,1.4096541],[103.7752021,1.4096549],[103.7752032,1.4095026],[103.7750931,1.4095018]]]}},{"type":"Feature","id":"way/691124131-0-0-0","properties":{"highway":"service"},"geometry":{"type":"LineString","coordinates":[[103.7748191,1.4073472],[103.7748193,1.4072189]]}},{"type":"Feature","id":"way/691124132-0-0-0","properties":{"highway":"service","oneway":"yes"},"geometry":{"type":"LineString","coordinates":[[103.7748193,1.4072189],[103.7748143,1.4069562]]}},{"type":"Feature","id":"way/691124132-0-1-0","properties":{"highway":"service","oneway":"yes"},"geometry":{"type":"LineString","coordinates":[[103.7748143,1.4069562],[103.7747835,1.4069052]]}},{"type":"Feature","id":"way/691124132-0-2-0","properties":{"highway":"service","oneway":"yes"},"geometry":{"type":"LineString","coordinates":[[103.7747835,1.4069052],[103.7747245,1.4068824]]}},{"type":"Feature","id":"way/691124133-0-0-0","properties":{"highway":"service"},"geometry":{"type":"LineString","coordinates":[[103.7754419,1.4073369],[103.7748191,1.4073472]]}}]}