{"type":"FeatureCollection","features":[{"type":"Feature","id":"way/75351818-0-0-0","properties":{"highway":"motorway","lanes":"3","maxspeed":"90","name":"Bukit Timah Expressway","name:ms":"Lebuhraya Bukit Timah","name:ta":"\u0baa\u0bc1\u0b95\u0bcd\u0b95\u0bbf\u0b9f\u0bcd \u0ba4\u0bc0\u0bae\u0bbe \u0bb5\u0bbf\u0bb0\u0bc8\u0bb5\u0bc1\u0b9a\u0bcd\u0b9a\u0bbe\u0bb2\u0bc8","name:zh":"\u6b66\u5409\u77e5\u9a6c\u9ad8\u901f\u516c\u8def","oneway":"yes","ref":"BKE","ref:ta":"\u0baa\u0bbf\u0b95\u0bc7\u0b87","short_name:ta":"\u0baa\u0bbf\u0b95\u0bc7\u0b87","surface":"asphalt","turn:lanes":"through|through|through","wikidata":"Q1003271","wikipedia":"en:Bukit Timah Expressway","startNodeId":"158014842","endNodeId":"158016050"},"geometry":{"type":"LineString","coordinates":[[103.7749081,1.3860773],[103.7747807,1.3872416]]}},{"type":"Feature","id":"way/115843654-0-2-0","properties":{"highway":"motorway","lanes":"3","maxspeed":"90","name":"Bukit Timah Expressway","name:ms":"Lebuhraya Bukit Timah","name:ta":"\u0baa\u0bc1\u0b95\u0bcd\u0b95\u0bbf\u0b9f\u0bcd \u0ba4\u0bc0\u0bae\u0bbe \u0bb5\u0bbf\u0bb0\u0bc8\u0bb5\u0bc1\u0b9a\u0bcd\u0b9a\u0bbe\u0bb2\u0bc8","name:zh":"\u6b66\u5409\u77e5\u9a6c\u9ad8\u901f\u516c\u8def","oneway":"yes","ref":"BKE","ref:ta":"\u0baa\u0bbf\u0b95\u0bc7\u0b87","short_name:ta":"\u0baa\u0bbf\u0b95\u0bc7\u0b87","surface":"asphalt","wikidata":"Q1003271","wikipedia":"en:Bukit Timah Expressway","startNodeId":"158003445","endNodeId":"158003468"},"geometry":{"type":"LineString","coordinates":[[103.7749174,1.3872915],[103.7751021,1.3859554]]}},{"type":"Feature","id":"way/115843654-0-3-0","properties":{"highway":"motorway","lanes":"3","maxspeed":"90","name":"Bukit Timah Expressway","name:ms":"Lebuhraya Bukit Timah","name:ta":"\u0baa\u0bc1\u0b95\u0bcd\u0b95\u0bbf\u0b9f\u0bcd \u0ba4\u0bc0\u0bae\u0bbe \u0bb5\u0bbf\u0bb0\u0bc8\u0bb5\u0bc1\u0b9a\u0bcd\u0b9a\u0bbe\u0bb2\u0bc8","name:zh":"\u6b66\u5409\u77e5\u9a6c\u9ad8\u901f\u516c\u8def","oneway":"yes","ref":"BKE","ref:ta":"\u0baa\u0bbf\u0b95\u0bc7\u0b87","short_name:ta":"\u0baa\u0bbf\u0b95\u0bc7\u0b87","surface":"asphalt","wikidata":"Q1003271","wikipedia":"en:Bukit Timah Expressway","startNodeId":"158003468","endNodeId":"158003471"},"geometry":{"type":"LineString","coordinates":[[103.7751021,1.3859554],[103.7751801,1.3851069]]}},{"type":"Feature","id":"way/115843654-0-4-0","properties":{"highway":"motorway","lanes":"3","maxspeed":"90","name":"Bukit Timah Expressway","name:ms":"Lebuhraya Bukit Timah","name:ta":"\u0baa\u0bc1\u0b95\u0bcd\u0b95\u0bbf\u0b9f\u0bcd \u0ba4\u0bc0\u0bae\u0bbe \u0bb5\u0bbf\u0bb0\u0bc8\u0bb5\u0bc1\u0b9a\u0bcd\u0b9a\u0bbe\u0bb2\u0bc8","name:zh":"\u6b66\u5409\u77e5\u9a6c\u9ad8\u901f\u516c\u8def","oneway":"yes","ref":"BKE","ref:ta":"\u0baa\u0bbf\u0b95\u0bc7\u0b87","short_name:ta":"\u0baa\u0bbf\u0b95\u0bc7\u0b87","surface":"asphalt","wikidata":"Q1003271","wikipedia":"en:Bukit Timah Expressway","startNodeId":"158003471","endNodeId":"6039413449"},"geometry":{"type":"LineString","coordinates":[[103.7751801,1.3851069],[103.7752157,1.3848203]]}},{"type":"Feature","id":"way/632162132-0-1-0","properties":{"highway":"motorway","lanes":"3","maxspeed":"90","name":"Bukit Timah Expressway","name:ms":"Lebuhraya Bukit Timah","name:ta":"\u0baa\u0bc1\u0b95\u0bcd\u0b95\u0bbf\u0b9f\u0bcd \u0ba4\u0bc0\u0bae\u0bbe \u0bb5\u0bbf\u0bb0\u0bc8\u0bb5\u0bc1\u0b9a\u0bcd\u0b9a\u0bbe\u0bb2\u0bc8","name:zh":"\u6b66\u5409\u77e5\u9a6c\u9ad8\u901f\u516c\u8def","oneway":"yes","ref":"BKE","ref:ta":"\u0baa\u0bbf\u0b95\u0bc7\u0b87","short_name:ta":"\u0baa\u0bbf\u0b95\u0bc7\u0b87","surface":"asphalt","wikidata":"Q1003271","wikipedia":"en:Bukit Timah Expressway","startNodeId":"13991754350","endNodeId":"158016335"},"geometry":{"type":"LineString","coordinates":[[103.7753468,1.3827503],[103.7753173,1.3829306]]}},{"type":"Feature","id":"way/632162132-0-2-0","properties":{"highway":"motorway","lanes":"3","maxspeed":"90","name":"Bukit Timah Expressway","name:ms":"Lebuhraya Bukit Timah","name:ta":"\u0baa\u0bc1\u0b95\u0bcd\u0b95\u0bbf\u0b9f\u0bcd \u0ba4\u0bc0\u0bae\u0bbe \u0bb5\u0bbf\u0bb0\u0bc8\u0bb5\u0bc1\u0b9a\u0bcd\u0b9a\u0bbe\u0bb2\u0bc8","name:zh":"\u6b66\u5409\u77e5\u9a6c\u9ad8\u901f\u516c\u8def","oneway":"yes","ref":"BKE","ref:ta":"\u0baa\u0bbf\u0b95\u0bc7\u0b87","short_name:ta":"\u0baa\u0bbf\u0b95\u0bc7\u0b87","surface":"asphalt","wikidata":"Q1003271","wikipedia":"en:Bukit Timah Expressway","startNodeId":"158016335","endNodeId":"way/632162132-0:2:1"},"geometry":{"type":"LineString","coordinates":[[103.7753173,1.3829306],[103.77517,1.3840533]]}},{"type":"Feature","id":"way/632162132-0-2-1","properties":{"highway":"motorway","lanes":"3","maxspeed":"90","name":"Bukit Timah Expressway","name:ms":"Lebuhraya Bukit Timah","name:ta":"\u0baa\u0bc1\u0b95\u0bcd\u0b95\u0bbf\u0b9f\u0bcd \u0ba4\u0bc0\u0bae\u0bbe \u0bb5\u0bbf\u0bb0\u0bc8\u0bb5\u0bc1\u0b9a\u0bcd\u0b9a\u0bbe\u0bb2\u0bc8","name:zh":"\u6b66\u5409\u77e5\u9a6c\u9ad8\u901f\u516c\u8def","oneway":"yes","ref":"BKE","ref:ta":"\u0baa\u0bbf\u0b95\u0bc7\u0b87","short_name:ta":"\u0baa\u0bbf\u0b95\u0bc7\u0b87","surface":"asphalt","wikidata":"Q1003271","wikipedia":"en:Bukit Timah Expressway","startNodeId":"way/632162132-0:2:1","endNodeId":"158015721"},"geometry":{"type":"LineString","coordinates":[[103.77517,1.3840533],[103.7750228,1.385176]]}},{"type":"Feature","id":"way/641243939-0-0-0","properties":{"highway":"motorway","lanes":"3","maxspeed":"90","name":"Bukit Timah Expressway","name:ms":"Lebuhraya Bukit Timah","name:ta":"\u0baa\u0bc1\u0b95\u0bcd\u0b95\u0bbf\u0b9f\u0bcd \u0ba4\u0bc0\u0bae\u0bbe \u0bb5\u0bbf\u0bb0\u0bc8\u0bb5\u0bc1\u0b9a\u0bcd\u0b9a\u0bbe\u0bb2\u0bc8","name:zh":"\u6b66\u5409\u77e5\u9a6c\u9ad8\u901f\u516c\u8def","oneway":"yes","ref":"BKE","ref:ta":"\u0baa\u0bbf\u0b95\u0bc7\u0b87","short_name:ta":"\u0baa\u0bbf\u0b95\u0bc7\u0b87","surface":"asphalt","wikidata":"Q1003271","wikipedia":"en:Bukit Timah Expressway","startNodeId":"6039413449","endNodeId":"158003493"},"geometry":{"type":"LineString","coordinates":[[103.7752157,1.3848203],[103.7753292,1.3839053]]}},{"type":"Feature","id":"way/641243939-0-1-0","properties":{"highway":"motorway","lanes":"3","maxspeed":"90","name":"Bukit Timah Expressway","name:ms":"Lebuhraya Bukit Timah","name:ta":"\u0baa\u0bc1\u0b95\u0bcd\u0b95\u0bbf\u0b9f\u0bcd \u0ba4\u0bc0\u0bae\u0bbe \u0bb5\u0bbf\u0bb0\u0bc8\u0bb5\u0bc1\u0b9a\u0bcd\u0b9a\u0bbe\u0bb2\u0bc8","name:zh":"\u6b66\u5409\u77e5\u9a6c\u9ad8\u901f\u516c\u8def","oneway":"yes","ref":"BKE","ref:ta":"\u0baa\u0bbf\u0b95\u0bc7\u0b87","short_name:ta":"\u0baa\u0bbf\u0b95\u0bc7\u0b87","surface":"asphalt","wikidata":"Q1003271","wikipedia":"en:Bukit Timah Expressway","startNodeId":"158003493","endNodeId":"158003507"},"geometry":{"type":"LineString","coordinates":[[103.7753292,1.3839053],[103.775452,1.3829712]]}},{"type":"Feature","id":"way/641243939-0-2-0","properties":{"highway":"motorway","lanes":"3","maxspeed":"90","name":"Bukit Timah Expressway","name:ms":"Lebuhraya Bukit Timah","name:ta":"\u0baa\u0bc1\u0b95\u0bcd\u0b95\u0bbf\u0b9f\u0bcd \u0ba4\u0bc0\u0bae\u0bbe \u0bb5\u0bbf\u0bb0\u0bc8\u0bb5\u0bc1\u0b9a\u0bcd\u0b9a\u0bbe\u0bb2\u0bc8","name:zh":"\u6b66\u5409\u77e5\u9a6c\u9ad8\u901f\u516c\u8def","oneway":"yes","ref":"BKE","ref:ta":"\u0baa\u0bbf\u0b95\u0bc7\u0b87","short_name:ta":"\u0baa\u0bbf\u0b95\u0bc7\u0b87","surface":"asphalt","wikidata":"Q1003271","wikipedia":"en:Bukit Timah Expressway","startNodeId":"158003507","endNodeId":"13991703683"},"geometry":{"type":"LineString","coordinates":[[103.775452,1.3829712],[103.7754904,1.3827354]]}},{"type":"Feature","id":"way/641243942-0-0-0","properties":{"highway":"motorway","lanes":"4","maxspeed":"90","name":"Bukit Timah Expressway","name:ms":"Lebuhraya Bukit Timah","name:ta":"\u0baa\u0bc1\u0b95\u0bcd\u0b95\u0bbf\u0b9f\u0bcd \u0ba4\u0bc0\u0bae\u0bbe \u0bb5\u0bbf\u0bb0\u0bc8\u0bb5\u0bc1\u0b9a\u0bcd\u0b9a\u0bbe\u0bb2\u0bc8","name:zh":"\u6b66\u5409\u77e5\u9a6c\u9ad8\u901f\u516c\u8def","oneway":"yes","ref":"BKE","ref:ta":"\u0baa\u0bbf\u0b95\u0bc7\u0b87","short_name:ta":"\u0baa\u0bbf\u0b95\u0bc7\u0b87","surface":"asphalt","turn:lanes":"left|through|through|through","wikidata":"Q1003271","wikipedia":"en:Bukit Timah Expressway","startNodeId":"6039413450","endNodeId":"158014842"},"geometry":{"type":"LineString","coordinates":[[103.774922,1.3859719],[103.7749081,1.3860773]]}},{"type":"Feature","id":"way/696904086-0-0-0","properties":{"highway":"motorway","lanes":"3","maxspeed":"90","name":"Bukit Timah Expressway","name:ms":"Lebuhraya Bukit Timah","name:ta":"\u0baa\u0bc1\u0b95\u0bcd\u0b95\u0bbf\u0b9f\u0bcd \u0ba4\u0bc0\u0bae\u0bbe \u0bb5\u0bbf\u0bb0\u0bc8\u0bb5\u0bc1\u0b9a\u0bcd\u0b9a\u0bbe\u0bb2\u0bc8","name:zh":"\u6b66\u5409\u77e5\u9a6c\u9ad8\u901f\u516c\u8def","oneway":"yes","ref":"BKE","ref:ta":"\u0baa\u0bbf\u0b95\u0bc7\u0b87","short_name:ta":"\u0baa\u0bbf\u0b95\u0bc7\u0b87","surface":"asphalt","turn:lanes":"left;through|through|through","wikidata":"Q1003271","wikipedia":"en:Bukit Timah Expressway","startNodeId":"158015721","endNodeId":"6039413450"},"geometry":{"type":"LineString","coordinates":[[103.7750228,1.385176],[103.774922,1.3859719]]}},{"type":"Feature","id":"way/809905255-0-0-0","properties":{"destination:ref":"KJE","destination:ref:to":"PIE","highway":"motorway_link","lanes":"1","maxspeed":"50","oneway":"yes","surface":"asphalt","startNodeId":"158014842","endNodeId":"5145650421"},"geometry":{"type":"LineString","coordinates":[[103.7749081,1.3860773],[103.774795,1.3864319]]}},{"type":"Feature","id":"way/809905255-0-1-0","properties":{"destination:ref":"KJE","destination:ref:to":"PIE","highway":"motorway_link","lanes":"1","maxspeed":"50","oneway":"yes","surface":"asphalt","startNodeId":"5145650421","endNodeId":"158066754"},"geometry":{"type":"LineString","coordinates":[[103.774795,1.3864319],[103.7747296,1.3867515]]}},{"type":"Feature","id":"way/809905255-0-2-0","properties":{"destination:ref":"KJE","destination:ref:to":"PIE","highway":"motorway_link","lanes":"1","maxspeed":"50","oneway":"yes","surface":"asphalt","startNodeId":"158066754","endNodeId":"158066774"},"geometry":{"type":"LineString","coordinates":[[103.7747296,1.3867515],[103.7745566,1.3876331]]}}]}