{"type":"FeatureCollection","features":[{"type":"Feature","id":"way/15772713-0-8-0","properties":{"destination":"Tuas","destination:ref":"KJE","destination:ref:to":"PIE","highway":"motorway_link","lanes":"2","maxspeed":"50","oneway":"yes","surface":"asphalt","startNodeId":"158042745","endNodeId":"158042771"},"geometry":{"type":"LineString","coordinates":[[103.7746487,1.3936638],[103.7749378,1.3934196]]}},{"type":"Feature","id":"way/15772713-0-9-0","properties":{"destination":"Tuas","destination:ref":"KJE","destination:ref:to":"PIE","highway":"motorway_link","lanes":"2","maxspeed":"50","oneway":"yes","surface":"asphalt","startNodeId":"158042771","endNodeId":"158042797"},"geometry":{"type":"LineString","coordinates":[[103.7749378,1.3934196],[103.7751276,1.3932689]]}},{"type":"Feature","id":"way/15772713-0-10-0","properties":{"destination":"Tuas","destination:ref":"KJE","destination:ref:to":"PIE","highway":"motorway_link","lanes":"2","maxspeed":"50","oneway":"yes","surface":"asphalt","startNodeId":"158042797","endNodeId":"158042825"},"geometry":{"type":"LineString","coordinates":[[103.7751276,1.3932689],[103.7756058,1.392906]]}},{"type":"Feature","id":"way/15772713-0-11-0","properties":{"destination":"Tuas","destination:ref":"KJE","destination:ref:to":"PIE","highway":"motorway_link","lanes":"2","maxspeed":"50","oneway":"yes","surface":"asphalt","startNodeId":"158042825","endNodeId":"158042862"},"geometry":{"type":"LineString","coordinates":[[103.7756058,1.392906],[103.7758523,1.3926629]]}},{"type":"Feature","id":"way/15772713-0-12-0","properties":{"destination":"Tuas","destination:ref":"KJE","destination:ref:to":"PIE","highway":"motorway_link","lanes":"2","maxspeed":"50","oneway":"yes","surface":"asphalt","startNodeId":"158042862","endNodeId":"158042899"},"geometry":{"type":"LineString","coordinates":[[103.7758523,1.3926629],[103.7759918,1.3924551]]}},{"type":"Feature","id":"way/15772713-0-13-0","properties":{"destination":"Tuas","destination:ref":"KJE","destination:ref:to":"PIE","highway":"motorway_link","lanes":"2","maxspeed":"50","oneway":"yes","surface":"asphalt","startNodeId":"158042899","endNodeId":"158042920"},"geometry":{"type":"LineString","coordinates":[[103.7759918,1.3924551],[103.7760924,1.3922339]]}},{"type":"Feature","id":"way/15772713-0-14-0","properties":{"destination":"Tuas","destination:ref":"KJE","destination:ref:to":"PIE","highway":"motorway_link","lanes":"2","maxspeed":"50","oneway":"yes","surface":"asphalt","startNodeId":"158042920","endNodeId":"7572124727"},"geometry":{"type":"LineString","coordinates":[[103.7760924,1.3922339],[103.7761346,1.3920911]]}},{"type":"Feature","id":"way/15772713-0-15-0","properties":{"destination":"Tuas","destination:ref":"KJE","destination:ref:to":"PIE","highway":"motorway_link","lanes":"2","maxspeed":"50","oneway":"yes","surface":"asphalt","startNodeId":"7572124727","endNodeId":"158042944"},"geometry":{"type":"LineString","coordinates":[[103.7761346,1.3920911],[103.7761635,1.391947]]}},{"type":"Feature","id":"way/15772713-0-16-0","properties":{"destination":"Tuas","destination:ref":"KJE","destination:ref:to":"PIE","highway":"motorway_link","lanes":"2","maxspeed":"50","oneway":"yes","surface":"asphalt","startNodeId":"158042944","endNodeId":"7572124728"},"geometry":{"type":"LineString","coordinates":[[103.7761635,1.391947],[103.7761829,1.3918082]]}},{"type":"Feature","id":"way/262190479-0-11-0","properties":{"destination":"City","destination:ref":"BKE","destination:ref:to":"PIE","highway":"motorway_link","lanes":"2","maxspeed":"50","oneway":"yes","surface":"asphalt","startNodeId":"158053061","endNodeId":"7572124726"},"geometry":{"type":"LineString","coordinates":[[103.7760052,1.3918116],[103.7759737,1.3919135]]}},{"type":"Feature","id":"way/262190479-0-12-0","properties":{"destination":"City","destination:ref":"BKE","destination:ref:to":"PIE","highway":"motorway_link","lanes":"2","maxspeed":"50","oneway":"yes","surface":"asphalt","startNodeId":"7572124726","endNodeId":"158053087"},"geometry":{"type":"LineString","coordinates":[[103.7759737,1.3919135],[103.7759281,1.3920173]]}},{"type":"Feature","id":"way/262190479-0-13-0","properties":{"destination":"City","destination:ref":"BKE","destination:ref:to":"PIE","highway":"motorway_link","lanes":"2","maxspeed":"50","oneway":"yes","surface":"asphalt","startNodeId":"158053087","endNodeId":"158053110"},"geometry":{"type":"LineString","coordinates":[[103.7759281,1.3920173],[103.7757951,1.3921733]]}},{"type":"Feature","id":"way/262190479-0-14-0","properties":{"destination":"City","destination:ref":"BKE","destination:ref:to":"PIE","highway":"motorway_link","lanes":"2","maxspeed":"50","oneway":"yes","surface":"asphalt","startNodeId":"158053110","endNodeId":"158053132"},"geometry":{"type":"LineString","coordinates":[[103.7757951,1.3921733],[103.7756559,1.3922654]]}},{"type":"Feature","id":"way/262190479-0-15-0","properties":{"destination":"City","destination:ref":"BKE","destination:ref:to":"PIE","highway":"motorway_link","lanes":"2","maxspeed":"50","oneway":"yes","surface":"asphalt","startNodeId":"158053132","endNodeId":"158053154"},"geometry":{"type":"LineString","coordinates":[[103.7756559,1.3922654],[103.775517,1.3923438]]}},{"type":"Feature","id":"way/262190479-0-16-0","properties":{"destination":"City","destination:ref":"BKE","destination:ref:to":"PIE","highway":"motorway_link","lanes":"2","maxspeed":"50","oneway":"yes","surface":"asphalt","startNodeId":"158053154","endNodeId":"158053180"},"geometry":{"type":"LineString","coordinates":[[103.775517,1.3923438],[103.7753387,1.3923626]]}},{"type":"Feature","id":"way/262190479-0-17-0","properties":{"destination":"City","destination:ref":"BKE","destination:ref:to":"PIE","highway":"motorway_link","lanes":"2","maxspeed":"50","oneway":"yes","surface":"asphalt","startNodeId":"158053180","endNodeId":"158053205"},"geometry":{"type":"LineString","coordinates":[[103.7753387,1.3923626],[103.7751,1.3923224]]}},{"type":"Feature","id":"way/262190479-0-18-0","properties":{"destination":"City","destination:ref":"BKE","destination:ref:to":"PIE","highway":"motorway_link","lanes":"2","maxspeed":"50","oneway":"yes","surface":"asphalt","startNodeId":"158053205","endNodeId":"158053231"},"geometry":{"type":"LineString","coordinates":[[103.7751,1.3923224],[103.7748747,1.3921816]]}},{"type":"Feature","id":"way/262190479-0-19-0","properties":{"destination":"City","destination:ref":"BKE","destination:ref:to":"PIE","highway":"motorway_link","lanes":"2","maxspeed":"50","oneway":"yes","surface":"asphalt","startNodeId":"158053231","endNodeId":"158053263"},"geometry":{"type":"LineString","coordinates":[[103.7748747,1.3921816],[103.7747315,1.3920028]]}},{"type":"Feature","id":"way/262190479-0-20-0","properties":{"destination":"City","destination:ref":"BKE","destination:ref:to":"PIE","highway":"motorway_link","lanes":"2","maxspeed":"50","oneway":"yes","surface":"asphalt","startNodeId":"158053263","endNodeId":"158053284"},"geometry":{"type":"LineString","coordinates":[[103.7747315,1.3920028],[103.7746302,1.391782]]}}]}