{"type":"FeatureCollection","features":[{"type":"Feature","id":"way/583733114-0","properties":{"building":"yes"},"geometry":{"type":"Polygon","coordinates":[[[103.7740472,1.2301867],[103.7745675,1.2307552],[103.7748183,1.2305257],[103.774298,1.2299572],[103.7740472,1.2301867]]]}},{"type":"Feature","id":"way/626599701-0","properties":{"building":"yes"},"geometry":{"type":"Polygon","coordinates":[[[103.7730165,1.2316897],[103.773097,1.2316132],[103.7730548,1.2315688],[103.7729743,1.2316453],[103.7730165,1.2316897]]]}},{"type":"Feature","id":"way/626599702-0","properties":{"building":"yes"},"geometry":{"type":"Polygon","coordinates":[[[103.7727499,1.2316165],[103.7728318,1.2315374],[103.7727584,1.2314616],[103.7726766,1.2315407],[103.7727499,1.2316165]]]}},{"type":"Feature","id":"way/626599703-0","properties":{"building":"yes"},"geometry":{"type":"Polygon","coordinates":[[[103.7728496,1.2310726],[103.772918,1.2310082],[103.7728563,1.2309427],[103.7727879,1.231007],[103.7728496,1.2310726]]]}},{"type":"Feature","id":"way/626599704-0","properties":{"building":"yes"},"geometry":{"type":"Polygon","coordinates":[[[103.7730367,1.2309851],[103.7732634,1.2307679],[103.7731674,1.2306678],[103.7729408,1.230885],[103.7730367,1.2309851]]]}},{"type":"Feature","id":"way/626599705-0","properties":{"building":"yes"},"geometry":{"type":"Polygon","coordinates":[[[103.7725336,1.2314393],[103.7728729,1.2311296],[103.7727745,1.2310218],[103.7724352,1.2313315],[103.7725336,1.2314393]]]}},{"type":"Feature","id":"way/691144736-0-0-0","properties":{"highway":"service"},"geometry":{"type":"LineString","coordinates":[[103.7708994,1.2307663],[103.7707783,1.230873]]}},{"type":"Feature","id":"way/691144736-0-1-0","properties":{"highway":"service"},"geometry":{"type":"LineString","coordinates":[[103.7707783,1.230873],[103.7707534,1.2308924]]}},{"type":"Feature","id":"way/691144736-0-2-0","properties":{"highway":"service"},"geometry":{"type":"LineString","coordinates":[[103.7707534,1.2308924],[103.7707313,1.2309018]]}},{"type":"Feature","id":"way/691144736-0-3-0","properties":{"highway":"service"},"geometry":{"type":"LineString","coordinates":[[103.7707313,1.2309018],[103.7706555,1.2309078]]}},{"type":"Feature","id":"way/691144736-0-4-0","properties":{"highway":"service"},"geometry":{"type":"LineString","coordinates":[[103.7706555,1.2309078],[103.7706301,1.2309078]]}},{"type":"Feature","id":"way/691144736-0-5-0","properties":{"highway":"service"},"geometry":{"type":"LineString","coordinates":[[103.7706301,1.2309078],[103.7705939,1.2309172]]}},{"type":"Feature","id":"way/691144736-0-6-0","properties":{"highway":"service"},"geometry":{"type":"LineString","coordinates":[[103.7705939,1.2309172],[103.7705764,1.2309266]]}},{"type":"Feature","id":"way/691144736-0-7-0","properties":{"highway":"service"},"geometry":{"type":"LineString","coordinates":[[103.7705764,1.2309266],[103.7703263,1.2311606]]}},{"type":"Feature","id":"way/691144736-0-8-0","properties":{"highway":"service"},"geometry":{"type":"LineString","coordinates":[[103.7703263,1.2311606],[103.7702988,1.2311827]]}},{"type":"Feature","id":"way/691144736-0-9-0","properties":{"highway":"service"},"geometry":{"type":"LineString","coordinates":[[103.7702988,1.2311827],[103.7702666,1.2312014]]}},{"type":"Feature","id":"way/691144736-0-10-0","properties":{"highway":"service"},"geometry":{"type":"LineString","coordinates":[[103.7702666,1.2312014],[103.7700601,1.2313248]]}},{"type":"Feature","id":"way/691172805-0-0-0","properties":{"highway":"service"},"geometry":{"type":"LineString","coordinates":[[103.7713398,1.2326423],[103.7718478,1.2331604]]}},{"type":"Feature","id":"way/691172811-0-9-0","properties":{"highway":"service"},"geometry":{"type":"LineString","coordinates":[[103.7702063,1.2301731],[103.7702787,1.2301167]]}},{"type":"Feature","id":"way/691172811-0-10-0","properties":{"highway":"service"},"geometry":{"type":"LineString","coordinates":[[103.7702787,1.2301167],[103.7703297,1.2301114]]}},{"type":"Feature","id":"way/691172811-0-11-0","properties":{"highway":"service"},"geometry":{"type":"LineString","coordinates":[[103.7703297,1.2301114],[103.7708994,1.2307663]]}},{"type":"Feature","id":"way/691172813-0-0-1","properties":{"highway":"service"},"geometry":{"type":"LineString","coordinates":[[103.7700629,1.232603],[103.7706772,1.2332697]]}},{"type":"Feature","id":"way/691172816-0-0-0","properties":{"highway":"service"},"geometry":{"type":"LineString","coordinates":[[103.7705576,1.2333829],[103.77085,1.2336913]]}},{"type":"Feature","id":"way/691172817-0-0-0","properties":{"highway":"service"},"geometry":{"type":"LineString","coordinates":[[103.7719578,1.2322298],[103.7724762,1.2327946]]}},{"type":"Feature","id":"way/691172818-0-0-0","properties":{"highway":"service"},"geometry":{"type":"LineString","coordinates":[[103.7726176,1.2315702],[103.7731433,1.2321387]]}},{"type":"Feature","id":"way/691172818-0-1-0","properties":{"highway":"service"},"geometry":{"type":"LineString","coordinates":[[103.7731433,1.2321387],[103.7731657,1.2321528]]}},{"type":"Feature","id":"way/691172819-0-0-0","properties":{"highway":"service"},"geometry":{"type":"LineString","coordinates":[[103.7709339,1.2330267],[103.7714562,1.2335706]]}},{"type":"Feature","id":"way/691172819-0-1-0","properties":{"highway":"service"},"geometry":{"type":"LineString","coordinates":[[103.7714562,1.2335706],[103.7715098,1.2336082]]}},{"type":"Feature","id":"way/691172819-0-2-0","properties":{"highway":"service"},"geometry":{"type":"LineString","coordinates":[[103.7715098,1.2336082],[103.7715661,1.2336028]]}},{"type":"Feature","id":"way/691172819-0-3-0","properties":{"highway":"service"},"geometry":{"type":"LineString","coordinates":[[103.7715661,1.2336028],[103.7716466,1.2335706]]}},{"type":"Feature","id":"way/691172819-0-4-0","properties":{"highway":"service"},"geometry":{"type":"LineString","coordinates":[[103.7716466,1.2335706],[103.7718183,1.2334071]]}},{"type":"Feature","id":"way/691172819-0-5-0","properties":{"highway":"service"},"geometry":{"type":"LineString","coordinates":[[103.7718183,1.2334071],[103.7724762,1.2327946]]}},{"type":"Feature","id":"way/691172819-0-6-0","properties":{"highway":"service"},"geometry":{"type":"LineString","coordinates":[[103.7724762,1.2327946],[103.7731657,1.2321528]]}},{"type":"Feature","id":"way/691172819-0-7-0","properties":{"highway":"service"},"geometry":{"type":"LineString","coordinates":[[103.7731657,1.2321528],[103.7740365,1.2313422]]}},{"type":"Feature","id":"way/691172819-0-8-0","properties":{"highway":"service"},"geometry":{"type":"LineString","coordinates":[[103.7740365,1.2313422],[103.774294,1.2311063]]}},{"type":"Feature","id":"way/691172820-0-1-0","properties":{"highway":"service"},"geometry":{"type":"LineString","coordinates":[[103.7711021,1.2299719],[103.7714294,1.2302991]]}},{"type":"Feature","id":"way/691172820-0-2-0","properties":{"highway":"service"},"geometry":{"type":"LineString","coordinates":[[103.7714294,1.2302991],[103.7721454,1.2310858]]}},{"type":"Feature","id":"way/691172820-0-3-0","properties":{"highway":"service"},"geometry":{"type":"LineString","coordinates":[[103.7721454,1.2310858],[103.7725237,1.2315139]]}},{"type":"Feature","id":"way/691172821-0-6-0","properties":{"highway":"service"},"geometry":{"type":"LineString","coordinates":[[103.7735215,1.230578],[103.7725237,1.2315139]]}},{"type":"Feature","id":"way/691172821-0-7-0","properties":{"highway":"service"},"geometry":{"type":"LineString","coordinates":[[103.7725237,1.2315139],[103.7721267,1.2318973]]}},{"type":"Feature","id":"way/691172821-0-8-0","properties":{"highway":"service"},"geometry":{"type":"LineString","coordinates":[[103.7721267,1.2318973],[103.7713398,1.2326423]]}},{"type":"Feature","id":"way/691172821-0-9-0","properties":{"highway":"service"},"geometry":{"type":"LineString","coordinates":[[103.7713398,1.2326423],[103.7709339,1.2330267]]}},{"type":"Feature","id":"way/691172821-0-10-0","properties":{"highway":"service"},"geometry":{"type":"LineString","coordinates":[[103.7709339,1.2330267],[103.7706772,1.2332697]]}},{"type":"Feature","id":"way/691172821-0-11-0","properties":{"highway":"service"},"geometry":{"type":"LineString","coordinates":[[103.7706772,1.2332697],[103.7705576,1.2333829]]}},{"type":"Feature","id":"way/691172821-0-12-0","properties":{"highway":"service"},"geometry":{"type":"LineString","coordinates":[[103.7705576,1.2333829],[103.7701204,1.2337959]]}},{"type":"Feature","id":"way/698914191-0-0-0","properties":{"highway":"service"},"geometry":{"type":"LineString","coordinates":[[103.7732118,1.2300832],[103.7730618,1.2302258]]}},{"type":"Feature","id":"way/698914191-0-1-0","properties":{"highway":"service"},"geometry":{"type":"LineString","coordinates":[[103.7730618,1.2302258],[103.7721454,1.2310858]]}},{"type":"Feature","id":"way/727650733-0-0-0","properties":{"highway":"service"},"geometry":{"type":"LineString","coordinates":[[103.7714294,1.2302991],[103.7708994,1.2307663]]}}]}