{"type":"FeatureCollection","features":[{"type":"Feature","id":"way/15772713-0-0-0","properties":{"destination":"Tuas","destination:ref":"KJE","destination:ref:to":"PIE","highway":"motorway_link","lanes":"2","maxspeed":"50","oneway":"yes","surface":"asphalt"},"geometry":{"type":"LineString","coordinates":[[103.774025,1.3965351],[103.7740673,1.3964276]]}},{"type":"Feature","id":"way/15772713-0-1-0","properties":{"destination":"Tuas","destination:ref":"KJE","destination:ref:to":"PIE","highway":"motorway_link","lanes":"2","maxspeed":"50","oneway":"yes","surface":"asphalt"},"geometry":{"type":"LineString","coordinates":[[103.7740673,1.3964276],[103.7740829,1.3963596]]}},{"type":"Feature","id":"way/260573534-0-0-0","properties":{"highway":"motorway","lanes":"4","maxspeed":"90","name":"Bukit Timah Expressway","name:ms":"Lebuhraya Bukit Timah","name:ta":"\u0baa\u0bc1\u0b95\u0bcd\u0b95\u0bbf\u0b9f\u0bcd \u0ba4\u0bc0\u0bae\u0bbe \u0bb5\u0bbf\u0bb0\u0bc8\u0bb5\u0bc1\u0b9a\u0bcd\u0b9a\u0bbe\u0bb2\u0bc8","name:zh":"\u6b66\u5409\u77e5\u9a6c\u9ad8\u901f\u516c\u8def","oneway":"yes","ref":"BKE","ref:ta":"\u0baa\u0bbf\u0b95\u0bc7\u0b87","short_name:ta":"\u0baa\u0bbf\u0b95\u0bc7\u0b87","surface":"asphalt","turn:lanes":"left|through|through|through","wikidata":"Q1003271","wikipedia":"en:Bukit Timah Expressway"},"geometry":{"type":"LineString","coordinates":[[103.773728,1.4012712],[103.7738683,1.4002438]]}},{"type":"Feature","id":"way/260573534-0-1-0","properties":{"highway":"motorway","lanes":"4","maxspeed":"90","name":"Bukit Timah Expressway","name:ms":"Lebuhraya Bukit Timah","name:ta":"\u0baa\u0bc1\u0b95\u0bcd\u0b95\u0bbf\u0b9f\u0bcd \u0ba4\u0bc0\u0bae\u0bbe \u0bb5\u0bbf\u0bb0\u0bc8\u0bb5\u0bc1\u0b9a\u0bcd\u0b9a\u0bbe\u0bb2\u0bc8","name:zh":"\u6b66\u5409\u77e5\u9a6c\u9ad8\u901f\u516c\u8def","oneway":"yes","ref":"BKE","ref:ta":"\u0baa\u0bbf\u0b95\u0bc7\u0b87","short_name:ta":"\u0baa\u0bbf\u0b95\u0bc7\u0b87","surface":"asphalt","turn:lanes":"left|through|through|through","wikidata":"Q1003271","wikipedia":"en:Bukit Timah Expressway"},"geometry":{"type":"LineString","coordinates":[[103.7738683,1.4002438],[103.773939,1.3993591]]}},{"type":"Feature","id":"way/260573534-0-2-0","properties":{"highway":"motorway","lanes":"4","maxspeed":"90","name":"Bukit Timah Expressway","name:ms":"Lebuhraya Bukit Timah","name:ta":"\u0baa\u0bc1\u0b95\u0bcd\u0b95\u0bbf\u0b9f\u0bcd \u0ba4\u0bc0\u0bae\u0bbe \u0bb5\u0bbf\u0bb0\u0bc8\u0bb5\u0bc1\u0b9a\u0bcd\u0b9a\u0bbe\u0bb2\u0bc8","name:zh":"\u6b66\u5409\u77e5\u9a6c\u9ad8\u901f\u516c\u8def","oneway":"yes","ref":"BKE","ref:ta":"\u0baa\u0bbf\u0b95\u0bc7\u0b87","short_name:ta":"\u0baa\u0bbf\u0b95\u0bc7\u0b87","surface":"asphalt","turn:lanes":"left|through|through|through","wikidata":"Q1003271","wikipedia":"en:Bukit Timah Expressway"},"geometry":{"type":"LineString","coordinates":[[103.773939,1.3993591],[103.7739717,1.3989156]]}},{"type":"Feature","id":"way/478876321-0-3-0","properties":{"highway":"motorway","lanes":"4","maxspeed":"90","name":"Bukit Timah Expressway","name:ms":"Lebuhraya Bukit Timah","name:ta":"\u0baa\u0bc1\u0b95\u0bcd\u0b95\u0bbf\u0b9f\u0bcd \u0ba4\u0bc0\u0bae\u0bbe \u0bb5\u0bbf\u0bb0\u0bc8\u0bb5\u0bc1\u0b9a\u0bcd\u0b9a\u0bbe\u0bb2\u0bc8","name:zh":"\u6b66\u5409\u77e5\u9a6c\u9ad8\u901f\u516c\u8def","oneway":"yes","ref":"BKE","ref:ta":"\u0baa\u0bbf\u0b95\u0bc7\u0b87","short_name:ta":"\u0baa\u0bbf\u0b95\u0bc7\u0b87","surface":"asphalt","wikidata":"Q1003271","wikipedia":"en:Bukit Timah Expressway"},"geometry":{"type":"LineString","coordinates":[[103.7737995,1.3959502],[103.7737923,1.3968171]]}},{"type":"Feature","id":"way/478876321-0-3-1","properties":{"highway":"motorway","lanes":"4","maxspeed":"90","name":"Bukit Timah Expressway","name:ms":"Lebuhraya Bukit Timah","name:ta":"\u0baa\u0bc1\u0b95\u0bcd\u0b95\u0bbf\u0b9f\u0bcd \u0ba4\u0bc0\u0bae\u0bbe \u0bb5\u0bbf\u0bb0\u0bc8\u0bb5\u0bc1\u0b9a\u0bcd\u0b9a\u0bbe\u0bb2\u0bc8","name:zh":"\u6b66\u5409\u77e5\u9a6c\u9ad8\u901f\u516c\u8def","oneway":"yes","ref":"BKE","ref:ta":"\u0baa\u0bbf\u0b95\u0bc7\u0b87","short_name:ta":"\u0baa\u0bbf\u0b95\u0bc7\u0b87","surface":"asphalt","wikidata":"Q1003271","wikipedia":"en:Bukit Timah Expressway"},"geometry":{"type":"LineString","coordinates":[[103.7737923,1.3968171],[103.7737851,1.3976839]]}},{"type":"Feature","id":"way/478876321-0-4-0","properties":{"highway":"motorway","lanes":"4","maxspeed":"90","name":"Bukit Timah Expressway","name:ms":"Lebuhraya Bukit Timah","name:ta":"\u0baa\u0bc1\u0b95\u0bcd\u0b95\u0bbf\u0b9f\u0bcd \u0ba4\u0bc0\u0bae\u0bbe \u0bb5\u0bbf\u0bb0\u0bc8\u0bb5\u0bc1\u0b9a\u0bcd\u0b9a\u0bbe\u0bb2\u0bc8","name:zh":"\u6b66\u5409\u77e5\u9a6c\u9ad8\u901f\u516c\u8def","oneway":"yes","ref":"BKE","ref:ta":"\u0baa\u0bbf\u0b95\u0bc7\u0b87","short_name:ta":"\u0baa\u0bbf\u0b95\u0bc7\u0b87","surface":"asphalt","wikidata":"Q1003271","wikipedia":"en:Bukit Timah Expressway"},"geometry":{"type":"LineString","coordinates":[[103.7737851,1.3976839],[103.7737511,1.3986871]]}},{"type":"Feature","id":"way/478876321-0-5-0","properties":{"highway":"motorway","lanes":"4","maxspeed":"90","name":"Bukit Timah Expressway","name:ms":"Lebuhraya Bukit Timah","name:ta":"\u0baa\u0bc1\u0b95\u0bcd\u0b95\u0bbf\u0b9f\u0bcd \u0ba4\u0bc0\u0bae\u0bbe \u0bb5\u0bbf\u0bb0\u0bc8\u0bb5\u0bc1\u0b9a\u0bcd\u0b9a\u0bbe\u0bb2\u0bc8","name:zh":"\u6b66\u5409\u77e5\u9a6c\u9ad8\u901f\u516c\u8def","oneway":"yes","ref":"BKE","ref:ta":"\u0baa\u0bbf\u0b95\u0bc7\u0b87","short_name:ta":"\u0baa\u0bbf\u0b95\u0bc7\u0b87","surface":"asphalt","wikidata":"Q1003271","wikipedia":"en:Bukit Timah Expressway"},"geometry":{"type":"LineString","coordinates":[[103.7737511,1.3986871],[103.7737136,1.3992824]]}},{"type":"Feature","id":"way/478876321-0-6-0","properties":{"highway":"motorway","lanes":"4","maxspeed":"90","name":"Bukit Timah Expressway","name:ms":"Lebuhraya Bukit Timah","name:ta":"\u0baa\u0bc1\u0b95\u0bcd\u0b95\u0bbf\u0b9f\u0bcd \u0ba4\u0bc0\u0bae\u0bbe \u0bb5\u0bbf\u0bb0\u0bc8\u0bb5\u0bc1\u0b9a\u0bcd\u0b9a\u0bbe\u0bb2\u0bc8","name:zh":"\u6b66\u5409\u77e5\u9a6c\u9ad8\u901f\u516c\u8def","oneway":"yes","ref":"BKE","ref:ta":"\u0baa\u0bbf\u0b95\u0bc7\u0b87","short_name:ta":"\u0baa\u0bbf\u0b95\u0bc7\u0b87","surface":"asphalt","wikidata":"Q1003271","wikipedia":"en:Bukit Timah Expressway"},"geometry":{"type":"LineString","coordinates":[[103.7737136,1.3992824],[103.7736787,1.3997356]]}},{"type":"Feature","id":"way/478876321-0-7-0","properties":{"highway":"motorway","lanes":"4","maxspeed":"90","name":"Bukit Timah Expressway","name:ms":"Lebuhraya Bukit Timah","name:ta":"\u0baa\u0bc1\u0b95\u0bcd\u0b95\u0bbf\u0b9f\u0bcd \u0ba4\u0bc0\u0bae\u0bbe \u0bb5\u0bbf\u0bb0\u0bc8\u0bb5\u0bc1\u0b9a\u0bcd\u0b9a\u0bbe\u0bb2\u0bc8","name:zh":"\u6b66\u5409\u77e5\u9a6c\u9ad8\u901f\u516c\u8def","oneway":"yes","ref":"BKE","ref:ta":"\u0baa\u0bbf\u0b95\u0bc7\u0b87","short_name:ta":"\u0baa\u0bbf\u0b95\u0bc7\u0b87","surface":"asphalt","wikidata":"Q1003271","wikipedia":"en:Bukit Timah Expressway"},"geometry":{"type":"LineString","coordinates":[[103.7736787,1.3997356],[103.7736041,1.400484]]}},{"type":"Feature","id":"way/478879829-0-0-0","properties":{"highway":"motorway","lanes":"5","maxspeed":"90","name":"Bukit Timah Expressway","name:ms":"Lebuhraya Bukit Timah","name:ta":"\u0baa\u0bc1\u0b95\u0bcd\u0b95\u0bbf\u0b9f\u0bcd \u0ba4\u0bc0\u0bae\u0bbe \u0bb5\u0bbf\u0bb0\u0bc8\u0bb5\u0bc1\u0b9a\u0bcd\u0b9a\u0bbe\u0bb2\u0bc8","name:zh":"\u6b66\u5409\u77e5\u9a6c\u9ad8\u901f\u516c\u8def","oneway":"yes","ref":"BKE","ref:ta":"\u0baa\u0bbf\u0b95\u0bc7\u0b87","short_name:ta":"\u0baa\u0bbf\u0b95\u0bc7\u0b87","surface":"asphalt","turn:lanes":"left|left|through|through|through","wikidata":"Q1003271","wikipedia":"en:Bukit Timah Expressway"},"geometry":{"type":"LineString","coordinates":[[103.7739717,1.3989156],[103.7739983,1.3977253]]}},{"type":"Feature","id":"way/478879829-0-0-1","properties":{"highway":"motorway","lanes":"5","maxspeed":"90","name":"Bukit Timah Expressway","name:ms":"Lebuhraya Bukit Timah","name:ta":"\u0baa\u0bc1\u0b95\u0bcd\u0b95\u0bbf\u0b9f\u0bcd \u0ba4\u0bc0\u0bae\u0bbe \u0bb5\u0bbf\u0bb0\u0bc8\u0bb5\u0bc1\u0b9a\u0bcd\u0b9a\u0bbe\u0bb2\u0bc8","name:zh":"\u6b66\u5409\u77e5\u9a6c\u9ad8\u901f\u516c\u8def","oneway":"yes","ref":"BKE","ref:ta":"\u0baa\u0bbf\u0b95\u0bc7\u0b87","short_name:ta":"\u0baa\u0bbf\u0b95\u0bc7\u0b87","surface":"asphalt","turn:lanes":"left|left|through|through|through","wikidata":"Q1003271","wikipedia":"en:Bukit Timah Expressway"},"geometry":{"type":"LineString","coordinates":[[103.7739983,1.3977253],[103.774025,1.3965351]]}}]}