{"type":"FeatureCollection","features":[{"type":"Feature","id":"way/160827383-0","properties":{"building":"roof","layer":"1"},"geometry":{"type":"Polygon","coordinates":[[[103.8506201,1.2280171],[103.8504767,1.2281785],[103.850436,1.2281454],[103.8503878,1.2282048],[103.8504058,1.2284708],[103.850485,1.2284642],[103.8504728,1.228234],[103.8506652,1.228018],[103.8509181,1.2280058],[103.8509162,1.2279114],[103.85063,1.2279294],[103.8505819,1.2279833],[103.8506201,1.2280171]]]}},{"type":"Feature","id":"way/160827392-0","properties":{"building":"yes"},"geometry":{"type":"Polygon","coordinates":[[[103.8504675,1.2286533],[103.850465,1.2286252],[103.8505849,1.2286144],[103.8505783,1.2285408],[103.8503621,1.2285602],[103.8503713,1.2286619],[103.8504675,1.2286533]]]}},{"type":"Feature","id":"way/160827393-0","properties":{"building":"yes"},"geometry":{"type":"Polygon","coordinates":[[[103.8503396,1.2280325],[103.8504167,1.2280966],[103.8504447,1.228063],[103.8504898,1.2280088],[103.8505196,1.2279728],[103.8504425,1.2279087],[103.8503396,1.2280325]]]}},{"type":"Feature","id":"way/424274665-0","properties":{"building":"yes"},"geometry":{"type":"Polygon","coordinates":[[[103.8504767,1.2281785],[103.8506201,1.2280171],[103.8505819,1.2279833],[103.8505577,1.2279642],[103.850503,1.2280208],[103.8504898,1.2280088],[103.8504447,1.228063],[103.8504548,1.228069],[103.8504388,1.2280878],[103.850436,1.2281454],[103.8504767,1.2281785]]]}}]}