{"type":"FeatureCollection","features":[{"type":"Feature","id":"relation/7782489-0","properties":{"building":"yes","type":"multipolygon","clearanceGeometry":{"type":"Polygon","coordinates":[[[103.7611244,1.3335144],[103.7611493,1.3335442],[103.7611806,1.3335671],[103.7612165,1.3335819],[103.7612549,1.3335876],[103.7612936,1.333584],[103.7613303,1.3335713],[103.7613343,1.3335686],[103.7614269,1.3335363],[103.7614648,1.3336234],[103.7622129,1.3332815],[103.7621685,1.3331878],[103.7621578,1.3331658],[103.7621852,1.3331882],[103.7622244,1.3332076],[103.7622669,1.3332178],[103.7623107,1.3332184],[103.7623534,1.3332091],[103.762393,1.3331906],[103.7624275,1.3331638],[103.7624552,1.3331299],[103.7624746,1.3330907],[103.7624849,1.3330482],[103.7624854,1.3330045],[103.7624761,1.3329618],[103.7624576,1.3329222],[103.7624308,1.3328877],[103.7623969,1.33286],[103.7623577,1.3328406],[103.7623152,1.3328304],[103.7622715,1.3328299],[103.7622287,1.3328391],[103.7621891,1.3328576],[103.7621546,1.3328844],[103.7621269,1.3329183],[103.7621075,1.3329575],[103.7621038,1.3329731],[103.7620995,1.3329313],[103.7620912,1.3328492],[103.7612724,1.3328393],[103.7612789,1.3331516],[103.7612195,1.3331589],[103.761194,1.3331709],[103.7611679,1.3331857],[103.7611412,1.3332183],[103.7611263,1.3332406],[103.7611126,1.33327],[103.7611,1.3334081],[103.7610991,1.3334416],[103.7611073,1.3334796],[103.7611244,1.3335144]],[[103.7623347,1.3329501],[103.7623555,1.332967],[103.76237,1.3329895],[103.7623769,1.3330154],[103.7623754,1.3330421],[103.7623658,1.3330671],[103.7623489,1.3330879],[103.7623263,1.3331024],[103.7623005,1.3331092],[103.7622737,1.3331078],[103.7622487,1.3330981],[103.762228,1.3330812],[103.7622134,1.3330587],[103.7622066,1.3330328],[103.7622081,1.3330061],[103.7622177,1.3329811],[103.7622346,1.3329604],[103.7622571,1.3329458],[103.762283,1.332939],[103.7623098,1.3329404],[103.7623347,1.3329501]],[[103.7615025,1.3332071],[103.7614985,1.3330932],[103.7617086,1.333091],[103.7616916,1.3331629],[103.7617341,1.3332144],[103.7615468,1.3333023],[103.7615025,1.3332071]],[[103.7612094,1.3332962],[103.7612127,1.3332893],[103.7612208,1.3332771],[103.7612327,1.3332626],[103.7612395,1.3332587],[103.7612474,1.333255],[103.7612951,1.3332483],[103.7613831,1.3334262],[103.7613335,1.3334612],[103.7612905,1.3334793],[103.7612865,1.3334819],[103.7612725,1.3334867],[103.7612577,1.3334881],[103.7612431,1.3334859],[103.7612293,1.3334803],[103.7612174,1.3334715],[103.7612079,1.3334602],[103.7612013,1.3334469],[103.7611982,1.3334324],[103.7611987,1.3334139],[103.7612094,1.3332962]]]},"clearanceHeight":1.7,"clearancePrepared":true},"geometry":{"type":"Polygon","coordinates":[[[103.7611073,1.3334796],[103.7611244,1.3335144],[103.7611493,1.3335442],[103.7611806,1.3335671],[103.7612165,1.3335819],[103.7612549,1.3335876],[103.7612936,1.333584],[103.7613303,1.3335713],[103.7613343,1.3335686],[103.7614269,1.3335363],[103.7614648,1.3336234],[103.7622129,1.3332815],[103.7621685,1.3331878],[103.7621578,1.3331658],[103.7621852,1.3331882],[103.7622244,1.3332076],[103.7622669,1.3332178],[103.7623107,1.3332184],[103.7623534,1.3332091],[103.762393,1.3331906],[103.7624275,1.3331638],[103.7624552,1.3331299],[103.7624746,1.3330907],[103.7624849,1.3330482],[103.7624854,1.3330045],[103.7624761,1.3329618],[103.7624576,1.3329222],[103.7624308,1.3328877],[103.7623969,1.33286],[103.7623577,1.3328406],[103.7623152,1.3328304],[103.7622715,1.3328299],[103.7622287,1.3328391],[103.7621891,1.3328576],[103.7621546,1.3328844],[103.7621269,1.3329183],[103.7621075,1.3329575],[103.7621038,1.3329731],[103.7620995,1.3329313],[103.7620912,1.3328492],[103.7612724,1.3328393],[103.7612789,1.3331516],[103.7612195,1.3331589],[103.761194,1.3331709],[103.7611679,1.3331857],[103.7611412,1.3332183],[103.7611263,1.3332406],[103.7611126,1.33327],[103.7611,1.3334081],[103.7610991,1.3334416],[103.7611073,1.3334796]],[[103.7623098,1.3329404],[103.7623347,1.3329501],[103.7623555,1.332967],[103.76237,1.3329895],[103.7623769,1.3330154],[103.7623754,1.3330421],[103.7623658,1.3330671],[103.7623489,1.3330879],[103.7623263,1.3331024],[103.7623005,1.3331092],[103.7622737,1.3331078],[103.7622487,1.3330981],[103.762228,1.3330812],[103.7622134,1.3330587],[103.7622066,1.3330328],[103.7622081,1.3330061],[103.7622177,1.3329811],[103.7622346,1.3329604],[103.7622571,1.3329458],[103.762283,1.332939],[103.7623098,1.3329404]],[[103.7615468,1.3333023],[103.7615025,1.3332071],[103.7614985,1.3330932],[103.7617086,1.333091],[103.7616916,1.3331629],[103.7617341,1.3332144],[103.7615468,1.3333023]],[[103.7611987,1.3334139],[103.7612094,1.3332962],[103.7612127,1.3332893],[103.7612208,1.3332771],[103.7612327,1.3332626],[103.7612395,1.3332587],[103.7612474,1.333255],[103.7612951,1.3332483],[103.7613831,1.3334262],[103.7613335,1.3334612],[103.7612905,1.3334793],[103.7612865,1.3334819],[103.7612725,1.3334867],[103.7612577,1.3334881],[103.7612431,1.3334859],[103.7612293,1.3334803],[103.7612174,1.3334715],[103.7612079,1.3334602],[103.7612013,1.3334469],[103.7611982,1.3334324],[103.7611987,1.3334139]]]}},{"type":"Feature","id":"relation/7782690-0","properties":{"building":"yes","type":"multipolygon","clearanceGeometry":{"type":"Polygon","coordinates":[[[103.7622629,1.3292439],[103.7616652,1.3292434],[103.7616605,1.330336],[103.7622669,1.3303379],[103.76227629029233,1.3303285322804916],[103.76227546970686,1.3302650599946995],[103.76227146774814,1.3299944275356037],[103.76226976923483,1.3297278608616214],[103.76226673879499,1.3296128051624883],[103.76226741798759,1.3295994477083362],[103.76230299172451,1.329601255634177],[103.76230298300118,1.3296001547496825],[103.76226885671292,1.3295906242511606],[103.76227600665204,1.329565034995383],[103.76230235445058,1.3295208316639417],[103.7623005,1.3292868],[103.7622629,1.3292439]],[[103.7617625,1.3293663],[103.7622005,1.3293682],[103.7622,1.3294754],[103.7617621,1.3294736],[103.7617625,1.3293663]],[[103.7617585,1.329613],[103.7621965,1.3296149],[103.762196,1.3297221],[103.761758,1.3297203],[103.7617585,1.329613]],[[103.7617612,1.3298543],[103.7621992,1.3298562],[103.7621987,1.3299635],[103.7617607,1.3299616],[103.7617612,1.3298543]],[[103.7617631,1.3301019],[103.7622011,1.3301038],[103.7622007,1.3302111],[103.7617627,1.3302092],[103.7617631,1.3301019]]]},"clearanceHeight":1.7,"clearancePrepared":true},"geometry":{"type":"Polygon","coordinates":[[[103.7623005,1.3292868],[103.7622629,1.3292439],[103.7616652,1.3292434],[103.7616605,1.330336],[103.7622669,1.3303379],[103.7623085,1.3302964],[103.7623005,1.3292868]],[[103.7617621,1.3294736],[103.7617625,1.3293663],[103.7622005,1.3293682],[103.7622,1.3294754],[103.7617621,1.3294736]],[[103.761758,1.3297203],[103.7617585,1.329613],[103.7621965,1.3296149],[103.762196,1.3297221],[103.761758,1.3297203]],[[103.7617607,1.3299616],[103.7617612,1.3298543],[103.7621992,1.3298562],[103.7621987,1.3299635],[103.7617607,1.3299616]],[[103.7617627,1.3302092],[103.7617631,1.3301019],[103.7622011,1.3301038],[103.7622007,1.3302111],[103.7617627,1.3302092]]]}},{"type":"Feature","id":"way/370372750-0","properties":{"building":"yes","source":"Bing","clearanceGeometry":{"type":"Polygon","coordinates":[[[103.76130962819468,1.3318113695737284],[103.76130956095638,1.3323061762881596],[103.7614086,1.3323058],[103.7614069,1.331811],[103.76130962819468,1.3318113695737284]]]},"clearanceHeight":1.7,"clearancePrepared":true},"geometry":{"type":"Polygon","coordinates":[[[103.7614069,1.331811],[103.7612753,1.3318115],[103.761277,1.3323063],[103.7614086,1.3323058],[103.7614069,1.331811]]]}},{"type":"Feature","id":"way/370372751-0","properties":{"building":"yes","source":"Bing","clearanceGeometry":{"type":"Polygon","coordinates":[[[103.7630791,1.3309205],[103.7630758,1.331177],[103.7632991,1.3311798],[103.7633024,1.3309234],[103.7630791,1.3309205]]]},"clearanceHeight":1.7,"clearancePrepared":true},"geometry":{"type":"Polygon","coordinates":[[[103.7633024,1.3309234],[103.7630791,1.3309205],[103.7630758,1.331177],[103.7632991,1.3311798],[103.7633024,1.3309234]]]}},{"type":"Feature","id":"way/370372752-0","properties":{"building":"yes","source":"Bing","clearanceGeometry":{"type":"Polygon","coordinates":[[[103.7625738,1.3308298],[103.7625722,1.3311717],[103.7628615,1.3311731],[103.7628631,1.3308312],[103.7625738,1.3308298]]]},"clearanceHeight":1.7,"clearancePrepared":true},"geometry":{"type":"Polygon","coordinates":[[[103.7628631,1.3308312],[103.7625738,1.3308298],[103.7625722,1.3311717],[103.7628615,1.3311731],[103.7628631,1.3308312]]]}},{"type":"Feature","id":"way/370372753-0","properties":{"building":"yes","source":"Bing","clearanceGeometry":{"type":"Polygon","coordinates":[[[103.7612174,1.3303404],[103.7612166,1.3309284],[103.7612491,1.3309285],[103.761249,1.33096],[103.7612732,1.3309815],[103.7613375,1.3309816],[103.7613541,1.3309671],[103.7613246,1.3309335],[103.761308,1.330948],[103.7613139,1.3309546],[103.7612778,1.3309546],[103.7612745,1.3309516],[103.7612745,1.3309285],[103.7614673,1.3309288],[103.7614674,1.3308662],[103.7614871,1.3308662],[103.7615226,1.3309104],[103.7615521,1.3309104],[103.7615522,1.3308837],[103.7615045,1.3308414],[103.7614674,1.3308413],[103.7614675,1.3308017],[103.7615642,1.3308018],[103.76156472309692,1.3304279600607591],[103.76155757500851,1.3304229125070899],[103.76154522718193,1.3304045030201925],[103.76153704834529,1.3303823033207711],[103.76153681116013,1.330372958225612],[103.7614978,1.3303729],[103.7614979,1.3303536],[103.76153523094844,1.3303139113074494],[103.76153398259915,1.3302709],[103.761516,1.3302709],[103.761477,1.3303198],[103.7614769,1.3303729],[103.7614681,1.3303729],[103.7614681,1.3303408],[103.7612819,1.3303405],[103.7612819,1.3303091],[103.7613181,1.3303092],[103.7613202,1.3303111],[103.7613382,1.3302903],[103.7613181,1.3302729],[103.7612511,1.3302728],[103.761251,1.3303091],[103.761251,1.3303405],[103.7612174,1.3303404]]]},"clearanceHeight":1.7,"clearancePrepared":true},"geometry":{"type":"Polygon","coordinates":[[[103.761251,1.3303405],[103.7612174,1.3303404],[103.7612166,1.3309284],[103.7612491,1.3309285],[103.761249,1.33096],[103.7612732,1.3309815],[103.7613375,1.3309816],[103.7613541,1.3309671],[103.7613246,1.3309335],[103.761308,1.330948],[103.7613139,1.3309546],[103.7612778,1.3309546],[103.7612745,1.3309516],[103.7612745,1.3309285],[103.7614673,1.3309288],[103.7614674,1.3308662],[103.7614871,1.3308662],[103.7615226,1.3309104],[103.7615521,1.3309104],[103.7615522,1.3308837],[103.7615045,1.3308414],[103.7614674,1.3308413],[103.7614675,1.3308017],[103.7615642,1.3308018],[103.7615648,1.330373],[103.7614978,1.3303729],[103.7614979,1.3303536],[103.7615454,1.3303031],[103.7615454,1.3302709],[103.761516,1.3302709],[103.761477,1.3303198],[103.7614769,1.3303729],[103.7614681,1.3303729],[103.7614681,1.3303408],[103.7612819,1.3303405],[103.7612819,1.3303091],[103.7613181,1.3303092],[103.7613202,1.3303111],[103.7613382,1.3302903],[103.7613181,1.3302729],[103.7612511,1.3302728],[103.761251,1.3303091],[103.761251,1.3303405]]]}},{"type":"Feature","id":"way/370372754-0","properties":{"building":"yes","source":"Bing","clearanceGeometry":{"type":"Polygon","coordinates":[[[103.7619063,1.3314378],[103.7611812,1.3314394],[103.7611817,1.3316401],[103.7619068,1.3316384],[103.7619063,1.3314378]]]},"clearanceHeight":1.7,"clearancePrepared":true},"geometry":{"type":"Polygon","coordinates":[[[103.7619068,1.3316384],[103.7619063,1.3314378],[103.7611812,1.3314394],[103.7611817,1.3316401],[103.7619068,1.3316384]]]}},{"type":"Feature","id":"way/370372755-0","properties":{"building":"yes","source":"Bing","clearanceGeometry":{"type":"MultiPolygon","coordinates":[[[[103.7630136,1.3305413],[103.7627468,1.3305365],[103.7627451,1.3306326],[103.7634702,1.3306454],[103.7634719,1.3305474],[103.7632307,1.3305432],[103.7632316,1.3304934],[103.76322960816252,1.3305337749251889],[103.76301390991274,1.3305231391128725],[103.7630136,1.3305413]]],[[[103.76323276201529,1.3304287740730536],[103.76304165401922,1.33042232643486],[103.76301563417621,1.3304262512156502],[103.76301535043956,1.3304417385077678],[103.76301926581526,1.3304424569253284],[103.76323101139803,1.3304528978365526],[103.76323233011549,1.3304527943462403],[103.76323276201529,1.3304287740730536]]]]},"clearanceHeight":1.7,"clearancePrepared":true},"geometry":{"type":"Polygon","coordinates":[[[103.7630146,1.3304827],[103.7630136,1.3305413],[103.7627468,1.3305365],[103.7627451,1.3306326],[103.7634702,1.3306454],[103.7634719,1.3305474],[103.7632307,1.3305432],[103.7632316,1.3304934],[103.7632329,1.3304211],[103.7630158,1.3304172],[103.7630146,1.3304827]]]}},{"type":"Feature","id":"way/451947269-0","properties":{"building":"yes","clearanceGeometry":{"type":"Polygon","coordinates":[[[103.7634216,1.3319697],[103.7634212,1.3320013],[103.763548,1.3320028],[103.7635483,1.3319708],[103.7637869,1.3319736],[103.7637875,1.3319226],[103.7635451,1.3319198],[103.7635453,1.3319005],[103.7634233,1.3318991],[103.7634231,1.331909],[103.7631023,1.3319052],[103.7631016,1.3319659],[103.7634216,1.3319697]]]},"clearanceHeight":1.7,"clearancePrepared":true},"geometry":{"type":"Polygon","coordinates":[[[103.7631016,1.3319659],[103.7634216,1.3319697],[103.7634212,1.3320013],[103.763548,1.3320028],[103.7635483,1.3319708],[103.7637869,1.3319736],[103.7637875,1.3319226],[103.7635451,1.3319198],[103.7635453,1.3319005],[103.7634233,1.3318991],[103.7634231,1.331909],[103.7631023,1.3319052],[103.7631016,1.3319659]]]}},{"type":"Feature","id":"way/451947343-0","properties":{"building":"yes","clearanceGeometry":{"type":"Polygon","coordinates":[[[103.76230745334644,1.3324063193279623],[103.76230778493557,1.3323458718564125],[103.7623033,1.3320497],[103.762226,1.3320509],[103.7622313,1.3324075],[103.76230745334644,1.3324063193279623]]]},"clearanceHeight":1.7,"clearancePrepared":true},"geometry":{"type":"Polygon","coordinates":[[[103.7622313,1.3324075],[103.7623087,1.3324063],[103.7623033,1.3320497],[103.762226,1.3320509],[103.7622313,1.3324075]]]}},{"type":"Feature","id":"way/451947407-0","properties":{"building":"yes","clearanceGeometry":{"type":"Polygon","coordinates":[[[103.7615603,1.3326532],[103.76156175549582,1.3325416119871838],[103.76145450583175,1.332542422846539],[103.76135250085693,1.3325431943590444],[103.7613511,1.3326505],[103.7615603,1.3326532]]]},"clearanceHeight":1.7,"clearancePrepared":true},"geometry":{"type":"Polygon","coordinates":[[[103.7613511,1.3326505],[103.7615603,1.3326532],[103.7615618,1.3325382],[103.7613526,1.3325356],[103.7613511,1.3326505]]]}},{"type":"Feature","id":"way/451947422-0","properties":{"building":"yes","clearanceGeometry":{"type":"Polygon","coordinates":[[[103.763425,1.3317424],[103.7634249,1.3317935],[103.763862,1.3317944],[103.7638623,1.3316762],[103.7636583,1.3316758],[103.7636584,1.3316078],[103.7634881,1.3316074],[103.7634879,1.3316768],[103.7633922,1.3316766],[103.7633921,1.3317423],[103.763425,1.3317424]]]},"clearanceHeight":1.7,"clearancePrepared":true},"geometry":{"type":"Polygon","coordinates":[[[103.7633921,1.3317423],[103.763425,1.3317424],[103.7634249,1.3317935],[103.763862,1.3317944],[103.7638623,1.3316762],[103.7636583,1.3316758],[103.7636584,1.3316078],[103.7634881,1.3316074],[103.7634879,1.3316768],[103.7633922,1.3316766],[103.7633921,1.3317423]]]}},{"type":"Feature","id":"way/451947444-0","properties":{"building":"yes","clearanceGeometry":{"type":"Polygon","coordinates":[[[103.7617153,1.3324488],[103.7618038,1.3324541],[103.7618391,1.3323981],[103.7618099,1.3323532],[103.7617214,1.3323478],[103.76169457772905,1.3323854337093912],[103.76169431892718,1.3324047715366054],[103.7617153,1.3324488]]]},"clearanceHeight":1.7,"clearancePrepared":true},"geometry":{"type":"Polygon","coordinates":[[[103.7616889,1.3323934],[103.7617153,1.3324488],[103.7618038,1.3324541],[103.7618391,1.3323981],[103.7618099,1.3323532],[103.7617214,1.3323478],[103.7616889,1.3323934]]]}},{"type":"Feature","id":"way/452783662-0","properties":{"building":"yes","clearanceGeometry":{"type":"Polygon","coordinates":[[[103.7615313,1.3288773],[103.7611009,1.328865],[103.7610955,1.3290571],[103.7615258,1.3290693],[103.7615313,1.3288773]]]},"clearanceHeight":1.7,"clearancePrepared":true},"geometry":{"type":"Polygon","coordinates":[[[103.7615258,1.3290693],[103.7615313,1.3288773],[103.7611009,1.328865],[103.7610955,1.3290571],[103.7615258,1.3290693]]]}},{"type":"Feature","id":"way/452783695-0","properties":{"building":"yes","clearanceGeometry":{"type":"Polygon","coordinates":[[[103.7633872,1.3293575],[103.7634891,1.3293582],[103.7634896,1.3292775],[103.763643,1.3292786],[103.7636455,1.3289158],[103.7635311,1.328915],[103.7635308,1.3289578],[103.7633101,1.3289562],[103.7633078,1.3292811],[103.7633877,1.3292817],[103.7633872,1.3293575]]]},"clearanceHeight":1.7,"clearancePrepared":true},"geometry":{"type":"Polygon","coordinates":[[[103.7633877,1.3292817],[103.7633872,1.3293575],[103.7634891,1.3293582],[103.7634896,1.3292775],[103.763643,1.3292786],[103.7636455,1.3289158],[103.7635311,1.328915],[103.7635308,1.3289578],[103.7633101,1.3289562],[103.7633078,1.3292811],[103.7633877,1.3292817]]]}},{"type":"Feature","id":"way/815585927-0","properties":{"building":"yes","clearanceGeometry":{"type":"Polygon","coordinates":[[[103.7623514,1.3312041],[103.7622334,1.3312041],[103.7622334,1.3313127],[103.7623514,1.3313127],[103.7623514,1.3312041]]]},"clearanceHeight":1.7,"clearancePrepared":true},"geometry":{"type":"Polygon","coordinates":[[[103.7623514,1.3313127],[103.7623514,1.3312041],[103.7622334,1.3312041],[103.7622334,1.3313127],[103.7623514,1.3313127]]]}},{"type":"Feature","id":"way/815585928-0","properties":{"building":"yes","clearanceGeometry":{"type":"Polygon","coordinates":[[[103.7624241,1.3315084],[103.7622189,1.3315098],[103.76222,1.3316706],[103.7624252,1.3316693],[103.7624241,1.3315084]]]},"clearanceHeight":1.7,"clearancePrepared":true},"geometry":{"type":"Polygon","coordinates":[[[103.7624252,1.3316693],[103.7624241,1.3315084],[103.7622189,1.3315098],[103.76222,1.3316706],[103.7624252,1.3316693]]]}},{"type":"Feature","id":"way/815585931-0","properties":{"building":"yes","clearanceGeometry":{"type":"Polygon","coordinates":[[[103.7627799,1.3289956],[103.7627578,1.3289959],[103.7627575,1.328971],[103.7626143,1.3289731],[103.7626146,1.3289979],[103.7625895,1.3289983],[103.7625915,1.3291393],[103.7627819,1.3291366],[103.7627799,1.3289956]]]},"clearanceHeight":1.7,"clearancePrepared":true},"geometry":{"type":"Polygon","coordinates":[[[103.7627819,1.3291366],[103.7627799,1.3289956],[103.7627578,1.3289959],[103.7627575,1.328971],[103.7626143,1.3289731],[103.7626146,1.3289979],[103.7625895,1.3289983],[103.7625915,1.3291393],[103.7627819,1.3291366]]]}},{"type":"Feature","id":"way/22892486-0-0-0","properties":{"destination":"Clementi Avenue 6","destination:ref":"AYE","highway":"primary_link","lanes":"2","maxspeed":"70","oneway":"yes","surface":"asphalt","startNodeId":"246294007","endNodeId":"6928034106"},"geometry":{"type":"LineString","coordinates":[[103.7643826,1.3319803],[103.7642276,1.3308193]]}},{"type":"Feature","id":"way/22892486-0-1-0","properties":{"destination":"Clementi Avenue 6","destination:ref":"AYE","highway":"primary_link","lanes":"2","maxspeed":"70","oneway":"yes","surface":"asphalt","startNodeId":"6928034106","endNodeId":"6928034105"},"geometry":{"type":"LineString","coordinates":[[103.7642276,1.3308193],[103.7641579,1.330291]]}},{"type":"Feature","id":"way/22892486-0-2-0","properties":{"destination":"Clementi Avenue 6","destination:ref":"AYE","highway":"primary_link","lanes":"2","maxspeed":"70","oneway":"yes","surface":"asphalt","startNodeId":"6928034105","endNodeId":"568352233"},"geometry":{"type":"LineString","coordinates":[[103.7641579,1.330291],[103.7641619,1.3301637]]}},{"type":"Feature","id":"way/44819828-0-0-0","properties":{"destination":"Bukit Batok East Ave 3;Toh Tuck Ave","highway":"primary_link","lanes":"2","maxspeed":"50","oneway":"yes","surface":"asphalt","startNodeId":"1492179285","endNodeId":"9222624794"},"geometry":{"type":"LineString","coordinates":[[103.7632927,1.333037],[103.7622025,1.3336517]]}},{"type":"Feature","id":"way/44829769-0-0-0","properties":{"bridge":"yes","bridge:name":"Clementi Flyover","destination":"Changi Airport","destination:ref":"PIE;BKE","highway":"motorway_link","lanes":"2","layer":"1","maxspeed":"50","name":"Clementi North Flyover","name:ms":"Jejambat Clementi North","name:zh":"\u91d1\u6587\u6cf0\u5317\u7acb\u4ea4","oneway":"yes","startNodeId":"246294000","endNodeId":"1492179270"},"geometry":{"type":"LineString","coordinates":[[103.7642673,1.3320053],[103.764398,1.3327864]]}},{"type":"Feature","id":"way/44829769-0-1-0","properties":{"bridge":"yes","bridge:name":"Clementi Flyover","destination":"Changi Airport","destination:ref":"PIE;BKE","highway":"motorway_link","lanes":"2","layer":"1","maxspeed":"50","name":"Clementi North Flyover","name:ms":"Jejambat Clementi North","name:zh":"\u91d1\u6587\u6cf0\u5317\u7acb\u4ea4","oneway":"yes","startNodeId":"1492179270","endNodeId":"1492179281"},"geometry":{"type":"LineString","coordinates":[[103.764398,1.3327864],[103.7644531,1.3330525]]}},{"type":"Feature","id":"way/44829769-0-2-0","properties":{"bridge":"yes","bridge:name":"Clementi Flyover","destination":"Changi Airport","destination:ref":"PIE;BKE","highway":"motorway_link","lanes":"2","layer":"1","maxspeed":"50","name":"Clementi North Flyover","name:ms":"Jejambat Clementi North","name:zh":"\u91d1\u6587\u6cf0\u5317\u7acb\u4ea4","oneway":"yes","startNodeId":"1492179281","endNodeId":"1492179289"},"geometry":{"type":"LineString","coordinates":[[103.7644531,1.3330525],[103.7645193,1.3332839]]}},{"type":"Feature","id":"way/44829769-0-3-0","properties":{"bridge":"yes","bridge:name":"Clementi Flyover","destination":"Changi Airport","destination:ref":"PIE;BKE","highway":"motorway_link","lanes":"2","layer":"1","maxspeed":"50","name":"Clementi North Flyover","name:ms":"Jejambat Clementi North","name:zh":"\u91d1\u6587\u6cf0\u5317\u7acb\u4ea4","oneway":"yes","startNodeId":"1492179289","endNodeId":"568352073"},"geometry":{"type":"LineString","coordinates":[[103.7645193,1.3332839],[103.7646135,1.3335029]]}},{"type":"Feature","id":"way/44829770-0-0-0","properties":{"bridge":"yes","destination":"Clementi Avenue 6","destination:ref":"AYE","highway":"primary_link","lanes":"2","layer":"1","maxspeed":"50","name":"Clementi North Flyover","name:ms":"Jejambat Clementi North","name:zh":"\u91d1\u6587\u6cf0\u5317\u7acb\u4ea4","oneway":"yes","startNodeId":"568352089","endNodeId":"1492179287"},"geometry":{"type":"LineString","coordinates":[[103.7647119,1.3334525],[103.7646122,1.3332351]]}},{"type":"Feature","id":"way/44829770-0-1-0","properties":{"bridge":"yes","destination":"Clementi Avenue 6","destination:ref":"AYE","highway":"primary_link","lanes":"2","layer":"1","maxspeed":"50","name":"Clementi North Flyover","name:ms":"Jejambat Clementi North","name:zh":"\u91d1\u6587\u6cf0\u5317\u7acb\u4ea4","oneway":"yes","startNodeId":"1492179287","endNodeId":"1492179272"},"geometry":{"type":"LineString","coordinates":[[103.7646122,1.3332351],[103.7645508,1.3330225]]}},{"type":"Feature","id":"way/44829770-0-2-0","properties":{"bridge":"yes","destination":"Clementi Avenue 6","destination:ref":"AYE","highway":"primary_link","lanes":"2","layer":"1","maxspeed":"50","name":"Clementi North Flyover","name:ms":"Jejambat Clementi North","name:zh":"\u91d1\u6587\u6cf0\u5317\u7acb\u4ea4","oneway":"yes","startNodeId":"1492179272","endNodeId":"1492179268"},"geometry":{"type":"LineString","coordinates":[[103.7645508,1.3330225],[103.7645004,1.3327643]]}},{"type":"Feature","id":"way/44829770-0-3-0","properties":{"bridge":"yes","destination":"Clementi Avenue 6","destination:ref":"AYE","highway":"primary_link","lanes":"2","layer":"1","maxspeed":"50","name":"Clementi North Flyover","name:ms":"Jejambat Clementi North","name:zh":"\u91d1\u6587\u6cf0\u5317\u7acb\u4ea4","oneway":"yes","startNodeId":"1492179268","endNodeId":"246294007"},"geometry":{"type":"LineString","coordinates":[[103.7645004,1.3327643],[103.7643826,1.3319803]]}},{"type":"Feature","id":"way/44829771-0-1-0","properties":{"destination":"Clementi Avenue 6","destination:ref":"AYE","highway":"primary_link","lanes":"2","maxspeed":"50","oneway":"yes","startNodeId":"3740791120","endNodeId":"4726317204"},"geometry":{"type":"LineString","coordinates":[[103.7642685,1.333209],[103.7643881,1.3331456]]}},{"type":"Feature","id":"way/44839318-0-0-0","properties":{"highway":"primary_link","lanes":"1","maxspeed":"50","oneway":"yes","surface":"asphalt","turn:lanes":"left","startNodeId":"246293999","endNodeId":"6928034109"},"geometry":{"type":"LineString","coordinates":[[103.7640138,1.3303122],[103.7640077,1.3305028]]}},{"type":"Feature","id":"way/44839318-0-1-0","properties":{"highway":"primary_link","lanes":"1","maxspeed":"50","oneway":"yes","surface":"asphalt","turn:lanes":"left","startNodeId":"6928034109","endNodeId":"4747621401"},"geometry":{"type":"LineString","coordinates":[[103.7640077,1.3305028],[103.7640206,1.3307209]]}},{"type":"Feature","id":"way/135956118-0-0-0","properties":{"destination":"Changi Airport","destination:ref":"PIE;BKE","highway":"motorway_link","lanes":"2","maxspeed":"50","oneway":"yes","surface":"asphalt","turn:lanes":"through|through","startNodeId":"246293999","endNodeId":"6928034110"},"geometry":{"type":"LineString","coordinates":[[103.7640138,1.3303122],[103.7640399,1.3303929]]}},{"type":"Feature","id":"way/135956118-0-1-0","properties":{"destination":"Changi Airport","destination:ref":"PIE;BKE","highway":"motorway_link","lanes":"2","maxspeed":"50","oneway":"yes","surface":"asphalt","turn:lanes":"through|through","startNodeId":"6928034110","endNodeId":"6928034111"},"geometry":{"type":"LineString","coordinates":[[103.7640399,1.3303929],[103.7640573,1.3304921]]}},{"type":"Feature","id":"way/135956118-0-2-0","properties":{"destination":"Changi Airport","destination:ref":"PIE;BKE","highway":"motorway_link","lanes":"2","maxspeed":"50","oneway":"yes","surface":"asphalt","turn:lanes":"through|through","startNodeId":"6928034111","endNodeId":"6928034112"},"geometry":{"type":"LineString","coordinates":[[103.7640573,1.3304921],[103.7640841,1.3306959]]}},{"type":"Feature","id":"way/135956119-0-0-0","properties":{"highway":"primary","lanes":"3","maxspeed":"70","name":"Clementi Avenue 6","name:zh":"\u91d1\u6587\u6cf06\u9053","oneway":"yes","surface":"asphalt","turn:lanes":"through|through|through","startNodeId":"568352233","endNodeId":"5165981119"},"geometry":{"type":"LineString","coordinates":[[103.7641619,1.3301637],[103.7641163,1.3296823]]}},{"type":"Feature","id":"way/370372737-0-0-0","properties":{"destination":"Clementi Avenue 6","destination:ref":"AYE","highway":"motorway_link","lanes":"1","maxspeed":"50","oneway":"yes","surface":"asphalt","startNodeId":"1492179247","endNodeId":"13800979637"},"geometry":{"type":"LineString","coordinates":[[103.7655731,1.3321492],[103.7655453,1.3321436]]}},{"type":"Feature","id":"way/370372737-0-1-0","properties":{"destination":"Clementi Avenue 6","destination:ref":"AYE","highway":"motorway_link","lanes":"1","maxspeed":"50","oneway":"yes","surface":"asphalt","startNodeId":"13800979637","endNodeId":"568352223"},"geometry":{"type":"LineString","coordinates":[[103.7655453,1.3321436],[103.7651623,1.3321784]]}},{"type":"Feature","id":"way/370372737-0-2-0","properties":{"destination":"Clementi Avenue 6","destination:ref":"AYE","highway":"motorway_link","lanes":"1","maxspeed":"50","oneway":"yes","surface":"asphalt","startNodeId":"568352223","endNodeId":"5137714557"},"geometry":{"type":"LineString","coordinates":[[103.7651623,1.3321784],[103.7649695,1.3321484]]}},{"type":"Feature","id":"way/370372737-0-3-0","properties":{"destination":"Clementi Avenue 6","destination:ref":"AYE","highway":"motorway_link","lanes":"1","maxspeed":"50","oneway":"yes","surface":"asphalt","startNodeId":"5137714557","endNodeId":"3740791410"},"geometry":{"type":"LineString","coordinates":[[103.7649695,1.3321484],[103.7648031,1.3320794]]}},{"type":"Feature","id":"way/370372737-0-4-0","properties":{"destination":"Clementi Avenue 6","destination:ref":"AYE","highway":"motorway_link","lanes":"1","maxspeed":"50","oneway":"yes","surface":"asphalt","startNodeId":"3740791410","endNodeId":"568352229"},"geometry":{"type":"LineString","coordinates":[[103.7648031,1.3320794],[103.7646262,1.3319485]]}},{"type":"Feature","id":"way/370372737-0-5-0","properties":{"destination":"Clementi Avenue 6","destination:ref":"AYE","highway":"motorway_link","lanes":"1","maxspeed":"50","oneway":"yes","surface":"asphalt","startNodeId":"568352229","endNodeId":"1492179243"},"geometry":{"type":"LineString","coordinates":[[103.7646262,1.3319485],[103.7644878,1.3317394]]}},{"type":"Feature","id":"way/370372737-0-6-0","properties":{"destination":"Clementi Avenue 6","destination:ref":"AYE","highway":"motorway_link","lanes":"1","maxspeed":"50","oneway":"yes","surface":"asphalt","startNodeId":"1492179243","endNodeId":"1492179232"},"geometry":{"type":"LineString","coordinates":[[103.7644878,1.3317394],[103.7643996,1.3314874]]}},{"type":"Feature","id":"way/370372737-0-7-0","properties":{"destination":"Clementi Avenue 6","destination:ref":"AYE","highway":"motorway_link","lanes":"1","maxspeed":"50","oneway":"yes","surface":"asphalt","startNodeId":"1492179232","endNodeId":"1492179230"},"geometry":{"type":"LineString","coordinates":[[103.7643996,1.3314874],[103.764324,1.3309679]]}},{"type":"Feature","id":"way/370372737-0-8-0","properties":{"destination":"Clementi Avenue 6","destination:ref":"AYE","highway":"motorway_link","lanes":"1","maxspeed":"50","oneway":"yes","surface":"asphalt","startNodeId":"1492179230","endNodeId":"6928034107"},"geometry":{"type":"LineString","coordinates":[[103.764324,1.3309679],[103.7642437,1.330543]]}},{"type":"Feature","id":"way/370372737-0-9-0","properties":{"destination":"Clementi Avenue 6","destination:ref":"AYE","highway":"motorway_link","lanes":"1","maxspeed":"50","oneway":"yes","surface":"asphalt","startNodeId":"6928034107","endNodeId":"6928034104"},"geometry":{"type":"LineString","coordinates":[[103.7642437,1.330543],[103.7642115,1.3303795]]}},{"type":"Feature","id":"way/370372737-0-10-0","properties":{"destination":"Clementi Avenue 6","destination:ref":"AYE","highway":"motorway_link","lanes":"1","maxspeed":"50","oneway":"yes","surface":"asphalt","startNodeId":"6928034104","endNodeId":"8389144385"},"geometry":{"type":"LineString","coordinates":[[103.7642115,1.3303795],[103.7641853,1.3302653]]}},{"type":"Feature","id":"way/370372737-0-11-0","properties":{"destination":"Clementi Avenue 6","destination:ref":"AYE","highway":"motorway_link","lanes":"1","maxspeed":"50","oneway":"yes","surface":"asphalt","startNodeId":"8389144385","endNodeId":"568352233"},"geometry":{"type":"LineString","coordinates":[[103.7641853,1.3302653],[103.7641619,1.3301637]]}},{"type":"Feature","id":"way/370372738-0-0-0","properties":{"destination:street":"Bt Batok East Avenue 3;Toh Tuck Avenue","highway":"primary_link","lanes":"1","maxspeed":"50","oneway":"yes","surface":"asphalt","startNodeId":"3740792274","endNodeId":"3740791400"},"geometry":{"type":"LineString","coordinates":[[103.7640631,1.3312252],[103.7640888,1.3319219]]}},{"type":"Feature","id":"way/370372738-0-1-0","properties":{"destination:street":"Bt Batok East Avenue 3;Toh Tuck Avenue","highway":"primary_link","lanes":"1","maxspeed":"50","oneway":"yes","surface":"asphalt","startNodeId":"3740791400","endNodeId":"890424798"},"geometry":{"type":"LineString","coordinates":[[103.7640888,1.3319219],[103.7640602,1.3321182]]}},{"type":"Feature","id":"way/370372738-0-2-0","properties":{"destination:street":"Bt Batok East Avenue 3;Toh Tuck Avenue","highway":"primary_link","lanes":"1","maxspeed":"50","oneway":"yes","surface":"asphalt","startNodeId":"890424798","endNodeId":"3740792015"},"geometry":{"type":"LineString","coordinates":[[103.7640602,1.3321182],[103.7639505,1.3323284]]}},{"type":"Feature","id":"way/370372738-0-3-0","properties":{"destination:street":"Bt Batok East Avenue 3;Toh Tuck Avenue","highway":"primary_link","lanes":"1","maxspeed":"50","oneway":"yes","surface":"asphalt","startNodeId":"3740792015","endNodeId":"568465886"},"geometry":{"type":"LineString","coordinates":[[103.7639505,1.3323284],[103.7638502,1.3325286]]}},{"type":"Feature","id":"way/370372738-0-4-0","properties":{"destination:street":"Bt Batok East Avenue 3;Toh Tuck Avenue","highway":"primary_link","lanes":"1","maxspeed":"50","oneway":"yes","surface":"asphalt","startNodeId":"568465886","endNodeId":"5987757191"},"geometry":{"type":"LineString","coordinates":[[103.7638502,1.3325286],[103.7637926,1.3326077]]}},{"type":"Feature","id":"way/370372738-0-5-0","properties":{"destination:street":"Bt Batok East Avenue 3;Toh Tuck Avenue","highway":"primary_link","lanes":"1","maxspeed":"50","oneway":"yes","surface":"asphalt","startNodeId":"5987757191","endNodeId":"5137714558"},"geometry":{"type":"LineString","coordinates":[[103.7637926,1.3326077],[103.7637315,1.332678]]}},{"type":"Feature","id":"way/370372738-0-6-0","properties":{"destination:street":"Bt Batok East Avenue 3;Toh Tuck Avenue","highway":"primary_link","lanes":"1","maxspeed":"50","oneway":"yes","surface":"asphalt","startNodeId":"5137714558","endNodeId":"568465890"},"geometry":{"type":"LineString","coordinates":[[103.7637315,1.332678],[103.7636136,1.3327932]]}},{"type":"Feature","id":"way/370372738-0-7-0","properties":{"destination:street":"Bt Batok East Avenue 3;Toh Tuck Avenue","highway":"primary_link","lanes":"1","maxspeed":"50","oneway":"yes","surface":"asphalt","startNodeId":"568465890","endNodeId":"9222624791"},"geometry":{"type":"LineString","coordinates":[[103.7636136,1.3327932],[103.7633503,1.3329849]]}},{"type":"Feature","id":"way/370372738-0-8-0","properties":{"destination:street":"Bt Batok East Avenue 3;Toh Tuck Avenue","highway":"primary_link","lanes":"1","maxspeed":"50","oneway":"yes","surface":"asphalt","startNodeId":"9222624791","endNodeId":"1492179285"},"geometry":{"type":"LineString","coordinates":[[103.7633503,1.3329849],[103.7632927,1.333037]]}},{"type":"Feature","id":"way/370372739-0-0-0","properties":{"destination":"Bukit Batok East Avenue 3;Toh Tuck Avenue","highway":"motorway_link","lanes":"1","maxspeed":"50","oneway":"yes","surface":"asphalt","startNodeId":"1492179247","endNodeId":"5137714556"},"geometry":{"type":"LineString","coordinates":[[103.7655731,1.3321492],[103.7650986,1.3322926]]}},{"type":"Feature","id":"way/370372739-0-1-0","properties":{"destination":"Bukit Batok East Avenue 3;Toh Tuck Avenue","highway":"motorway_link","lanes":"1","maxspeed":"50","oneway":"yes","surface":"asphalt","startNodeId":"5137714556","endNodeId":"4726317197"},"geometry":{"type":"LineString","coordinates":[[103.7650986,1.3322926],[103.7645222,1.3324777]]}},{"type":"Feature","id":"way/370372740-0-0-0","properties":{"highway":"motorway","lanes":"4","maxspeed":"90","name":"Pan-Island Expressway","name:en":"Pan-Island Expressway","name:ms":"Lebuhraya Rentas Pulau","name:ta":"\u0ba4\u0bc0\u0bb5\u0bc1 \u0bb5\u0bbf\u0bb0\u0bc8\u0bb5\u0bc1\u0b9a\u0bcd\u0b9a\u0bbe\u0bb2\u0bc8","name:zh":"\u6cdb\u5c9b\u9ad8\u901f\u516c\u8def","oneway":"yes","ref":"PIE","short_name:ta":"\u0baa\u0bbf\u0b90\u0b87","surface":"asphalt","wikidata":"Q1585650","wikipedia":"en:Pan Island Expressway","startNodeId":"139694017","endNodeId":"139694272"},"geometry":{"type":"LineString","coordinates":[[103.7636008,1.333359],[103.7642093,1.3330079]]}},{"type":"Feature","id":"way/370372740-0-1-0","properties":{"highway":"motorway","lanes":"4","maxspeed":"90","name":"Pan-Island Expressway","name:en":"Pan-Island Expressway","name:ms":"Lebuhraya Rentas Pulau","name:ta":"\u0ba4\u0bc0\u0bb5\u0bc1 \u0bb5\u0bbf\u0bb0\u0bc8\u0bb5\u0bc1\u0b9a\u0bcd\u0b9a\u0bbe\u0bb2\u0bc8","name:zh":"\u6cdb\u5c9b\u9ad8\u901f\u516c\u8def","oneway":"yes","ref":"PIE","short_name:ta":"\u0baa\u0bbf\u0b90\u0b87","surface":"asphalt","wikidata":"Q1585650","wikipedia":"en:Pan Island Expressway","startNodeId":"139694272","endNodeId":"4726317201"},"geometry":{"type":"LineString","coordinates":[[103.7642093,1.3330079],[103.7643363,1.3329405]]}},{"type":"Feature","id":"way/370372741-0-7-0","properties":{"highway":"motorway","lanes":"3","maxspeed":"90","name":"Pan-Island Expressway","name:en":"Pan-Island Expressway","name:ms":"Lebuhraya Rentas Pulau","name:ta":"\u0ba4\u0bc0\u0bb5\u0bc1 \u0bb5\u0bbf\u0bb0\u0bc8\u0bb5\u0bc1\u0b9a\u0bcd\u0b9a\u0bbe\u0bb2\u0bc8","name:zh":"\u6cdb\u5c9b\u9ad8\u901f\u516c\u8def","oneway":"yes","ref":"PIE","short_name:ta":"\u0baa\u0bbf\u0b90\u0b87","surface":"asphalt","wikidata":"Q1585650","wikipedia":"en:Pan Island Expressway","startNodeId":"1492179250","endNodeId":"139671520"},"geometry":{"type":"LineString","coordinates":[[103.765682,1.332318],[103.7651189,1.3324693]]}},{"type":"Feature","id":"way/370372741-0-8-0","properties":{"highway":"motorway","lanes":"3","maxspeed":"90","name":"Pan-Island Expressway","name:en":"Pan-Island Expressway","name:ms":"Lebuhraya Rentas Pulau","name:ta":"\u0ba4\u0bc0\u0bb5\u0bc1 \u0bb5\u0bbf\u0bb0\u0bc8\u0bb5\u0bc1\u0b9a\u0bcd\u0b9a\u0bbe\u0bb2\u0bc8","name:zh":"\u6cdb\u5c9b\u9ad8\u901f\u516c\u8def","oneway":"yes","ref":"PIE","short_name:ta":"\u0baa\u0bbf\u0b90\u0b87","surface":"asphalt","wikidata":"Q1585650","wikipedia":"en:Pan Island Expressway","startNodeId":"139671520","endNodeId":"4726317200"},"geometry":{"type":"LineString","coordinates":[[103.7651189,1.3324693],[103.7645354,1.3326754]]}},{"type":"Feature","id":"way/370372758-0-0-0","properties":{"destination":"Tuas","destination:ref":"PIE","highway":"motorway_link","lanes":"1","maxspeed":"50","oneway":"yes","surface":"asphalt","startNodeId":"3740792274","endNodeId":"3740791394"},"geometry":{"type":"LineString","coordinates":[[103.7640631,1.3312252],[103.7641554,1.3316626]]}},{"type":"Feature","id":"way/370372758-0-1-0","properties":{"destination":"Tuas","destination:ref":"PIE","highway":"motorway_link","lanes":"1","maxspeed":"50","oneway":"yes","surface":"asphalt","startNodeId":"3740791394","endNodeId":"3740791403"},"geometry":{"type":"LineString","coordinates":[[103.7641554,1.3316626],[103.7641812,1.3319767]]}},{"type":"Feature","id":"way/370372758-0-2-0","properties":{"destination":"Tuas","destination:ref":"PIE","highway":"motorway_link","lanes":"1","maxspeed":"50","oneway":"yes","surface":"asphalt","startNodeId":"3740791403","endNodeId":"3740791409"},"geometry":{"type":"LineString","coordinates":[[103.7641812,1.3319767],[103.7641574,1.3321198]]}},{"type":"Feature","id":"way/370372759-0-0-0","properties":{"bridge":"yes","destination":"Tuas","destination:ref":"PIE","highway":"motorway_link","lanes":"1","layer":"1","maxspeed":"50","oneway":"yes","surface":"asphalt","startNodeId":"3740791409","endNodeId":"3740792007"},"geometry":{"type":"LineString","coordinates":[[103.7641574,1.3321198],[103.7641229,1.3322804]]}},{"type":"Feature","id":"way/370372759-0-1-0","properties":{"bridge":"yes","destination":"Tuas","destination:ref":"PIE","highway":"motorway_link","lanes":"1","layer":"1","maxspeed":"50","oneway":"yes","surface":"asphalt","startNodeId":"3740792007","endNodeId":"3740792019"},"geometry":{"type":"LineString","coordinates":[[103.7641229,1.3322804],[103.76407,1.332449]]}},{"type":"Feature","id":"way/370372759-0-2-0","properties":{"bridge":"yes","destination":"Tuas","destination:ref":"PIE","highway":"motorway_link","lanes":"1","layer":"1","maxspeed":"50","oneway":"yes","surface":"asphalt","startNodeId":"3740792019","endNodeId":"3740792024"},"geometry":{"type":"LineString","coordinates":[[103.76407,1.332449],[103.7639704,1.3326401]]}},{"type":"Feature","id":"way/370372759-0-3-0","properties":{"bridge":"yes","destination":"Tuas","destination:ref":"PIE","highway":"motorway_link","lanes":"1","layer":"1","maxspeed":"50","oneway":"yes","surface":"asphalt","startNodeId":"3740792024","endNodeId":"3740791101"},"geometry":{"type":"LineString","coordinates":[[103.7639704,1.3326401],[103.7638505,1.3327803]]}},{"type":"Feature","id":"way/370372759-0-4-0","properties":{"bridge":"yes","destination":"Tuas","destination:ref":"PIE","highway":"motorway_link","lanes":"1","layer":"1","maxspeed":"50","oneway":"yes","surface":"asphalt","startNodeId":"3740791101","endNodeId":"3740791110"},"geometry":{"type":"LineString","coordinates":[[103.7638505,1.3327803],[103.7637163,1.3329002]]}},{"type":"Feature","id":"way/370372759-0-5-0","properties":{"bridge":"yes","destination":"Tuas","destination:ref":"PIE","highway":"motorway_link","lanes":"1","layer":"1","maxspeed":"50","oneway":"yes","surface":"asphalt","startNodeId":"3740791110","endNodeId":"3740791113"},"geometry":{"type":"LineString","coordinates":[[103.7637163,1.3329002],[103.7635293,1.3330262]]}},{"type":"Feature","id":"way/370372759-0-6-0","properties":{"bridge":"yes","destination":"Tuas","destination:ref":"PIE","highway":"motorway_link","lanes":"1","layer":"1","maxspeed":"50","oneway":"yes","surface":"asphalt","startNodeId":"3740791113","endNodeId":"3740791123"},"geometry":{"type":"LineString","coordinates":[[103.7635293,1.3330262],[103.7628752,1.3333872]]}},{"type":"Feature","id":"way/465258275-0-0-0","properties":{"highway":"service","startNodeId":"4602471928","endNodeId":"4602471927"},"geometry":{"type":"LineString","coordinates":[[103.7625731,1.3314587],[103.7635738,1.3314739]]}},{"type":"Feature","id":"way/465258276-0-0-0","properties":{"highway":"service","lanes":"2","lanes:backward":"1","lanes:forward":"1","surface":"asphalt","turn:lanes:backward":"through","turn:lanes:forward":"through","startNodeId":"7081635825","endNodeId":"4602471936"},"geometry":{"type":"LineString","coordinates":[[103.7634098,1.3303943],[103.7636603,1.3304027]]}},{"type":"Feature","id":"way/465258276-0-1-0","properties":{"highway":"service","lanes":"2","lanes:backward":"1","lanes:forward":"1","surface":"asphalt","turn:lanes:backward":"through","turn:lanes:forward":"through","startNodeId":"4602471936","endNodeId":"4602471935"},"geometry":{"type":"LineString","coordinates":[[103.7636603,1.3304027],[103.7636838,1.330414]]}},{"type":"Feature","id":"way/465258276-0-2-0","properties":{"highway":"service","lanes":"2","lanes:backward":"1","lanes:forward":"1","surface":"asphalt","turn:lanes:backward":"through","turn:lanes:forward":"through","startNodeId":"4602471935","endNodeId":"4602471934"},"geometry":{"type":"LineString","coordinates":[[103.7636838,1.330414],[103.7636912,1.3304406]]}},{"type":"Feature","id":"way/465258276-0-3-0","properties":{"highway":"service","lanes":"2","lanes:backward":"1","lanes:forward":"1","surface":"asphalt","turn:lanes:backward":"through","turn:lanes:forward":"through","startNodeId":"4602471934","endNodeId":"4602471933"},"geometry":{"type":"LineString","coordinates":[[103.7636912,1.3304406],[103.7636983,1.3306711]]}},{"type":"Feature","id":"way/465258276-0-4-0","properties":{"highway":"service","lanes":"2","lanes:backward":"1","lanes:forward":"1","surface":"asphalt","turn:lanes:backward":"through","turn:lanes:forward":"through","startNodeId":"4602471933","endNodeId":"4602471932"},"geometry":{"type":"LineString","coordinates":[[103.7636983,1.3306711],[103.7636932,1.3306976]]}},{"type":"Feature","id":"way/465258276-0-5-0","properties":{"highway":"service","lanes":"2","lanes:backward":"1","lanes:forward":"1","surface":"asphalt","turn:lanes:backward":"through","turn:lanes:forward":"through","startNodeId":"4602471932","endNodeId":"4602471931"},"geometry":{"type":"LineString","coordinates":[[103.7636932,1.3306976],[103.7636795,1.3307208]]}},{"type":"Feature","id":"way/465258276-0-6-0","properties":{"highway":"service","lanes":"2","lanes:backward":"1","lanes:forward":"1","surface":"asphalt","turn:lanes:backward":"through","turn:lanes:forward":"through","startNodeId":"4602471931","endNodeId":"4602471930"},"geometry":{"type":"LineString","coordinates":[[103.7636795,1.3307208],[103.7635395,1.3308598]]}},{"type":"Feature","id":"way/465258276-0-7-0","properties":{"highway":"service","lanes":"2","lanes:backward":"1","lanes:forward":"1","surface":"asphalt","turn:lanes:backward":"through","turn:lanes:forward":"through","startNodeId":"4602471930","endNodeId":"4602471929"},"geometry":{"type":"LineString","coordinates":[[103.7635395,1.3308598],[103.7635025,1.3308774]]}},{"type":"Feature","id":"way/465258276-0-8-0","properties":{"highway":"service","lanes":"2","lanes:backward":"1","lanes:forward":"1","surface":"asphalt","turn:lanes:backward":"through","turn:lanes:forward":"through","startNodeId":"4602471929","endNodeId":"4602471945"},"geometry":{"type":"LineString","coordinates":[[103.7635025,1.3308774],[103.7634557,1.3308846]]}},{"type":"Feature","id":"way/465258277-0-0-0","properties":{"highway":"service","lanes":"2","lanes:backward":"1","lanes:forward":"1","surface":"asphalt","startNodeId":"4602471954","endNodeId":"4602471953"},"geometry":{"type":"LineString","coordinates":[[103.7624874,1.3307365],[103.7628784,1.3307329]]}},{"type":"Feature","id":"way/465258277-0-1-0","properties":{"highway":"service","lanes":"2","lanes:backward":"1","lanes:forward":"1","surface":"asphalt","startNodeId":"4602471953","endNodeId":"4602471952"},"geometry":{"type":"LineString","coordinates":[[103.7628784,1.3307329],[103.7629534,1.3307415]]}},{"type":"Feature","id":"way/465258277-0-2-0","properties":{"highway":"service","lanes":"2","lanes:backward":"1","lanes:forward":"1","surface":"asphalt","startNodeId":"4602471952","endNodeId":"4602471951"},"geometry":{"type":"LineString","coordinates":[[103.7629534,1.3307415],[103.7629721,1.330751]]}},{"type":"Feature","id":"way/465258277-0-3-0","properties":{"highway":"service","lanes":"2","lanes:backward":"1","lanes:forward":"1","surface":"asphalt","startNodeId":"4602471951","endNodeId":"4602471950"},"geometry":{"type":"LineString","coordinates":[[103.7629721,1.330751],[103.7629979,1.3307653]]}},{"type":"Feature","id":"way/465258277-0-4-0","properties":{"highway":"service","lanes":"2","lanes:backward":"1","lanes:forward":"1","surface":"asphalt","startNodeId":"4602471950","endNodeId":"6817963223"},"geometry":{"type":"LineString","coordinates":[[103.7629979,1.3307653],[103.7630703,1.3308434]]}},{"type":"Feature","id":"way/465258277-0-5-0","properties":{"highway":"service","lanes":"2","lanes:backward":"1","lanes:forward":"1","surface":"asphalt","startNodeId":"6817963223","endNodeId":"4602471949"},"geometry":{"type":"LineString","coordinates":[[103.7630703,1.3308434],[103.7630917,1.3308564]]}},{"type":"Feature","id":"way/465258277-0-6-0","properties":{"highway":"service","lanes":"2","lanes:backward":"1","lanes:forward":"1","surface":"asphalt","startNodeId":"4602471949","endNodeId":"4602471948"},"geometry":{"type":"LineString","coordinates":[[103.7630917,1.3308564],[103.7631086,1.3308653]]}},{"type":"Feature","id":"way/465258277-0-7-0","properties":{"highway":"service","lanes":"2","lanes:backward":"1","lanes:forward":"1","surface":"asphalt","startNodeId":"4602471948","endNodeId":"4602471947"},"geometry":{"type":"LineString","coordinates":[[103.7631086,1.3308653],[103.7633695,1.330877]]}},{"type":"Feature","id":"way/465258277-0-8-0","properties":{"highway":"service","lanes":"2","lanes:backward":"1","lanes:forward":"1","surface":"asphalt","startNodeId":"4602471947","endNodeId":"4602471946"},"geometry":{"type":"LineString","coordinates":[[103.7633695,1.330877],[103.7634195,1.3308818]]}},{"type":"Feature","id":"way/465258277-0-9-0","properties":{"highway":"service","lanes":"2","lanes:backward":"1","lanes:forward":"1","surface":"asphalt","startNodeId":"4602471946","endNodeId":"4602471945"},"geometry":{"type":"LineString","coordinates":[[103.7634195,1.3308818],[103.7634557,1.3308846]]}},{"type":"Feature","id":"way/465258278-0-0-0","properties":{"highway":"service","startNodeId":"4602471955","endNodeId":"4602471961"},"geometry":{"type":"LineString","coordinates":[[103.7621726,1.3314045],[103.7621656,1.3311483]]}},{"type":"Feature","id":"way/465258279-0-0-0","properties":{"highway":"service","startNodeId":"4602471961","endNodeId":"4602471960"},"geometry":{"type":"LineString","coordinates":[[103.7621656,1.3311483],[103.761963,1.3311421]]}},{"type":"Feature","id":"way/465258279-0-1-0","properties":{"highway":"service","startNodeId":"4602471960","endNodeId":"6817963222"},"geometry":{"type":"LineString","coordinates":[[103.761963,1.3311421],[103.7613523,1.3311518]]}},{"type":"Feature","id":"way/465258279-0-2-0","properties":{"highway":"service","startNodeId":"6817963222","endNodeId":"4602471959"},"geometry":{"type":"LineString","coordinates":[[103.7613523,1.3311518],[103.761326,1.3311487]]}},{"type":"Feature","id":"way/465258279-0-3-0","properties":{"highway":"service","startNodeId":"4602471959","endNodeId":"6817963221"},"geometry":{"type":"LineString","coordinates":[[103.761326,1.3311487],[103.7613067,1.331141]]}},{"type":"Feature","id":"way/465258279-0-4-0","properties":{"highway":"service","startNodeId":"6817963221","endNodeId":"4602471958"},"geometry":{"type":"LineString","coordinates":[[103.7613067,1.331141],[103.7612533,1.3311233]]}},{"type":"Feature","id":"way/465258279-0-5-0","properties":{"highway":"service","startNodeId":"4602471958","endNodeId":"4602471957"},"geometry":{"type":"LineString","coordinates":[[103.7612533,1.3311233],[103.7612094,1.3311183]]}},{"type":"Feature","id":"way/465258280-0-0-0","properties":{"highway":"service","lanes":"1","oneway":"yes","turn:lanes":"left;through","startNodeId":"4602471964","endNodeId":"6045235649"},"geometry":{"type":"LineString","coordinates":[[103.7626144,1.3324933],[103.7623474,1.3324953]]}},{"type":"Feature","id":"way/465258281-0-0-0","properties":{"highway":"service","lanes":"2","lanes:backward":"1","lanes:forward":"1","turn:lanes:backward":"left;right","turn:lanes:forward":"through","startNodeId":"4602471965","endNodeId":"4602471967"},"geometry":{"type":"LineString","coordinates":[[103.7626182,1.3317787],[103.7625663,1.3317783]]}},{"type":"Feature","id":"way/465258281-0-1-0","properties":{"highway":"service","lanes":"2","lanes:backward":"1","lanes:forward":"1","turn:lanes:backward":"left;right","turn:lanes:forward":"through","startNodeId":"4602471967","endNodeId":"6045235650"},"geometry":{"type":"LineString","coordinates":[[103.7625663,1.3317783],[103.7623528,1.3317765]]}},{"type":"Feature","id":"way/479551978-0-0-0","properties":{"destination":"Bukit Batok East Avenue 3;Toh Tuck Avenue","highway":"motorway_link","lanes":"1","maxheight":"4.5","maxspeed":"50","oneway":"yes","surface":"asphalt","startNodeId":"4726317197","endNodeId":"4726317198"},"geometry":{"type":"LineString","coordinates":[[103.7645222,1.3324777],[103.7642646,1.3325814]]}},{"type":"Feature","id":"way/479551979-0-0-0","properties":{"destination":"Bukit Batok East Avenue 3;Toh Tuck Avenue","highway":"motorway_link","lanes":"1","maxspeed":"50","oneway":"yes","surface":"asphalt","startNodeId":"4726317198","endNodeId":"9222624793"},"geometry":{"type":"LineString","coordinates":[[103.7642646,1.3325814],[103.7637822,1.3327846]]}},{"type":"Feature","id":"way/479551979-0-1-0","properties":{"destination":"Bukit Batok East Avenue 3;Toh Tuck Avenue","highway":"motorway_link","lanes":"1","maxspeed":"50","oneway":"yes","surface":"asphalt","startNodeId":"9222624793","endNodeId":"9222624792"},"geometry":{"type":"LineString","coordinates":[[103.7637822,1.3327846],[103.7634605,1.3329536]]}},{"type":"Feature","id":"way/479551979-0-2-0","properties":{"destination":"Bukit Batok East Avenue 3;Toh Tuck Avenue","highway":"motorway_link","lanes":"1","maxspeed":"50","oneway":"yes","surface":"asphalt","startNodeId":"9222624792","endNodeId":"9222624790"},"geometry":{"type":"LineString","coordinates":[[103.7634605,1.3329536],[103.7633727,1.3330008]]}},{"type":"Feature","id":"way/479551979-0-3-0","properties":{"destination":"Bukit Batok East Avenue 3;Toh Tuck Avenue","highway":"motorway_link","lanes":"1","maxspeed":"50","oneway":"yes","surface":"asphalt","startNodeId":"9222624790","endNodeId":"1492179285"},"geometry":{"type":"LineString","coordinates":[[103.7633727,1.3330008],[103.7632927,1.333037]]}},{"type":"Feature","id":"way/479551980-0-0-0","properties":{"highway":"motorway","lanes":"3","maxspeed":"90","name":"Pan-Island Expressway","name:en":"Pan-Island Expressway","name:ms":"Lebuhraya Rentas Pulau","name:ta":"\u0ba4\u0bc0\u0bb5\u0bc1 \u0bb5\u0bbf\u0bb0\u0bc8\u0bb5\u0bc1\u0b9a\u0bcd\u0b9a\u0bbe\u0bb2\u0bc8","name:zh":"\u6cdb\u5c9b\u9ad8\u901f\u516c\u8def","oneway":"yes","ref":"PIE","short_name:ta":"\u0baa\u0bbf\u0b90\u0b87","surface":"asphalt","wikidata":"Q1585650","wikipedia":"en:Pan Island Expressway","startNodeId":"4726317199","endNodeId":"139671547"},"geometry":{"type":"LineString","coordinates":[[103.7643088,1.3327762],[103.7640301,1.3329157]]}},{"type":"Feature","id":"way/479551980-0-1-0","properties":{"highway":"motorway","lanes":"3","maxspeed":"90","name":"Pan-Island Expressway","name:en":"Pan-Island Expressway","name:ms":"Lebuhraya Rentas Pulau","name:ta":"\u0ba4\u0bc0\u0bb5\u0bc1 \u0bb5\u0bbf\u0bb0\u0bc8\u0bb5\u0bc1\u0b9a\u0bcd\u0b9a\u0bbe\u0bb2\u0bc8","name:zh":"\u6cdb\u5c9b\u9ad8\u901f\u516c\u8def","oneway":"yes","ref":"PIE","short_name:ta":"\u0baa\u0bbf\u0b90\u0b87","surface":"asphalt","wikidata":"Q1585650","wikipedia":"en:Pan Island Expressway","startNodeId":"139671547","endNodeId":"5137714554"},"geometry":{"type":"LineString","coordinates":[[103.7640301,1.3329157],[103.7636013,1.3331428]]}},{"type":"Feature","id":"way/479551981-0-0-0","properties":{"highway":"motorway","lanes":"3","maxheight":"4.5","maxspeed":"90","name":"Pan-Island Expressway","name:en":"Pan-Island Expressway","name:ms":"Lebuhraya Rentas Pulau","name:ta":"\u0ba4\u0bc0\u0bb5\u0bc1 \u0bb5\u0bbf\u0bb0\u0bc8\u0bb5\u0bc1\u0b9a\u0bcd\u0b9a\u0bbe\u0bb2\u0bc8","name:zh":"\u6cdb\u5c9b\u9ad8\u901f\u516c\u8def","oneway":"yes","ref":"PIE","short_name:ta":"\u0baa\u0bbf\u0b90\u0b87","surface":"asphalt","wikidata":"Q1585650","wikipedia":"en:Pan Island Expressway","startNodeId":"4726317200","endNodeId":"4726317199"},"geometry":{"type":"LineString","coordinates":[[103.7645354,1.3326754],[103.7643088,1.3327762]]}},{"type":"Feature","id":"way/479551982-0-0-0","properties":{"highway":"motorway","lanes":"4","maxheight":"4.5","maxspeed":"90","name":"Pan-Island Expressway","name:en":"Pan-Island Expressway","name:ms":"Lebuhraya Rentas Pulau","name:ta":"\u0ba4\u0bc0\u0bb5\u0bc1 \u0bb5\u0bbf\u0bb0\u0bc8\u0bb5\u0bc1\u0b9a\u0bcd\u0b9a\u0bbe\u0bb2\u0bc8","name:zh":"\u6cdb\u5c9b\u9ad8\u901f\u516c\u8def","oneway":"yes","ref":"PIE","short_name:ta":"\u0baa\u0bbf\u0b90\u0b87","surface":"asphalt","wikidata":"Q1585650","wikipedia":"en:Pan Island Expressway","startNodeId":"4726317201","endNodeId":"3740791109"},"geometry":{"type":"LineString","coordinates":[[103.7643363,1.3329405],[103.7644464,1.3328849]]}},{"type":"Feature","id":"way/479551982-0-1-0","properties":{"highway":"motorway","lanes":"4","maxheight":"4.5","maxspeed":"90","name":"Pan-Island Expressway","name:en":"Pan-Island Expressway","name:ms":"Lebuhraya Rentas Pulau","name:ta":"\u0ba4\u0bc0\u0bb5\u0bc1 \u0bb5\u0bbf\u0bb0\u0bc8\u0bb5\u0bc1\u0b9a\u0bcd\u0b9a\u0bbe\u0bb2\u0bc8","name:zh":"\u6cdb\u5c9b\u9ad8\u901f\u516c\u8def","oneway":"yes","ref":"PIE","short_name:ta":"\u0baa\u0bbf\u0b90\u0b87","surface":"asphalt","wikidata":"Q1585650","wikipedia":"en:Pan Island Expressway","startNodeId":"3740791109","endNodeId":"4726317202"},"geometry":{"type":"LineString","coordinates":[[103.7644464,1.3328849],[103.7645903,1.3328307]]}},{"type":"Feature","id":"way/479551983-0-0-0","properties":{"highway":"motorway","lanes":"4","maxspeed":"90","name":"Pan-Island Expressway","name:en":"Pan-Island Expressway","name:ms":"Lebuhraya Rentas Pulau","name:ta":"\u0ba4\u0bc0\u0bb5\u0bc1 \u0bb5\u0bbf\u0bb0\u0bc8\u0bb5\u0bc1\u0b9a\u0bcd\u0b9a\u0bbe\u0bb2\u0bc8","name:zh":"\u6cdb\u5c9b\u9ad8\u901f\u516c\u8def","oneway":"yes","ref":"PIE","short_name:ta":"\u0baa\u0bbf\u0b90\u0b87","surface":"asphalt","wikidata":"Q1585650","wikipedia":"en:Pan Island Expressway","startNodeId":"4726317202","endNodeId":"139694706"},"geometry":{"type":"LineString","coordinates":[[103.7645903,1.3328307],[103.7651544,1.332634]]}},{"type":"Feature","id":"way/479551983-0-1-0","properties":{"highway":"motorway","lanes":"4","maxspeed":"90","name":"Pan-Island Expressway","name:en":"Pan-Island Expressway","name:ms":"Lebuhraya Rentas Pulau","name:ta":"\u0ba4\u0bc0\u0bb5\u0bc1 \u0bb5\u0bbf\u0bb0\u0bc8\u0bb5\u0bc1\u0b9a\u0bcd\u0b9a\u0bbe\u0bb2\u0bc8","name:zh":"\u6cdb\u5c9b\u9ad8\u901f\u516c\u8def","oneway":"yes","ref":"PIE","short_name:ta":"\u0baa\u0bbf\u0b90\u0b87","surface":"asphalt","wikidata":"Q1585650","wikipedia":"en:Pan Island Expressway","startNodeId":"139694706","endNodeId":"1492179261"},"geometry":{"type":"LineString","coordinates":[[103.7651544,1.332634],[103.7656994,1.3324907]]}},{"type":"Feature","id":"way/479551984-0-0-0","properties":{"destination":"Clementi Avenue 6","destination:ref":"AYE","highway":"primary_link","lanes":"2","maxspeed":"50","name":"Clementi North Flyover","name:ms":"Jejambat Clementi North","name:zh":"\u91d1\u6587\u6cf0\u5317\u7acb\u4ea4","oneway":"yes","startNodeId":"4726317203","endNodeId":"3740791108"},"geometry":{"type":"LineString","coordinates":[[103.7646233,1.3330294],[103.7649135,1.3329114]]}},{"type":"Feature","id":"way/479551984-0-1-0","properties":{"destination":"Clementi Avenue 6","destination:ref":"AYE","highway":"primary_link","lanes":"2","maxspeed":"50","name":"Clementi North Flyover","name:ms":"Jejambat Clementi North","name:zh":"\u91d1\u6587\u6cf0\u5317\u7acb\u4ea4","oneway":"yes","startNodeId":"3740791108","endNodeId":"5137714549"},"geometry":{"type":"LineString","coordinates":[[103.7649135,1.3329114],[103.7651057,1.3328649]]}},{"type":"Feature","id":"way/479551984-0-2-0","properties":{"destination":"Clementi Avenue 6","destination:ref":"AYE","highway":"primary_link","lanes":"2","maxspeed":"50","name":"Clementi North Flyover","name:ms":"Jejambat Clementi North","name:zh":"\u91d1\u6587\u6cf0\u5317\u7acb\u4ea4","oneway":"yes","startNodeId":"5137714549","endNodeId":"1218586458"},"geometry":{"type":"LineString","coordinates":[[103.7651057,1.3328649],[103.7652511,1.3328389]]}},{"type":"Feature","id":"way/479551984-0-3-0","properties":{"destination":"Clementi Avenue 6","destination:ref":"AYE","highway":"primary_link","lanes":"2","maxspeed":"50","name":"Clementi North Flyover","name:ms":"Jejambat Clementi North","name:zh":"\u91d1\u6587\u6cf0\u5317\u7acb\u4ea4","oneway":"yes","startNodeId":"1218586458","endNodeId":"1218586449"},"geometry":{"type":"LineString","coordinates":[[103.7652511,1.3328389],[103.7654454,1.3328249]]}},{"type":"Feature","id":"way/479551984-0-4-0","properties":{"destination":"Clementi Avenue 6","destination:ref":"AYE","highway":"primary_link","lanes":"2","maxspeed":"50","name":"Clementi North Flyover","name:ms":"Jejambat Clementi North","name:zh":"\u91d1\u6587\u6cf0\u5317\u7acb\u4ea4","oneway":"yes","startNodeId":"1218586449","endNodeId":"1218586450"},"geometry":{"type":"LineString","coordinates":[[103.7654454,1.3328249],[103.7655581,1.332841]]}},{"type":"Feature","id":"way/479551984-0-5-0","properties":{"destination":"Clementi Avenue 6","destination:ref":"AYE","highway":"primary_link","lanes":"2","maxspeed":"50","name":"Clementi North Flyover","name:ms":"Jejambat Clementi North","name:zh":"\u91d1\u6587\u6cf0\u5317\u7acb\u4ea4","oneway":"yes","startNodeId":"1218586450","endNodeId":"1218586467"},"geometry":{"type":"LineString","coordinates":[[103.7655581,1.332841],[103.76566,1.3328785]]}},{"type":"Feature","id":"way/479551985-0-0-0","properties":{"destination":"Clementi Avenue 6","destination:ref":"AYE","highway":"primary_link","lanes":"2","maxheight":"4.5","maxspeed":"50","oneway":"yes","startNodeId":"4726317204","endNodeId":"4726317203"},"geometry":{"type":"LineString","coordinates":[[103.7643881,1.3331456],[103.7646233,1.3330294]]}},{"type":"Feature","id":"way/481862693-0-0-0","properties":{"highway":"primary","lanes":"3","maxspeed":"70","name":"Clementi Avenue 6","name:zh":"\u91d1\u6587\u6cf06\u9053","oneway":"yes","surface":"asphalt","startNodeId":"4747609727","endNodeId":"6928034108"},"geometry":{"type":"LineString","coordinates":[[103.7639348,1.3293412],[103.7639755,1.3297775]]}},{"type":"Feature","id":"way/481863680-0-0-0","properties":{"highway":"primary_link","lanes":"2","maxspeed":"50","oneway":"yes","surface":"asphalt","turn:lanes":"left|through","startNodeId":"4747621401","endNodeId":"3740792274"},"geometry":{"type":"LineString","coordinates":[[103.7640206,1.3307209],[103.7640631,1.3312252]]}},{"type":"Feature","id":"way/539779473-0-0-0","properties":{"highway":"primary","lanes":"3","maxspeed":"70","name":"Clementi Avenue 6","name:zh":"\u91d1\u6587\u6cf06\u9053","oneway":"yes","surface":"asphalt","startNodeId":"246293993","endNodeId":"4747609727"},"geometry":{"type":"LineString","coordinates":[[103.7639264,1.3286754],[103.7639348,1.3293412]]}},{"type":"Feature","id":"way/541120183-0-0-0","properties":{"bicycle":"no","highway":"service","lanes":"1","name":"Clementi Loop","oneway":"yes","surface":"asphalt","startNodeId":"5233219886","endNodeId":"5233219884"},"geometry":{"type":"LineString","coordinates":[[103.7632016,1.3294023],[103.7632008,1.3288899]]}},{"type":"Feature","id":"way/632462991-0-0-0","properties":{"bicycle":"no","highway":"residential","lanes":"2","lanes:backward":"1","lanes:forward":"1","maxspeed":"50","name":"Clementi Loop","surface":"asphalt","turn:lanes:backward":"through","turn:lanes:forward":"through","startNodeId":"313936159","endNodeId":"7081635803"},"geometry":{"type":"LineString","coordinates":[[103.7624818,1.3294323],[103.7624819,1.3294614]]}},{"type":"Feature","id":"way/632474585-0-0-0","properties":{"bicycle":"no","highway":"service","lanes":"1","name":"Clementi Loop","oneway":"yes","surface":"asphalt","startNodeId":"5165983521","endNodeId":"313936288"},"geometry":{"type":"LineString","coordinates":[[103.7630883,1.3288883],[103.7630868,1.3294052]]}},{"type":"Feature","id":"way/632497668-0-1-0","properties":{"highway":"motorway","lanes":"3","maxspeed":"90","name":"Pan-Island Expressway","name:en":"Pan-Island Expressway","name:ms":"Lebuhraya Rentas Pulau","name:ta":"\u0ba4\u0bc0\u0bb5\u0bc1 \u0bb5\u0bbf\u0bb0\u0bc8\u0bb5\u0bc1\u0b9a\u0bcd\u0b9a\u0bbe\u0bb2\u0bc8","name:zh":"\u6cdb\u5c9b\u9ad8\u901f\u516c\u8def","oneway":"yes","ref":"PIE","short_name:ta":"\u0baa\u0bbf\u0b90\u0b87","surface":"asphalt","wikidata":"Q1585650","wikipedia":"en:Pan Island Expressway","startNodeId":"9222624770","endNodeId":"139694017"},"geometry":{"type":"LineString","coordinates":[[103.7634163,1.3334467],[103.7636008,1.333359]]}},{"type":"Feature","id":"way/642029868-0-0-0","properties":{"highway":"service","lanes":"1","oneway":"yes","turn:lanes":"through","startNodeId":"6045235645","endNodeId":"6045235646"},"geometry":{"type":"LineString","coordinates":[[103.7614542,1.332502],[103.761465,1.3317667]]}},{"type":"Feature","id":"way/642029869-0-0-0","properties":{"highway":"service","lanes":"1","oneway":"yes","turn:lanes":"through","startNodeId":"6045235648","endNodeId":"6045235647"},"geometry":{"type":"LineString","coordinates":[[103.7612692,1.3317675],[103.7612691,1.3325034]]}},{"type":"Feature","id":"way/642029870-0-0-0","properties":{"highway":"service","lanes":"1","oneway":"yes","turn:lanes":"through","startNodeId":"6045235649","endNodeId":"6817963217"},"geometry":{"type":"LineString","coordinates":[[103.7623474,1.3324953],[103.7623501,1.3320031]]}},{"type":"Feature","id":"way/642029871-0-0-0","properties":{"highway":"service","lanes":"1","oneway":"yes","turn:lanes":"left;right","startNodeId":"6817963218","endNodeId":"6045235652"},"geometry":{"type":"LineString","coordinates":[[103.7621315,1.3319991],[103.7621329,1.3317747]]}},{"type":"Feature","id":"way/642029873-0-0-0","properties":{"highway":"service","lanes":"1","oneway":"yes","turn:lanes":"left;right","startNodeId":"6817963219","endNodeId":"6045235654"},"geometry":{"type":"LineString","coordinates":[[103.7619022,1.3319991],[103.7619102,1.3317729]]}},{"type":"Feature","id":"way/642029875-0-0-0","properties":{"highway":"service","lanes":"1","oneway":"yes","turn:lanes":"through","startNodeId":"6045235656","endNodeId":"6817963220"},"geometry":{"type":"LineString","coordinates":[[103.7616526,1.3325005],[103.7616594,1.3319924]]}},{"type":"Feature","id":"way/643254337-0-0-0","properties":{"highway":"service","startNodeId":"4602471962","endNodeId":"4602471961"},"geometry":{"type":"LineString","coordinates":[[103.7624891,1.3311149],[103.7621656,1.3311483]]}},{"type":"Feature","id":"way/645326602-0-0-0","properties":{"highway":"service","surface":"asphalt","startNodeId":"4602471945","endNodeId":"4602471944"},"geometry":{"type":"LineString","coordinates":[[103.7634557,1.3308846],[103.7635002,1.3309552]]}},{"type":"Feature","id":"way/645326602-0-1-0","properties":{"highway":"service","surface":"asphalt","startNodeId":"4602471944","endNodeId":"4602471943"},"geometry":{"type":"LineString","coordinates":[[103.7635002,1.3309552],[103.7638014,1.330954]]}},{"type":"Feature","id":"way/645330313-0-0-0","properties":{"highway":"service","lanes":"1","oneway":"yes","turn:lanes":"left","startNodeId":"6045235647","endNodeId":"4602471963"},"geometry":{"type":"LineString","coordinates":[[103.7612691,1.3325034],[103.7610477,1.3325051]]}},{"type":"Feature","id":"way/645331392-0-0-0","properties":{"highway":"service","lanes":"2","lanes:backward":"1","lanes:forward":"1","turn:lanes:backward":"through","turn:lanes:forward":"left;right","startNodeId":"6045235648","endNodeId":"4602471966"},"geometry":{"type":"LineString","coordinates":[[103.7612692,1.3317675],[103.7610464,1.3317657]]}},{"type":"Feature","id":"way/727541149-0-0-0","properties":{"highway":"service","lanes":"1","oneway":"yes","turn:lanes":"left;right","startNodeId":"6817963217","endNodeId":"6045235650"},"geometry":{"type":"LineString","coordinates":[[103.7623501,1.3320031],[103.7623528,1.3317765]]}},{"type":"Feature","id":"way/727541150-0-0-0","properties":{"highway":"service","lanes":"2","lanes:backward":"1","lanes:forward":"1","turn:lanes:backward":"through","turn:lanes:forward":"through","startNodeId":"6045235646","endNodeId":"6045235648"},"geometry":{"type":"LineString","coordinates":[[103.761465,1.3317667],[103.7612692,1.3317675]]}},{"type":"Feature","id":"way/727541151-0-0-0","properties":{"highway":"service","lanes":"2","lanes:backward":"1","lanes:forward":"1","turn:lanes:backward":"through","turn:lanes:forward":"through","startNodeId":"6045235655","endNodeId":"6045235646"},"geometry":{"type":"LineString","coordinates":[[103.7616608,1.3317708],[103.761465,1.3317667]]}},{"type":"Feature","id":"way/727541152-0-0-0","properties":{"highway":"service","lanes":"2","lanes:backward":"1","lanes:forward":"1","turn:lanes:backward":"through","turn:lanes:forward":"through","startNodeId":"6045235654","endNodeId":"6045235655"},"geometry":{"type":"LineString","coordinates":[[103.7619102,1.3317729],[103.7616608,1.3317708]]}},{"type":"Feature","id":"way/727541153-0-0-0","properties":{"highway":"service","lanes":"2","lanes:backward":"1","lanes:forward":"1","turn:lanes:backward":"through","turn:lanes:forward":"through","startNodeId":"6045235652","endNodeId":"6045235654"},"geometry":{"type":"LineString","coordinates":[[103.7621329,1.3317747],[103.7619102,1.3317729]]}},{"type":"Feature","id":"way/727541154-0-0-0","properties":{"highway":"service","lanes":"2","lanes:backward":"1","lanes:forward":"1","turn:lanes:backward":"through","turn:lanes:forward":"through","startNodeId":"6045235650","endNodeId":"6045235652"},"geometry":{"type":"LineString","coordinates":[[103.7623528,1.3317765],[103.7621329,1.3317747]]}},{"type":"Feature","id":"way/727541155-0-0-0","properties":{"highway":"service","lanes":"1","oneway":"yes","startNodeId":"6045235645","endNodeId":"6045235647"},"geometry":{"type":"LineString","coordinates":[[103.7614542,1.332502],[103.7612691,1.3325034]]}},{"type":"Feature","id":"way/727541156-0-0-0","properties":{"highway":"service","lanes":"1","oneway":"yes","turn:lanes":"left;through","startNodeId":"6045235656","endNodeId":"6045235645"},"geometry":{"type":"LineString","coordinates":[[103.7616526,1.3325005],[103.7614542,1.332502]]}},{"type":"Feature","id":"way/727541157-0-0-0","properties":{"highway":"service","lanes":"1","oneway":"yes","turn:lanes":"left;through","startNodeId":"6045235653","endNodeId":"6045235656"},"geometry":{"type":"LineString","coordinates":[[103.7618913,1.3324987],[103.7616526,1.3325005]]}},{"type":"Feature","id":"way/727541158-0-0-0","properties":{"highway":"service","lanes":"1","oneway":"yes","turn:lanes":"left;through","startNodeId":"6045235651","endNodeId":"6045235653"},"geometry":{"type":"LineString","coordinates":[[103.7621167,1.332497],[103.7618913,1.3324987]]}},{"type":"Feature","id":"way/727541159-0-0-0","properties":{"highway":"service","lanes":"1","oneway":"yes","turn:lanes":"left;through","startNodeId":"6045235649","endNodeId":"6045235651"},"geometry":{"type":"LineString","coordinates":[[103.7623474,1.3324953],[103.7621167,1.332497]]}},{"type":"Feature","id":"way/727541160-0-0-0","properties":{"highway":"service","lanes":"1","oneway":"yes","turn:lanes":"through","startNodeId":"6045235651","endNodeId":"6817963218"},"geometry":{"type":"LineString","coordinates":[[103.7621167,1.332497],[103.7621315,1.3319991]]}},{"type":"Feature","id":"way/727541161-0-0-0","properties":{"highway":"service","lanes":"1","oneway":"yes","turn:lanes":"through","startNodeId":"6045235653","endNodeId":"6817963219"},"geometry":{"type":"LineString","coordinates":[[103.7618913,1.3324987],[103.7619022,1.3319991]]}},{"type":"Feature","id":"way/727541162-0-0-0","properties":{"highway":"service","lanes":"1","oneway":"yes","turn:lanes":"left;right","startNodeId":"6817963220","endNodeId":"6045235655"},"geometry":{"type":"LineString","coordinates":[[103.7616594,1.3319924],[103.7616608,1.3317708]]}},{"type":"Feature","id":"way/739907575-0-0-0","properties":{"destination":"Changi Airport","destination:ref":"PIE;BKE","highway":"motorway_link","lanes":"2","maxspeed":"50","oneway":"yes","surface":"asphalt","startNodeId":"6928034112","endNodeId":"6928034113"},"geometry":{"type":"LineString","coordinates":[[103.7640841,1.3306959],[103.7641418,1.331129]]}},{"type":"Feature","id":"way/739907575-0-1-0","properties":{"destination":"Changi Airport","destination:ref":"PIE;BKE","highway":"motorway_link","lanes":"2","maxspeed":"50","oneway":"yes","surface":"asphalt","startNodeId":"6928034113","endNodeId":"246294000"},"geometry":{"type":"LineString","coordinates":[[103.7641418,1.331129],[103.7642673,1.3320053]]}},{"type":"Feature","id":"way/739907576-0-0-0","properties":{"highway":"primary","lanes":"3","maxspeed":"70","name":"Clementi Avenue 6","name:zh":"\u91d1\u6587\u6cf06\u9053","oneway":"yes","surface":"asphalt","turn:lanes":"left|through|through","startNodeId":"6928034108","endNodeId":"246293999"},"geometry":{"type":"LineString","coordinates":[[103.7639755,1.3297775],[103.7640138,1.3303122]]}},{"type":"Feature","id":"way/740287277-0-0-0","properties":{"highway":"primary","lanes":"4","maxspeed":"70","name":"Clementi Avenue 6","name:zh":"\u91d1\u6587\u6cf06\u9053","oneway":"yes","surface":"asphalt","turn:lanes":"through|through|through|through;right","startNodeId":"5165981119","endNodeId":"5165981120"},"geometry":{"type":"LineString","coordinates":[[103.7641163,1.3296823],[103.7641042,1.3293056]]}},{"type":"Feature","id":"way/740287278-0-0-0","properties":{"highway":"primary","lanes":"4","maxspeed":"70","name":"Clementi Avenue 6","name:zh":"\u91d1\u6587\u6cf06\u9053","oneway":"yes","surface":"asphalt","turn:lanes":"through|through|through|right","startNodeId":"5165981120","endNodeId":"246294003"},"geometry":{"type":"LineString","coordinates":[[103.7641042,1.3293056],[103.7641039,1.3287724]]}},{"type":"Feature","id":"way/758279377-0-0-0","properties":{"highway":"service","lanes":"2","lanes:backward":"1","lanes:forward":"1","surface":"asphalt","turn:lanes:backward":"through","turn:lanes:forward":"through","startNodeId":"7081635829","endNodeId":"4602471938"},"geometry":{"type":"LineString","coordinates":[[103.7629084,1.330409],[103.7629498,1.3303953]]}},{"type":"Feature","id":"way/758279377-0-1-0","properties":{"highway":"service","lanes":"2","lanes:backward":"1","lanes:forward":"1","surface":"asphalt","turn:lanes:backward":"through","turn:lanes:forward":"through","startNodeId":"4602471938","endNodeId":"4602471937"},"geometry":{"type":"LineString","coordinates":[[103.7629498,1.3303953],[103.7630393,1.3303818]]}},{"type":"Feature","id":"way/758279377-0-2-0","properties":{"highway":"service","lanes":"2","lanes:backward":"1","lanes:forward":"1","surface":"asphalt","turn:lanes:backward":"through","turn:lanes:forward":"through","startNodeId":"4602471937","endNodeId":"7081635825"},"geometry":{"type":"LineString","coordinates":[[103.7630393,1.3303818],[103.7634098,1.3303943]]}},{"type":"Feature","id":"way/758279378-0-0-0","properties":{"highway":"service","lanes":"2","lanes:backward":"1","lanes:forward":"1","surface":"asphalt","startNodeId":"4602471942","endNodeId":"4602471941"},"geometry":{"type":"LineString","coordinates":[[103.7624807,1.3304294],[103.7627318,1.3304476]]}},{"type":"Feature","id":"way/758279378-0-1-0","properties":{"highway":"service","lanes":"2","lanes:backward":"1","lanes:forward":"1","surface":"asphalt","startNodeId":"4602471941","endNodeId":"4602471940"},"geometry":{"type":"LineString","coordinates":[[103.7627318,1.3304476],[103.7627994,1.3304459]]}},{"type":"Feature","id":"way/758279378-0-2-0","properties":{"highway":"service","lanes":"2","lanes:backward":"1","lanes:forward":"1","surface":"asphalt","startNodeId":"4602471940","endNodeId":"4602471939"},"geometry":{"type":"LineString","coordinates":[[103.7627994,1.3304459],[103.7628788,1.3304189]]}},{"type":"Feature","id":"way/758279378-0-3-0","properties":{"highway":"service","lanes":"2","lanes:backward":"1","lanes:forward":"1","surface":"asphalt","startNodeId":"4602471939","endNodeId":"7081635829"},"geometry":{"type":"LineString","coordinates":[[103.7628788,1.3304189],[103.7629084,1.330409]]}},{"type":"Feature","id":"way/758279379-0-0-0","properties":{"highway":"service","lanes":"1","oneway":"yes","turn:lanes":"through","startNodeId":"7081635814","endNodeId":"7081635813"},"geometry":{"type":"LineString","coordinates":[[103.7623179,1.3304192],[103.7623159,1.3302645]]}},{"type":"Feature","id":"way/758279379-0-1-0","properties":{"highway":"service","lanes":"1","oneway":"yes","turn:lanes":"through","startNodeId":"7081635813","endNodeId":"7081635812"},"geometry":{"type":"LineString","coordinates":[[103.7623159,1.3302645],[103.7623119,1.329994]]}},{"type":"Feature","id":"way/758279379-0-2-0","properties":{"highway":"service","lanes":"1","oneway":"yes","turn:lanes":"through","startNodeId":"7081635812","endNodeId":"7081635811"},"geometry":{"type":"LineString","coordinates":[[103.7623119,1.329994],[103.7623102,1.3297272]]}},{"type":"Feature","id":"way/758279379-0-3-0","properties":{"highway":"service","lanes":"1","oneway":"yes","turn:lanes":"through","startNodeId":"7081635811","endNodeId":"7081635810"},"geometry":{"type":"LineString","coordinates":[[103.7623102,1.3297272],[103.7623072,1.3296133]]}},{"type":"Feature","id":"way/758279379-0-4-0","properties":{"highway":"service","lanes":"1","oneway":"yes","turn:lanes":"through","startNodeId":"7081635810","endNodeId":"7081635809"},"geometry":{"type":"LineString","coordinates":[[103.7623072,1.3296133],[103.7623078,1.3296015]]}},{"type":"Feature","id":"way/758279380-0-0-0","properties":{"highway":"service","lanes":"1","oneway":"yes","turn:lanes":"left;right","startNodeId":"7081635809","endNodeId":"7081635808"},"geometry":{"type":"LineString","coordinates":[[103.7623078,1.3296015],[103.7623135,1.3295811]]}},{"type":"Feature","id":"way/758279380-0-1-0","properties":{"highway":"service","lanes":"1","oneway":"yes","turn:lanes":"left;right","startNodeId":"7081635808","endNodeId":"7081635807"},"geometry":{"type":"LineString","coordinates":[[103.7623135,1.3295811],[103.7623377,1.3295405]]}},{"type":"Feature","id":"way/758279380-0-2-0","properties":{"highway":"service","lanes":"1","oneway":"yes","turn:lanes":"left;right","startNodeId":"7081635807","endNodeId":"7081635806"},"geometry":{"type":"LineString","coordinates":[[103.7623377,1.3295405],[103.7623692,1.3294929]]}},{"type":"Feature","id":"way/758279380-0-3-0","properties":{"highway":"service","lanes":"1","oneway":"yes","turn:lanes":"left;right","startNodeId":"7081635806","endNodeId":"7081635805"},"geometry":{"type":"LineString","coordinates":[[103.7623692,1.3294929],[103.7623863,1.3294792]]}},{"type":"Feature","id":"way/758279380-0-4-0","properties":{"highway":"service","lanes":"1","oneway":"yes","turn:lanes":"left;right","startNodeId":"7081635805","endNodeId":"7081635804"},"geometry":{"type":"LineString","coordinates":[[103.7623863,1.3294792],[103.7624047,1.3294725]]}},{"type":"Feature","id":"way/758279380-0-5-0","properties":{"highway":"service","lanes":"1","oneway":"yes","turn:lanes":"left;right","startNodeId":"7081635804","endNodeId":"7081635803"},"geometry":{"type":"LineString","coordinates":[[103.7624047,1.3294725],[103.7624819,1.3294614]]}},{"type":"Feature","id":"way/758279381-0-0-0","properties":{"highway":"service","lanes":"1","oneway":"yes","startNodeId":"4602471942","endNodeId":"7081635814"},"geometry":{"type":"LineString","coordinates":[[103.7624807,1.3304294],[103.7623179,1.3304192]]}},{"type":"Feature","id":"way/758279382-0-0-0","properties":{"highway":"service","lanes":"1","oneway":"yes","turn:lanes":"left;right","startNodeId":"7081635815","endNodeId":"7081635816"},"geometry":{"type":"LineString","coordinates":[[103.7615696,1.3293659],[103.7615695,1.3291309]]}},{"type":"Feature","id":"way/758279383-0-0-0","properties":{"highway":"service","lanes":"1","oneway":"yes","turn:lanes":"through","startNodeId":"7081635814","endNodeId":"7081635823"},"geometry":{"type":"LineString","coordinates":[[103.7623179,1.3304192],[103.7617613,1.330417]]}},{"type":"Feature","id":"way/758279383-0-1-0","properties":{"highway":"service","lanes":"1","oneway":"yes","turn:lanes":"through","startNodeId":"7081635823","endNodeId":"7081635822"},"geometry":{"type":"LineString","coordinates":[[103.7617613,1.330417],[103.7616098,1.3304103]]}},{"type":"Feature","id":"way/758279383-0-2-0","properties":{"highway":"service","lanes":"1","oneway":"yes","turn:lanes":"through","startNodeId":"7081635822","endNodeId":"7081635821"},"geometry":{"type":"LineString","coordinates":[[103.7616098,1.3304103],[103.761587,1.3303942]]}},{"type":"Feature","id":"way/758279383-0-3-0","properties":{"highway":"service","lanes":"1","oneway":"yes","turn:lanes":"through","startNodeId":"7081635821","endNodeId":"7081635820"},"geometry":{"type":"LineString","coordinates":[[103.761587,1.3303942],[103.7615815,1.330386]]}},{"type":"Feature","id":"way/758279383-0-4-0","properties":{"highway":"service","lanes":"1","oneway":"yes","turn:lanes":"through","startNodeId":"7081635820","endNodeId":"7081635819"},"geometry":{"type":"LineString","coordinates":[[103.7615815,1.330386],[103.7615773,1.3303746]]}},{"type":"Feature","id":"way/758279383-0-5-0","properties":{"highway":"service","lanes":"1","oneway":"yes","turn:lanes":"through","startNodeId":"7081635819","endNodeId":"7081635818"},"geometry":{"type":"LineString","coordinates":[[103.7615773,1.3303746],[103.7615763,1.3303352]]}},{"type":"Feature","id":"way/758279383-0-6-0","properties":{"highway":"service","lanes":"1","oneway":"yes","turn:lanes":"through","startNodeId":"7081635818","endNodeId":"7081635817"},"geometry":{"type":"LineString","coordinates":[[103.7615763,1.3303352],[103.7615642,1.3299183]]}},{"type":"Feature","id":"way/758279383-0-7-0","properties":{"highway":"service","lanes":"1","oneway":"yes","turn:lanes":"through","startNodeId":"7081635817","endNodeId":"7081635815"},"geometry":{"type":"LineString","coordinates":[[103.7615642,1.3299183],[103.7615696,1.3293659]]}},{"type":"Feature","id":"way/758279384-0-0-0","properties":{"highway":"service","lanes":"1","oneway":"yes","turn:lanes":"left;right","startNodeId":"7081635830","endNodeId":"7081635827"},"geometry":{"type":"LineString","coordinates":[[103.7632316,1.3304934],[103.7633157,1.3304868]]}},{"type":"Feature","id":"way/758279384-0-1-0","properties":{"highway":"service","lanes":"1","oneway":"yes","turn:lanes":"left;right","startNodeId":"7081635827","endNodeId":"7081635826"},"geometry":{"type":"LineString","coordinates":[[103.7633157,1.3304868],[103.7633707,1.3304546]]}},{"type":"Feature","id":"way/758279384-0-2-0","properties":{"highway":"service","lanes":"1","oneway":"yes","turn:lanes":"left;right","startNodeId":"7081635826","endNodeId":"7081635825"},"geometry":{"type":"LineString","coordinates":[[103.7633707,1.3304546],[103.7634098,1.3303943]]}},{"type":"Feature","id":"way/758279385-0-0-0","properties":{"covered":"yes","highway":"service","lanes":"1","oneway":"yes","startNodeId":"7081635831","endNodeId":"7081635830"},"geometry":{"type":"LineString","coordinates":[[103.7630146,1.3304827],[103.7632316,1.3304934]]}},{"type":"Feature","id":"way/758279386-0-0-0","properties":{"highway":"service","lanes":"1","oneway":"yes","turn:lanes":"through","startNodeId":"7081635829","endNodeId":"7081635828"},"geometry":{"type":"LineString","coordinates":[[103.7629084,1.330409],[103.7629442,1.3304573]]}},{"type":"Feature","id":"way/758279386-0-1-0","properties":{"highway":"service","lanes":"1","oneway":"yes","turn:lanes":"through","startNodeId":"7081635828","endNodeId":"7081635824"},"geometry":{"type":"LineString","coordinates":[[103.7629442,1.3304573],[103.762971,1.3304747]]}},{"type":"Feature","id":"way/758279386-0-2-0","properties":{"highway":"service","lanes":"1","oneway":"yes","turn:lanes":"through","startNodeId":"7081635824","endNodeId":"7081635831"},"geometry":{"type":"LineString","coordinates":[[103.762971,1.3304747],[103.7630146,1.3304827]]}}]}