{"type":"FeatureCollection","features":[{"type":"Feature","id":"way/616049129-0-4-0","properties":{"highway":"service","surface":"ground"},"geometry":{"type":"LineString","coordinates":[[103.7656975,1.2058268],[103.7650993,1.2057276]]}},{"type":"Feature","id":"way/616049129-0-5-0","properties":{"highway":"service","surface":"ground"},"geometry":{"type":"LineString","coordinates":[[103.7650993,1.2057276],[103.7635704,1.2053401]]}},{"type":"Feature","id":"way/616049129-0-6-0","properties":{"highway":"service","surface":"ground"},"geometry":{"type":"LineString","coordinates":[[103.7635704,1.2053401],[103.7634545,1.205144]]}},{"type":"Feature","id":"way/616049129-0-7-0","properties":{"highway":"service","surface":"ground"},"geometry":{"type":"LineString","coordinates":[[103.7634545,1.205144],[103.7634066,1.2049922]]}},{"type":"Feature","id":"way/616049129-0-8-0","properties":{"highway":"service","surface":"ground"},"geometry":{"type":"LineString","coordinates":[[103.7634066,1.2049922],[103.7633599,1.2048125]]}},{"type":"Feature","id":"way/616049129-0-9-0","properties":{"highway":"service","surface":"ground"},"geometry":{"type":"LineString","coordinates":[[103.7633599,1.2048125],[103.7633533,1.2046288]]}},{"type":"Feature","id":"way/646940388-0-6-0","properties":{"highway":"service","surface":"asphalt"},"geometry":{"type":"LineString","coordinates":[[103.7632781,1.2030517],[103.7631848,1.2033114]]}},{"type":"Feature","id":"way/646940388-0-7-0","properties":{"highway":"service","surface":"asphalt"},"geometry":{"type":"LineString","coordinates":[[103.7631848,1.2033114],[103.763103,1.2035099]]}},{"type":"Feature","id":"way/646940388-0-8-0","properties":{"highway":"service","surface":"asphalt"},"geometry":{"type":"LineString","coordinates":[[103.763103,1.2035099],[103.7629968,1.203709]]}},{"type":"Feature","id":"way/646940388-0-9-0","properties":{"highway":"service","surface":"asphalt"},"geometry":{"type":"LineString","coordinates":[[103.7629968,1.203709],[103.7628859,1.2038904]]}},{"type":"Feature","id":"way/646940388-0-10-0","properties":{"highway":"service","surface":"asphalt"},"geometry":{"type":"LineString","coordinates":[[103.7628859,1.2038904],[103.7627271,1.2040935]]}},{"type":"Feature","id":"way/646940388-0-11-0","properties":{"highway":"service","surface":"asphalt"},"geometry":{"type":"LineString","coordinates":[[103.7627271,1.2040935],[103.762559,1.2042756]]}},{"type":"Feature","id":"way/646940388-0-12-0","properties":{"highway":"service","surface":"asphalt"},"geometry":{"type":"LineString","coordinates":[[103.762559,1.2042756],[103.762389,1.2044417]]}},{"type":"Feature","id":"way/646940388-0-13-0","properties":{"highway":"service","surface":"asphalt"},"geometry":{"type":"LineString","coordinates":[[103.762389,1.2044417],[103.7622017,1.2045977]]}},{"type":"Feature","id":"way/646940388-0-14-0","properties":{"highway":"service","surface":"asphalt"},"geometry":{"type":"LineString","coordinates":[[103.7622017,1.2045977],[103.7619519,1.2047681]]}},{"type":"Feature","id":"way/646940388-0-15-0","properties":{"highway":"service","surface":"asphalt"},"geometry":{"type":"LineString","coordinates":[[103.7619519,1.2047681],[103.7617184,1.2048919]]}},{"type":"Feature","id":"way/646940388-0-16-0","properties":{"highway":"service","surface":"asphalt"},"geometry":{"type":"LineString","coordinates":[[103.7617184,1.2048919],[103.7615619,1.2049619]]}},{"type":"Feature","id":"way/646940388-0-17-0","properties":{"highway":"service","surface":"asphalt"},"geometry":{"type":"LineString","coordinates":[[103.7615619,1.2049619],[103.7613983,1.2050311]]}},{"type":"Feature","id":"way/646940388-0-18-0","properties":{"highway":"service","surface":"asphalt"},"geometry":{"type":"LineString","coordinates":[[103.7613983,1.2050311],[103.7610817,1.2051242]]}},{"type":"Feature","id":"way/646940388-0-37-0","properties":{"highway":"service","surface":"asphalt"},"geometry":{"type":"LineString","coordinates":[[103.76106,1.2068163],[103.7622262,1.2072985]]}},{"type":"Feature","id":"way/646940388-0-38-0","properties":{"highway":"service","surface":"asphalt"},"geometry":{"type":"LineString","coordinates":[[103.7622262,1.2072985],[103.7633393,1.2077587]]}},{"type":"Feature","id":"way/871632357-0-0-0","properties":{"highway":"service","surface":"ground"},"geometry":{"type":"LineString","coordinates":[[103.7635704,1.2053401],[103.7632598,1.2054023]]}},{"type":"Feature","id":"way/871632357-0-1-0","properties":{"highway":"service","surface":"ground"},"geometry":{"type":"LineString","coordinates":[[103.7632598,1.2054023],[103.7631582,1.2057011]]}},{"type":"Feature","id":"way/871632357-0-2-0","properties":{"highway":"service","surface":"ground"},"geometry":{"type":"LineString","coordinates":[[103.7631582,1.2057011],[103.7629702,1.2061324]]}},{"type":"Feature","id":"way/871632357-0-3-0","properties":{"highway":"service","surface":"ground"},"geometry":{"type":"LineString","coordinates":[[103.7629702,1.2061324],[103.7628285,1.2063665]]}},{"type":"Feature","id":"way/871632357-0-4-0","properties":{"highway":"service","surface":"ground"},"geometry":{"type":"LineString","coordinates":[[103.7628285,1.2063665],[103.7626221,1.2065852]]}},{"type":"Feature","id":"way/871632357-0-5-0","properties":{"highway":"service","surface":"ground"},"geometry":{"type":"LineString","coordinates":[[103.7626221,1.2065852],[103.7623478,1.2069302]]}},{"type":"Feature","id":"way/871632357-0-6-0","properties":{"highway":"service","surface":"ground"},"geometry":{"type":"LineString","coordinates":[[103.7623478,1.2069302],[103.7622262,1.2072985]]}}]}