{"type":"FeatureCollection","features":[{"type":"Feature","id":"way/907222769-0","properties":{"addr:city":"Singapore","addr:housenumber":"30","addr:postcode":"739570","addr:street":"Kranji Loop","building":"industrial","building:levels":"6","height":"32","name":"TimMac @ Kranji","clearanceGeometry":{"type":"Polygon","coordinates":[[[103.7549393,1.4374011],[103.7548907,1.437733],[103.7549274,1.4377391],[103.754877,1.438081],[103.7548777,1.4381123],[103.7548951,1.4381333],[103.7549172,1.4381465],[103.7559174,1.4382875],[103.7559525,1.4382777],[103.7559809,1.4382489],[103.7560162,1.4380106],[103.7561502,1.4380256],[103.7561417,1.4381074],[103.7561497,1.438134],[103.756169,1.438152],[103.7562002,1.4381568],[103.7564759,1.4380758],[103.7567225,1.4380404],[103.7567416,1.438031],[103.7567511,1.438008],[103.7569799,1.4380382],[103.7570154,1.4380343],[103.7571141,1.4380013],[103.7571544,1.4379678],[103.75718,1.4379323],[103.7571947,1.4378951],[103.7572114,1.4376976],[103.7573542,1.4377161],[103.7573422,1.4378466],[103.7573512,1.4378733],[103.757366,1.4378914],[103.7573943,1.4379018],[103.7578132,1.4379371],[103.7578208,1.4378525],[103.7579128,1.4378604],[103.7579067,1.4378988],[103.7579177,1.4379224],[103.7579354,1.4379415],[103.7579598,1.4379526],[103.7585503,1.4380036],[103.7585719,1.4379947],[103.7585873,1.4379829],[103.7585987,1.437967],[103.7586056,1.43792],[103.758619,1.4379211],[103.7586471,1.4376036],[103.7589488,1.4376298],[103.7589786,1.4372986],[103.7589407,1.4372948],[103.7589555,1.4371192],[103.7590031,1.4371224],[103.7590114,1.437109],[103.7590133,1.4370602],[103.759002,1.4370347],[103.7589731,1.4370174],[103.7587788,1.4369978],[103.7587638,1.4370083],[103.7587611,1.4370909],[103.7586682,1.4370827],[103.7586716,1.4370267],[103.7586575,1.4369936],[103.7586352,1.436974],[103.7586085,1.4369625],[103.7582328,1.4369277],[103.7582175,1.4369375],[103.7582086,1.4369479],[103.7582073,1.437042],[103.7581157,1.4370339],[103.7581144,1.436988],[103.7580968,1.4369624],[103.7580752,1.43695],[103.7579083,1.4369129],[103.7577487,1.4368963],[103.7575952,1.4369002],[103.757453,1.4369157],[103.7574344,1.4369296],[103.7574252,1.4369489],[103.7574094,1.4371534],[103.7572581,1.4371392],[103.7572112,1.4371592],[103.7570654,1.43726],[103.7570178,1.4372618],[103.7565035,1.4372179],[103.7564224,1.4372409],[103.7563694,1.4372863],[103.7563416,1.4373403],[103.7563171,1.4375022],[103.7560918,1.4374736],[103.75611,1.4373395],[103.7560977,1.4373059],[103.756069,1.4372847],[103.7557127,1.4372348],[103.7556945,1.4372467],[103.755688,1.4373157],[103.7556145,1.4373063],[103.7556191,1.4372542],[103.7556016,1.4372333],[103.7555779,1.4372174],[103.7550537,1.4371392],[103.755026,1.4371539],[103.7550056,1.4371822],[103.7549729,1.4374062],[103.7549393,1.4374011]]]},"clearanceHeight":1.7,"clearancePrepared":true},"geometry":{"type":"Polygon","coordinates":[[[103.7549729,1.4374062],[103.7549393,1.4374011],[103.7548907,1.437733],[103.7549274,1.4377391],[103.754877,1.438081],[103.7548777,1.4381123],[103.7548951,1.4381333],[103.7549172,1.4381465],[103.7559174,1.4382875],[103.7559525,1.4382777],[103.7559809,1.4382489],[103.7560162,1.4380106],[103.7561502,1.4380256],[103.7561417,1.4381074],[103.7561497,1.438134],[103.756169,1.438152],[103.7562002,1.4381568],[103.7564759,1.4380758],[103.7567225,1.4380404],[103.7567416,1.438031],[103.7567511,1.438008],[103.7569799,1.4380382],[103.7570154,1.4380343],[103.7571141,1.4380013],[103.7571544,1.4379678],[103.75718,1.4379323],[103.7571947,1.4378951],[103.7572114,1.4376976],[103.7573542,1.4377161],[103.7573422,1.4378466],[103.7573512,1.4378733],[103.757366,1.4378914],[103.7573943,1.4379018],[103.7578132,1.4379371],[103.7578208,1.4378525],[103.7579128,1.4378604],[103.7579067,1.4378988],[103.7579177,1.4379224],[103.7579354,1.4379415],[103.7579598,1.4379526],[103.7585503,1.4380036],[103.7585719,1.4379947],[103.7585873,1.4379829],[103.7585987,1.437967],[103.7586056,1.43792],[103.758619,1.4379211],[103.7586471,1.4376036],[103.7589488,1.4376298],[103.7589786,1.4372986],[103.7589407,1.4372948],[103.7589555,1.4371192],[103.7590031,1.4371224],[103.7590114,1.437109],[103.7590133,1.4370602],[103.759002,1.4370347],[103.7589731,1.4370174],[103.7587788,1.4369978],[103.7587638,1.4370083],[103.7587611,1.4370909],[103.7586682,1.4370827],[103.7586716,1.4370267],[103.7586575,1.4369936],[103.7586352,1.436974],[103.7586085,1.4369625],[103.7582328,1.4369277],[103.7582175,1.4369375],[103.7582086,1.4369479],[103.7582073,1.437042],[103.7581157,1.4370339],[103.7581144,1.436988],[103.7580968,1.4369624],[103.7580752,1.43695],[103.7579083,1.4369129],[103.7577487,1.4368963],[103.7575952,1.4369002],[103.757453,1.4369157],[103.7574344,1.4369296],[103.7574252,1.4369489],[103.7574094,1.4371534],[103.7572581,1.4371392],[103.7572112,1.4371592],[103.7570654,1.43726],[103.7570178,1.4372618],[103.7565035,1.4372179],[103.7564224,1.4372409],[103.7563694,1.4372863],[103.7563416,1.4373403],[103.7563171,1.4375022],[103.7560918,1.4374736],[103.75611,1.4373395],[103.7560977,1.4373059],[103.756069,1.4372847],[103.7557127,1.4372348],[103.7556945,1.4372467],[103.755688,1.4373157],[103.7556145,1.4373063],[103.7556191,1.4372542],[103.7556016,1.4372333],[103.7555779,1.4372174],[103.7550537,1.4371392],[103.755026,1.4371539],[103.7550056,1.4371822],[103.7549729,1.4374062]]]}},{"type":"Feature","id":"way/907222770-0","properties":{"addr:city":"Singapore","addr:housenumber":"28","addr:postcode":"739571","addr:street":"Kranji Loop","building":"industrial","building:levels":"6","height":"32","name":"Kranji Green","clearanceGeometry":{"type":"MultiPolygon","coordinates":[[[[103.75987050015442,1.4370240337604494],[103.75927149909704,1.4369195495754146],[103.7591907,1.4376421],[103.7597946,1.4377101],[103.75987050015442,1.4370240337604494]]],[[[103.75990055357286,1.4370427320019776],[103.75990240379409,1.4370295987352515],[103.7598825145086,1.437026129432888],[103.75990055357286,1.4370427320019776]]],[[[103.7599824,1.4371113],[103.7599079,1.4377246],[103.7607516,1.437824],[103.7608399,1.4370869],[103.7600917,1.4370063],[103.7600538,1.4369889],[103.7600445,1.4369575],[103.7600494,1.4369262],[103.7600627,1.4369114],[103.7600977,1.4368918],[103.7601269,1.4368966],[103.760256,1.4370044],[103.7603214,1.4370269],[103.7603816,1.4370324],[103.7604366,1.4370236],[103.7604878,1.437001],[103.7605276,1.4369705],[103.7605674,1.4369239],[103.7605929,1.4368592],[103.7606039,1.4367921],[103.7605969,1.4367424],[103.7605756,1.4366849],[103.7605404,1.4366384],[103.7600895,1.4362615],[103.7600232,1.4362305],[103.7599524,1.4362252],[103.7598881,1.4362424],[103.7598348,1.436267],[103.7597913,1.4363054],[103.7597564,1.4363588],[103.7597369,1.4364278],[103.7597388,1.4364969],[103.759761,1.4365596],[103.7598,1.4366153],[103.7599243,1.4367267],[103.7599183,1.4367722],[103.7598786,1.4368179],[103.7598235,1.4368355],[103.7597772,1.4368179],[103.7596137,1.4366783],[103.7596991,1.4360021],[103.7584518,1.4358506],[103.7583683,1.4365849],[103.759299,1.4366876],[103.759276,1.4368793],[103.75928294974341,1.4368394775775843],[103.75999339620591,1.4369634012647485],[103.75997678136169,1.4370813369893376],[103.75997384822695,1.437104694363483],[103.7599824,1.4371113]]]]},"clearanceHeight":1.7,"clearancePrepared":true},"geometry":{"type":"Polygon","coordinates":[[[103.7597946,1.4377101],[103.7598714,1.4370159],[103.7599367,1.437076],[103.7599824,1.4371113],[103.7599079,1.4377246],[103.7607516,1.437824],[103.7608399,1.4370869],[103.7600917,1.4370063],[103.7600538,1.4369889],[103.7600445,1.4369575],[103.7600494,1.4369262],[103.7600627,1.4369114],[103.7600977,1.4368918],[103.7601269,1.4368966],[103.760256,1.4370044],[103.7603214,1.4370269],[103.7603816,1.4370324],[103.7604366,1.4370236],[103.7604878,1.437001],[103.7605276,1.4369705],[103.7605674,1.4369239],[103.7605929,1.4368592],[103.7606039,1.4367921],[103.7605969,1.4367424],[103.7605756,1.4366849],[103.7605404,1.4366384],[103.7600895,1.4362615],[103.7600232,1.4362305],[103.7599524,1.4362252],[103.7598881,1.4362424],[103.7598348,1.436267],[103.7597913,1.4363054],[103.7597564,1.4363588],[103.7597369,1.4364278],[103.7597388,1.4364969],[103.759761,1.4365596],[103.7598,1.4366153],[103.7599243,1.4367267],[103.7599183,1.4367722],[103.7598786,1.4368179],[103.7598235,1.4368355],[103.7597772,1.4368179],[103.7596137,1.4366783],[103.7596991,1.4360021],[103.7584518,1.4358506],[103.7583683,1.4365849],[103.759299,1.4366876],[103.759276,1.4368793],[103.7591907,1.4376421],[103.7597946,1.4377101]]]}},{"type":"Feature","id":"node/13988045896","properties":{"highway":"crossing"},"geometry":{"type":"Point","coordinates":[103.7586149,1.4367984]}},{"type":"Feature","id":"node/13988045933","properties":{"crossing":"unmarked","crossing:markings":"no","highway":"crossing"},"geometry":{"type":"Point","coordinates":[103.7579134,1.436736]}},{"type":"Feature","id":"node/13988045934","properties":{"crossing":"unmarked","crossing:markings":"no","highway":"crossing"},"geometry":{"type":"Point","coordinates":[103.7581383,1.4367585]}},{"type":"Feature","id":"node/13988045953","properties":{"highway":"crossing"},"geometry":{"type":"Point","coordinates":[103.7573122,1.4368827]}},{"type":"Feature","id":"way/639423318-0-5-0","properties":{"foot":"no","highway":"tertiary","lanes":"4","lanes:backward":"1","lanes:forward":"1","maxspeed":"50","name":"Kranji Loop","source":"Yahoo aerial images","surface":"asphalt","startNodeId":"13988045954","endNodeId":"6056697494"},"geometry":{"type":"LineString","coordinates":[[103.7567826,1.4369375],[103.7572559,1.4367876]]}},{"type":"Feature","id":"way/639423318-0-6-0","properties":{"foot":"no","highway":"tertiary","lanes":"4","lanes:backward":"1","lanes:forward":"1","maxspeed":"50","name":"Kranji Loop","source":"Yahoo aerial images","surface":"asphalt","startNodeId":"6056697494","endNodeId":"13988045952"},"geometry":{"type":"LineString","coordinates":[[103.7572559,1.4367876],[103.7573912,1.4367643]]}},{"type":"Feature","id":"way/639423318-0-7-0","properties":{"foot":"no","highway":"tertiary","lanes":"4","lanes:backward":"1","lanes:forward":"1","maxspeed":"50","name":"Kranji Loop","source":"Yahoo aerial images","surface":"asphalt","startNodeId":"13988045952","endNodeId":"13988045918"},"geometry":{"type":"LineString","coordinates":[[103.7573912,1.4367643],[103.7574512,1.4367539]]}},{"type":"Feature","id":"way/639423318-0-8-0","properties":{"foot":"no","highway":"tertiary","lanes":"4","lanes:backward":"1","lanes:forward":"1","maxspeed":"50","name":"Kranji Loop","source":"Yahoo aerial images","surface":"asphalt","startNodeId":"13988045918","endNodeId":"8424382386"},"geometry":{"type":"LineString","coordinates":[[103.7574512,1.4367539],[103.7576538,1.4367247]]}},{"type":"Feature","id":"way/639423318-0-9-0","properties":{"foot":"no","highway":"tertiary","lanes":"4","lanes:backward":"1","lanes:forward":"1","maxspeed":"50","name":"Kranji Loop","source":"Yahoo aerial images","surface":"asphalt","startNodeId":"8424382386","endNodeId":"8424382388"},"geometry":{"type":"LineString","coordinates":[[103.7576538,1.4367247],[103.7578864,1.4367329]]}},{"type":"Feature","id":"way/639423318-0-10-0","properties":{"foot":"no","highway":"tertiary","lanes":"4","lanes:backward":"1","lanes:forward":"1","maxspeed":"50","name":"Kranji Loop","source":"Yahoo aerial images","surface":"asphalt","startNodeId":"8424382388","endNodeId":"13988045933"},"geometry":{"type":"LineString","coordinates":[[103.7578864,1.4367329],[103.7579134,1.436736]]}},{"type":"Feature","id":"way/639423318-0-11-0","properties":{"foot":"no","highway":"tertiary","lanes":"4","lanes:backward":"1","lanes:forward":"1","maxspeed":"50","name":"Kranji Loop","source":"Yahoo aerial images","surface":"asphalt","startNodeId":"13988045933","endNodeId":"6485225105"},"geometry":{"type":"LineString","coordinates":[[103.7579134,1.436736],[103.7580354,1.4367499]]}},{"type":"Feature","id":"way/643653963-0-0-0","properties":{"highway":"service","startNodeId":"6056697494","endNodeId":"8386903681"},"geometry":{"type":"LineString","coordinates":[[103.7572559,1.4367876],[103.7572673,1.4366802]]}},{"type":"Feature","id":"way/907222772-0-0-0","properties":{"highway":"service","surface":"asphalt","startNodeId":"12642887512","endNodeId":"12642887516"},"geometry":{"type":"LineString","coordinates":[[103.7599367,1.437076],[103.759855,1.4377266]]}},{"type":"Feature","id":"way/907222772-0-1-0","properties":{"highway":"service","surface":"asphalt","startNodeId":"12642887516","endNodeId":"12787582265"},"geometry":{"type":"LineString","coordinates":[[103.759855,1.4377266],[103.7598356,1.4377655]]}},{"type":"Feature","id":"way/907222772-0-2-0","properties":{"highway":"service","surface":"asphalt","startNodeId":"12787582265","endNodeId":"12642887517"},"geometry":{"type":"LineString","coordinates":[[103.7598356,1.4377655],[103.7598016,1.4377829]]}},{"type":"Feature","id":"way/907222772-0-3-0","properties":{"highway":"service","surface":"asphalt","startNodeId":"12642887517","endNodeId":"12642887518"},"geometry":{"type":"LineString","coordinates":[[103.7598016,1.4377829],[103.7591221,1.4377153]]}},{"type":"Feature","id":"way/907222772-0-4-0","properties":{"highway":"service","surface":"asphalt","startNodeId":"12642887518","endNodeId":"12642887513"},"geometry":{"type":"LineString","coordinates":[[103.7591221,1.4377153],[103.7590892,1.4376945]]}},{"type":"Feature","id":"way/907222772-0-5-0","properties":{"highway":"service","surface":"asphalt","startNodeId":"12642887513","endNodeId":"12642887519"},"geometry":{"type":"LineString","coordinates":[[103.7590892,1.4376945],[103.7590684,1.4376563]]}},{"type":"Feature","id":"way/907222772-0-6-0","properties":{"highway":"service","surface":"asphalt","startNodeId":"12642887519","endNodeId":"8424382419"},"geometry":{"type":"LineString","coordinates":[[103.7590684,1.4376563],[103.7591307,1.4368647]]}},{"type":"Feature","id":"way/907222772-0-7-0","properties":{"highway":"service","surface":"asphalt","startNodeId":"8424382419","endNodeId":"12642887520"},"geometry":{"type":"LineString","coordinates":[[103.7591307,1.4368647],[103.7589325,1.4368441]]}},{"type":"Feature","id":"way/907222772-0-8-0","properties":{"highway":"service","surface":"asphalt","startNodeId":"12642887520","endNodeId":"13988045896"},"geometry":{"type":"LineString","coordinates":[[103.7589325,1.4368441],[103.7586149,1.4367984]]}},{"type":"Feature","id":"way/907222772-0-9-0","properties":{"highway":"service","surface":"asphalt","startNodeId":"13988045896","endNodeId":"13988045919"},"geometry":{"type":"LineString","coordinates":[[103.7586149,1.4367984],[103.75844,1.4367837]]}},{"type":"Feature","id":"way/907222772-0-10-0","properties":{"highway":"service","surface":"asphalt","startNodeId":"13988045919","endNodeId":"13988045934"},"geometry":{"type":"LineString","coordinates":[[103.75844,1.4367837],[103.7581383,1.4367585]]}},{"type":"Feature","id":"way/907222772-0-11-0","properties":{"highway":"service","surface":"asphalt","startNodeId":"13988045934","endNodeId":"6485225105"},"geometry":{"type":"LineString","coordinates":[[103.7581383,1.4367585],[103.7580354,1.4367499]]}},{"type":"Feature","id":"way/1365256016-0-0-0","properties":{"covered":"yes","highway":"service","startNodeId":"12642887514","endNodeId":"12642887515"},"geometry":{"type":"LineString","coordinates":[[103.759276,1.4368793],[103.7599479,1.4369965]]}},{"type":"Feature","id":"way/1365256016-0-1-0","properties":{"covered":"yes","highway":"service","startNodeId":"12642887515","endNodeId":"12642887512"},"geometry":{"type":"LineString","coordinates":[[103.7599479,1.4369965],[103.7599367,1.437076]]}},{"type":"Feature","id":"way/1365256017-0-0-0","properties":{"highway":"service","startNodeId":"8424382419","endNodeId":"12642887514"},"geometry":{"type":"LineString","coordinates":[[103.7591307,1.4368647],[103.759276,1.4368793]]}},{"type":"Feature","id":"way/1535200649-0-0-0","properties":{"highway":"service","oneway":"yes","surface":"asphalt","startNodeId":"13988045919","endNodeId":"13988045920"},"geometry":{"type":"LineString","coordinates":[[103.75844,1.4367837],[103.7583209,1.4367367]]}},{"type":"Feature","id":"way/1535200649-0-1-0","properties":{"highway":"service","oneway":"yes","surface":"asphalt","startNodeId":"13988045920","endNodeId":"13988045921"},"geometry":{"type":"LineString","coordinates":[[103.7583209,1.4367367],[103.7582468,1.4366949]]}},{"type":"Feature","id":"way/1535200655-0-0-0","properties":{"highway":"service","oneway":"yes","surface":"asphalt","startNodeId":"13988045950","endNodeId":"13988045951"},"geometry":{"type":"LineString","coordinates":[[103.7571658,1.4371383],[103.7572816,1.4369286]]}},{"type":"Feature","id":"way/1535200655-0-1-0","properties":{"highway":"service","oneway":"yes","surface":"asphalt","startNodeId":"13988045951","endNodeId":"13988045953"},"geometry":{"type":"LineString","coordinates":[[103.7572816,1.4369286],[103.7573122,1.4368827]]}},{"type":"Feature","id":"way/1535200655-0-2-0","properties":{"highway":"service","oneway":"yes","surface":"asphalt","startNodeId":"13988045953","endNodeId":"13988045952"},"geometry":{"type":"LineString","coordinates":[[103.7573122,1.4368827],[103.7573912,1.4367643]]}},{"type":"Feature","id":"way/1535200656-0-0-0","properties":{"highway":"service","oneway":"yes","surface":"asphalt","startNodeId":"13988045954","endNodeId":"13988045955"},"geometry":{"type":"LineString","coordinates":[[103.7567826,1.4369375],[103.7568813,1.4370177]]}},{"type":"Feature","id":"way/1535200656-0-1-0","properties":{"highway":"service","oneway":"yes","surface":"asphalt","startNodeId":"13988045955","endNodeId":"13988045956"},"geometry":{"type":"LineString","coordinates":[[103.7568813,1.4370177],[103.7569572,1.4371723]]}}]}