{"type":"FeatureCollection","features":[{"type":"Feature","id":"way/775447658-0","properties":{"building":"yes","clearanceGeometry":{"type":"Polygon","coordinates":[[[103.761275,1.2907503],[103.7610894,1.2904411],[103.7608794,1.2905672],[103.761065,1.2908763],[103.7612453,1.2907681],[103.761275,1.2907503]]]},"clearanceHeight":1.7,"clearancePrepared":true},"geometry":{"type":"Polygon","coordinates":[[[103.7612453,1.2907681],[103.761275,1.2907503],[103.7610894,1.2904411],[103.7608794,1.2905672],[103.761065,1.2908763],[103.7612453,1.2907681]]]}}]}