{"type":"FeatureCollection","features":[{"type":"Feature","id":"way/530426743-0","properties":{"building":"yes"},"geometry":{"type":"Polygon","coordinates":[[[103.7588531,1.3659133],[103.7586806,1.365792],[103.7583559,1.3662533],[103.7585284,1.3663747],[103.7588531,1.3659133]]]}},{"type":"Feature","id":"way/530426744-0","properties":{"building":"yes"},"geometry":{"type":"Polygon","coordinates":[[[103.7583708,1.3668843],[103.7584134,1.366684],[103.7583173,1.3666636],[103.7582747,1.3668639],[103.7583708,1.3668843]]]}},{"type":"Feature","id":"way/530426745-0","properties":{"building":"yes"},"geometry":{"type":"Polygon","coordinates":[[[103.7588133,1.3670921],[103.7588857,1.3669462],[103.7588652,1.3669343],[103.7588822,1.366903],[103.7587608,1.3668377],[103.7587094,1.3669345],[103.7587467,1.3669521],[103.7587047,1.3670373],[103.7588133,1.3670921]]]}},{"type":"Feature","id":"way/530426746-0","properties":{"building":"yes"},"geometry":{"type":"Polygon","coordinates":[[[103.758122,1.3675779],[103.7581385,1.3675158],[103.758102,1.3675061],[103.7580856,1.3675682],[103.758122,1.3675779]]]}},{"type":"Feature","id":"way/530426747-0","properties":{"building":"yes"},"geometry":{"type":"Polygon","coordinates":[[[103.758283,1.3673344],[103.7583001,1.3672458],[103.7582013,1.3672267],[103.7581842,1.3673153],[103.758283,1.3673344]]]}},{"type":"Feature","id":"way/111346957-0-0-0","properties":{"bicycle":"permissive","foot":"permissive","highway":"service","lanes":"2","lanes:backward":"1","lanes:forward":"1","motor_vehicle":"no","surface":"asphalt"},"geometry":{"type":"LineString","coordinates":[[103.7579625,1.3681511],[103.7579832,1.3682955]]}},{"type":"Feature","id":"way/111346957-0-1-0","properties":{"bicycle":"permissive","foot":"permissive","highway":"service","lanes":"2","lanes:backward":"1","lanes:forward":"1","motor_vehicle":"no","surface":"asphalt"},"geometry":{"type":"LineString","coordinates":[[103.7579832,1.3682955],[103.7580476,1.3684188]]}},{"type":"Feature","id":"way/111346957-0-2-0","properties":{"bicycle":"permissive","foot":"permissive","highway":"service","lanes":"2","lanes:backward":"1","lanes:forward":"1","motor_vehicle":"no","surface":"asphalt"},"geometry":{"type":"LineString","coordinates":[[103.7580476,1.3684188],[103.7581587,1.3685451]]}},{"type":"Feature","id":"way/111346957-0-3-0","properties":{"bicycle":"permissive","foot":"permissive","highway":"service","lanes":"2","lanes:backward":"1","lanes:forward":"1","motor_vehicle":"no","surface":"asphalt"},"geometry":{"type":"LineString","coordinates":[[103.7581587,1.3685451],[103.7582856,1.3686359]]}},{"type":"Feature","id":"way/111346957-0-4-0","properties":{"bicycle":"permissive","foot":"permissive","highway":"service","lanes":"2","lanes:backward":"1","lanes:forward":"1","motor_vehicle":"no","surface":"asphalt"},"geometry":{"type":"LineString","coordinates":[[103.7582856,1.3686359],[103.7584285,1.3686816]]}},{"type":"Feature","id":"way/111346957-0-5-0","properties":{"bicycle":"permissive","foot":"permissive","highway":"service","lanes":"2","lanes:backward":"1","lanes:forward":"1","motor_vehicle":"no","surface":"asphalt"},"geometry":{"type":"LineString","coordinates":[[103.7584285,1.3686816],[103.7585713,1.3686951]]}},{"type":"Feature","id":"way/111346957-0-6-0","properties":{"bicycle":"permissive","foot":"permissive","highway":"service","lanes":"2","lanes:backward":"1","lanes:forward":"1","motor_vehicle":"no","surface":"asphalt"},"geometry":{"type":"LineString","coordinates":[[103.7585713,1.3686951],[103.7587084,1.3686626]]}},{"type":"Feature","id":"way/111346957-0-7-0","properties":{"bicycle":"permissive","foot":"permissive","highway":"service","lanes":"2","lanes:backward":"1","lanes:forward":"1","motor_vehicle":"no","surface":"asphalt"},"geometry":{"type":"LineString","coordinates":[[103.7587084,1.3686626],[103.7589151,1.3685704]]}},{"type":"Feature","id":"way/111346957-0-8-0","properties":{"bicycle":"permissive","foot":"permissive","highway":"service","lanes":"2","lanes:backward":"1","lanes:forward":"1","motor_vehicle":"no","surface":"asphalt"},"geometry":{"type":"LineString","coordinates":[[103.7589151,1.3685704],[103.7591809,1.3684481]]}},{"type":"Feature","id":"way/111346957-0-9-0","properties":{"bicycle":"permissive","foot":"permissive","highway":"service","lanes":"2","lanes:backward":"1","lanes:forward":"1","motor_vehicle":"no","surface":"asphalt"},"geometry":{"type":"LineString","coordinates":[[103.7591809,1.3684481],[103.7594387,1.3683202]]}},{"type":"Feature","id":"way/111346957-0-10-0","properties":{"bicycle":"permissive","foot":"permissive","highway":"service","lanes":"2","lanes:backward":"1","lanes:forward":"1","motor_vehicle":"no","surface":"asphalt"},"geometry":{"type":"LineString","coordinates":[[103.7594387,1.3683202],[103.7596477,1.368231]]}},{"type":"Feature","id":"way/111346957-0-11-0","properties":{"bicycle":"permissive","foot":"permissive","highway":"service","lanes":"2","lanes:backward":"1","lanes:forward":"1","motor_vehicle":"no","surface":"asphalt"},"geometry":{"type":"LineString","coordinates":[[103.7596477,1.368231],[103.7598232,1.3681721]]}},{"type":"Feature","id":"way/111346957-0-12-0","properties":{"bicycle":"permissive","foot":"permissive","highway":"service","lanes":"2","lanes:backward":"1","lanes:forward":"1","motor_vehicle":"no","surface":"asphalt"},"geometry":{"type":"LineString","coordinates":[[103.7598232,1.3681721],[103.7599949,1.3681292]]}},{"type":"Feature","id":"way/111346957-0-13-0","properties":{"bicycle":"permissive","foot":"permissive","highway":"service","lanes":"2","lanes:backward":"1","lanes:forward":"1","motor_vehicle":"no","surface":"asphalt"},"geometry":{"type":"LineString","coordinates":[[103.7599949,1.3681292],[103.7601253,1.3681013]]}},{"type":"Feature","id":"way/111346957-0-14-0","properties":{"bicycle":"permissive","foot":"permissive","highway":"service","lanes":"2","lanes:backward":"1","lanes:forward":"1","motor_vehicle":"no","surface":"asphalt"},"geometry":{"type":"LineString","coordinates":[[103.7601253,1.3681013],[103.7602631,1.3681024]]}},{"type":"Feature","id":"way/111346957-0-15-0","properties":{"bicycle":"permissive","foot":"permissive","highway":"service","lanes":"2","lanes:backward":"1","lanes:forward":"1","motor_vehicle":"no","surface":"asphalt"},"geometry":{"type":"LineString","coordinates":[[103.7602631,1.3681024],[103.7604294,1.3681078]]}},{"type":"Feature","id":"way/111346957-0-16-0","properties":{"bicycle":"permissive","foot":"permissive","highway":"service","lanes":"2","lanes:backward":"1","lanes:forward":"1","motor_vehicle":"no","surface":"asphalt"},"geometry":{"type":"LineString","coordinates":[[103.7604294,1.3681078],[103.7605742,1.36814]]}},{"type":"Feature","id":"way/111346957-0-17-0","properties":{"bicycle":"permissive","foot":"permissive","highway":"service","lanes":"2","lanes:backward":"1","lanes:forward":"1","motor_vehicle":"no","surface":"asphalt"},"geometry":{"type":"LineString","coordinates":[[103.7605742,1.36814],[103.7607888,1.3681882]]}},{"type":"Feature","id":"way/111346957-0-18-0","properties":{"bicycle":"permissive","foot":"permissive","highway":"service","lanes":"2","lanes:backward":"1","lanes:forward":"1","motor_vehicle":"no","surface":"asphalt"},"geometry":{"type":"LineString","coordinates":[[103.7607888,1.3681882],[103.760998,1.3682794]]}},{"type":"Feature","id":"way/367580588-0-0-0","properties":{"bicycle":"no","bus":"yes","highway":"service","horse":"no","name":"MINDEF Carpark","oneway":"yes","psv":"yes"},"geometry":{"type":"LineString","coordinates":[[103.7608589,1.3690542],[103.76095,1.3692239]]}},{"type":"Feature","id":"way/367580588-0-1-0","properties":{"bicycle":"no","bus":"yes","highway":"service","horse":"no","name":"MINDEF Carpark","oneway":"yes","psv":"yes"},"geometry":{"type":"LineString","coordinates":[[103.76095,1.3692239],[103.7609721,1.3692366]]}},{"type":"Feature","id":"way/367580588-0-2-0","properties":{"bicycle":"no","bus":"yes","highway":"service","horse":"no","name":"MINDEF Carpark","oneway":"yes","psv":"yes"},"geometry":{"type":"LineString","coordinates":[[103.7609721,1.3692366],[103.7609989,1.3692317]]}},{"type":"Feature","id":"way/480869501-0-0-0","properties":{"highway":"service","source":"Kaart Ground Survey 2017"},"geometry":{"type":"LineString","coordinates":[[103.7588755,1.3661011],[103.758912,1.3660258]]}},{"type":"Feature","id":"way/480869501-0-1-0","properties":{"highway":"service","source":"Kaart Ground Survey 2017"},"geometry":{"type":"LineString","coordinates":[[103.758912,1.3660258],[103.7589151,1.365845]]}},{"type":"Feature","id":"way/480869501-0-2-0","properties":{"highway":"service","source":"Kaart Ground Survey 2017"},"geometry":{"type":"LineString","coordinates":[[103.7589151,1.365845],[103.7588945,1.3657293]]}},{"type":"Feature","id":"way/480869501-0-3-0","properties":{"highway":"service","source":"Kaart Ground Survey 2017"},"geometry":{"type":"LineString","coordinates":[[103.7588945,1.3657293],[103.7588596,1.3656579]]}},{"type":"Feature","id":"way/480869501-0-4-0","properties":{"highway":"service","source":"Kaart Ground Survey 2017"},"geometry":{"type":"LineString","coordinates":[[103.7588596,1.3656579],[103.758823,1.3655201]]}},{"type":"Feature","id":"way/480869501-0-5-0","properties":{"highway":"service","source":"Kaart Ground Survey 2017"},"geometry":{"type":"LineString","coordinates":[[103.758823,1.3655201],[103.7587586,1.3653498]]}},{"type":"Feature","id":"way/480869501-0-6-0","properties":{"highway":"service","source":"Kaart Ground Survey 2017"},"geometry":{"type":"LineString","coordinates":[[103.7587586,1.3653498],[103.7586594,1.3652104]]}},{"type":"Feature","id":"way/480869501-0-7-0","properties":{"highway":"service","source":"Kaart Ground Survey 2017"},"geometry":{"type":"LineString","coordinates":[[103.7586594,1.3652104],[103.7585145,1.3650777]]}},{"type":"Feature","id":"way/480869501-0-8-0","properties":{"highway":"service","source":"Kaart Ground Survey 2017"},"geometry":{"type":"LineString","coordinates":[[103.7585145,1.3650777],[103.7582597,1.3649289]]}},{"type":"Feature","id":"way/480869501-0-9-0","properties":{"highway":"service","source":"Kaart Ground Survey 2017"},"geometry":{"type":"LineString","coordinates":[[103.7582597,1.3649289],[103.7579378,1.3647975]]}},{"type":"Feature","id":"way/529746623-0-3-0","properties":{"highway":"service","lanes":"1","oneway":"yes"},"geometry":{"type":"LineString","coordinates":[[103.7605382,1.3696073],[103.7613925,1.3690663]]}},{"type":"Feature","id":"way/539712877-0-0-0","properties":{"highway":"service"},"geometry":{"type":"LineString","coordinates":[[103.7572955,1.3690033],[103.757392,1.3691293]]}},{"type":"Feature","id":"way/539712877-0-1-0","properties":{"highway":"service"},"geometry":{"type":"LineString","coordinates":[[103.757392,1.3691293],[103.7574711,1.3691964]]}},{"type":"Feature","id":"way/539712877-0-2-0","properties":{"highway":"service"},"geometry":{"type":"LineString","coordinates":[[103.7574711,1.3691964],[103.7575784,1.369242]]}},{"type":"Feature","id":"way/539712877-0-3-0","properties":{"highway":"service"},"geometry":{"type":"LineString","coordinates":[[103.7575784,1.369242],[103.7576978,1.3692567]]}},{"type":"Feature","id":"way/539712877-0-4-0","properties":{"highway":"service"},"geometry":{"type":"LineString","coordinates":[[103.7576978,1.3692567],[103.7577984,1.369258]]}},{"type":"Feature","id":"way/539712877-0-5-0","properties":{"highway":"service"},"geometry":{"type":"LineString","coordinates":[[103.7577984,1.369258],[103.7579003,1.3692339]]}},{"type":"Feature","id":"way/539712877-0-6-0","properties":{"highway":"service"},"geometry":{"type":"LineString","coordinates":[[103.7579003,1.3692339],[103.7582476,1.3691012]]}},{"type":"Feature","id":"way/539712877-0-7-0","properties":{"highway":"service"},"geometry":{"type":"LineString","coordinates":[[103.7582476,1.3691012],[103.7583469,1.3690771]]}},{"type":"Feature","id":"way/539712877-0-8-0","properties":{"highway":"service"},"geometry":{"type":"LineString","coordinates":[[103.7583469,1.3690771],[103.7586272,1.3691025]]}},{"type":"Feature","id":"way/539712877-0-9-0","properties":{"highway":"service"},"geometry":{"type":"LineString","coordinates":[[103.7586272,1.3691025],[103.7587237,1.3691401]]}},{"type":"Feature","id":"way/539712877-0-10-0","properties":{"highway":"service"},"geometry":{"type":"LineString","coordinates":[[103.7587237,1.3691401],[103.7588042,1.3692165]]}},{"type":"Feature","id":"way/539712877-0-11-0","properties":{"highway":"service"},"geometry":{"type":"LineString","coordinates":[[103.7588042,1.3692165],[103.7589088,1.3693278]]}},{"type":"Feature","id":"way/539712878-0-0-0","properties":{"highway":"service","source":"Bing, part estimated"},"geometry":{"type":"LineString","coordinates":[[103.7579625,1.3681511],[103.7577876,1.3682981]]}},{"type":"Feature","id":"way/539712878-0-1-0","properties":{"highway":"service","source":"Bing, part estimated"},"geometry":{"type":"LineString","coordinates":[[103.7577876,1.3682981],[103.7574175,1.3688424]]}},{"type":"Feature","id":"way/539712878-0-2-0","properties":{"highway":"service","source":"Bing, part estimated"},"geometry":{"type":"LineString","coordinates":[[103.7574175,1.3688424],[103.7572955,1.3690033]]}},{"type":"Feature","id":"way/644890717-0-0-0","properties":{"highway":"service","source":"Bing, part estimated"},"geometry":{"type":"LineString","coordinates":[[103.7572955,1.3690033],[103.7572418,1.3690636]]}},{"type":"Feature","id":"way/646487115-0-0-0","properties":{"highway":"service","source":"Kaart Ground Survey 2017"},"geometry":{"type":"LineString","coordinates":[[103.7587851,1.3664215],[103.7587264,1.3664001]]}},{"type":"Feature","id":"way/646487115-0-1-0","properties":{"highway":"service","source":"Kaart Ground Survey 2017"},"geometry":{"type":"LineString","coordinates":[[103.7587264,1.3664001],[103.758701,1.3663493]]}},{"type":"Feature","id":"way/646487115-0-2-0","properties":{"highway":"service","source":"Kaart Ground Survey 2017"},"geometry":{"type":"LineString","coordinates":[[103.758701,1.3663493],[103.7586867,1.3662859]]}},{"type":"Feature","id":"way/646487115-0-3-0","properties":{"highway":"service","source":"Kaart Ground Survey 2017"},"geometry":{"type":"LineString","coordinates":[[103.7586867,1.3662859],[103.7586883,1.3662272]]}},{"type":"Feature","id":"way/646487115-0-4-0","properties":{"highway":"service","source":"Kaart Ground Survey 2017"},"geometry":{"type":"LineString","coordinates":[[103.7586883,1.3662272],[103.7587295,1.3661511]]}},{"type":"Feature","id":"way/646487115-0-5-0","properties":{"highway":"service","source":"Kaart Ground Survey 2017"},"geometry":{"type":"LineString","coordinates":[[103.7587295,1.3661511],[103.7587962,1.3661099]]}},{"type":"Feature","id":"way/646487115-0-6-0","properties":{"highway":"service","source":"Kaart Ground Survey 2017"},"geometry":{"type":"LineString","coordinates":[[103.7587962,1.3661099],[103.7588755,1.3661011]]}},{"type":"Feature","id":"way/665232276-0-0-0","properties":{"highway":"service","source":"Bing, part estimated","tracktype":"grade2"},"geometry":{"type":"LineString","coordinates":[[103.7572418,1.3690636],[103.7570226,1.3692561]]}},{"type":"Feature","id":"way/665232276-0-1-0","properties":{"highway":"service","source":"Bing, part estimated","tracktype":"grade2"},"geometry":{"type":"LineString","coordinates":[[103.7570226,1.3692561],[103.756987,1.3693137]]}}]}