{"type":"FeatureCollection","features":[{"type":"Feature","id":"way/315894042-0","properties":{"addr:city":"Singapore","addr:housenumber":"20","addr:street":"Sungei Kadut Avenue","building":"industrial","name":"Hup Huat Glass Contractor","clearanceGeometry":{"type":"Polygon","coordinates":[[[103.7554428,1.4046243],[103.7551885,1.4046801],[103.7552704,1.4050537],[103.7555248,1.4049979],[103.7554428,1.4046243]]]},"clearanceHeight":1.7,"clearancePrepared":true},"geometry":{"type":"Polygon","coordinates":[[[103.7555248,1.4049979],[103.7554428,1.4046243],[103.7551885,1.4046801],[103.7552704,1.4050537],[103.7555248,1.4049979]]]}},{"type":"Feature","id":"way/315894775-0","properties":{"addr:city":"Singapore","addr:housenumber":"18","addr:street":"Sungei Kadut Avenue","building":"industrial","name":"Tat Hong Holdings","clearanceGeometry":{"type":"Polygon","coordinates":[[[103.7554746,1.4041907],[103.7551448,1.4042412],[103.7552017,1.4046119],[103.7555314,1.4045614],[103.7554746,1.4041907]]]},"clearanceHeight":1.7,"clearancePrepared":true},"geometry":{"type":"Polygon","coordinates":[[[103.7555314,1.4045614],[103.7554746,1.4041907],[103.7551448,1.4042412],[103.7552017,1.4046119],[103.7555314,1.4045614]]]}},{"type":"Feature","id":"way/315894776-0","properties":{"addr:city":"Singapore","addr:housenumber":"16","addr:street":"Sungei Kadut Avenue","building":"industrial","name":"MSD Engineering","clearanceGeometry":{"type":"Polygon","coordinates":[[[103.7558305,1.4036181],[103.7553047,1.4036912],[103.7553111,1.4037375],[103.755086,1.4037688],[103.7551197,1.404011],[103.7558706,1.4039065],[103.7558305,1.4036181]]]},"clearanceHeight":1.7,"clearancePrepared":true},"geometry":{"type":"Polygon","coordinates":[[[103.7558706,1.4039065],[103.7558305,1.4036181],[103.7553047,1.4036912],[103.7553111,1.4037375],[103.755086,1.4037688],[103.7551197,1.404011],[103.7558706,1.4039065]]]}},{"type":"Feature","id":"way/315894777-0","properties":{"addr:city":"Singapore","addr:housenumber":"14","addr:street":"Sungei Kadut Avenue","building":"industrial","clearanceGeometry":{"type":"Polygon","coordinates":[[[103.7557593,1.4031624],[103.7549404,1.4033151],[103.7549954,1.4036099],[103.7558143,1.4034571],[103.7557593,1.4031624]]]},"clearanceHeight":1.7,"clearancePrepared":true},"geometry":{"type":"Polygon","coordinates":[[[103.7558143,1.4034571],[103.7557593,1.4031624],[103.7549404,1.4033151],[103.7549954,1.4036099],[103.7558143,1.4034571]]]}},{"type":"Feature","id":"way/315894778-0","properties":{"addr:city":"Singapore","addr:housenumber":"12","addr:street":"Sungei Kadut Avenue","brand":"Rollys-Royce;Porsche","building":"industrial","name":"Eurokars Centre","clearanceGeometry":{"type":"Polygon","coordinates":[[[103.7556052,1.402982],[103.7557063,1.4029634],[103.7557436,1.4027954],[103.7557343,1.402632],[103.7556656,1.402653],[103.7556181,1.4024985],[103.7556811,1.4024792],[103.7556362,1.4023332],[103.7555382,1.4022211],[103.7554327,1.4022405],[103.7554184,1.4021624],[103.7550715,1.4022262],[103.755237,1.403125],[103.7556186,1.4030548],[103.7556052,1.402982]]]},"clearanceHeight":1.7,"clearancePrepared":true},"geometry":{"type":"Polygon","coordinates":[[[103.7556186,1.4030548],[103.7556052,1.402982],[103.7557063,1.4029634],[103.7557436,1.4027954],[103.7557343,1.402632],[103.7556656,1.402653],[103.7556181,1.4024985],[103.7556811,1.4024792],[103.7556362,1.4023332],[103.7555382,1.4022211],[103.7554327,1.4022405],[103.7554184,1.4021624],[103.7550715,1.4022262],[103.755237,1.403125],[103.7556186,1.4030548]]]}},{"type":"Feature","id":"way/315894779-0","properties":{"addr:city":"Singapore","addr:housenumber":"8","addr:postcode":"729645","addr:street":"Sungei Kadut Avenue","building":"industrial","name":"Yuan Li Construction and Trading","clearanceGeometry":{"type":"Polygon","coordinates":[[[103.7555068,1.4014469],[103.7550596,1.4015419],[103.755107,1.4017649],[103.7550124,1.401785],[103.7550754,1.4020814],[103.7556172,1.4019663],[103.7555068,1.4014469]]]},"clearanceHeight":1.7,"clearancePrepared":true},"geometry":{"type":"Polygon","coordinates":[[[103.7556172,1.4019663],[103.7555068,1.4014469],[103.7550596,1.4015419],[103.755107,1.4017649],[103.7550124,1.401785],[103.7550754,1.4020814],[103.7556172,1.4019663]]]}},{"type":"Feature","id":"way/315894780-0","properties":{"addr:city":"Singapore","addr:housenumber":"6","addr:postcode":"729643","addr:street":"Sungei Kadut Avenue","building":"industrial","building:levels":"1","name":"Tong Guan Plant","clearanceGeometry":{"type":"Polygon","coordinates":[[[103.7553008,1.4006701],[103.7550814,1.4007103],[103.7551139,1.4008871],[103.7549434,1.4009183],[103.7549818,1.4011279],[103.7548103,1.4011594],[103.7548609,1.4014356],[103.7554222,1.4013329],[103.7553008,1.4006701]]]},"clearanceHeight":1.7,"clearancePrepared":true},"geometry":{"type":"Polygon","coordinates":[[[103.7554222,1.4013329],[103.7553008,1.4006701],[103.7550814,1.4007103],[103.7551139,1.4008871],[103.7549434,1.4009183],[103.7549818,1.4011279],[103.7548103,1.4011594],[103.7548609,1.4014356],[103.7554222,1.4013329]]]}},{"type":"Feature","id":"way/455064738-0","properties":{"building":"yes","clearanceGeometry":{"type":"Polygon","coordinates":[[[103.7550118,1.4023811],[103.7549308,1.4023966],[103.7549473,1.4024823],[103.7550283,1.4024667],[103.7550118,1.4023811]]]},"clearanceHeight":1.7,"clearancePrepared":true},"geometry":{"type":"Polygon","coordinates":[[[103.7550283,1.4024667],[103.7550118,1.4023811],[103.7549308,1.4023966],[103.7549473,1.4024823],[103.7550283,1.4024667]]]}},{"type":"Feature","id":"way/455064739-0","properties":{"building":"yes","clearanceGeometry":{"type":"Polygon","coordinates":[[[103.7549802,1.4030983],[103.7551501,1.403066],[103.7551022,1.4028146],[103.7550616,1.4028224],[103.7550042,1.4025211],[103.7547992,1.4025602],[103.7548927,1.4030509],[103.7549684,1.4030365],[103.7549802,1.4030983]]]},"clearanceHeight":1.7,"clearancePrepared":true},"geometry":{"type":"Polygon","coordinates":[[[103.7549684,1.4030365],[103.7549802,1.4030983],[103.7551501,1.403066],[103.7551022,1.4028146],[103.7550616,1.4028224],[103.7550042,1.4025211],[103.7547992,1.4025602],[103.7548927,1.4030509],[103.7549684,1.4030365]]]}},{"type":"Feature","id":"way/455064740-0","properties":{"building":"service","clearanceGeometry":{"type":"Polygon","coordinates":[[[103.7557146,1.4045046],[103.7556918,1.4047769],[103.7556157,1.4047705],[103.7556136,1.4047957],[103.7556549,1.4047991],[103.7556532,1.4048188],[103.7556968,1.4048225],[103.7556875,1.4049337],[103.7557888,1.4049422],[103.7558246,1.4045138],[103.7557146,1.4045046]]]},"clearanceHeight":1.7,"clearancePrepared":true},"geometry":{"type":"Polygon","coordinates":[[[103.7558246,1.4045138],[103.7557146,1.4045046],[103.7556918,1.4047769],[103.7556157,1.4047705],[103.7556136,1.4047957],[103.7556549,1.4047991],[103.7556532,1.4048188],[103.7556968,1.4048225],[103.7556875,1.4049337],[103.7557888,1.4049422],[103.7558246,1.4045138]]]}},{"type":"Feature","id":"way/455064741-0","properties":{"building":"yes","clearanceGeometry":{"type":"Polygon","coordinates":[[[103.7558796,1.4041342],[103.7556661,1.4041155],[103.7556579,1.40421],[103.7558714,1.4042287],[103.7558796,1.4041342]]]},"clearanceHeight":1.7,"clearancePrepared":true},"geometry":{"type":"Polygon","coordinates":[[[103.7558714,1.4042287],[103.7558796,1.4041342],[103.7556661,1.4041155],[103.7556579,1.40421],[103.7558714,1.4042287]]]}},{"type":"Feature","id":"way/455064742-0","properties":{"building":"yes","clearanceGeometry":{"type":"Polygon","coordinates":[[[103.7558631,1.4043196],[103.7556745,1.4043055],[103.7556688,1.4043829],[103.7558573,1.4043969],[103.7558631,1.4043196]]]},"clearanceHeight":1.7,"clearancePrepared":true},"geometry":{"type":"Polygon","coordinates":[[[103.7558573,1.4043969],[103.7558631,1.4043196],[103.7556745,1.4043055],[103.7556688,1.4043829],[103.7558573,1.4043969]]]}},{"type":"Feature","id":"node/4740095766","properties":{"crossing":"uncontrolled","crossing_ref":"zebra","highway":"crossing"},"geometry":{"type":"Point","coordinates":[103.7563586,1.404292]}},{"type":"Feature","id":"node/7368331061","properties":{"highway":"crossing"},"geometry":{"type":"Point","coordinates":[103.7562491,1.4039723]}},{"type":"Feature","id":"node/7368340669","properties":{"crossing":"unmarked","highway":"crossing"},"geometry":{"type":"Point","coordinates":[103.7563285,1.4037894]}},{"type":"Feature","id":"node/7368340678","properties":{"crossing":"uncontrolled","crossing_ref":"zebra","highway":"crossing"},"geometry":{"type":"Point","coordinates":[103.7563722,1.4044009]}},{"type":"Feature","id":"node/7416543541","properties":{"highway":"crossing"},"geometry":{"type":"Point","coordinates":[103.7559188,1.4050069]}},{"type":"Feature","id":"node/8365933981","properties":{"highway":"crossing"},"geometry":{"type":"Point","coordinates":[103.7561217,1.4038082]}},{"type":"Feature","id":"node/8370073661","properties":{"highway":"crossing"},"geometry":{"type":"Point","coordinates":[103.7548585,1.4036618]}},{"type":"Feature","id":"node/8370073662","properties":{"highway":"crossing"},"geometry":{"type":"Point","coordinates":[103.75489,1.4038084]}},{"type":"Feature","id":"node/8370073664","properties":{"highway":"crossing"},"geometry":{"type":"Point","coordinates":[103.7549665,1.4042138]}},{"type":"Feature","id":"node/8370073665","properties":{"highway":"crossing"},"geometry":{"type":"Point","coordinates":[103.7551691,1.4051519]}},{"type":"Feature","id":"node/8383530920","properties":{"highway":"crossing"},"geometry":{"type":"Point","coordinates":[103.7544077,1.4015499]}},{"type":"Feature","id":"node/8383530921","properties":{"highway":"crossing"},"geometry":{"type":"Point","coordinates":[103.7544394,1.4017109]}},{"type":"Feature","id":"node/8383530922","properties":{"highway":"crossing"},"geometry":{"type":"Point","coordinates":[103.7545793,1.4023138]}},{"type":"Feature","id":"node/8383530924","properties":{"highway":"crossing"},"geometry":{"type":"Point","coordinates":[103.7547595,1.4031893]}},{"type":"Feature","id":"node/8654039767","properties":{"highway":"crossing"},"geometry":{"type":"Point","coordinates":[103.7545502,1.4021924]}},{"type":"Feature","id":"way/162282806-0-4-0","properties":{"highway":"service","lanes":"2","lanes:backward":"1","lanes:forward":"1","name":"Sungei Kadut Street 1","source":"Yahoo aerial images","surface":"asphalt","startNodeId":"6694304602","endNodeId":"3344723405"},"geometry":{"type":"LineString","coordinates":[[103.7521376,1.4052106],[103.7521882,1.4051994]]}},{"type":"Feature","id":"way/162282806-0-5-0","properties":{"highway":"service","lanes":"2","lanes:backward":"1","lanes:forward":"1","name":"Sungei Kadut Street 1","source":"Yahoo aerial images","surface":"asphalt","startNodeId":"3344723405","endNodeId":"6694304606"},"geometry":{"type":"LineString","coordinates":[[103.7521882,1.4051994],[103.7522167,1.4051965]]}},{"type":"Feature","id":"way/162282806-0-6-0","properties":{"highway":"service","lanes":"2","lanes:backward":"1","lanes:forward":"1","name":"Sungei Kadut Street 1","source":"Yahoo aerial images","surface":"asphalt","startNodeId":"6694304606","endNodeId":"3344723521"},"geometry":{"type":"LineString","coordinates":[[103.7522167,1.4051965],[103.7522402,1.4052093]]}},{"type":"Feature","id":"way/162282806-0-7-0","properties":{"highway":"service","lanes":"2","lanes:backward":"1","lanes:forward":"1","name":"Sungei Kadut Street 1","source":"Yahoo aerial images","surface":"asphalt","startNodeId":"3344723521","endNodeId":"6694304605"},"geometry":{"type":"LineString","coordinates":[[103.7522402,1.4052093],[103.7522717,1.4052394]]}},{"type":"Feature","id":"way/162282806-0-8-0","properties":{"highway":"service","lanes":"2","lanes:backward":"1","lanes:forward":"1","name":"Sungei Kadut Street 1","source":"Yahoo aerial images","surface":"asphalt","startNodeId":"6694304605","endNodeId":"6694304607"},"geometry":{"type":"LineString","coordinates":[[103.7522717,1.4052394],[103.7522777,1.4052749]]}},{"type":"Feature","id":"way/176204599-0-5-1","properties":{"footway":"sidewalk","highway":"primary","lanes":"3","maxspeed":"60","name":"Woodlands Road","name:en":"Woodlands Road","name:zh":"\u5140\u5170\u8def","oneway":"yes","source":"Yahoo aerial images","surface":"asphalt","startNodeId":"way/176204599-0:5:1","endNodeId":"7368331063"},"geometry":{"type":"LineString","coordinates":[[103.7557487,1.4013132],[103.7559789,1.4024488]]}},{"type":"Feature","id":"way/176204599-0-6-0","properties":{"footway":"sidewalk","highway":"primary","lanes":"3","maxspeed":"60","name":"Woodlands Road","name:en":"Woodlands Road","name:zh":"\u5140\u5170\u8def","oneway":"yes","source":"Yahoo aerial images","surface":"asphalt","startNodeId":"7368331063","endNodeId":"1884339558"},"geometry":{"type":"LineString","coordinates":[[103.7559789,1.4024488],[103.7560271,1.4027466]]}},{"type":"Feature","id":"way/176204599-0-7-0","properties":{"footway":"sidewalk","highway":"primary","lanes":"3","maxspeed":"60","name":"Woodlands Road","name:en":"Woodlands Road","name:zh":"\u5140\u5170\u8def","oneway":"yes","source":"Yahoo aerial images","surface":"asphalt","startNodeId":"1884339558","endNodeId":"4600636605"},"geometry":{"type":"LineString","coordinates":[[103.7560271,1.4027466],[103.7560679,1.4030777]]}},{"type":"Feature","id":"way/481060208-0-0-0","properties":{"foot":"no","highway":"primary_link","lanes":"1","maxspeed":"50","name":"Woodlands Road","noname":"yes","oneway":"yes","surface":"asphalt","startNodeId":"4740012419","endNodeId":"6103695181"},"geometry":{"type":"LineString","coordinates":[[103.7560947,1.405064],[103.756144,1.405163]]}},{"type":"Feature","id":"way/481060208-0-1-0","properties":{"foot":"no","highway":"primary_link","lanes":"1","maxspeed":"50","name":"Woodlands Road","noname":"yes","oneway":"yes","surface":"asphalt","startNodeId":"6103695181","endNodeId":"6103695182"},"geometry":{"type":"LineString","coordinates":[[103.756144,1.405163],[103.7561732,1.4051781]]}},{"type":"Feature","id":"way/481060208-0-2-0","properties":{"foot":"no","highway":"primary_link","lanes":"1","maxspeed":"50","name":"Woodlands Road","noname":"yes","oneway":"yes","surface":"asphalt","startNodeId":"6103695182","endNodeId":"7368331064"},"geometry":{"type":"LineString","coordinates":[[103.7561732,1.4051781],[103.7562065,1.4051838]]}},{"type":"Feature","id":"way/481060208-0-3-0","properties":{"foot":"no","highway":"primary_link","lanes":"1","maxspeed":"50","name":"Woodlands Road","noname":"yes","oneway":"yes","surface":"asphalt","startNodeId":"7368331064","endNodeId":"6103695180"},"geometry":{"type":"LineString","coordinates":[[103.7562065,1.4051838],[103.7562317,1.4051742]]}},{"type":"Feature","id":"way/481060208-0-4-0","properties":{"foot":"no","highway":"primary_link","lanes":"1","maxspeed":"50","name":"Woodlands Road","noname":"yes","oneway":"yes","surface":"asphalt","startNodeId":"6103695180","endNodeId":"4740012418"},"geometry":{"type":"LineString","coordinates":[[103.7562317,1.4051742],[103.7562717,1.4051243]]}},{"type":"Feature","id":"way/481060209-0-0-0","properties":{"footway":"sidewalk","highway":"primary","lanes":"3","maxspeed":"60","name":"Woodlands Road","name:en":"Woodlands Road","name:zh":"\u5140\u5170\u8def","oneway":"yes","source":"Yahoo aerial images","surface":"asphalt","turn:lanes":"left;through|through|through","startNodeId":"4740012420","endNodeId":"4740095758"},"geometry":{"type":"LineString","coordinates":[[103.7562682,1.4048038],[103.7562678,1.4046363]]}},{"type":"Feature","id":"way/481060210-0-0-0","properties":{"footway":"sidewalk","highway":"primary","lanes":"3","maxspeed":"60","name":"Woodlands Road","name:en":"Woodlands Road","name:zh":"\u5140\u5170\u8def","oneway":"yes","source":"Yahoo aerial images","surface":"asphalt","startNodeId":"4740095763","endNodeId":"7368331061"},"geometry":{"type":"LineString","coordinates":[[103.7562532,1.4040817],[103.7562491,1.4039723]]}},{"type":"Feature","id":"way/481060210-0-1-0","properties":{"footway":"sidewalk","highway":"primary","lanes":"3","maxspeed":"60","name":"Woodlands Road","name:en":"Woodlands Road","name:zh":"\u5140\u5170\u8def","oneway":"yes","source":"Yahoo aerial images","surface":"asphalt","startNodeId":"7368331061","endNodeId":"4600636607"},"geometry":{"type":"LineString","coordinates":[[103.7562491,1.4039723],[103.7562382,1.4036818]]}},{"type":"Feature","id":"way/481060210-0-2-0","properties":{"footway":"sidewalk","highway":"primary","lanes":"3","maxspeed":"60","name":"Woodlands Road","name:en":"Woodlands Road","name:zh":"\u5140\u5170\u8def","oneway":"yes","source":"Yahoo aerial images","surface":"asphalt","startNodeId":"4600636607","endNodeId":"236727036"},"geometry":{"type":"LineString","coordinates":[[103.7562382,1.4036818],[103.7562126,1.4033204]]}},{"type":"Feature","id":"way/481060210-0-3-0","properties":{"footway":"sidewalk","highway":"primary","lanes":"3","maxspeed":"60","name":"Woodlands Road","name:en":"Woodlands Road","name:zh":"\u5140\u5170\u8def","oneway":"yes","source":"Yahoo aerial images","surface":"asphalt","startNodeId":"236727036","endNodeId":"4600636608"},"geometry":{"type":"LineString","coordinates":[[103.7562126,1.4033204],[103.7561879,1.4030744]]}},{"type":"Feature","id":"way/481060210-0-4-0","properties":{"footway":"sidewalk","highway":"primary","lanes":"3","maxspeed":"60","name":"Woodlands Road","name:en":"Woodlands Road","name:zh":"\u5140\u5170\u8def","oneway":"yes","source":"Yahoo aerial images","surface":"asphalt","startNodeId":"4600636608","endNodeId":"4600636609"},"geometry":{"type":"LineString","coordinates":[[103.7561879,1.4030744],[103.7561464,1.4027441]]}},{"type":"Feature","id":"way/481060210-0-5-0","properties":{"footway":"sidewalk","highway":"primary","lanes":"3","maxspeed":"60","name":"Woodlands Road","name:en":"Woodlands Road","name:zh":"\u5140\u5170\u8def","oneway":"yes","source":"Yahoo aerial images","surface":"asphalt","startNodeId":"4600636609","endNodeId":"5145494823"},"geometry":{"type":"LineString","coordinates":[[103.7561464,1.4027441],[103.7561033,1.4024222]]}},{"type":"Feature","id":"way/481060210-0-6-0","properties":{"footway":"sidewalk","highway":"primary","lanes":"3","maxspeed":"60","name":"Woodlands Road","name:en":"Woodlands Road","name:zh":"\u5140\u5170\u8def","oneway":"yes","source":"Yahoo aerial images","surface":"asphalt","startNodeId":"5145494823","endNodeId":"4600636610"},"geometry":{"type":"LineString","coordinates":[[103.7561033,1.4024222],[103.7558497,1.4010973]]}},{"type":"Feature","id":"way/481069440-0-0-0","properties":{"highway":"unclassified","lanes":"1","name":"Gali Batu Close","oneway":"yes","surface":"asphalt","startNodeId":"4740095758","endNodeId":"4740095759"},"geometry":{"type":"LineString","coordinates":[[103.7562678,1.4046363],[103.7563105,1.4044769]]}},{"type":"Feature","id":"way/481069440-0-1-0","properties":{"highway":"unclassified","lanes":"1","name":"Gali Batu Close","oneway":"yes","surface":"asphalt","startNodeId":"4740095759","endNodeId":"4740095760"},"geometry":{"type":"LineString","coordinates":[[103.7563105,1.4044769],[103.7563454,1.404428]]}},{"type":"Feature","id":"way/481069440-0-2-0","properties":{"highway":"unclassified","lanes":"1","name":"Gali Batu Close","oneway":"yes","surface":"asphalt","startNodeId":"4740095760","endNodeId":"7368340678"},"geometry":{"type":"LineString","coordinates":[[103.7563454,1.404428],[103.7563722,1.4044009]]}},{"type":"Feature","id":"way/481069440-0-3-0","properties":{"highway":"unclassified","lanes":"1","name":"Gali Batu Close","oneway":"yes","surface":"asphalt","startNodeId":"7368340678","endNodeId":"4740095761"},"geometry":{"type":"LineString","coordinates":[[103.7563722,1.4044009],[103.7564188,1.4043825]]}},{"type":"Feature","id":"way/481069440-0-4-0","properties":{"highway":"unclassified","lanes":"1","name":"Gali Batu Close","oneway":"yes","surface":"asphalt","startNodeId":"4740095761","endNodeId":"4740095762"},"geometry":{"type":"LineString","coordinates":[[103.7564188,1.4043825],[103.7565101,1.4043526]]}},{"type":"Feature","id":"way/481069440-0-5-0","properties":{"highway":"unclassified","lanes":"1","name":"Gali Batu Close","oneway":"yes","surface":"asphalt","startNodeId":"4740095762","endNodeId":"4740095757"},"geometry":{"type":"LineString","coordinates":[[103.7565101,1.4043526],[103.7565967,1.4043257]]}},{"type":"Feature","id":"way/481069441-0-0-0","properties":{"highway":"unclassified","lanes":"1","name":"Gali Batu Close","oneway":"yes","surface":"asphalt","startNodeId":"4740095757","endNodeId":"4740095767"},"geometry":{"type":"LineString","coordinates":[[103.7565967,1.4043257],[103.7565085,1.4043195]]}},{"type":"Feature","id":"way/481069441-0-1-0","properties":{"highway":"unclassified","lanes":"1","name":"Gali Batu Close","oneway":"yes","surface":"asphalt","startNodeId":"4740095767","endNodeId":"7368340679"},"geometry":{"type":"LineString","coordinates":[[103.7565085,1.4043195],[103.7564253,1.4043148]]}},{"type":"Feature","id":"way/481069441-0-2-0","properties":{"highway":"unclassified","lanes":"1","name":"Gali Batu Close","oneway":"yes","surface":"asphalt","startNodeId":"7368340679","endNodeId":"4740095766"},"geometry":{"type":"LineString","coordinates":[[103.7564253,1.4043148],[103.7563586,1.404292]]}},{"type":"Feature","id":"way/481069441-0-3-0","properties":{"highway":"unclassified","lanes":"1","name":"Gali Batu Close","oneway":"yes","surface":"asphalt","startNodeId":"4740095766","endNodeId":"4740095765"},"geometry":{"type":"LineString","coordinates":[[103.7563586,1.404292],[103.7563132,1.4042457]]}},{"type":"Feature","id":"way/481069441-0-4-0","properties":{"highway":"unclassified","lanes":"1","name":"Gali Batu Close","oneway":"yes","surface":"asphalt","startNodeId":"4740095765","endNodeId":"4740095763"},"geometry":{"type":"LineString","coordinates":[[103.7563132,1.4042457],[103.7562532,1.4040817]]}},{"type":"Feature","id":"way/539429915-0-0-0","properties":{"footway":"sidewalk","highway":"primary","lanes":"3","maxspeed":"60","name":"Woodlands Road","name:en":"Woodlands Road","name:zh":"\u5140\u5170\u8def","oneway":"yes","source":"Yahoo aerial images","surface":"asphalt","turn:lanes":"left;through|through|through","startNodeId":"4740012418","endNodeId":"4740012420"},"geometry":{"type":"LineString","coordinates":[[103.7562717,1.4051243],[103.7562682,1.4048038]]}},{"type":"Feature","id":"way/635666691-0-0-0","properties":{"footway":"sidewalk","highway":"tertiary","lanes":"4","lanes:backward":"2","lanes:forward":"2","maxspeed":"60","name":"Sungei Kadut Avenue","sidewalk:both":"separate","source":"Yahoo aerial images","surface":"asphalt","startNodeId":"5202738881","endNodeId":"8654039766"},"geometry":{"type":"LineString","coordinates":[[103.7545113,1.4023279],[103.7544857,1.4022032]]}},{"type":"Feature","id":"way/635666691-0-1-0","properties":{"footway":"sidewalk","highway":"tertiary","lanes":"4","lanes:backward":"2","lanes:forward":"2","maxspeed":"60","name":"Sungei Kadut Avenue","sidewalk:both":"separate","source":"Yahoo aerial images","surface":"asphalt","startNodeId":"8654039766","endNodeId":"6056959587"},"geometry":{"type":"LineString","coordinates":[[103.7544857,1.4022032],[103.7543851,1.4017221]]}},{"type":"Feature","id":"way/635687843-0-0-0","properties":{"footway":"sidewalk","highway":"tertiary","lanes":"4","lanes:backward":"2","lanes:forward":"2","maxspeed":"60","name":"Sungei Kadut Avenue","sidewalk:both":"separate","source":"Yahoo aerial images","surface":"asphalt","startNodeId":"5272394415","endNodeId":"7506459456"},"geometry":{"type":"LineString","coordinates":[[103.7549034,1.4042092],[103.754883,1.4041094]]}},{"type":"Feature","id":"way/635687843-0-1-0","properties":{"footway":"sidewalk","highway":"tertiary","lanes":"4","lanes:backward":"2","lanes:forward":"2","maxspeed":"60","name":"Sungei Kadut Avenue","sidewalk:both":"separate","source":"Yahoo aerial images","surface":"asphalt","startNodeId":"7506459456","endNodeId":"6056959182"},"geometry":{"type":"LineString","coordinates":[[103.754883,1.4041094],[103.7548517,1.4039562]]}},{"type":"Feature","id":"way/635687844-0-0-0","properties":{"highway":"tertiary","lanes":"4","lanes:backward":"2","lanes:forward":"2","maxspeed":"60","name":"Sungei Kadut Avenue","sidewalk:both":"separate","source":"Yahoo aerial images","surface":"asphalt","turn:lanes:backward":"through|through","startNodeId":"5272714737","endNodeId":"8374445076"},"geometry":{"type":"LineString","coordinates":[[103.7547946,1.4036752],[103.7547826,1.4036174]]}},{"type":"Feature","id":"way/635687844-0-1-0","properties":{"highway":"tertiary","lanes":"4","lanes:backward":"2","lanes:forward":"2","maxspeed":"60","name":"Sungei Kadut Avenue","sidewalk:both":"separate","source":"Yahoo aerial images","surface":"asphalt","turn:lanes:backward":"through|through","startNodeId":"8374445076","endNodeId":"8370073659"},"geometry":{"type":"LineString","coordinates":[[103.7547826,1.4036174],[103.754739,1.4034082]]}},{"type":"Feature","id":"way/635687844-0-2-0","properties":{"highway":"tertiary","lanes":"4","lanes:backward":"2","lanes:forward":"2","maxspeed":"60","name":"Sungei Kadut Avenue","sidewalk:both":"separate","source":"Yahoo aerial images","surface":"asphalt","turn:lanes:backward":"through|through","startNodeId":"8370073659","endNodeId":"8370073676"},"geometry":{"type":"LineString","coordinates":[[103.754739,1.4034082],[103.7547295,1.4033623]]}},{"type":"Feature","id":"way/635687844-0-3-0","properties":{"highway":"tertiary","lanes":"4","lanes:backward":"2","lanes:forward":"2","maxspeed":"60","name":"Sungei Kadut Avenue","sidewalk:both":"separate","source":"Yahoo aerial images","surface":"asphalt","turn:lanes:backward":"through|through","startNodeId":"8370073676","endNodeId":"5202738867"},"geometry":{"type":"LineString","coordinates":[[103.7547295,1.4033623],[103.754696,1.4032015]]}},{"type":"Feature","id":"way/639566598-0-0-0","properties":{"footway":"sidewalk","highway":"tertiary","lanes":"4","lanes:backward":"2","lanes:forward":"2","maxspeed":"60","name":"Sungei Kadut Avenue","sidewalk:both":"separate","source":"Yahoo aerial images","surface":"asphalt","startNodeId":"5272394400","endNodeId":"6026367565"},"geometry":{"type":"LineString","coordinates":[[103.7543519,1.4015612],[103.7543266,1.4014382]]}},{"type":"Feature","id":"way/639566599-0-0-0","properties":{"footway":"sidewalk","highway":"tertiary","lanes":"4","lanes:backward":"2","lanes:forward":"2","maxspeed":"60","name":"Sungei Kadut Avenue","sidewalk:both":"separate","source":"Yahoo aerial images","surface":"asphalt","startNodeId":"6026367566","endNodeId":"5272394400"},"geometry":{"type":"LineString","coordinates":[[103.7543798,1.4016964],[103.7543519,1.4015612]]}},{"type":"Feature","id":"way/639668351-0-0-0","properties":{"footway":"sidewalk","highway":"tertiary","lanes":"4","lanes:backward":"2","lanes:forward":"2","maxspeed":"60","name":"Sungei Kadut Avenue","sidewalk:both":"separate","source":"Yahoo aerial images","surface":"asphalt","startNodeId":"6026367565","endNodeId":"6056959609"},"geometry":{"type":"LineString","coordinates":[[103.7543266,1.4014382],[103.7542268,1.4009324]]}},{"type":"Feature","id":"way/639671556-0-0-0","properties":{"footway":"sidewalk","highway":"tertiary","lanes":"4","lanes:backward":"2","lanes:forward":"2","maxspeed":"60","name":"Sungei Kadut Avenue","source":"Yahoo aerial images","surface":"asphalt","startNodeId":"5272394414","endNodeId":"5272394415"},"geometry":{"type":"LineString","coordinates":[[103.754906,1.4042213],[103.7549034,1.4042092]]}},{"type":"Feature","id":"way/639679198-0-0-0","properties":{"footway":"sidewalk","highway":"tertiary","lanes":"4","lanes:backward":"2","lanes:forward":"2","maxspeed":"60","name":"Sungei Kadut Avenue","sidewalk:both":"separate","source":"Yahoo aerial images","surface":"asphalt","turn:lanes:forward":"through|through","startNodeId":"5202738859","endNodeId":"5272714737"},"geometry":{"type":"LineString","coordinates":[[103.754827,1.4038187],[103.7547946,1.4036752]]}},{"type":"Feature","id":"way/639719308-0-0-0","properties":{"footway":"sidewalk","highway":"tertiary","lanes":"4","lanes:backward":"2","lanes:forward":"2","maxspeed":"60","name":"Sungei Kadut Avenue","sidewalk:both":"separate","source":"Yahoo aerial images","surface":"asphalt","startNodeId":"5202738867","endNodeId":"6056959604"},"geometry":{"type":"LineString","coordinates":[[103.754696,1.4032015],[103.7545584,1.4025561]]}},{"type":"Feature","id":"way/639719309-0-0-0","properties":{"footway":"sidewalk","highway":"tertiary","lanes":"4","lanes:backward":"2","lanes:forward":"2","maxspeed":"60","name":"Sungei Kadut Avenue","sidewalk:both":"separate","source":"Yahoo aerial images","surface":"asphalt","startNodeId":"5202738866","endNodeId":"5272394414"},"geometry":{"type":"LineString","coordinates":[[103.7551014,1.4051653],[103.754906,1.4042213]]}},{"type":"Feature","id":"way/649552005-0-0-0","properties":{"footway":"sidewalk","highway":"primary","lanes":"3","maxspeed":"60","name":"Woodlands Road","name:en":"Woodlands Road","name:zh":"\u5140\u5170\u8def","oneway":"yes","source":"Yahoo aerial images","surface":"asphalt","turn:lanes":"through|through|through","startNodeId":"4740095758","endNodeId":"236727233"},"geometry":{"type":"LineString","coordinates":[[103.7562678,1.4046363],[103.7562546,1.4043475]]}},{"type":"Feature","id":"way/655171247-0-0-0","properties":{"footway":"sidewalk","highway":"primary","lanes":"4","maxspeed":"60","name":"Woodlands Road","name:en":"Woodlands Road","name:zh":"\u5140\u5170\u8def","oneway":"yes","source":"Yahoo aerial images","surface":"asphalt","turn:lanes":"none|none|none|right","startNodeId":"236725614","endNodeId":"5272720362"},"geometry":{"type":"LineString","coordinates":[[103.7561236,1.4044842],[103.7560959,1.4050213]]}},{"type":"Feature","id":"way/655171247-0-1-0","properties":{"footway":"sidewalk","highway":"primary","lanes":"4","maxspeed":"60","name":"Woodlands Road","name:en":"Woodlands Road","name:zh":"\u5140\u5170\u8def","oneway":"yes","source":"Yahoo aerial images","surface":"asphalt","turn:lanes":"none|none|none|right","startNodeId":"5272720362","endNodeId":"4740012419"},"geometry":{"type":"LineString","coordinates":[[103.7560959,1.4050213],[103.7560947,1.405064]]}},{"type":"Feature","id":"way/718823286-0-0-0","properties":{"footway":"sidewalk","highway":"tertiary","lanes":"4","lanes:backward":"2","lanes:forward":"2","maxspeed":"60","name":"Sungei Kadut Avenue","sidewalk:both":"separate","source":"Yahoo aerial images","surface":"asphalt","startNodeId":"6056959604","endNodeId":"5202738881"},"geometry":{"type":"LineString","coordinates":[[103.7545584,1.4025561],[103.7545113,1.4023279]]}},{"type":"Feature","id":"way/718823287-0-0-0","properties":{"footway":"sidewalk","highway":"tertiary","lanes":"4","lanes:backward":"2","lanes:forward":"2","maxspeed":"60","name":"Sungei Kadut Avenue","sidewalk:both":"separate","source":"Yahoo aerial images","surface":"asphalt","startNodeId":"6056959182","endNodeId":"5202738859"},"geometry":{"type":"LineString","coordinates":[[103.7548517,1.4039562],[103.754827,1.4038187]]}},{"type":"Feature","id":"way/719252099-0-0-0","properties":{"footway":"sidewalk","highway":"primary","lanes":"3","maxspeed":"60","name":"Woodlands Road","name:en":"Woodlands Road","name:zh":"\u5140\u5170\u8def","oneway":"yes","source":"Yahoo aerial images","surface":"asphalt","turn:lanes":"left;through|through|through","startNodeId":"236727233","endNodeId":"4740095763"},"geometry":{"type":"LineString","coordinates":[[103.7562546,1.4043475],[103.7562532,1.4040817]]}},{"type":"Feature","id":"way/719252100-0-0-0","properties":{"footway":"sidewalk","highway":"primary","lanes":"3","maxspeed":"60","name":"Woodlands Road","name:en":"Woodlands Road","name:zh":"\u5140\u5170\u8def","oneway":"yes","source":"Yahoo aerial images","surface":"asphalt","startNodeId":"4600636606","endNodeId":"8365933981"},"geometry":{"type":"LineString","coordinates":[[103.7561216,1.4037535],[103.7561217,1.4038082]]}},{"type":"Feature","id":"way/719252100-0-1-0","properties":{"footway":"sidewalk","highway":"primary","lanes":"3","maxspeed":"60","name":"Woodlands Road","name:en":"Woodlands Road","name:zh":"\u5140\u5170\u8def","oneway":"yes","source":"Yahoo aerial images","surface":"asphalt","startNodeId":"8365933981","endNodeId":"236725614"},"geometry":{"type":"LineString","coordinates":[[103.7561217,1.4038082],[103.7561236,1.4044842]]}},{"type":"Feature","id":"way/719252101-0-0-0","properties":{"footway":"sidewalk","highway":"primary","lanes":"3","maxspeed":"60","name":"Woodlands Road","name:en":"Woodlands Road","name:zh":"\u5140\u5170\u8def","oneway":"yes","source":"Yahoo aerial images","surface":"asphalt","turn:lanes":"through|through|through","startNodeId":"4600636605","endNodeId":"236725574"},"geometry":{"type":"LineString","coordinates":[[103.7560679,1.4030777],[103.7560876,1.40334]]}},{"type":"Feature","id":"way/719252101-0-1-0","properties":{"footway":"sidewalk","highway":"primary","lanes":"3","maxspeed":"60","name":"Woodlands Road","name:en":"Woodlands Road","name:zh":"\u5140\u5170\u8def","oneway":"yes","source":"Yahoo aerial images","surface":"asphalt","turn:lanes":"through|through|through","startNodeId":"236725574","endNodeId":"4600636606"},"geometry":{"type":"LineString","coordinates":[[103.7560876,1.40334],[103.7561216,1.4037535]]}},{"type":"Feature","id":"way/719263433-0-0-0","properties":{"footway":"sidewalk","highway":"tertiary","lanes":"4","lanes:backward":"2","lanes:forward":"2","maxspeed":"60","name":"Sungei Kadut Avenue","sidewalk:both":"separate","source":"Yahoo aerial images","surface":"asphalt","startNodeId":"6056959587","endNodeId":"6026367566"},"geometry":{"type":"LineString","coordinates":[[103.7543851,1.4017221],[103.7543798,1.4016964]]}},{"type":"Feature","id":"way/788102231-0-0-0","properties":{"highway":"service","oneway":"yes","startNodeId":"7368331061","endNodeId":"7368331062"},"geometry":{"type":"LineString","coordinates":[[103.7562491,1.4039723],[103.7562989,1.4038381]]}},{"type":"Feature","id":"way/788102231-0-1-0","properties":{"highway":"service","oneway":"yes","startNodeId":"7368331062","endNodeId":"7368340669"},"geometry":{"type":"LineString","coordinates":[[103.7562989,1.4038381],[103.7563285,1.4037894]]}},{"type":"Feature","id":"way/788102231-0-2-0","properties":{"highway":"service","oneway":"yes","startNodeId":"7368340669","endNodeId":"7368331060"},"geometry":{"type":"LineString","coordinates":[[103.7563285,1.4037894],[103.7563547,1.4037541]]}}]}