{"type":"FeatureCollection","features":[{"type":"Feature","id":"way/162513866-0","properties":{"addr:city":"Singapore","addr:country":"SG","addr:housenumber":"121","addr:postcode":"650121","addr:street":"Bukit Batok Central","building":"residential","building:levels":"17","residential":"HDB"},"geometry":{"type":"Polygon","coordinates":[[[103.7476688,1.3513987],[103.7477057,1.3514041],[103.7477035,1.3514191],[103.7478947,1.3514472],[103.7478886,1.3514882],[103.747871,1.3514856],[103.7478669,1.351514],[103.7478353,1.3515094],[103.7478287,1.3515542],[103.7478406,1.351556],[103.7478378,1.3515746],[103.7478103,1.3515705],[103.7478006,1.351636],[103.7478911,1.3516494],[103.7478965,1.3516133],[103.747949,1.351621],[103.7479435,1.3516581],[103.7479919,1.3516652],[103.7479934,1.3516548],[103.7480183,1.3516585],[103.7480167,1.3516695],[103.7480628,1.3516763],[103.7480686,1.3516373],[103.7481122,1.3516437],[103.7481063,1.3516835],[103.7481528,1.3516903],[103.7481696,1.3515765],[103.7481318,1.3515709],[103.7481346,1.3515523],[103.7479541,1.3515257],[103.7479638,1.3514594],[103.748,1.3514647],[103.7480068,1.3514185],[103.7479926,1.3514164],[103.7479957,1.3513951],[103.748029,1.3514],[103.7480381,1.3513386],[103.747944,1.3513247],[103.7479386,1.3513613],[103.7478908,1.3513543],[103.7478963,1.3513167],[103.7478491,1.3513097],[103.7478475,1.3513207],[103.7478204,1.3513167],[103.7478221,1.3513051],[103.7477735,1.351298],[103.7477681,1.3513345],[103.747727,1.3513285],[103.7477325,1.3512912],[103.7476857,1.3512843],[103.7476688,1.3513987]]]}},{"type":"Feature","id":"way/162513867-0","properties":{"addr:city":"Singapore","addr:country":"SG","addr:housenumber":"50","addr:postcode":"659164","addr:street":"Bukit Batok West Avenue 3","building":"yes","building:levels":"3","source":"Bing"},"geometry":{"type":"Polygon","coordinates":[[[103.7476066,1.3521605],[103.7476289,1.3520218],[103.7476746,1.3520292],[103.7476671,1.3520761],[103.7479816,1.3521266],[103.7479841,1.3521111],[103.7480911,1.3521283],[103.7480957,1.3520994],[103.7482035,1.3521129],[103.7481968,1.3518554],[103.7480695,1.351828],[103.7480423,1.3519978],[103.7480079,1.3519923],[103.7480231,1.3518974],[103.7477019,1.3518459],[103.747687,1.351939],[103.7476554,1.351934],[103.7476683,1.3518534],[103.7475275,1.3518308],[103.7474779,1.3521399],[103.7476066,1.3521605]]]}},{"type":"Feature","id":"way/162575893-0","properties":{"addr:city":"Singapore","addr:country":"SG","addr:housenumber":"625","addr:postcode":"650625","addr:street":"Bukit Batok Central","building":"residential","building:levels":"8","residential":"HDB","source":"Bing"},"geometry":{"type":"Polygon","coordinates":[[[103.748702,1.3517933],[103.7486873,1.3517836],[103.7487019,1.3517615],[103.7487143,1.3517696],[103.7487559,1.3517065],[103.7487426,1.3516978],[103.7487608,1.3516701],[103.7487729,1.3516781],[103.7488138,1.351616],[103.7488009,1.3516076],[103.7488153,1.3515857],[103.7488271,1.3515935],[103.7488687,1.3515301],[103.7488559,1.3515217],[103.748879,1.3514866],[103.7488935,1.3514962],[103.7489329,1.3514362],[103.7488363,1.351373],[103.7487459,1.351511],[103.7487395,1.3515068],[103.7487453,1.351498],[103.7487128,1.3514767],[103.74872,1.3514658],[103.7486665,1.3514308],[103.7486505,1.3514552],[103.7486313,1.3514331],[103.7486586,1.3514221],[103.7486266,1.351343],[103.7488592,1.3512489],[103.7488248,1.3511637],[103.7488103,1.3511696],[103.7488011,1.3511469],[103.7486547,1.3512061],[103.7486608,1.3512212],[103.7486353,1.3512315],[103.7486294,1.3512169],[103.7484677,1.3512822],[103.7485599,1.3515104],[103.7486652,1.3515786],[103.7486751,1.3515633],[103.7486915,1.3515739],[103.748697,1.3515654],[103.7487105,1.3515742],[103.7485969,1.3517496],[103.7486009,1.3518896],[103.7486391,1.3518886],[103.748702,1.3517933]]]}},{"type":"Feature","id":"way/162575895-0","properties":{"addr:city":"Singapore","addr:country":"SG","addr:housenumber":"626","addr:postcode":"650626","addr:street":"Bukit Batok Central","building":"residential","height":"0","residential":"HDB"},"geometry":{"type":"Polygon","coordinates":[[[103.7488844,1.3520544],[103.7488602,1.3520179],[103.7489531,1.3519497],[103.7489251,1.3519096],[103.748985,1.3518665],[103.7489741,1.3518514],[103.7489886,1.3518419],[103.7489703,1.3518167],[103.7489803,1.3518106],[103.7489862,1.3518177],[103.7491104,1.3517255],[103.7490998,1.3517122],[103.7491115,1.3517043],[103.7491213,1.3517167],[103.7492326,1.3516334],[103.7492236,1.3516207],[103.7492384,1.3516099],[103.7492559,1.3515965],[103.7492655,1.3516097],[103.7493212,1.3515671],[103.7493085,1.3515495],[103.7492548,1.3514753],[103.7491809,1.3515319],[103.7489183,1.3517276],[103.7488935,1.3517466],[103.7489174,1.3517787],[103.7488436,1.3518317],[103.7488721,1.3518697],[103.748791,1.3519309],[103.7488146,1.3519641],[103.7487238,1.3520303],[103.7487245,1.3520692],[103.7488654,1.3520662],[103.7488844,1.3520544]]]}},{"type":"Feature","id":"way/163716862-0","properties":{"addr:city":"Singapore","addr:country":"SG","addr:housenumber":"627","addr:postcode":"650627","addr:street":"Bukit Batok Central","building":"residential","height":"0","residential":"HDB"},"geometry":{"type":"Polygon","coordinates":[[[103.7496158,1.3517395],[103.7496058,1.3517271],[103.7496314,1.3517057],[103.7495844,1.3516439],[103.7495578,1.3516625],[103.7495472,1.3516473],[103.7495199,1.351666],[103.7495289,1.3516799],[103.7495055,1.3516961],[103.7494965,1.3516824],[103.7494801,1.3516929],[103.7494387,1.3517192],[103.7494151,1.3517357],[103.7493617,1.351769],[103.7493702,1.3517815],[103.7493406,1.351795],[103.7493318,1.35178],[103.7492759,1.3518126],[103.749281,1.3518269],[103.7492682,1.3518346],[103.7492542,1.3518407],[103.7492605,1.3518549],[103.7492315,1.3518672],[103.7492377,1.3518858],[103.7491818,1.351912],[103.7491728,1.3518902],[103.749143,1.351904],[103.7491494,1.3519221],[103.7491267,1.3519315],[103.7491209,1.351912],[103.7490884,1.3519231],[103.7490945,1.3519423],[103.7490637,1.3519534],[103.7490864,1.3520283],[103.7491171,1.3520175],[103.7491211,1.3520329],[103.7491821,1.3520139],[103.7493202,1.3519547],[103.7493074,1.3519248],[103.7493577,1.3518991],[103.7494181,1.3518691],[103.7494614,1.3518424],[103.749528,1.351799],[103.7496158,1.3517395]]]}},{"type":"Feature","id":"way/163716863-0","properties":{"addr:city":"Singapore","addr:country":"SG","addr:housenumber":"628","addr:postcode":"650628","addr:street":"Bukit Batok Central","building":"residential","height":"0","residential":"HDB"},"geometry":{"type":"Polygon","coordinates":[[[103.7496314,1.3517057],[103.7496577,1.3516863],[103.7496681,1.3516988],[103.7497065,1.3516678],[103.7497718,1.3516075],[103.7498136,1.3515683],[103.7498438,1.3515381],[103.7498854,1.3514887],[103.7499231,1.3514458],[103.7499483,1.351466],[103.7500211,1.3513709],[103.7500763,1.3512926],[103.7500616,1.3512829],[103.7500794,1.3512554],[103.7500144,1.3512143],[103.7499952,1.3512417],[103.7499799,1.3512309],[103.7499587,1.3512603],[103.7499752,1.3512711],[103.7499603,1.3512905],[103.7499458,1.3512796],[103.749925,1.3513071],[103.7499412,1.3513198],[103.7499034,1.3513691],[103.7498876,1.351356],[103.7498689,1.3513824],[103.7498563,1.3513731],[103.7498482,1.3513833],[103.7498366,1.3513975],[103.7498228,1.3513837],[103.749779,1.3514362],[103.7497926,1.3514475],[103.7497717,1.3514697],[103.7497596,1.3514577],[103.7497148,1.3515044],[103.7497265,1.3515158],[103.7497057,1.3515366],[103.7496933,1.3515229],[103.7496435,1.3515664],[103.7496542,1.3515799],[103.7496336,1.3516011],[103.7496209,1.3515869],[103.7495954,1.3516078],[103.7496095,1.3516259],[103.7495844,1.3516439],[103.7496314,1.3517057]]]}},{"type":"Feature","id":"way/163719524-0","properties":{"addr:city":"Singapore","addr:country":"SG","addr:housenumber":"542","addr:postcode":"650542","addr:street":"Bukit Batok Street 52","building":"residential","building:levels":"11","residential":"HDB"},"geometry":{"type":"Polygon","coordinates":[[[103.7507562,1.3542133],[103.750723,1.3542387],[103.750775,1.3542662],[103.7507636,1.3542876],[103.7507102,1.3542715],[103.7507137,1.3543113],[103.7507544,1.3543273],[103.7507505,1.3543889],[103.7507113,1.3543925],[103.7507096,1.3544346],[103.7508298,1.3544358],[103.7508325,1.3543032],[103.7515645,1.3536131],[103.7516894,1.3536143],[103.7516952,1.3534897],[103.7516483,1.3534874],[103.7516481,1.3535237],[103.7515963,1.3535238],[103.7515713,1.3534839],[103.7515228,1.3534838],[103.7515432,1.3535371],[103.7515222,1.3535445],[103.7515055,1.3534939],[103.7514677,1.3535285],[103.7514868,1.3535673],[103.7514426,1.3536075],[103.7514185,1.353581],[103.7513519,1.3536417],[103.7513778,1.3536702],[103.751347,1.3536982],[103.7513226,1.3536715],[103.751253,1.3537349],[103.7512776,1.3537619],[103.7512459,1.3537908],[103.7512221,1.3537647],[103.7511868,1.3537969],[103.7512059,1.3538179],[103.7511673,1.353853],[103.7511497,1.3538336],[103.7511163,1.3538641],[103.7511425,1.3538928],[103.7511111,1.3539214],[103.7510864,1.3538943],[103.7510192,1.3539555],[103.7510455,1.3539843],[103.7510166,1.3540107],[103.7509928,1.3539845],[103.7509559,1.3540181],[103.7509874,1.3540527],[103.7509669,1.3540714],[103.7509372,1.3540388],[103.7509079,1.3540654],[103.7509366,1.3540969],[103.7509016,1.3541289],[103.7508755,1.3541003],[103.7508148,1.3541555],[103.7508421,1.3541855],[103.750797,1.3542266],[103.7507562,1.3542133]]]}},{"type":"Feature","id":"way/163719539-0","properties":{"addr:city":"Singapore","addr:country":"SG","addr:housenumber":"540","addr:postcode":"650540","addr:street":"Bukit Batok Street 52","building":"residential","building:levels":"12","residential":"HDB"},"geometry":{"type":"Polygon","coordinates":[[[103.7516641,1.3544242],[103.7516656,1.3543863],[103.7516362,1.3543851],[103.7516371,1.3543615],[103.7513016,1.3543481],[103.7513011,1.3543607],[103.7511659,1.3543553],[103.7511666,1.3543389],[103.7509708,1.3543311],[103.7509697,1.3543578],[103.7509388,1.3543565],[103.7509376,1.3543865],[103.7509198,1.3543857],[103.7509163,1.3544745],[103.7509412,1.3544755],[103.750942,1.3544546],[103.7509619,1.3544554],[103.750961,1.354476],[103.751047,1.3544794],[103.7510482,1.3544506],[103.7510631,1.3544512],[103.7510639,1.3544298],[103.7510817,1.3544305],[103.7510808,1.3544521],[103.7510991,1.3544528],[103.7510979,1.3544832],[103.7511868,1.3544867],[103.751188,1.3544574],[103.751262,1.3544603],[103.7512608,1.3544907],[103.7513541,1.3544944],[103.7513553,1.3544657],[103.7513758,1.3544665],[103.7513774,1.3544256],[103.7513979,1.3544264],[103.7513962,1.3544668],[103.751429,1.3544681],[103.7514278,1.3544997],[103.7515252,1.3545035],[103.7515266,1.3544705],[103.7515483,1.3544713],[103.7515471,1.3545022],[103.7516351,1.3545057],[103.7516359,1.3544848],[103.7516584,1.3544857],[103.7516575,1.3545076],[103.7516846,1.3545087],[103.7516879,1.3544252],[103.7516641,1.3544242]]]}},{"type":"Feature","id":"way/163719547-0","properties":{"addr:city":"Singapore","addr:country":"SG","addr:housenumber":"541","addr:postcode":"650541","addr:street":"Bukit Batok Street 52","building":"residential","building:levels":"4","residential":"HDB","roof:material":"roof_tiles"},"geometry":{"type":"Polygon","coordinates":[[[103.7515579,1.3543057],[103.7516731,1.3543096],[103.7516927,1.3537387],[103.7515671,1.3537343],[103.7515663,1.3537574],[103.7515854,1.3537581],[103.751584,1.3537979],[103.7515506,1.3537967],[103.751548,1.3538723],[103.7515788,1.3538734],[103.7515778,1.3539018],[103.7515605,1.3539012],[103.75156,1.3539182],[103.7515778,1.3539188],[103.7515771,1.3539397],[103.7515616,1.3539391],[103.7515609,1.3539603],[103.7515769,1.3539608],[103.7515761,1.3539845],[103.7515436,1.3539834],[103.751541,1.3540599],[103.7515718,1.354061],[103.751571,1.3540855],[103.7515539,1.3540849],[103.7515532,1.3541045],[103.7515703,1.3541051],[103.7515696,1.3541247],[103.7515522,1.3541241],[103.7515515,1.3541443],[103.7515682,1.3541449],[103.7515673,1.35417],[103.7515361,1.354169],[103.7515334,1.3542465],[103.7515699,1.3542478],[103.7515687,1.3542838],[103.7515482,1.3542831],[103.7515474,1.3543053],[103.7515579,1.3543057]]]}},{"type":"Feature","id":"way/163719630-0","properties":{"addr:city":"Singapore","addr:country":"SG","addr:housenumber":"535","addr:postcode":"650535","addr:street":"Bukit Batok Street 52","building":"residential","building:levels":"9","residential":"HDB"},"geometry":{"type":"Polygon","coordinates":[[[103.7503786,1.3555434],[103.7503809,1.3554721],[103.7503992,1.3554727],[103.7503985,1.3554969],[103.7504227,1.3554976],[103.7504211,1.3555459],[103.7504762,1.3555476],[103.7504777,1.355501],[103.7505135,1.3555021],[103.7505121,1.3555476],[103.7505625,1.3555492],[103.7505665,1.3554239],[103.750533,1.3554229],[103.7505336,1.3554052],[103.750425,1.3554018],[103.7504515,1.3545747],[103.7505635,1.3545783],[103.7505642,1.3545561],[103.750596,1.3545571],[103.7505999,1.3544354],[103.7505511,1.3544338],[103.7505497,1.3544766],[103.7505091,1.3544753],[103.7505105,1.3544297],[103.7504633,1.3544282],[103.7504618,1.3544744],[103.7504319,1.3544734],[103.7504308,1.3545053],[103.7504134,1.3545048],[103.7504158,1.3544272],[103.7503137,1.3544239],[103.7503123,1.3544683],[103.7503272,1.3544688],[103.7503257,1.3545146],[103.7503144,1.3545142],[103.7503115,1.3546043],[103.7503528,1.3546056],[103.7503516,1.3546427],[103.7503118,1.3546414],[103.7503088,1.354737],[103.7503522,1.3547384],[103.7503509,1.3547769],[103.7503054,1.3547755],[103.7503025,1.3548674],[103.7503434,1.3548687],[103.7503422,1.3549059],[103.7503015,1.3549046],[103.7502998,1.3549576],[103.7503362,1.3549588],[103.7503346,1.3550071],[103.7502961,1.3550058],[103.7502945,1.3550568],[103.7503371,1.3550581],[103.7503358,1.3550973],[103.7502933,1.3550959],[103.7502904,1.3551878],[103.7503333,1.3551892],[103.7503322,1.3552224],[103.7502878,1.3552209],[103.7502846,1.3553202],[103.7503301,1.3553217],[103.7503288,1.3553608],[103.7502832,1.3553593],[103.7502803,1.3554504],[103.7502939,1.3554508],[103.7502926,1.3554914],[103.7502742,1.3554908],[103.7502726,1.35554],[103.7503786,1.3555434]]]}},{"type":"Feature","id":"way/163719733-0","properties":{"addr:city":"Singapore","addr:country":"SG","addr:housenumber":"537","addr:postcode":"650537","addr:street":"Bukit Batok Street 52","building":"residential","building:levels":"12","residential":"HDB"},"geometry":{"type":"Polygon","coordinates":[[[103.7512337,1.3551317],[103.751235,1.3550938],[103.7512055,1.3550928],[103.7512063,1.3550691],[103.7508708,1.3550577],[103.7508703,1.3550704],[103.7507351,1.3550658],[103.7507357,1.3550494],[103.7505398,1.3550427],[103.7505389,1.3550694],[103.750508,1.3550683],[103.7505069,1.3550983],[103.7504892,1.3550977],[103.7504862,1.3551864],[103.7505111,1.3551873],[103.7505118,1.3551663],[103.7505316,1.355167],[103.7505309,1.3551877],[103.7506169,1.3551906],[103.7506179,1.3551618],[103.7506328,1.3551623],[103.7506336,1.3551409],[103.7506513,1.3551415],[103.7506506,1.355163],[103.7506689,1.3551637],[103.7506679,1.355194],[103.7507567,1.3551971],[103.7507577,1.3551677],[103.7508318,1.3551702],[103.7508308,1.3552006],[103.7509241,1.3552038],[103.7509251,1.3551751],[103.7509456,1.3551758],[103.750947,1.3551348],[103.7509674,1.3551355],[103.7509661,1.3551759],[103.7509989,1.355177],[103.7509978,1.3552086],[103.7510953,1.3552119],[103.7510964,1.3551788],[103.7511182,1.3551796],[103.7511171,1.3552104],[103.7512052,1.3552134],[103.7512059,1.3551924],[103.7512283,1.3551932],[103.7512276,1.3552152],[103.7512547,1.3552161],[103.7512575,1.3551326],[103.7512337,1.3551317]]]}},{"type":"Feature","id":"way/163719734-0","properties":{"addr:city":"Singapore","addr:country":"SG","addr:housenumber":"536","addr:postcode":"650536","addr:street":"Bukit Batok Street 52","building":"residential","building:levels":"12","residential":"HDB"},"geometry":{"type":"Polygon","coordinates":[[[103.7506856,1.355469],[103.750705,1.3554697],[103.7507036,1.355508],[103.7507345,1.3555091],[103.7507336,1.3555351],[103.7509289,1.3555423],[103.7509296,1.3555215],[103.7510607,1.3555264],[103.75106,1.355547],[103.7512661,1.3555546],[103.7512669,1.3555343],[103.7513951,1.355539],[103.7513943,1.3555603],[103.7515892,1.3555675],[103.7515902,1.3555418],[103.751623,1.355543],[103.7516242,1.3555115],[103.7516454,1.3555123],[103.7516487,1.3554228],[103.7516231,1.3554219],[103.7516222,1.3554473],[103.7515984,1.3554464],[103.7515992,1.3554247],[103.7515172,1.3554216],[103.7515162,1.3554491],[103.7514999,1.3554485],[103.7514991,1.3554707],[103.7514797,1.35547],[103.7514805,1.3554488],[103.7514654,1.3554483],[103.7514666,1.3554163],[103.7513768,1.355413],[103.7513756,1.355444],[103.7512951,1.355441],[103.7512962,1.3554123],[103.7512074,1.355409],[103.7512063,1.3554374],[103.7511913,1.3554369],[103.7511901,1.3554695],[103.7511664,1.3554686],[103.7511676,1.3554345],[103.7511313,1.3554332],[103.7511323,1.355406],[103.7510373,1.3554025],[103.7510364,1.3554276],[103.7509574,1.3554247],[103.7509586,1.3553939],[103.7508692,1.3553906],[103.750868,1.3554234],[103.7508514,1.3554227],[103.7508508,1.3554375],[103.7508314,1.3554368],[103.750832,1.3554213],[103.7508173,1.3554208],[103.7508184,1.3553921],[103.7507335,1.355389],[103.7507328,1.3554087],[103.750713,1.355408],[103.7507138,1.3553873],[103.7506887,1.3553864],[103.7506856,1.355469]]]}},{"type":"Feature","id":"way/163719735-0","properties":{"addr:city":"Singapore","addr:country":"SG","addr:housenumber":"539","addr:postcode":"650539","addr:street":"Bukit Batok Street 52","building":"residential","building:levels":"12","residential":"HDB"},"geometry":{"type":"Polygon","coordinates":[[[103.7505271,1.3547718],[103.7505259,1.3548098],[103.7505554,1.3548107],[103.7505546,1.3548344],[103.7508902,1.354845],[103.7508906,1.3548324],[103.7510258,1.3548367],[103.7510253,1.3548531],[103.7512212,1.3548593],[103.7512221,1.3548327],[103.751253,1.3548337],[103.7512539,1.3548037],[103.7512717,1.3548043],[103.7512745,1.3547155],[103.7512496,1.3547147],[103.7512489,1.3547356],[103.7512291,1.354735],[103.7512297,1.3547144],[103.7511437,1.3547116],[103.7511428,1.3547405],[103.7511279,1.35474],[103.7511272,1.3547614],[103.7511095,1.3547608],[103.7511102,1.3547393],[103.7510918,1.3547387],[103.7510928,1.3547083],[103.7510039,1.3547055],[103.751003,1.3547348],[103.7509289,1.3547325],[103.7509299,1.3547021],[103.7508365,1.3546991],[103.7508356,1.3547278],[103.7508151,1.3547272],[103.7508138,1.3547681],[103.7507934,1.3547675],[103.7507946,1.3547271],[103.7507618,1.3547261],[103.7507629,1.3546945],[103.7506653,1.3546914],[103.7506643,1.3547245],[103.7506425,1.3547238],[103.7506435,1.3546929],[103.7505555,1.3546901],[103.7505548,1.3547111],[103.7505323,1.3547104],[103.750533,1.3546884],[103.750506,1.3546876],[103.7505033,1.3547711],[103.7505271,1.3547718]]]}},{"type":"Feature","id":"way/163719913-0","properties":{"building":"yes"},"geometry":{"type":"Polygon","coordinates":[[[103.7502036,1.3555489],[103.7502107,1.3553171],[103.7501356,1.3553148],[103.7501285,1.3555466],[103.7502036,1.3555489]]]}},{"type":"Feature","id":"way/163719914-0","properties":{"building":"yes"},"geometry":{"type":"Polygon","coordinates":[[[103.7499462,1.3555328],[103.750018,1.3555375],[103.7500289,1.3553699],[103.7499571,1.3553652],[103.7499462,1.3555328]]]}},{"type":"Feature","id":"way/163719915-0","properties":{"building":"yes"},"geometry":{"type":"Polygon","coordinates":[[[103.7501202,1.3553684],[103.7501259,1.3552793],[103.7500402,1.3552738],[103.7500345,1.3553629],[103.7501202,1.3553684]]]}},{"type":"Feature","id":"way/164770281-0","properties":{"addr:city":"Singapore","addr:country":"SG","addr:housename":"Civil Service Club @ Bukit Batok","addr:housenumber":"91","addr:postcode":"659206","addr:street":"Bukit Batok West Avenue 2","building":"public","building:levels":"6"},"geometry":{"type":"Polygon","coordinates":[[[103.7495376,1.3526245],[103.7496453,1.3525982],[103.7497868,1.3528428],[103.7498296,1.3528181],[103.7498495,1.3529091],[103.7497839,1.3529234],[103.7498418,1.3531894],[103.7499419,1.3531676],[103.7498839,1.3529016],[103.7498654,1.3529057],[103.7498444,1.3528095],[103.750127,1.352646],[103.7498799,1.3522192],[103.7495398,1.3524159],[103.7495947,1.3525108],[103.7495146,1.3525303],[103.749496,1.3524542],[103.7489042,1.3525987],[103.7489457,1.3527687],[103.7489098,1.3528145],[103.7488231,1.3527467],[103.7488121,1.3527607],[103.7487398,1.3527042],[103.7486775,1.3527839],[103.7487498,1.3528404],[103.7486108,1.353018],[103.7487456,1.3531234],[103.7489579,1.3528521],[103.7489389,1.3528373],[103.7489996,1.3527597],[103.7495376,1.3526245]]]}},{"type":"Feature","id":"way/164770283-0","properties":{"building":"yes"},"geometry":{"type":"Polygon","coordinates":[[[103.7491903,1.3543374],[103.7491648,1.3542606],[103.7490495,1.354299],[103.749075,1.3543758],[103.7491903,1.3543374]]]}},{"type":"Feature","id":"way/164770286-0","properties":{"building":"yes"},"geometry":{"type":"Polygon","coordinates":[[[103.7490931,1.3550449],[103.7488386,1.3542035],[103.7480956,1.3544282],[103.7483501,1.3552696],[103.7490931,1.3550449]]]}},{"type":"Feature","id":"way/164770291-0","properties":{"building":"yes"},"geometry":{"type":"Polygon","coordinates":[[[103.7487502,1.3533814],[103.7487559,1.3532763],[103.7486388,1.35327],[103.7486331,1.3533751],[103.7487502,1.3533814]]]}},{"type":"Feature","id":"way/461781622-0","properties":{"addr:city":"Singapore","addr:country":"SG","addr:housenumber":"31","addr:postcode":"659251","addr:street":"Bukit Batok Street 52","branch":"Bukit Batok","building":"residential","height":"0","name":"Ren Ci"},"geometry":{"type":"Polygon","coordinates":[[[103.751691,1.3547732],[103.7516372,1.3547726],[103.7516401,1.3546878],[103.7514421,1.354681],[103.7514363,1.3548489],[103.7514168,1.3548482],[103.7514153,1.3548911],[103.7514338,1.3548918],[103.7514297,1.355011],[103.7514071,1.3550102],[103.7514043,1.3550929],[103.7514234,1.3550935],[103.7514205,1.3551769],[103.7514184,1.355222],[103.7516722,1.3552324],[103.751691,1.3547732]]]}},{"type":"Feature","id":"way/599688421-0","properties":{"building:levels":"18","building:part":"yes"},"geometry":{"type":"Polygon","coordinates":[[[103.7489862,1.3518177],[103.7491104,1.3517255],[103.7490998,1.3517122],[103.7491115,1.3517043],[103.7491213,1.3517167],[103.7492326,1.3516334],[103.7492236,1.3516207],[103.7492384,1.3516099],[103.7491809,1.3515319],[103.7489183,1.3517276],[103.7489803,1.3518106],[103.7489862,1.3518177]]]}},{"type":"Feature","id":"way/599688427-0","properties":{"building:levels":"8","building:part":"yes"},"geometry":{"type":"Polygon","coordinates":[[[103.7489183,1.3517276],[103.7488935,1.3517466],[103.7489174,1.3517787],[103.7488436,1.3518317],[103.7488721,1.3518697],[103.748791,1.3519309],[103.7488146,1.3519641],[103.7487238,1.3520303],[103.7487245,1.3520692],[103.7488654,1.3520662],[103.7488844,1.3520544],[103.7488602,1.3520179],[103.7489531,1.3519497],[103.7489251,1.3519096],[103.748985,1.3518665],[103.7489741,1.3518514],[103.7489886,1.3518419],[103.7489703,1.3518167],[103.7489803,1.3518106],[103.7489183,1.3517276]]]}},{"type":"Feature","id":"way/599688432-0","properties":{"building:levels":"8","building:part":"yes"},"geometry":{"type":"Polygon","coordinates":[[[103.7492559,1.3515965],[103.7492655,1.3516097],[103.7493212,1.3515671],[103.7493085,1.3515495],[103.7492548,1.3514753],[103.7491809,1.3515319],[103.7492384,1.3516099],[103.7492559,1.3515965]]]}},{"type":"Feature","id":"way/599688438-0","properties":{"building:levels":"18","building:part":"yes"},"geometry":{"type":"Polygon","coordinates":[[[103.7493577,1.3518991],[103.7494181,1.3518691],[103.7494614,1.3518424],[103.749528,1.351799],[103.7496158,1.3517395],[103.7496058,1.3517271],[103.7496314,1.3517057],[103.7495844,1.3516439],[103.7495578,1.3516625],[103.7495472,1.3516473],[103.7495199,1.351666],[103.7495289,1.3516799],[103.7495055,1.3516961],[103.7494965,1.3516824],[103.7494801,1.3516929],[103.7494387,1.3517192],[103.7494151,1.3517357],[103.7493617,1.351769],[103.7493702,1.3517815],[103.7493406,1.351795],[103.7493318,1.35178],[103.7492759,1.3518126],[103.749281,1.3518269],[103.7492682,1.3518346],[103.7493074,1.3519248],[103.7493577,1.3518991]]]}},{"type":"Feature","id":"way/599688444-0","properties":{"building:levels":"8","building:part":"yes"},"geometry":{"type":"Polygon","coordinates":[[[103.7492682,1.3518346],[103.7492542,1.3518407],[103.7492605,1.3518549],[103.7492315,1.3518672],[103.7492377,1.3518858],[103.7491818,1.351912],[103.7491728,1.3518902],[103.749143,1.351904],[103.7491494,1.3519221],[103.7491267,1.3519315],[103.7491209,1.351912],[103.7490884,1.3519231],[103.7490945,1.3519423],[103.7490637,1.3519534],[103.7490864,1.3520283],[103.7491171,1.3520175],[103.7491211,1.3520329],[103.7491821,1.3520139],[103.7493202,1.3519547],[103.7493074,1.3519248],[103.7492682,1.3518346]]]}},{"type":"Feature","id":"way/599688449-0","properties":{"building:levels":"18","building:part":"yes"},"geometry":{"type":"Polygon","coordinates":[[[103.7498482,1.3513833],[103.7498366,1.3513975],[103.7498228,1.3513837],[103.749779,1.3514362],[103.7497926,1.3514475],[103.7497717,1.3514697],[103.7497596,1.3514577],[103.7497148,1.3515044],[103.7497265,1.3515158],[103.7497057,1.3515366],[103.7496933,1.3515229],[103.7496435,1.3515664],[103.7496542,1.3515799],[103.7496336,1.3516011],[103.7496209,1.3515869],[103.7495954,1.3516078],[103.7496095,1.3516259],[103.7495844,1.3516439],[103.7496314,1.3517057],[103.7496577,1.3516863],[103.7496681,1.3516988],[103.7497065,1.3516678],[103.7497718,1.3516075],[103.7498136,1.3515683],[103.7498438,1.3515381],[103.7498854,1.3514887],[103.7499231,1.3514458],[103.7498482,1.3513833]]]}},{"type":"Feature","id":"way/758636968-0","properties":{"building:levels":"2","building:part":"yes"},"geometry":{"type":"Polygon","coordinates":[[[103.7516722,1.3552324],[103.751691,1.3547732],[103.7516372,1.3547726],[103.7515199,1.3547685],[103.7515174,1.3548426],[103.7515367,1.3548433],[103.7515322,1.3549745],[103.7515176,1.354974],[103.7515157,1.355028],[103.7516484,1.3550326],[103.7516464,1.3550926],[103.75157,1.35509],[103.7515679,1.3551513],[103.7515044,1.3551492],[103.7515033,1.3551797],[103.7514205,1.3551769],[103.7514184,1.355222],[103.7516722,1.3552324]]]}},{"type":"Feature","id":"way/758636969-0","properties":{"building:levels":"7","building:part":"yes"},"geometry":{"type":"Polygon","coordinates":[[[103.7516401,1.3546878],[103.7514421,1.354681],[103.7514363,1.3548489],[103.7514168,1.3548482],[103.7514153,1.3548911],[103.7514338,1.3548918],[103.7514297,1.355011],[103.7514071,1.3550102],[103.7514043,1.3550929],[103.7514234,1.3550935],[103.7514205,1.3551769],[103.7515033,1.3551797],[103.7515044,1.3551492],[103.7515679,1.3551513],[103.75157,1.35509],[103.7516464,1.3550926],[103.7516484,1.3550326],[103.7515157,1.355028],[103.7515176,1.354974],[103.7515322,1.3549745],[103.7515367,1.3548433],[103.7515174,1.3548426],[103.7515199,1.3547685],[103.7516372,1.3547726],[103.7516401,1.3546878]]]}},{"type":"Feature","id":"way/22733414-0-0-0","properties":{"highway":"residential","lanes":"1","maxspeed":"50","name":"Bukit Batok Street 52","oneway":"yes","source":"Yahoo aerial images","surface":"asphalt"},"geometry":{"type":"LineString","coordinates":[[103.751854,1.3536935],[103.7518545,1.3535699]]}},{"type":"Feature","id":"way/22733414-0-1-0","properties":{"highway":"residential","lanes":"1","maxspeed":"50","name":"Bukit Batok Street 52","oneway":"yes","source":"Yahoo aerial images","surface":"asphalt"},"geometry":{"type":"LineString","coordinates":[[103.7518545,1.3535699],[103.751873,1.3534915]]}},{"type":"Feature","id":"way/22733414-0-2-0","properties":{"highway":"residential","lanes":"1","maxspeed":"50","name":"Bukit Batok Street 52","oneway":"yes","source":"Yahoo aerial images","surface":"asphalt"},"geometry":{"type":"LineString","coordinates":[[103.751873,1.3534915],[103.7518992,1.3534417]]}},{"type":"Feature","id":"way/22733414-0-3-0","properties":{"highway":"residential","lanes":"1","maxspeed":"50","name":"Bukit Batok Street 52","oneway":"yes","source":"Yahoo aerial images","surface":"asphalt"},"geometry":{"type":"LineString","coordinates":[[103.7518992,1.3534417],[103.7519508,1.3533778]]}},{"type":"Feature","id":"way/22733414-0-4-0","properties":{"highway":"residential","lanes":"1","maxspeed":"50","name":"Bukit Batok Street 52","oneway":"yes","source":"Yahoo aerial images","surface":"asphalt"},"geometry":{"type":"LineString","coordinates":[[103.7519508,1.3533778],[103.7521681,1.3531285]]}},{"type":"Feature","id":"way/28581020-0-0-0","properties":{"highway":"service","service":"parking_aisle","source":"Bing"},"geometry":{"type":"LineString","coordinates":[[103.7509525,1.3542376],[103.7513629,1.3542523]]}},{"type":"Feature","id":"way/28581020-0-1-0","properties":{"highway":"service","service":"parking_aisle","source":"Bing"},"geometry":{"type":"LineString","coordinates":[[103.7513629,1.3542523],[103.7513888,1.3542361]]}},{"type":"Feature","id":"way/28581020-0-2-0","properties":{"highway":"service","service":"parking_aisle","source":"Bing"},"geometry":{"type":"LineString","coordinates":[[103.7513888,1.3542361],[103.7514029,1.3542024]]}},{"type":"Feature","id":"way/28581020-0-3-0","properties":{"highway":"service","service":"parking_aisle","source":"Bing"},"geometry":{"type":"LineString","coordinates":[[103.7514029,1.3542024],[103.7514104,1.3539486]]}},{"type":"Feature","id":"way/28581020-0-4-0","properties":{"highway":"service","service":"parking_aisle","source":"Bing"},"geometry":{"type":"LineString","coordinates":[[103.7514104,1.3539486],[103.7513581,1.3539002]]}},{"type":"Feature","id":"way/28581025-0-0-0","properties":{"highway":"service","lanes":"2","lanes:backward":"1","lanes:forward":"1","service":"driveway","source":"Bing"},"geometry":{"type":"LineString","coordinates":[[103.7513009,1.3549652],[103.7512941,1.3553013]]}},{"type":"Feature","id":"way/28581026-0-0-0","properties":{"highway":"service","lanes":"2","lanes:backward":"1","lanes:forward":"1","service":"parking_aisle","source":"Bing","turn:lanes:backward":"left;right"},"geometry":{"type":"LineString","coordinates":[[103.7513009,1.3549652],[103.7511365,1.3549603]]}},{"type":"Feature","id":"way/28581029-0-0-0","properties":{"foot":"yes","highway":"service","lanes":"2","lanes:backward":"1","lanes:forward":"1","service":"parking_aisle","source":"Bing"},"geometry":{"type":"LineString","coordinates":[[103.7506624,1.3545661],[103.7508629,1.3545731]]}},{"type":"Feature","id":"way/74798139-0-2-0","properties":{"highway":"primary","lanes":"2","maxheight":"4.5","maxspeed":"50","name":"Bukit Batok Central","name:zh":"\u6b66\u5409\u5df4\u7763\u4e2d\u8def","oneway":"yes","sidewalk:left":"separate","sidewalk:right":"no","source":"Yahoo aerial images","surface":"asphalt"},"geometry":{"type":"LineString","coordinates":[[103.7503547,1.3513328],[103.7501777,1.3515224]]}},{"type":"Feature","id":"way/74798139-0-3-0","properties":{"highway":"primary","lanes":"2","maxheight":"4.5","maxspeed":"50","name":"Bukit Batok Central","name:zh":"\u6b66\u5409\u5df4\u7763\u4e2d\u8def","oneway":"yes","sidewalk:left":"separate","sidewalk:right":"no","source":"Yahoo aerial images","surface":"asphalt"},"geometry":{"type":"LineString","coordinates":[[103.7501777,1.3515224],[103.750002,1.3516885]]}},{"type":"Feature","id":"way/74798139-0-4-0","properties":{"highway":"primary","lanes":"2","maxheight":"4.5","maxspeed":"50","name":"Bukit Batok Central","name:zh":"\u6b66\u5409\u5df4\u7763\u4e2d\u8def","oneway":"yes","sidewalk:left":"separate","sidewalk:right":"no","source":"Yahoo aerial images","surface":"asphalt"},"geometry":{"type":"LineString","coordinates":[[103.750002,1.3516885],[103.7498912,1.3518031]]}},{"type":"Feature","id":"way/74798139-0-5-0","properties":{"highway":"primary","lanes":"2","maxheight":"4.5","maxspeed":"50","name":"Bukit Batok Central","name:zh":"\u6b66\u5409\u5df4\u7763\u4e2d\u8def","oneway":"yes","sidewalk:left":"separate","sidewalk:right":"no","source":"Yahoo aerial images","surface":"asphalt"},"geometry":{"type":"LineString","coordinates":[[103.7498912,1.3518031],[103.7497484,1.3519298]]}},{"type":"Feature","id":"way/74798139-0-6-0","properties":{"highway":"primary","lanes":"2","maxheight":"4.5","maxspeed":"50","name":"Bukit Batok Central","name:zh":"\u6b66\u5409\u5df4\u7763\u4e2d\u8def","oneway":"yes","sidewalk:left":"separate","sidewalk:right":"no","source":"Yahoo aerial images","surface":"asphalt"},"geometry":{"type":"LineString","coordinates":[[103.7497484,1.3519298],[103.7496096,1.3520203]]}},{"type":"Feature","id":"way/74798139-0-7-0","properties":{"highway":"primary","lanes":"2","maxheight":"4.5","maxspeed":"50","name":"Bukit Batok Central","name:zh":"\u6b66\u5409\u5df4\u7763\u4e2d\u8def","oneway":"yes","sidewalk:left":"separate","sidewalk:right":"no","source":"Yahoo aerial images","surface":"asphalt"},"geometry":{"type":"LineString","coordinates":[[103.7496096,1.3520203],[103.7493836,1.3521447]]}},{"type":"Feature","id":"way/163717352-0-3-0","properties":{"highway":"service","lanes":"2","lanes:backward":"1","lanes:forward":"1","service":"driveway"},"geometry":{"type":"LineString","coordinates":[[103.7497954,1.3513134],[103.7496308,1.3514362]]}},{"type":"Feature","id":"way/163717352-0-4-0","properties":{"highway":"service","lanes":"2","lanes:backward":"1","lanes:forward":"1","service":"driveway"},"geometry":{"type":"LineString","coordinates":[[103.7496308,1.3514362],[103.7494052,1.3516004]]}},{"type":"Feature","id":"way/163717352-0-5-0","properties":{"highway":"service","lanes":"2","lanes:backward":"1","lanes:forward":"1","service":"driveway"},"geometry":{"type":"LineString","coordinates":[[103.7494052,1.3516004],[103.74923,1.3517248]]}},{"type":"Feature","id":"way/163717352-0-6-0","properties":{"highway":"service","lanes":"2","lanes:backward":"1","lanes:forward":"1","service":"driveway"},"geometry":{"type":"LineString","coordinates":[[103.74923,1.3517248],[103.7492106,1.3517453]]}},{"type":"Feature","id":"way/163717352-0-7-0","properties":{"highway":"service","lanes":"2","lanes:backward":"1","lanes:forward":"1","service":"driveway"},"geometry":{"type":"LineString","coordinates":[[103.7492106,1.3517453],[103.7492028,1.3517701]]}},{"type":"Feature","id":"way/163717352-0-8-0","properties":{"highway":"service","lanes":"2","lanes:backward":"1","lanes:forward":"1","service":"driveway"},"geometry":{"type":"LineString","coordinates":[[103.7492028,1.3517701],[103.7491925,1.3517889]]}},{"type":"Feature","id":"way/163717352-0-9-0","properties":{"highway":"service","lanes":"2","lanes:backward":"1","lanes:forward":"1","service":"driveway"},"geometry":{"type":"LineString","coordinates":[[103.7491925,1.3517889],[103.7490399,1.3519027]]}},{"type":"Feature","id":"way/163717352-0-10-0","properties":{"highway":"service","lanes":"2","lanes:backward":"1","lanes:forward":"1","service":"driveway"},"geometry":{"type":"LineString","coordinates":[[103.7490399,1.3519027],[103.7490169,1.3519324]]}},{"type":"Feature","id":"way/163717352-0-11-0","properties":{"highway":"service","lanes":"2","lanes:backward":"1","lanes:forward":"1","service":"driveway"},"geometry":{"type":"LineString","coordinates":[[103.7490169,1.3519324],[103.7490029,1.3519651]]}},{"type":"Feature","id":"way/163717352-0-12-0","properties":{"highway":"service","lanes":"2","lanes:backward":"1","lanes:forward":"1","service":"driveway"},"geometry":{"type":"LineString","coordinates":[[103.7490029,1.3519651],[103.7490066,1.3520668]]}},{"type":"Feature","id":"way/164770287-0-0-0","properties":{"highway":"service","lanes":"2","lanes:backward":"1","lanes:forward":"1"},"geometry":{"type":"LineString","coordinates":[[103.7495079,1.3523828],[103.748758,1.3525828]]}},{"type":"Feature","id":"way/164770287-0-1-0","properties":{"highway":"service","lanes":"2","lanes:backward":"1","lanes:forward":"1"},"geometry":{"type":"LineString","coordinates":[[103.748758,1.3525828],[103.7486903,1.352621]]}},{"type":"Feature","id":"way/164770287-0-2-0","properties":{"highway":"service","lanes":"2","lanes:backward":"1","lanes:forward":"1"},"geometry":{"type":"LineString","coordinates":[[103.7486903,1.352621],[103.7486413,1.3526847]]}},{"type":"Feature","id":"way/164770287-0-3-0","properties":{"highway":"service","lanes":"2","lanes:backward":"1","lanes:forward":"1"},"geometry":{"type":"LineString","coordinates":[[103.7486413,1.3526847],[103.7486058,1.3527644]]}},{"type":"Feature","id":"way/164770287-0-4-0","properties":{"highway":"service","lanes":"2","lanes:backward":"1","lanes:forward":"1"},"geometry":{"type":"LineString","coordinates":[[103.7486058,1.3527644],[103.7485689,1.3531921]]}},{"type":"Feature","id":"way/173767609-0-0-0","properties":{"highway":"secondary","lanes":"2","maxspeed":"60","name":"Bukit Batok West Avenue 2","oneway":"yes","sidewalk:left":"separate","sidewalk:right":"no","source":"Yahoo aerial images","surface":"asphalt"},"geometry":{"type":"LineString","coordinates":[[103.7481088,1.3535489],[103.7480308,1.3536485]]}},{"type":"Feature","id":"way/173767609-0-1-0","properties":{"highway":"secondary","lanes":"2","maxspeed":"60","name":"Bukit Batok West Avenue 2","oneway":"yes","sidewalk:left":"separate","sidewalk:right":"no","source":"Yahoo aerial images","surface":"asphalt"},"geometry":{"type":"LineString","coordinates":[[103.7480308,1.3536485],[103.747757,1.3540242]]}},{"type":"Feature","id":"way/173767609-0-2-0","properties":{"highway":"secondary","lanes":"2","maxspeed":"60","name":"Bukit Batok West Avenue 2","oneway":"yes","sidewalk:left":"separate","sidewalk:right":"no","source":"Yahoo aerial images","surface":"asphalt"},"geometry":{"type":"LineString","coordinates":[[103.747757,1.3540242],[103.7476527,1.3542047]]}},{"type":"Feature","id":"way/175840034-0-0-0","properties":{"highway":"secondary","lanes":"3","maxspeed":"50","name":"Bukit Batok Central","oneway":"yes","source":"Yahoo aerial images","surface":"asphalt"},"geometry":{"type":"LineString","coordinates":[[103.748353,1.3523019],[103.7483516,1.3524132]]}},{"type":"Feature","id":"way/175840035-0-0-0","properties":{"highway":"primary","lanes":"2","maxspeed":"50","name":"Bukit Batok Central","name:zh":"\u6b66\u5409\u5df4\u7763\u4e2d\u8def","oneway":"yes","sidewalk:left":"separate","sidewalk:right":"no","source":"Yahoo aerial images","surface":"asphalt"},"geometry":{"type":"LineString","coordinates":[[103.7484469,1.3524078],[103.7485087,1.3524064]]}},{"type":"Feature","id":"way/175840035-0-1-0","properties":{"highway":"primary","lanes":"2","maxspeed":"50","name":"Bukit Batok Central","name:zh":"\u6b66\u5409\u5df4\u7763\u4e2d\u8def","oneway":"yes","sidewalk:left":"separate","sidewalk:right":"no","source":"Yahoo aerial images","surface":"asphalt"},"geometry":{"type":"LineString","coordinates":[[103.7485087,1.3524064],[103.7487493,1.3523892]]}},{"type":"Feature","id":"way/175840035-0-2-0","properties":{"highway":"primary","lanes":"2","maxspeed":"50","name":"Bukit Batok Central","name:zh":"\u6b66\u5409\u5df4\u7763\u4e2d\u8def","oneway":"yes","sidewalk:left":"separate","sidewalk:right":"no","source":"Yahoo aerial images","surface":"asphalt"},"geometry":{"type":"LineString","coordinates":[[103.7487493,1.3523892],[103.7490349,1.3523688]]}},{"type":"Feature","id":"way/175840035-0-3-0","properties":{"highway":"primary","lanes":"2","maxspeed":"50","name":"Bukit Batok Central","name:zh":"\u6b66\u5409\u5df4\u7763\u4e2d\u8def","oneway":"yes","sidewalk:left":"separate","sidewalk:right":"no","source":"Yahoo aerial images","surface":"asphalt"},"geometry":{"type":"LineString","coordinates":[[103.7490349,1.3523688],[103.7492802,1.3523004]]}},{"type":"Feature","id":"way/175840035-0-4-0","properties":{"highway":"primary","lanes":"2","maxspeed":"50","name":"Bukit Batok Central","name:zh":"\u6b66\u5409\u5df4\u7763\u4e2d\u8def","oneway":"yes","sidewalk:left":"separate","sidewalk:right":"no","source":"Yahoo aerial images","surface":"asphalt"},"geometry":{"type":"LineString","coordinates":[[103.7492802,1.3523004],[103.7496404,1.3521008]]}},{"type":"Feature","id":"way/175840035-0-5-0","properties":{"highway":"primary","lanes":"2","maxspeed":"50","name":"Bukit Batok Central","name:zh":"\u6b66\u5409\u5df4\u7763\u4e2d\u8def","oneway":"yes","sidewalk:left":"separate","sidewalk:right":"no","source":"Yahoo aerial images","surface":"asphalt"},"geometry":{"type":"LineString","coordinates":[[103.7496404,1.3521008],[103.749792,1.3520083]]}},{"type":"Feature","id":"way/175840035-0-6-0","properties":{"highway":"primary","lanes":"2","maxspeed":"50","name":"Bukit Batok Central","name:zh":"\u6b66\u5409\u5df4\u7763\u4e2d\u8def","oneway":"yes","sidewalk:left":"separate","sidewalk:right":"no","source":"Yahoo aerial images","surface":"asphalt"},"geometry":{"type":"LineString","coordinates":[[103.749792,1.3520083],[103.7499382,1.3518675]]}},{"type":"Feature","id":"way/175840035-0-7-0","properties":{"highway":"primary","lanes":"2","maxspeed":"50","name":"Bukit Batok Central","name:zh":"\u6b66\u5409\u5df4\u7763\u4e2d\u8def","oneway":"yes","sidewalk:left":"separate","sidewalk:right":"no","source":"Yahoo aerial images","surface":"asphalt"},"geometry":{"type":"LineString","coordinates":[[103.7499382,1.3518675],[103.7502104,1.3516058]]}},{"type":"Feature","id":"way/175840035-0-8-0","properties":{"highway":"primary","lanes":"2","maxspeed":"50","name":"Bukit Batok Central","name:zh":"\u6b66\u5409\u5df4\u7763\u4e2d\u8def","oneway":"yes","sidewalk:left":"separate","sidewalk:right":"no","source":"Yahoo aerial images","surface":"asphalt"},"geometry":{"type":"LineString","coordinates":[[103.7502104,1.3516058],[103.7502898,1.3515227]]}},{"type":"Feature","id":"way/370373497-0-5-0","properties":{"highway":"service","service":"parking_aisle"},"geometry":{"type":"LineString","coordinates":[[103.747673,1.3517241],[103.7477025,1.3515337]]}},{"type":"Feature","id":"way/370374515-0-0-0","properties":{"highway":"service","service":"driveway"},"geometry":{"type":"LineString","coordinates":[[103.751854,1.3536935],[103.7518091,1.3536934]]}},{"type":"Feature","id":"way/465527362-0-0-0","properties":{"highway":"secondary","lanes":"3","maxspeed":"50","name":"Bukit Batok Central","oneway":"yes","source":"Yahoo aerial images","surface":"asphalt"},"geometry":{"type":"LineString","coordinates":[[103.7484469,1.3524078],[103.7484469,1.3523046]]}},{"type":"Feature","id":"way/465527366-0-6-0","properties":{"highway":"secondary","lanes":"2","maxspeed":"60","name":"Bukit Batok West Avenue 2","oneway":"yes","sidewalk:left":"separate","sidewalk:right":"no","source":"Yahoo aerial images","surface":"asphalt"},"geometry":{"type":"LineString","coordinates":[[103.7477283,1.3542114],[103.7478922,1.3539716]]}},{"type":"Feature","id":"way/465527366-0-7-0","properties":{"highway":"secondary","lanes":"2","maxspeed":"60","name":"Bukit Batok West Avenue 2","oneway":"yes","sidewalk:left":"separate","sidewalk:right":"no","source":"Yahoo aerial images","surface":"asphalt"},"geometry":{"type":"LineString","coordinates":[[103.7478922,1.3539716],[103.7480277,1.3537761]]}},{"type":"Feature","id":"way/465527366-0-8-0","properties":{"highway":"secondary","lanes":"2","maxspeed":"60","name":"Bukit Batok West Avenue 2","oneway":"yes","sidewalk:left":"separate","sidewalk:right":"no","source":"Yahoo aerial images","surface":"asphalt"},"geometry":{"type":"LineString","coordinates":[[103.7480277,1.3537761],[103.7481623,1.3536069]]}},{"type":"Feature","id":"way/477967039-0-0-0","properties":{"highway":"primary","lanes":"3","maxspeed":"50","name":"Bukit Batok Central","name:zh":"\u6b66\u5409\u5df4\u7763\u4e2d\u8def","oneway":"yes","source":"Yahoo aerial images","surface":"asphalt"},"geometry":{"type":"LineString","coordinates":[[103.7484469,1.3523046],[103.748353,1.3523019]]}},{"type":"Feature","id":"way/479326468-0-0-0","properties":{"highway":"secondary","lanes":"3","maxspeed":"50","name":"Bukit Batok Central","oneway":"yes","source":"Yahoo aerial images","surface":"asphalt","turn:lanes":"left;through|through|right"},"geometry":{"type":"LineString","coordinates":[[103.7483436,1.351726],[103.7483521,1.3522187]]}},{"type":"Feature","id":"way/479326468-0-1-0","properties":{"highway":"secondary","lanes":"3","maxspeed":"50","name":"Bukit Batok Central","oneway":"yes","source":"Yahoo aerial images","surface":"asphalt","turn:lanes":"left;through|through|right"},"geometry":{"type":"LineString","coordinates":[[103.7483521,1.3522187],[103.748353,1.3523019]]}},{"type":"Feature","id":"way/479337791-0-0-0","properties":{"highway":"secondary","lanes":"3","maxspeed":"60","name":"Bukit Batok West Avenue 2","oneway":"yes","sidewalk:left":"separate","sidewalk:right":"no","source":"Yahoo aerial images","surface":"asphalt","turn:lanes":"left;through|through|right"},"geometry":{"type":"LineString","coordinates":[[103.7484158,1.3529276],[103.7484469,1.3524762]]}},{"type":"Feature","id":"way/479337791-0-1-0","properties":{"highway":"secondary","lanes":"3","maxspeed":"60","name":"Bukit Batok West Avenue 2","oneway":"yes","sidewalk:left":"separate","sidewalk:right":"no","source":"Yahoo aerial images","surface":"asphalt","turn:lanes":"left;through|through|right"},"geometry":{"type":"LineString","coordinates":[[103.7484469,1.3524762],[103.7484469,1.3524078]]}},{"type":"Feature","id":"way/479337792-0-0-0","properties":{"highway":"primary","lanes":"3","maxspeed":"50","name":"Bukit Batok Central","name:zh":"\u6b66\u5409\u5df4\u7763\u4e2d\u8def","oneway":"yes","sidewalk:left":"separate","sidewalk:right":"no","source":"Yahoo aerial images","surface":"asphalt","turn:lanes":"left;through|through|right"},"geometry":{"type":"LineString","coordinates":[[103.749057,1.3522539],[103.7485053,1.3523026]]}},{"type":"Feature","id":"way/479337792-0-1-0","properties":{"highway":"primary","lanes":"3","maxspeed":"50","name":"Bukit Batok Central","name:zh":"\u6b66\u5409\u5df4\u7763\u4e2d\u8def","oneway":"yes","sidewalk:left":"separate","sidewalk:right":"no","source":"Yahoo aerial images","surface":"asphalt","turn:lanes":"left;through|through|right"},"geometry":{"type":"LineString","coordinates":[[103.7485053,1.3523026],[103.7484469,1.3523046]]}},{"type":"Feature","id":"way/481116723-0-0-0","properties":{"highway":"primary","lanes":"3","maxspeed":"50","name":"Bukit Batok Central","name:zh":"\u6b66\u5409\u5df4\u7763\u4e2d\u8def","oneway":"yes","source":"Yahoo aerial images","surface":"asphalt"},"geometry":{"type":"LineString","coordinates":[[103.7483516,1.3524132],[103.7484469,1.3524078]]}},{"type":"Feature","id":"way/503948419-0-0-0","properties":{"highway":"residential","lanes":"2","lanes:backward":"1","lanes:forward":"1","maxspeed":"50","name":"Bukit Batok Street 51","surface":"asphalt"},"geometry":{"type":"LineString","coordinates":[[103.7517406,1.3557517],[103.7517836,1.3557532]]}},{"type":"Feature","id":"way/596686579-0-0-0","properties":{"highway":"service","lanes":"2","lanes:backward":"1","lanes:forward":"1"},"geometry":{"type":"LineString","coordinates":[[103.7500575,1.3528516],[103.7501407,1.3528167]]}},{"type":"Feature","id":"way/596686579-0-1-0","properties":{"highway":"service","lanes":"2","lanes:backward":"1","lanes:forward":"1"},"geometry":{"type":"LineString","coordinates":[[103.7501407,1.3528167],[103.7501809,1.3527738]]}},{"type":"Feature","id":"way/596686579-0-2-0","properties":{"highway":"service","lanes":"2","lanes:backward":"1","lanes:forward":"1"},"geometry":{"type":"LineString","coordinates":[[103.7501809,1.3527738],[103.7501863,1.3526987]]}},{"type":"Feature","id":"way/596686579-0-3-0","properties":{"highway":"service","lanes":"2","lanes:backward":"1","lanes:forward":"1"},"geometry":{"type":"LineString","coordinates":[[103.7501863,1.3526987],[103.7500589,1.3523019]]}},{"type":"Feature","id":"way/596686579-0-4-0","properties":{"highway":"service","lanes":"2","lanes:backward":"1","lanes:forward":"1"},"geometry":{"type":"LineString","coordinates":[[103.7500589,1.3523019],[103.7500247,1.3522322]]}},{"type":"Feature","id":"way/596686579-0-5-0","properties":{"highway":"service","lanes":"2","lanes:backward":"1","lanes:forward":"1"},"geometry":{"type":"LineString","coordinates":[[103.7500247,1.3522322],[103.7499931,1.3522054]]}},{"type":"Feature","id":"way/596686579-0-6-0","properties":{"highway":"service","lanes":"2","lanes:backward":"1","lanes:forward":"1"},"geometry":{"type":"LineString","coordinates":[[103.7499931,1.3522054],[103.7499452,1.3521871]]}},{"type":"Feature","id":"way/631481340-0-0-0","properties":{"highway":"primary","lanes":"3","maxspeed":"50","name":"Bukit Batok West Avenue 3","name:zh":"\u6b66\u5409\u5df4\u7763\u897f3\u9053","oneway":"yes","source":"Yahoo aerial images","surface":"asphalt","turn:lanes":"left;through|through|right"},"geometry":{"type":"LineString","coordinates":[[103.7474397,1.3524091],[103.7482699,1.3524126]]}},{"type":"Feature","id":"way/631481340-0-1-0","properties":{"highway":"primary","lanes":"3","maxspeed":"50","name":"Bukit Batok West Avenue 3","name:zh":"\u6b66\u5409\u5df4\u7763\u897f3\u9053","oneway":"yes","source":"Yahoo aerial images","surface":"asphalt","turn:lanes":"left;through|through|right"},"geometry":{"type":"LineString","coordinates":[[103.7482699,1.3524126],[103.7483516,1.3524132]]}},{"type":"Feature","id":"way/631518603-0-0-0","properties":{"highway":"service","lanes":"2","lanes:backward":"1","lanes:forward":"1","turn:lanes:backward":"through","turn:lanes:forward":"left;right"},"geometry":{"type":"LineString","coordinates":[[103.7485689,1.3531921],[103.7485548,1.353235]]}},{"type":"Feature","id":"way/631518603-0-1-0","properties":{"highway":"service","lanes":"2","lanes:backward":"1","lanes:forward":"1","turn:lanes:backward":"through","turn:lanes:forward":"left;right"},"geometry":{"type":"LineString","coordinates":[[103.7485548,1.353235],[103.7485079,1.3532759]]}},{"type":"Feature","id":"way/631518603-0-2-0","properties":{"highway":"service","lanes":"2","lanes:backward":"1","lanes:forward":"1","turn:lanes:backward":"through","turn:lanes:forward":"left;right"},"geometry":{"type":"LineString","coordinates":[[103.7485079,1.3532759],[103.7484395,1.353284]]}},{"type":"Feature","id":"way/631518603-0-3-0","properties":{"highway":"service","lanes":"2","lanes:backward":"1","lanes:forward":"1","turn:lanes:backward":"through","turn:lanes:forward":"left;right"},"geometry":{"type":"LineString","coordinates":[[103.7484395,1.353284],[103.7483788,1.3532566]]}},{"type":"Feature","id":"way/631518603-0-4-0","properties":{"highway":"service","lanes":"2","lanes:backward":"1","lanes:forward":"1","turn:lanes:backward":"through","turn:lanes:forward":"left;right"},"geometry":{"type":"LineString","coordinates":[[103.7483788,1.3532566],[103.7483323,1.3532356]]}},{"type":"Feature","id":"way/631518604-0-0-0","properties":{"highway":"secondary","lanes":"2","maxspeed":"60","name":"Bukit Batok West Avenue 2","oneway":"yes","sidewalk:left":"separate","sidewalk:right":"no","source":"Yahoo aerial images","surface":"asphalt","turn:lanes":"left;through|through"},"geometry":{"type":"LineString","coordinates":[[103.7483323,1.3532356],[103.7483998,1.3530151]]}},{"type":"Feature","id":"way/631518604-0-1-0","properties":{"highway":"secondary","lanes":"2","maxspeed":"60","name":"Bukit Batok West Avenue 2","oneway":"yes","sidewalk:left":"separate","sidewalk:right":"no","source":"Yahoo aerial images","surface":"asphalt","turn:lanes":"left;through|through"},"geometry":{"type":"LineString","coordinates":[[103.7483998,1.3530151],[103.7484158,1.3529276]]}},{"type":"Feature","id":"way/631518605-0-0-0","properties":{"highway":"secondary","lanes":"2","maxspeed":"60","name":"Bukit Batok West Avenue 2","oneway":"yes","sidewalk:left":"separate","sidewalk:right":"no","source":"Yahoo aerial images","surface":"asphalt"},"geometry":{"type":"LineString","coordinates":[[103.7481623,1.3536069],[103.7482585,1.3534219]]}},{"type":"Feature","id":"way/631526839-0-0-0","properties":{"highway":"service"},"geometry":{"type":"LineString","coordinates":[[103.7483323,1.3532356],[103.7482589,1.3532055]]}},{"type":"Feature","id":"way/631536424-0-0-0","properties":{"highway":"primary","lanes":"2","maxspeed":"50","name":"Bukit Batok West Avenue 3","name:zh":"\u6b66\u5409\u5df4\u7763\u897f3\u9053","oneway":"yes","source":"Yahoo aerial images","surface":"asphalt"},"geometry":{"type":"LineString","coordinates":[[103.748353,1.3523019],[103.748268,1.3523043]]}},{"type":"Feature","id":"way/631536424-0-1-0","properties":{"highway":"primary","lanes":"2","maxspeed":"50","name":"Bukit Batok West Avenue 3","name:zh":"\u6b66\u5409\u5df4\u7763\u897f3\u9053","oneway":"yes","source":"Yahoo aerial images","surface":"asphalt"},"geometry":{"type":"LineString","coordinates":[[103.748268,1.3523043],[103.7476583,1.3523035]]}},{"type":"Feature","id":"way/633165286-0-0-0","properties":{"highway":"secondary","lanes":"2","maxspeed":"50","name":"Bukit Batok Central","oneway":"yes","source":"Yahoo aerial images","surface":"asphalt","turn:lanes":"left;through|through"},"geometry":{"type":"LineString","coordinates":[[103.748424,1.3517562],[103.7484079,1.3516483]]}},{"type":"Feature","id":"way/633165286-0-1-0","properties":{"highway":"secondary","lanes":"2","maxspeed":"50","name":"Bukit Batok Central","oneway":"yes","source":"Yahoo aerial images","surface":"asphalt","turn:lanes":"left;through|through"},"geometry":{"type":"LineString","coordinates":[[103.7484079,1.3516483],[103.7483905,1.3515765]]}},{"type":"Feature","id":"way/633165286-0-2-0","properties":{"highway":"secondary","lanes":"2","maxspeed":"50","name":"Bukit Batok Central","oneway":"yes","source":"Yahoo aerial images","surface":"asphalt","turn:lanes":"left;through|through"},"geometry":{"type":"LineString","coordinates":[[103.7483905,1.3515765],[103.7482909,1.3512902]]}},{"type":"Feature","id":"way/633558218-0-0-0","properties":{"highway":"secondary","lanes":"2","maxspeed":"50","name":"Bukit Batok Central","oneway":"yes","source":"Yahoo aerial images","surface":"asphalt","turn:lanes":"left;through|through"},"geometry":{"type":"LineString","coordinates":[[103.7481953,1.3512849],[103.7483127,1.3515913]]}},{"type":"Feature","id":"way/633558218-0-1-0","properties":{"highway":"secondary","lanes":"2","maxspeed":"50","name":"Bukit Batok Central","oneway":"yes","source":"Yahoo aerial images","surface":"asphalt","turn:lanes":"left;through|through"},"geometry":{"type":"LineString","coordinates":[[103.7483127,1.3515913],[103.7483342,1.3516811]]}},{"type":"Feature","id":"way/633558218-0-2-0","properties":{"highway":"secondary","lanes":"2","maxspeed":"50","name":"Bukit Batok Central","oneway":"yes","source":"Yahoo aerial images","surface":"asphalt","turn:lanes":"left;through|through"},"geometry":{"type":"LineString","coordinates":[[103.7483342,1.3516811],[103.7483436,1.351726]]}},{"type":"Feature","id":"way/639446762-0-0-0","properties":{"highway":"secondary","lanes":"2","maxspeed":"60","name":"Bukit Batok West Avenue 2","oneway":"yes","sidewalk:left":"separate","sidewalk:right":"no","source":"Yahoo aerial images","surface":"asphalt"},"geometry":{"type":"LineString","coordinates":[[103.7482589,1.3532055],[103.7482035,1.353351]]}},{"type":"Feature","id":"way/639446762-0-1-0","properties":{"highway":"secondary","lanes":"2","maxspeed":"60","name":"Bukit Batok West Avenue 2","oneway":"yes","sidewalk:left":"separate","sidewalk:right":"no","source":"Yahoo aerial images","surface":"asphalt"},"geometry":{"type":"LineString","coordinates":[[103.7482035,1.353351],[103.7481759,1.3534442]]}},{"type":"Feature","id":"way/639446762-0-2-0","properties":{"highway":"secondary","lanes":"2","maxspeed":"60","name":"Bukit Batok West Avenue 2","oneway":"yes","sidewalk:left":"separate","sidewalk:right":"no","source":"Yahoo aerial images","surface":"asphalt"},"geometry":{"type":"LineString","coordinates":[[103.7481759,1.3534442],[103.7481088,1.3535489]]}},{"type":"Feature","id":"way/639446763-0-0-0","properties":{"highway":"secondary","lanes":"2","maxspeed":"60","name":"Bukit Batok West Avenue 2","oneway":"yes","sidewalk:left":"separate","sidewalk:right":"no","source":"Yahoo aerial images","surface":"asphalt"},"geometry":{"type":"LineString","coordinates":[[103.7483516,1.3524132],[103.748353,1.3524789]]}},{"type":"Feature","id":"way/639446763-0-1-0","properties":{"highway":"secondary","lanes":"2","maxspeed":"60","name":"Bukit Batok West Avenue 2","oneway":"yes","sidewalk:left":"separate","sidewalk:right":"no","source":"Yahoo aerial images","surface":"asphalt"},"geometry":{"type":"LineString","coordinates":[[103.748353,1.3524789],[103.7483543,1.3526129]]}},{"type":"Feature","id":"way/639446763-0-2-0","properties":{"highway":"secondary","lanes":"2","maxspeed":"60","name":"Bukit Batok West Avenue 2","oneway":"yes","sidewalk:left":"separate","sidewalk:right":"no","source":"Yahoo aerial images","surface":"asphalt"},"geometry":{"type":"LineString","coordinates":[[103.7483543,1.3526129],[103.7483449,1.352751]]}},{"type":"Feature","id":"way/639446763-0-3-0","properties":{"highway":"secondary","lanes":"2","maxspeed":"60","name":"Bukit Batok West Avenue 2","oneway":"yes","sidewalk:left":"separate","sidewalk:right":"no","source":"Yahoo aerial images","surface":"asphalt"},"geometry":{"type":"LineString","coordinates":[[103.7483449,1.352751],[103.7483174,1.3529259]]}},{"type":"Feature","id":"way/639446763-0-4-0","properties":{"highway":"secondary","lanes":"2","maxspeed":"60","name":"Bukit Batok West Avenue 2","oneway":"yes","sidewalk:left":"separate","sidewalk:right":"no","source":"Yahoo aerial images","surface":"asphalt"},"geometry":{"type":"LineString","coordinates":[[103.7483174,1.3529259],[103.748296,1.35306]]}},{"type":"Feature","id":"way/639446763-0-5-0","properties":{"highway":"secondary","lanes":"2","maxspeed":"60","name":"Bukit Batok West Avenue 2","oneway":"yes","sidewalk:left":"separate","sidewalk:right":"no","source":"Yahoo aerial images","surface":"asphalt"},"geometry":{"type":"LineString","coordinates":[[103.748296,1.35306],[103.7482589,1.3532055]]}},{"type":"Feature","id":"way/643439959-0-0-0","properties":{"highway":"residential","lanes":"2","lanes:backward":"1","lanes:forward":"1","maxspeed":"50","name":"Bukit Batok Street 51"},"geometry":{"type":"LineString","coordinates":[[103.7506158,1.3557005],[103.7508212,1.3557104]]}},{"type":"Feature","id":"way/643439959-0-1-0","properties":{"highway":"residential","lanes":"2","lanes:backward":"1","lanes:forward":"1","maxspeed":"50","name":"Bukit Batok Street 51"},"geometry":{"type":"LineString","coordinates":[[103.7508212,1.3557104],[103.7509722,1.3557158]]}},{"type":"Feature","id":"way/643439959-0-2-0","properties":{"highway":"residential","lanes":"2","lanes:backward":"1","lanes:forward":"1","maxspeed":"50","name":"Bukit Batok Street 51"},"geometry":{"type":"LineString","coordinates":[[103.7509722,1.3557158],[103.7511524,1.3557255]]}},{"type":"Feature","id":"way/643439959-0-3-0","properties":{"highway":"residential","lanes":"2","lanes:backward":"1","lanes:forward":"1","maxspeed":"50","name":"Bukit Batok Street 51"},"geometry":{"type":"LineString","coordinates":[[103.7511524,1.3557255],[103.7512329,1.3557276]]}},{"type":"Feature","id":"way/643439960-0-0-0","properties":{"highway":"residential","lanes":"2","lanes:backward":"1","lanes:forward":"1","maxspeed":"50","name":"Bukit Batok Street 51","surface":"asphalt"},"geometry":{"type":"LineString","coordinates":[[103.7492596,1.3558956],[103.7494035,1.3557062]]}},{"type":"Feature","id":"way/643439960-0-1-0","properties":{"highway":"residential","lanes":"2","lanes:backward":"1","lanes:forward":"1","maxspeed":"50","name":"Bukit Batok Street 51","surface":"asphalt"},"geometry":{"type":"LineString","coordinates":[[103.7494035,1.3557062],[103.7494779,1.3556698]]}},{"type":"Feature","id":"way/643439960-0-2-0","properties":{"highway":"residential","lanes":"2","lanes:backward":"1","lanes:forward":"1","maxspeed":"50","name":"Bukit Batok Street 51","surface":"asphalt"},"geometry":{"type":"LineString","coordinates":[[103.7494779,1.3556698],[103.7496009,1.3556621]]}},{"type":"Feature","id":"way/643439960-0-3-0","properties":{"highway":"residential","lanes":"2","lanes:backward":"1","lanes:forward":"1","maxspeed":"50","name":"Bukit Batok Street 51","surface":"asphalt"},"geometry":{"type":"LineString","coordinates":[[103.7496009,1.3556621],[103.7497541,1.3556664]]}},{"type":"Feature","id":"way/643439960-0-4-0","properties":{"highway":"residential","lanes":"2","lanes:backward":"1","lanes:forward":"1","maxspeed":"50","name":"Bukit Batok Street 51","surface":"asphalt"},"geometry":{"type":"LineString","coordinates":[[103.7497541,1.3556664],[103.7500569,1.3556859]]}},{"type":"Feature","id":"way/643439960-0-5-0","properties":{"highway":"residential","lanes":"2","lanes:backward":"1","lanes:forward":"1","maxspeed":"50","name":"Bukit Batok Street 51","surface":"asphalt"},"geometry":{"type":"LineString","coordinates":[[103.7500569,1.3556859],[103.7501767,1.3556896]]}},{"type":"Feature","id":"way/643444968-0-0-0","properties":{"highway":"service","service":"parking_aisle","source":"Bing","surface":"asphalt"},"geometry":{"type":"LineString","coordinates":[[103.7517634,1.3552887],[103.751803,1.3552851]]}},{"type":"Feature","id":"way/643445438-0-0-0","properties":{"highway":"service","service":"driveway","sidewalk":"both"},"geometry":{"type":"LineString","coordinates":[[103.7522029,1.3537033],[103.751896,1.3536942]]}},{"type":"Feature","id":"way/643445438-0-1-0","properties":{"highway":"service","service":"driveway","sidewalk":"both"},"geometry":{"type":"LineString","coordinates":[[103.751896,1.3536942],[103.751854,1.3536935]]}},{"type":"Feature","id":"way/645302039-0-0-0","properties":{"highway":"residential","lanes":"2","lanes:backward":"1","lanes:forward":"1","maxspeed":"50","name":"Bukit Batok Street 51"},"geometry":{"type":"LineString","coordinates":[[103.7501767,1.3556896],[103.7506158,1.3557005]]}},{"type":"Feature","id":"way/646892648-0-0-0","properties":{"foot":"yes","highway":"service","service":"parking_aisle","source":"Bing"},"geometry":{"type":"LineString","coordinates":[[103.7517891,1.3546018],[103.7518286,1.354603]]}},{"type":"Feature","id":"way/646892650-0-0-0","properties":{"foot":"yes","highway":"service","lanes":"2","lanes:backward":"1","lanes:forward":"1","service":"parking_aisle","sidewalk":"left","source":"Bing"},"geometry":{"type":"LineString","coordinates":[[103.7513291,1.3545979],[103.7514393,1.3546016]]}},{"type":"Feature","id":"way/646892650-0-1-0","properties":{"foot":"yes","highway":"service","lanes":"2","lanes:backward":"1","lanes:forward":"1","service":"parking_aisle","sidewalk":"left","source":"Bing"},"geometry":{"type":"LineString","coordinates":[[103.7514393,1.3546016],[103.7515905,1.3546039]]}},{"type":"Feature","id":"way/646977844-0-0-0","properties":{"highway":"service","service":"parking_aisle","source":"Bing"},"geometry":{"type":"LineString","coordinates":[[103.7513581,1.3539002],[103.7509525,1.3542376]]}},{"type":"Feature","id":"way/646977845-0-0-0","properties":{"highway":"service","lanes":"2","lanes:backward":"1","lanes:forward":"1","service":"parking_aisle","sidewalk":"both","source":"Bing"},"geometry":{"type":"LineString","coordinates":[[103.7509525,1.3542376],[103.7508939,1.3542809]]}},{"type":"Feature","id":"way/646977845-0-1-0","properties":{"highway":"service","lanes":"2","lanes:backward":"1","lanes:forward":"1","service":"parking_aisle","sidewalk":"both","source":"Bing"},"geometry":{"type":"LineString","coordinates":[[103.7508939,1.3542809],[103.750876,1.3543155]]}},{"type":"Feature","id":"way/646977845-0-2-0","properties":{"highway":"service","lanes":"2","lanes:backward":"1","lanes:forward":"1","service":"parking_aisle","sidewalk":"both","source":"Bing"},"geometry":{"type":"LineString","coordinates":[[103.750876,1.3543155],[103.7508688,1.3544193]]}},{"type":"Feature","id":"way/646978323-0-0-0","properties":{"foot":"yes","highway":"service","lanes":"2","lanes:backward":"1","lanes:forward":"1","service":"parking_aisle","source":"Bing"},"geometry":{"type":"LineString","coordinates":[[103.7508629,1.3545731],[103.7513291,1.3545979]]}},{"type":"Feature","id":"way/646979983-0-0-0","properties":{"highway":"service","lanes":"2","lanes:backward":"1","lanes:forward":"1","service":"driveway","source":"Bing","turn:lanes:backward":"left;right"},"geometry":{"type":"LineString","coordinates":[[103.7513291,1.3545979],[103.7513189,1.3546969]]}},{"type":"Feature","id":"way/647082106-0-0-0","properties":{"highway":"residential","lanes":"1","maxspeed":"50","name":"Bukit Batok Street 52","oneway":"yes","source":"Yahoo aerial images","surface":"asphalt"},"geometry":{"type":"LineString","coordinates":[[103.7517836,1.3557532],[103.7517973,1.3554565]]}},{"type":"Feature","id":"way/647082106-0-1-0","properties":{"highway":"residential","lanes":"1","maxspeed":"50","name":"Bukit Batok Street 52","oneway":"yes","source":"Yahoo aerial images","surface":"asphalt"},"geometry":{"type":"LineString","coordinates":[[103.7517973,1.3554565],[103.751803,1.3552851]]}},{"type":"Feature","id":"way/647082107-0-0-0","properties":{"highway":"residential","lanes":"1","maxspeed":"50","name":"Bukit Batok Street 52","oneway":"yes","source":"Yahoo aerial images","surface":"asphalt"},"geometry":{"type":"LineString","coordinates":[[103.7517634,1.3552887],[103.7517538,1.3555455]]}},{"type":"Feature","id":"way/647082107-0-1-0","properties":{"highway":"residential","lanes":"1","maxspeed":"50","name":"Bukit Batok Street 52","oneway":"yes","source":"Yahoo aerial images","surface":"asphalt"},"geometry":{"type":"LineString","coordinates":[[103.7517538,1.3555455],[103.7517406,1.3557517]]}},{"type":"Feature","id":"way/651858924-0-0-0","properties":{"highway":"secondary","lanes":"2","maxspeed":"60","name":"Bukit Batok West Avenue 2","oneway":"yes","sidewalk:left":"separate","sidewalk:right":"no","source":"Yahoo aerial images","surface":"asphalt","turn:lanes":"left;through|through"},"geometry":{"type":"LineString","coordinates":[[103.7482585,1.3534219],[103.7483323,1.3532356]]}},{"type":"Feature","id":"way/655144942-0-0-0","properties":{"highway":"primary","lanes":"2","maxspeed":"50","name":"Bukit Batok Central","name:zh":"\u6b66\u5409\u5df4\u7763\u4e2d\u8def","oneway":"yes","sidewalk:left":"separate","sidewalk:right":"no","source":"Yahoo aerial images","surface":"asphalt","turn:lanes":"left;through|through"},"geometry":{"type":"LineString","coordinates":[[103.7493836,1.3521447],[103.7491447,1.3522358]]}},{"type":"Feature","id":"way/655144942-0-1-0","properties":{"highway":"primary","lanes":"2","maxspeed":"50","name":"Bukit Batok Central","name:zh":"\u6b66\u5409\u5df4\u7763\u4e2d\u8def","oneway":"yes","sidewalk:left":"separate","sidewalk:right":"no","source":"Yahoo aerial images","surface":"asphalt","turn:lanes":"left;through|through"},"geometry":{"type":"LineString","coordinates":[[103.7491447,1.3522358],[103.749057,1.3522539]]}},{"type":"Feature","id":"way/676869644-0-0-0","properties":{"highway":"residential","lanes":"2","lanes:backward":"1","lanes:forward":"1","maxspeed":"50","name":"Bukit Batok Street 51","turn:lanes:forward":"left;right"},"geometry":{"type":"LineString","coordinates":[[103.7512329,1.3557276],[103.7516986,1.3557501]]}},{"type":"Feature","id":"way/676869644-0-1-0","properties":{"highway":"residential","lanes":"2","lanes:backward":"1","lanes:forward":"1","maxspeed":"50","name":"Bukit Batok Street 51","turn:lanes:forward":"left;right"},"geometry":{"type":"LineString","coordinates":[[103.7516986,1.3557501],[103.7517406,1.3557517]]}},{"type":"Feature","id":"way/709554583-0-7-0","properties":{"highway":"residential","lanes":"1","maxspeed":"50","name":"Bukit Batok Street 52","oneway":"yes","source":"Yahoo aerial images","surface":"asphalt"},"geometry":{"type":"LineString","coordinates":[[103.752133,1.3531004],[103.7519164,1.3533489]]}},{"type":"Feature","id":"way/709554583-0-8-0","properties":{"highway":"residential","lanes":"1","maxspeed":"50","name":"Bukit Batok Street 52","oneway":"yes","source":"Yahoo aerial images","surface":"asphalt"},"geometry":{"type":"LineString","coordinates":[[103.7519164,1.3533489],[103.7518615,1.3534169]]}},{"type":"Feature","id":"way/709554583-0-9-0","properties":{"highway":"residential","lanes":"1","maxspeed":"50","name":"Bukit Batok Street 52","oneway":"yes","source":"Yahoo aerial images","surface":"asphalt"},"geometry":{"type":"LineString","coordinates":[[103.7518615,1.3534169],[103.7518306,1.3534756]]}},{"type":"Feature","id":"way/709554583-0-10-0","properties":{"highway":"residential","lanes":"1","maxspeed":"50","name":"Bukit Batok Street 52","oneway":"yes","source":"Yahoo aerial images","surface":"asphalt"},"geometry":{"type":"LineString","coordinates":[[103.7518306,1.3534756],[103.7518096,1.3535646]]}},{"type":"Feature","id":"way/709554583-0-11-0","properties":{"highway":"residential","lanes":"1","maxspeed":"50","name":"Bukit Batok Street 52","oneway":"yes","source":"Yahoo aerial images","surface":"asphalt"},"geometry":{"type":"LineString","coordinates":[[103.7518096,1.3535646],[103.7518091,1.3536934]]}},{"type":"Feature","id":"way/711060204-0-0-0","properties":{"highway":"service","lanes":"2","lanes:backward":"1","lanes:forward":"1","service":"driveway"},"geometry":{"type":"LineString","coordinates":[[103.750677,1.3552832],[103.7512941,1.3553013]]}},{"type":"Feature","id":"way/711060205-0-0-0","properties":{"highway":"service","lanes":"2","lanes:backward":"1","lanes:forward":"1","service":"driveway","turn:lanes:backward":"left;right"},"geometry":{"type":"LineString","coordinates":[[103.7506158,1.3557005],[103.7506163,1.3556327]]}},{"type":"Feature","id":"way/711060205-0-1-0","properties":{"highway":"service","lanes":"2","lanes:backward":"1","lanes:forward":"1","service":"driveway","turn:lanes:backward":"left;right"},"geometry":{"type":"LineString","coordinates":[[103.7506163,1.3556327],[103.7506218,1.3554927]]}},{"type":"Feature","id":"way/724337608-0-0-0","properties":{"highway":"secondary","lanes":"2","maxspeed":"50","name":"Bukit Batok Central","oneway":"yes","source":"Yahoo aerial images","surface":"asphalt"},"geometry":{"type":"LineString","coordinates":[[103.7484469,1.3523046],[103.7484476,1.3522173]]}},{"type":"Feature","id":"way/724337608-0-1-0","properties":{"highway":"secondary","lanes":"2","maxspeed":"50","name":"Bukit Batok Central","oneway":"yes","source":"Yahoo aerial images","surface":"asphalt"},"geometry":{"type":"LineString","coordinates":[[103.7484476,1.3522173],[103.748424,1.3517562]]}},{"type":"Feature","id":"way/728563845-0-0-0","properties":{"highway":"service","lanes":"2","lanes:backward":"1","lanes:forward":"1","service":"parking_aisle","sidewalk":"both","source":"Bing","turn:lanes:forward":"left;right"},"geometry":{"type":"LineString","coordinates":[[103.7508688,1.3544193],[103.7508629,1.3545731]]}},{"type":"Feature","id":"way/728563846-0-0-0","properties":{"foot":"yes","highway":"service","lanes":"2","lanes:backward":"1","lanes:forward":"1","service":"parking_aisle","sidewalk":"left","source":"Bing","turn:lanes:backward":"through","turn:lanes:forward":"left;right"},"geometry":{"type":"LineString","coordinates":[[103.7515905,1.3546039],[103.7517469,1.3545988]]}},{"type":"Feature","id":"way/728563846-0-1-0","properties":{"foot":"yes","highway":"service","lanes":"2","lanes:backward":"1","lanes:forward":"1","service":"parking_aisle","sidewalk":"left","source":"Bing","turn:lanes:backward":"through","turn:lanes:forward":"left;right"},"geometry":{"type":"LineString","coordinates":[[103.7517469,1.3545988],[103.7517891,1.3546018]]}},{"type":"Feature","id":"way/728563847-0-0-0","properties":{"highway":"service","lanes":"2","lanes:backward":"1","lanes:forward":"1","service":"driveway","source":"Bing"},"geometry":{"type":"LineString","coordinates":[[103.7513189,1.3546969],[103.7513009,1.3549652]]}},{"type":"Feature","id":"way/728563848-0-0-0","properties":{"highway":"service","lanes":"2","lanes:backward":"1","lanes:forward":"1","service":"parking_aisle","source":"Bing"},"geometry":{"type":"LineString","coordinates":[[103.7511365,1.3549603],[103.7506887,1.3549483]]}},{"type":"Feature","id":"way/728563849-0-0-0","properties":{"highway":"service","lanes":"2","lanes:backward":"1","lanes:forward":"1","service":"driveway","sidewalk":"right","turn:lanes:forward":"left;right"},"geometry":{"type":"LineString","coordinates":[[103.7506218,1.3554927],[103.750677,1.3552832]]}},{"type":"Feature","id":"way/728563850-0-0-0","properties":{"highway":"service","lanes":"2","lanes:backward":"1","lanes:forward":"1","service":"driveway","turn:lanes:forward":"left;right"},"geometry":{"type":"LineString","coordinates":[[103.7501733,1.3557452],[103.7501767,1.3556896]]}},{"type":"Feature","id":"way/728930236-0-0-0","properties":{"highway":"service","lanes":"2","lanes:backward":"1","lanes:forward":"1","service":"driveway"},"geometry":{"type":"LineString","coordinates":[[103.7512941,1.3553013],[103.7514026,1.3553043]]}},{"type":"Feature","id":"way/728930237-0-0-0","properties":{"highway":"service","lanes":"2","lanes:backward":"1","lanes:forward":"1","service":"driveway"},"geometry":{"type":"LineString","coordinates":[[103.7505401,1.3552792],[103.750677,1.3552832]]}},{"type":"Feature","id":"way/771803373-0-0-0","properties":{"highway":"residential","lanes":"1","maxspeed":"50","name":"Bukit Batok Street 52","oneway":"yes","source":"Yahoo aerial images","surface":"asphalt"},"geometry":{"type":"LineString","coordinates":[[103.751803,1.3552851],[103.7518195,1.3548963]]}},{"type":"Feature","id":"way/771803373-0-1-0","properties":{"highway":"residential","lanes":"1","maxspeed":"50","name":"Bukit Batok Street 52","oneway":"yes","source":"Yahoo aerial images","surface":"asphalt"},"geometry":{"type":"LineString","coordinates":[[103.7518195,1.3548963],[103.7518286,1.354603]]}},{"type":"Feature","id":"way/771803374-0-0-0","properties":{"highway":"residential","lanes":"1","maxspeed":"50","name":"Bukit Batok Street 52","oneway":"yes","source":"Yahoo aerial images","surface":"asphalt"},"geometry":{"type":"LineString","coordinates":[[103.7518091,1.3536934],[103.7518073,1.3543087]]}},{"type":"Feature","id":"way/771803374-0-1-0","properties":{"highway":"residential","lanes":"1","maxspeed":"50","name":"Bukit Batok Street 52","oneway":"yes","source":"Yahoo aerial images","surface":"asphalt"},"geometry":{"type":"LineString","coordinates":[[103.7518073,1.3543087],[103.7517891,1.3546018]]}},{"type":"Feature","id":"way/794657492-0-0-0","properties":{"highway":"service","lanes":"2","lanes:backward":"1","lanes:forward":"1","turn:lanes:backward":"through","turn:lanes:forward":"through"},"geometry":{"type":"LineString","coordinates":[[103.7498594,1.3522031],[103.7495079,1.3523828]]}},{"type":"Feature","id":"way/794657493-0-0-0","properties":{"highway":"service","lanes":"2","lanes:backward":"1","lanes:forward":"1"},"geometry":{"type":"LineString","coordinates":[[103.7499452,1.3521871],[103.7498969,1.3521978]]}},{"type":"Feature","id":"way/794657493-0-1-0","properties":{"highway":"service","lanes":"2","lanes:backward":"1","lanes:forward":"1"},"geometry":{"type":"LineString","coordinates":[[103.7498969,1.3521978],[103.7498594,1.3522031]]}},{"type":"Feature","id":"way/822117929-0-0-0","properties":{"highway":"residential","lanes":"1","maxspeed":"50","name":"Bukit Batok Street 52","oneway":"yes","source":"Yahoo aerial images","surface":"asphalt"},"geometry":{"type":"LineString","coordinates":[[103.7517891,1.3546018],[103.7517795,1.3548822]]}},{"type":"Feature","id":"way/822117929-0-1-0","properties":{"highway":"residential","lanes":"1","maxspeed":"50","name":"Bukit Batok Street 52","oneway":"yes","source":"Yahoo aerial images","surface":"asphalt"},"geometry":{"type":"LineString","coordinates":[[103.7517795,1.3548822],[103.7517634,1.3552887]]}},{"type":"Feature","id":"way/822117930-0-0-0","properties":{"highway":"residential","lanes":"1","maxspeed":"50","name":"Bukit Batok Street 52","oneway":"yes","source":"Yahoo aerial images","surface":"asphalt"},"geometry":{"type":"LineString","coordinates":[[103.7518286,1.354603],[103.751845,1.3543099]]}},{"type":"Feature","id":"way/822117930-0-1-0","properties":{"highway":"residential","lanes":"1","maxspeed":"50","name":"Bukit Batok Street 52","oneway":"yes","source":"Yahoo aerial images","surface":"asphalt"},"geometry":{"type":"LineString","coordinates":[[103.751845,1.3543099],[103.751854,1.3536935]]}}]}