{"type":"FeatureCollection","features":[{"type":"Feature","id":"way/453270288-0","properties":{"building":"yes","clearanceGeometry":{"type":"Polygon","coordinates":[[[103.7496692,1.2964771],[103.7493876,1.2964583],[103.7493797826043,1.29657550881965],[103.7493870802963,1.2965758857681933],[103.74938150384061,1.2966837912706655],[103.7496542,1.2967019],[103.7496692,1.2964771]]]},"clearanceHeight":1.7,"clearancePrepared":true},"geometry":{"type":"Polygon","coordinates":[[[103.7496542,1.2967019],[103.7496692,1.2964771],[103.7493876,1.2964583],[103.7493726,1.2966832],[103.7496542,1.2967019]]]}},{"type":"Feature","id":"way/453270289-0","properties":{"building":"yes","clearanceGeometry":{"type":"Polygon","coordinates":[[[103.7496361,1.2967657],[103.74937812361378,1.2967491993174018],[103.74936671946838,1.2969698717496223],[103.749622,1.2969862],[103.7496361,1.2967657]]]},"clearanceHeight":1.7,"clearancePrepared":true},"geometry":{"type":"Polygon","coordinates":[[[103.749622,1.2969862],[103.7496361,1.2967657],[103.7493625,1.2967482],[103.7493484,1.2969687],[103.749622,1.2969862]]]}},{"type":"Feature","id":"way/453270290-0","properties":{"building":"yes","clearanceGeometry":{"type":"Polygon","coordinates":[[[103.7496381,1.2970047],[103.7493657359166,1.2969889036680737],[103.74935379883532,1.2972198885131438],[103.7496247,1.2972356],[103.7496381,1.2970047]]]},"clearanceHeight":1.7,"clearancePrepared":true},"geometry":{"type":"Polygon","coordinates":[[[103.7496247,1.2972356],[103.7496381,1.2970047],[103.7493605,1.2969886],[103.7493471,1.2972195],[103.7496247,1.2972356]]]}},{"type":"Feature","id":"way/453270291-0","properties":{"building":"yes","clearanceGeometry":{"type":"Polygon","coordinates":[[[103.749635,1.2973187],[103.749356,1.2973039],[103.7493444,1.2975238],[103.7496234,1.2975386],[103.749635,1.2973187]]]},"clearanceHeight":1.7,"clearancePrepared":true},"geometry":{"type":"Polygon","coordinates":[[[103.7496234,1.2975386],[103.749635,1.2973187],[103.749356,1.2973039],[103.7493444,1.2975238],[103.7496234,1.2975386]]]}},{"type":"Feature","id":"way/465268179-0-4-0","properties":{"highway":"service","startNodeId":"6046160319","endNodeId":"6046160318"},"geometry":{"type":"LineString","coordinates":[[103.7514201,1.2975525],[103.751632,1.2967722]]}},{"type":"Feature","id":"way/642161208-0-0-0","properties":{"highway":"service","startNodeId":"6046160310","endNodeId":"6046160309"},"geometry":{"type":"LineString","coordinates":[[103.7482773,1.2975911],[103.7481773,1.2970833]]}},{"type":"Feature","id":"way/642161209-0-0-0","properties":{"highway":"service","startNodeId":"6046160312","endNodeId":"6046160311"},"geometry":{"type":"LineString","coordinates":[[103.7492953,1.2975684],[103.7493467,1.2965738]]}},{"type":"Feature","id":"way/642161211-0-0-0","properties":{"highway":"service","startNodeId":"6046160314","endNodeId":"6046160313"},"geometry":{"type":"LineString","coordinates":[[103.7497426,1.2975923],[103.7498081,1.2966944]]}},{"type":"Feature","id":"way/642161212-0-0-0","properties":{"highway":"service","startNodeId":"6046160317","endNodeId":"6046160316"},"geometry":{"type":"LineString","coordinates":[[103.7504511,1.2976342],[103.7506261,1.2970323]]}},{"type":"Feature","id":"way/642161212-0-1-0","properties":{"highway":"service","startNodeId":"6046160316","endNodeId":"6046160315"},"geometry":{"type":"LineString","coordinates":[[103.7506261,1.2970323],[103.7506798,1.2968285]]}}]}