{"type":"FeatureCollection","features":[{"type":"Feature","id":"way/177015890-0-0-0","properties":{"highway":"service"},"geometry":{"type":"LineString","coordinates":[[103.7511898,1.2352814],[103.751128,1.2352987]]}},{"type":"Feature","id":"way/177015890-0-1-0","properties":{"highway":"service"},"geometry":{"type":"LineString","coordinates":[[103.751128,1.2352987],[103.7510739,1.2352949]]}},{"type":"Feature","id":"way/177015890-0-2-0","properties":{"highway":"service"},"geometry":{"type":"LineString","coordinates":[[103.7510739,1.2352949],[103.7510313,1.2352675]]}},{"type":"Feature","id":"way/177015890-0-3-0","properties":{"highway":"service"},"geometry":{"type":"LineString","coordinates":[[103.7510313,1.2352675],[103.7509908,1.2352081]]}},{"type":"Feature","id":"way/177015890-0-4-0","properties":{"highway":"service"},"geometry":{"type":"LineString","coordinates":[[103.7509908,1.2352081],[103.750988,1.2351462]]}},{"type":"Feature","id":"way/177015890-0-5-0","properties":{"highway":"service"},"geometry":{"type":"LineString","coordinates":[[103.750988,1.2351462],[103.7510189,1.2350501]]}},{"type":"Feature","id":"way/177015890-0-6-0","properties":{"highway":"service"},"geometry":{"type":"LineString","coordinates":[[103.7510189,1.2350501],[103.7511503,1.2346737]]}},{"type":"Feature","id":"way/626599789-0-12-0","properties":{"highway":"service"},"geometry":{"type":"LineString","coordinates":[[103.7523803,1.2348122],[103.7511898,1.2352814]]}}]}