{"type":"FeatureCollection","features":[{"type":"Feature","id":"way/503661735-0","properties":{"building":"yes"},"geometry":{"type":"Polygon","coordinates":[[[103.7370807,1.3920576],[103.7370738,1.3919854],[103.7369503,1.3919972],[103.7369572,1.3920694],[103.7370807,1.3920576]]]}},{"type":"Feature","id":"way/503661736-0","properties":{"building":"yes"},"geometry":{"type":"Polygon","coordinates":[[[103.7369989,1.3918769],[103.736992,1.3918047],[103.7368685,1.3918165],[103.7368755,1.3918887],[103.7369989,1.3918769]]]}},{"type":"Feature","id":"way/503661737-0","properties":{"building":"yes"},"geometry":{"type":"Polygon","coordinates":[[[103.7373735,1.3918626],[103.7374459,1.3918581],[103.7374382,1.3917343],[103.7373658,1.3917388],[103.7373735,1.3918626]]]}},{"type":"Feature","id":"way/503661738-0","properties":{"building":"yes"},"geometry":{"type":"Polygon","coordinates":[[[103.7373842,1.3920288],[103.7374566,1.3920243],[103.7374489,1.3919005],[103.7373765,1.391905],[103.7373842,1.3920288]]]}},{"type":"Feature","id":"way/503661740-0","properties":{"building":"yes"},"geometry":{"type":"Polygon","coordinates":[[[103.7376385,1.392456],[103.7376074,1.3923137],[103.7374683,1.3923442],[103.7374995,1.3924865],[103.7376385,1.392456]]]}}]}