{"type":"FeatureCollection","features":[{"type":"Feature","id":"way/120407080-0","properties":{"building":"yes"},"geometry":{"type":"Polygon","coordinates":[[[103.7378628,1.3012969],[103.7378276,1.3011185],[103.7376524,1.301153],[103.7376876,1.3013314],[103.7378628,1.3012969]]]}},{"type":"Feature","id":"way/120407122-0","properties":{"building":"yes","name":"36"},"geometry":{"type":"Polygon","coordinates":[[[103.7389789,1.3010773],[103.7389269,1.3008507],[103.7379145,1.3010829],[103.7379665,1.3013095],[103.7389789,1.3010773]]]}},{"type":"Feature","id":"way/120407134-0","properties":{"building":"yes"},"geometry":{"type":"Polygon","coordinates":[[[103.7379598,1.3008955],[103.737942,1.3008201],[103.7379228,1.3007252],[103.7378857,1.3005423],[103.7376139,1.3005991],[103.7376172,1.3006177],[103.7376351,1.3007003],[103.7376446,1.3006983],[103.7378114,1.3006635],[103.7378275,1.300748],[103.7378454,1.3008415],[103.7378642,1.3009155],[103.7379598,1.3008955]]]}},{"type":"Feature","id":"way/120407172-0","properties":{"building":"yes"},"geometry":{"type":"Polygon","coordinates":[[[103.7381243,1.3018948],[103.7380547,1.3016013],[103.7378845,1.3016416],[103.7379541,1.3019351],[103.7381243,1.3018948]]]}},{"type":"Feature","id":"way/120407173-0","properties":{"building":"yes","name":"44"},"geometry":{"type":"Polygon","coordinates":[[[103.736172,1.3007914],[103.7361877,1.300846],[103.736357,1.3007974],[103.7363413,1.3007428],[103.736411,1.3007228],[103.7364339,1.3008024],[103.7365352,1.3007734],[103.7365123,1.3006937],[103.736587,1.3006723],[103.736473,1.3002751],[103.7359691,1.3004024],[103.736059,1.3008238],[103.736172,1.3007914]]]}},{"type":"Feature","id":"way/120407174-0","properties":{"building":"yes"},"geometry":{"type":"Polygon","coordinates":[[[103.7377921,1.3000422],[103.7377421,1.2998551],[103.7373367,1.2999633],[103.7373866,1.3001505],[103.7377921,1.3000422]]]}},{"type":"Feature","id":"way/453267422-0","properties":{"building":"yes"},"geometry":{"type":"Polygon","coordinates":[[[103.735629,1.3015599],[103.7356214,1.3015289],[103.7355549,1.3015452],[103.7355625,1.3015763],[103.735629,1.3015599]]]}},{"type":"Feature","id":"way/453267433-0","properties":{"building":"yes"},"geometry":{"type":"Polygon","coordinates":[[[103.7358828,1.3006113],[103.7358959,1.3006705],[103.7360115,1.3006449],[103.7359786,1.3004968],[103.7358776,1.3005192],[103.7358519,1.3004037],[103.7357879,1.3004179],[103.7357933,1.3004423],[103.7356109,1.3004828],[103.7356274,1.3005571],[103.7355948,1.3005643],[103.7356184,1.3006701],[103.7358828,1.3006113]]]}},{"type":"Feature","id":"way/453267434-0","properties":{"building":"yes"},"geometry":{"type":"Polygon","coordinates":[[[103.7357675,1.3008095],[103.735738,1.3006767],[103.7356412,1.3006982],[103.7356707,1.300831],[103.7357675,1.3008095]]]}},{"type":"Feature","id":"way/453267435-0","properties":{"building":"yes"},"geometry":{"type":"Polygon","coordinates":[[[103.7356823,1.3009676],[103.7357597,1.3009503],[103.7357668,1.3009818],[103.735924,1.3009468],[103.7358935,1.30081],[103.7357274,1.300847],[103.7357231,1.3008278],[103.7356546,1.300843],[103.7356823,1.3009676]]]}},{"type":"Feature","id":"way/453267476-0","properties":{"building":"yes"},"geometry":{"type":"Polygon","coordinates":[[[103.7344558,1.300866],[103.7344405,1.3008011],[103.7343287,1.3008274],[103.734344,1.3008923],[103.7344558,1.300866]]]}},{"type":"Feature","id":"way/453267478-0","properties":{"building":"yes"},"geometry":{"type":"Polygon","coordinates":[[[103.7342907,1.3009224],[103.7342783,1.3008695],[103.7341666,1.3008958],[103.734179,1.3009486],[103.7342907,1.3009224]]]}},{"type":"Feature","id":"way/453267494-0","properties":{"building":"yes"},"geometry":{"type":"Polygon","coordinates":[[[103.7375637,1.3002929],[103.7375656,1.3003225],[103.7375786,1.3003491],[103.7376008,1.3003687],[103.7376289,1.3003784],[103.7376585,1.3003765],[103.7376851,1.3003635],[103.7377048,1.3003413],[103.7377144,1.3003132],[103.7377126,1.3002836],[103.7376995,1.300257],[103.7376773,1.3002374],[103.7376492,1.3002277],[103.7376196,1.3002296],[103.737593,1.3002426],[103.7375733,1.3002648],[103.7375637,1.3002929]]]}},{"type":"Feature","id":"way/453267495-0","properties":{"building":"yes"},"geometry":{"type":"Polygon","coordinates":[[[103.7366037,1.3003466],[103.7366633,1.3003315],[103.7366742,1.3003744],[103.7367539,1.3003542],[103.7367425,1.3003093],[103.7367669,1.3003032],[103.7367405,1.3001994],[103.736613,1.3002318],[103.7366051,1.3002273],[103.7365854,1.3002248],[103.7365662,1.3002301],[103.7365505,1.3002422],[103.7365407,1.3002595],[103.7365382,1.3002792],[103.7365435,1.3002983],[103.7365556,1.300314],[103.7365729,1.3003238],[103.7365926,1.3003263],[103.7365982,1.3003248],[103.7366037,1.3003466]]]}},{"type":"Feature","id":"way/453267496-0","properties":{"building":"yes"},"geometry":{"type":"Polygon","coordinates":[[[103.7371138,1.3005791],[103.7370447,1.3003028],[103.7368885,1.3003418],[103.7369131,1.3004399],[103.7369266,1.3004365],[103.7369712,1.3006148],[103.7371138,1.3005791]]]}},{"type":"Feature","id":"way/453267497-0","properties":{"building":"yes"},"geometry":{"type":"Polygon","coordinates":[[[103.7371997,1.3012284],[103.7371842,1.3011662],[103.7370214,1.3012069],[103.7370369,1.3012691],[103.7371997,1.3012284]]]}},{"type":"Feature","id":"way/453267498-0","properties":{"building":"yes"},"geometry":{"type":"Polygon","coordinates":[[[103.737032,1.3010943],[103.7370476,1.3011564],[103.7372311,1.3011103],[103.7371775,1.3008971],[103.736994,1.3009433],[103.7370227,1.3010574],[103.7369653,1.3010718],[103.7369326,1.3009417],[103.7368196,1.3009701],[103.7368773,1.3011993],[103.7369903,1.301171],[103.7369746,1.3011087],[103.737032,1.3010943]]]}},{"type":"Feature","id":"way/453267499-0","properties":{"building":"yes"},"geometry":{"type":"Polygon","coordinates":[[[103.7368504,1.3006392],[103.7368146,1.3004683],[103.7367663,1.3004784],[103.7367547,1.3004232],[103.7367254,1.3004294],[103.7367369,1.3004846],[103.7367024,1.3004918],[103.7367382,1.3006627],[103.7368504,1.3006392]]]}},{"type":"Feature","id":"way/123898846-0-0-0","properties":{"highway":"unclassified","lanes":"4","lanes:backward":"2","lanes:forward":"2","maxspeed":"50","name":"Tanjong Penjuru","sidewalk":"both"},"geometry":{"type":"LineString","coordinates":[[103.7374834,1.3014796],[103.7374538,1.3013435]]}},{"type":"Feature","id":"way/465265494-0-0-0","properties":{"highway":"service","service":"parking_aisle"},"geometry":{"type":"LineString","coordinates":[[103.737282,1.3005339],[103.73756,1.300471]]}},{"type":"Feature","id":"way/465265495-0-0-0","properties":{"highway":"service","lanes":"2","lanes:backward":"1","lanes:forward":"1","turn:lanes:backward":"through","turn:lanes:forward":"through"},"geometry":{"type":"LineString","coordinates":[[103.7373707,1.3009587],[103.7375823,1.3009065]]}},{"type":"Feature","id":"way/465265496-0-0-0","properties":{"highway":"service","lanes":"2","lanes:backward":"1","lanes:forward":"1","turn:lanes:backward":"through","turn:lanes:forward":"through"},"geometry":{"type":"LineString","coordinates":[[103.7374408,1.3012852],[103.7368623,1.3014301]]}},{"type":"Feature","id":"way/465268190-0-0-0","properties":{"highway":"service","service":"parking_aisle"},"geometry":{"type":"LineString","coordinates":[[103.737734,1.3016196],[103.7377958,1.3019163]]}},{"type":"Feature","id":"way/465268191-0-0-0","properties":{"highway":"service"},"geometry":{"type":"LineString","coordinates":[[103.737734,1.3016196],[103.7381617,1.3015212]]}},{"type":"Feature","id":"way/465268192-0-0-0","properties":{"highway":"service"},"geometry":{"type":"LineString","coordinates":[[103.7374834,1.3014796],[103.7387843,1.3012153]]}},{"type":"Feature","id":"way/526813642-0-0-0","properties":{"highway":"service","service":"parking_aisle"},"geometry":{"type":"LineString","coordinates":[[103.7381617,1.3015212],[103.7382343,1.3018738]]}},{"type":"Feature","id":"way/526813644-0-0-0","properties":{"highway":"service"},"geometry":{"type":"LineString","coordinates":[[103.7380483,1.3006952],[103.7378173,1.2997313]]}},{"type":"Feature","id":"way/526813644-0-1-0","properties":{"highway":"service"},"geometry":{"type":"LineString","coordinates":[[103.7378173,1.2997313],[103.7378226,1.2996924]]}},{"type":"Feature","id":"way/526813644-0-2-0","properties":{"highway":"service"},"geometry":{"type":"LineString","coordinates":[[103.7378226,1.2996924],[103.7378588,1.2996535]]}},{"type":"Feature","id":"way/526813644-0-3-0","properties":{"highway":"service"},"geometry":{"type":"LineString","coordinates":[[103.7378588,1.2996535],[103.7379313,1.2996347]]}},{"type":"Feature","id":"way/526813644-0-4-0","properties":{"highway":"service"},"geometry":{"type":"LineString","coordinates":[[103.7379313,1.2996347],[103.7388426,1.2994409]]}},{"type":"Feature","id":"way/526813644-0-16-0","properties":{"highway":"service"},"geometry":{"type":"LineString","coordinates":[[103.7388593,1.3008133],[103.7381458,1.3009674]]}},{"type":"Feature","id":"way/526813644-0-17-0","properties":{"highway":"service"},"geometry":{"type":"LineString","coordinates":[[103.7381458,1.3009674],[103.7381177,1.3009594]]}},{"type":"Feature","id":"way/526813644-0-18-0","properties":{"highway":"service"},"geometry":{"type":"LineString","coordinates":[[103.7381177,1.3009594],[103.7381069,1.3009446]]}},{"type":"Feature","id":"way/526813645-0-0-0","properties":{"covered":"yes","highway":"service"},"geometry":{"type":"LineString","coordinates":[[103.7378454,1.3008415],[103.737942,1.3008201]]}},{"type":"Feature","id":"way/543777399-0-0-0","properties":{"highway":"service"},"geometry":{"type":"LineString","coordinates":[[103.7349379,1.3004727],[103.7350962,1.3011163]]}},{"type":"Feature","id":"way/543777399-0-1-0","properties":{"highway":"service"},"geometry":{"type":"LineString","coordinates":[[103.7350962,1.3011163],[103.7352841,1.3020344]]}},{"type":"Feature","id":"way/543782977-0-0-0","properties":{"highway":"service"},"geometry":{"type":"LineString","coordinates":[[103.7357912,1.3015699],[103.7362128,1.3014665]]}},{"type":"Feature","id":"way/543782977-0-1-0","properties":{"highway":"service"},"geometry":{"type":"LineString","coordinates":[[103.7362128,1.3014665],[103.7362437,1.3014541]]}},{"type":"Feature","id":"way/543782977-0-2-0","properties":{"highway":"service"},"geometry":{"type":"LineString","coordinates":[[103.7362437,1.3014541],[103.7362606,1.301431]]}},{"type":"Feature","id":"way/543782977-0-3-0","properties":{"highway":"service"},"geometry":{"type":"LineString","coordinates":[[103.7362606,1.301431],[103.7362637,1.3014033]]}},{"type":"Feature","id":"way/543782977-0-4-0","properties":{"highway":"service"},"geometry":{"type":"LineString","coordinates":[[103.7362637,1.3014033],[103.7361563,1.3009583]]}},{"type":"Feature","id":"way/543782978-0-0-0","properties":{"highway":"service"},"geometry":{"type":"LineString","coordinates":[[103.7353551,1.3016602],[103.7353749,1.3016719]]}},{"type":"Feature","id":"way/543782978-0-1-0","properties":{"highway":"service"},"geometry":{"type":"LineString","coordinates":[[103.7353749,1.3016719],[103.7353971,1.3016742]]}},{"type":"Feature","id":"way/543782978-0-2-0","properties":{"highway":"service"},"geometry":{"type":"LineString","coordinates":[[103.7353971,1.3016742],[103.7357912,1.3015699]]}},{"type":"Feature","id":"way/543782979-0-0-0","properties":{"highway":"service"},"geometry":{"type":"LineString","coordinates":[[103.7350772,1.3005572],[103.7350761,1.3005841]]}},{"type":"Feature","id":"way/543782979-0-1-0","properties":{"highway":"service"},"geometry":{"type":"LineString","coordinates":[[103.7350761,1.3005841],[103.7353411,1.3016427]]}},{"type":"Feature","id":"way/543782979-0-2-0","properties":{"highway":"service"},"geometry":{"type":"LineString","coordinates":[[103.7353411,1.3016427],[103.7353551,1.3016602]]}},{"type":"Feature","id":"way/543782980-0-0-0","properties":{"highway":"service"},"geometry":{"type":"LineString","coordinates":[[103.7355092,1.3004257],[103.7351096,1.300525]]}},{"type":"Feature","id":"way/543782980-0-1-0","properties":{"highway":"service"},"geometry":{"type":"LineString","coordinates":[[103.7351096,1.300525],[103.7350889,1.3005362]]}},{"type":"Feature","id":"way/543782980-0-2-0","properties":{"highway":"service"},"geometry":{"type":"LineString","coordinates":[[103.7350889,1.3005362],[103.7350772,1.3005572]]}},{"type":"Feature","id":"way/543783008-0-0-0","properties":{"highway":"service"},"geometry":{"type":"LineString","coordinates":[[103.7355092,1.3004257],[103.7356721,1.3010762]]}},{"type":"Feature","id":"way/543783009-0-0-0","properties":{"highway":"service","lanes":"2","lanes:backward":"1","lanes:forward":"1"},"geometry":{"type":"LineString","coordinates":[[103.7373119,1.300677],[103.7369711,1.300757]]}},{"type":"Feature","id":"way/543783010-0-0-0","properties":{"highway":"service"},"geometry":{"type":"LineString","coordinates":[[103.7379228,1.3007252],[103.7380483,1.3006952]]}},{"type":"Feature","id":"way/543783011-0-0-0","properties":{"highway":"service","tunnel":"building_passage"},"geometry":{"type":"LineString","coordinates":[[103.7378275,1.300748],[103.7379228,1.3007252]]}},{"type":"Feature","id":"way/543783012-0-0-0","properties":{"highway":"service"},"geometry":{"type":"LineString","coordinates":[[103.7375598,1.3008121],[103.7376661,1.3007866]]}},{"type":"Feature","id":"way/543783013-0-0-0","properties":{"highway":"service"},"geometry":{"type":"LineString","coordinates":[[103.7375598,1.3008121],[103.737523,1.3006578]]}},{"type":"Feature","id":"way/543783013-0-1-0","properties":{"highway":"service"},"geometry":{"type":"LineString","coordinates":[[103.737523,1.3006578],[103.737523,1.3006463]]}},{"type":"Feature","id":"way/543783013-0-2-0","properties":{"highway":"service"},"geometry":{"type":"LineString","coordinates":[[103.737523,1.3006463],[103.7375283,1.3006375]]}},{"type":"Feature","id":"way/543783013-0-3-0","properties":{"highway":"service"},"geometry":{"type":"LineString","coordinates":[[103.7375283,1.3006375],[103.7376,1.3006189]]}},{"type":"Feature","id":"way/543783013-0-4-0","properties":{"highway":"service"},"geometry":{"type":"LineString","coordinates":[[103.7376,1.3006189],[103.7376066,1.3006174]]}},{"type":"Feature","id":"way/543783013-0-5-0","properties":{"highway":"service"},"geometry":{"type":"LineString","coordinates":[[103.7376066,1.3006174],[103.7376172,1.3006177]]}},{"type":"Feature","id":"way/543783014-0-0-0","properties":{"highway":"service"},"geometry":{"type":"LineString","coordinates":[[103.737942,1.3008201],[103.738071,1.3007899]]}},{"type":"Feature","id":"way/543783015-0-0-0","properties":{"highway":"service","service":"parking_aisle"},"geometry":{"type":"LineString","coordinates":[[103.7375113,1.3002295],[103.7375174,1.3002184]]}},{"type":"Feature","id":"way/543783015-0-1-0","properties":{"highway":"service","service":"parking_aisle"},"geometry":{"type":"LineString","coordinates":[[103.7375174,1.3002184],[103.7375306,1.3002123]]}},{"type":"Feature","id":"way/543783015-0-2-0","properties":{"highway":"service","service":"parking_aisle"},"geometry":{"type":"LineString","coordinates":[[103.7375306,1.3002123],[103.7376851,1.3001777]]}},{"type":"Feature","id":"way/543783015-0-3-0","properties":{"highway":"service","service":"parking_aisle"},"geometry":{"type":"LineString","coordinates":[[103.7376851,1.3001777],[103.7377004,1.3001777]]}},{"type":"Feature","id":"way/543783016-0-0-0","properties":{"highway":"service","service":"parking_aisle"},"geometry":{"type":"LineString","coordinates":[[103.73756,1.300471],[103.7375113,1.3002478]]}},{"type":"Feature","id":"way/543783016-0-1-0","properties":{"highway":"service","service":"parking_aisle"},"geometry":{"type":"LineString","coordinates":[[103.7375113,1.3002478],[103.7375113,1.3002295]]}},{"type":"Feature","id":"way/543783017-0-0-0","properties":{"highway":"service","service":"parking_aisle"},"geometry":{"type":"LineString","coordinates":[[103.7377004,1.3001777],[103.7377115,1.3001838]]}},{"type":"Feature","id":"way/543783017-0-1-0","properties":{"highway":"service","service":"parking_aisle"},"geometry":{"type":"LineString","coordinates":[[103.7377115,1.3001838],[103.7377197,1.300194]]}},{"type":"Feature","id":"way/543783017-0-2-0","properties":{"highway":"service","service":"parking_aisle"},"geometry":{"type":"LineString","coordinates":[[103.7377197,1.300194],[103.7377654,1.3003992]]}},{"type":"Feature","id":"way/543783017-0-3-0","properties":{"highway":"service","service":"parking_aisle"},"geometry":{"type":"LineString","coordinates":[[103.7377654,1.3003992],[103.7377664,1.3004119]]}},{"type":"Feature","id":"way/543783017-0-4-0","properties":{"highway":"service","service":"parking_aisle"},"geometry":{"type":"LineString","coordinates":[[103.7377664,1.3004119],[103.7377624,1.3004201]]}},{"type":"Feature","id":"way/543783017-0-5-0","properties":{"highway":"service","service":"parking_aisle"},"geometry":{"type":"LineString","coordinates":[[103.7377624,1.3004201],[103.7377568,1.3004262]]}},{"type":"Feature","id":"way/543783017-0-6-0","properties":{"highway":"service","service":"parking_aisle"},"geometry":{"type":"LineString","coordinates":[[103.7377568,1.3004262],[103.737743,1.3004298]]}},{"type":"Feature","id":"way/543793059-0-0-0","properties":{"highway":"service"},"geometry":{"type":"LineString","coordinates":[[103.7376446,1.3006983],[103.7376661,1.3007866]]}},{"type":"Feature","id":"way/543793060-0-0-0","properties":{"covered":"yes","highway":"service"},"geometry":{"type":"LineString","coordinates":[[103.7376172,1.3006177],[103.7376221,1.3006205]]}},{"type":"Feature","id":"way/543793060-0-1-0","properties":{"covered":"yes","highway":"service"},"geometry":{"type":"LineString","coordinates":[[103.7376221,1.3006205],[103.7376274,1.3006279]]}},{"type":"Feature","id":"way/543793060-0-2-0","properties":{"covered":"yes","highway":"service"},"geometry":{"type":"LineString","coordinates":[[103.7376274,1.3006279],[103.7376446,1.3006983]]}},{"type":"Feature","id":"way/632419427-0-0-0","properties":{"highway":"unclassified","lanes":"4","lanes:backward":"2","lanes:forward":"2","maxspeed":"50","name":"Tanjong Penjuru"},"geometry":{"type":"LineString","coordinates":[[103.7373707,1.3009587],[103.7373119,1.300677]]}},{"type":"Feature","id":"way/640299509-0-0-0","properties":{"highway":"service","lanes":"2","lanes:backward":"1","lanes:forward":"1","turn:lanes:backward":"through","turn:lanes:forward":"through"},"geometry":{"type":"LineString","coordinates":[[103.7375243,1.3016667],[103.737734,1.3016196]]}},{"type":"Feature","id":"way/640327324-0-0-0","properties":{"highway":"unclassified","lanes":"4","lanes:backward":"2","lanes:forward":"2","maxspeed":"50","name":"Tanjong Penjuru","sidewalk":"both"},"geometry":{"type":"LineString","coordinates":[[103.7375243,1.3016667],[103.7374834,1.3014796]]}},{"type":"Feature","id":"way/642119279-0-0-0","properties":{"highway":"service"},"geometry":{"type":"LineString","coordinates":[[103.7361563,1.3009583],[103.7356721,1.3010762]]}},{"type":"Feature","id":"way/642161199-0-1-0","properties":{"highway":"service"},"geometry":{"type":"LineString","coordinates":[[103.7339602,1.300879],[103.7344886,1.3007368]]}},{"type":"Feature","id":"way/642161200-0-0-0","properties":{"highway":"service"},"geometry":{"type":"LineString","coordinates":[[103.7368678,1.3003614],[103.7369711,1.300757]]}},{"type":"Feature","id":"way/643257519-0-0-0","properties":{"highway":"unclassified","lanes":"4","lanes:backward":"2","lanes:forward":"2","maxspeed":"50","name":"Tanjong Penjuru","parking:condition:left:vehicles":"hgv_articulated","parking:lane:left":"parallel","sidewalk":"both"},"geometry":{"type":"LineString","coordinates":[[103.7374408,1.3012852],[103.7374223,1.3012027]]}},{"type":"Feature","id":"way/645118775-0-0-0","properties":{"highway":"service"},"geometry":{"type":"LineString","coordinates":[[103.7381617,1.3015212],[103.7382504,1.3015008]]}},{"type":"Feature","id":"way/645120088-0-0-0","properties":{"highway":"service"},"geometry":{"type":"LineString","coordinates":[[103.7381069,1.3009446],[103.738071,1.3007899]]}},{"type":"Feature","id":"way/645120089-0-0-0","properties":{"highway":"service"},"geometry":{"type":"LineString","coordinates":[[103.738071,1.3007899],[103.7380483,1.3006952]]}},{"type":"Feature","id":"way/646842473-0-0-0","properties":{"highway":"service"},"geometry":{"type":"LineString","coordinates":[[103.7356721,1.3010762],[103.7357912,1.3015699]]}},{"type":"Feature","id":"way/646844188-0-0-0","properties":{"highway":"service","lanes":"2","lanes:backward":"1","lanes:forward":"1"},"geometry":{"type":"LineString","coordinates":[[103.7369711,1.300757],[103.7361563,1.3009583]]}},{"type":"Feature","id":"way/646844190-0-0-0","properties":{"highway":"service"},"geometry":{"type":"LineString","coordinates":[[103.7370206,1.3000504],[103.7355092,1.3004257]]}},{"type":"Feature","id":"way/646844909-0-0-0","properties":{"highway":"service"},"geometry":{"type":"LineString","coordinates":[[103.7376661,1.3007866],[103.7378275,1.300748]]}},{"type":"Feature","id":"way/646844910-0-0-0","properties":{"highway":"service"},"geometry":{"type":"LineString","coordinates":[[103.7375823,1.3009065],[103.7375598,1.3008121]]}},{"type":"Feature","id":"way/646845186-0-0-0","properties":{"highway":"service","lanes":"2","lanes:backward":"1","lanes:forward":"1","turn:lanes:backward":"through","turn:lanes:forward":"through"},"geometry":{"type":"LineString","coordinates":[[103.7375823,1.3009065],[103.7378454,1.3008415]]}},{"type":"Feature","id":"way/646845330-0-0-0","properties":{"highway":"service","service":"parking_aisle"},"geometry":{"type":"LineString","coordinates":[[103.73756,1.300471],[103.737743,1.3004298]]}},{"type":"Feature","id":"way/664944747-0-0-0","properties":{"highway":"unclassified","lanes":"4","lanes:backward":"2","lanes:forward":"2","maxspeed":"50","name":"Tanjong Penjuru","sidewalk":"both"},"geometry":{"type":"LineString","coordinates":[[103.7375785,1.3019194],[103.7375243,1.3016667]]}},{"type":"Feature","id":"way/664947875-0-0-0","properties":{"highway":"unclassified","lanes":"4","lanes:backward":"2","lanes:forward":"2","maxspeed":"50","name":"Tanjong Penjuru","parking:condition:left:vehicles":"hgv_articulated","parking:lane:left":"parallel","sidewalk":"both"},"geometry":{"type":"LineString","coordinates":[[103.7374538,1.3013435],[103.7374408,1.3012852]]}},{"type":"Feature","id":"way/664947876-0-0-0","properties":{"highway":"unclassified","lanes":"4","lanes:backward":"2","lanes:forward":"2","maxspeed":"50","name":"Tanjong Penjuru","sidewalk":"both"},"geometry":{"type":"LineString","coordinates":[[103.7374223,1.3012027],[103.7373707,1.3009587]]}},{"type":"Feature","id":"way/1535784292-0-0-0","properties":{"highway":"service","service":"parking_aisle"},"geometry":{"type":"LineString","coordinates":[[103.737171,1.3000356],[103.7373222,1.3000023]]}},{"type":"Feature","id":"way/1535784293-0-0-0","properties":{"highway":"service","service":"parking_aisle"},"geometry":{"type":"LineString","coordinates":[[103.7372915,1.2998668],[103.7377183,1.2997711]]}},{"type":"Feature","id":"way/1535784294-0-0-0","properties":{"highway":"service","service":"parking_aisle"},"geometry":{"type":"LineString","coordinates":[[103.7373222,1.3000023],[103.7372915,1.2998668]]}},{"type":"Feature","id":"way/1535784295-0-0-0","properties":{"highway":"service","service":"parking_aisle"},"geometry":{"type":"LineString","coordinates":[[103.7373222,1.3000023],[103.7373568,1.3001546]]}}]}