{"type":"FeatureCollection","features":[{"type":"Feature","id":"relation/7782995-0","properties":{"addr:city":"Singapore","addr:housenumber":"27A","addr:postcode":"609042","addr:street":"Tanjong Penjuru","building":"yes","name":"Eurokars Aftersales Centre","type":"multipolygon","clearanceGeometry":{"type":"Polygon","coordinates":[[[103.7347139,1.3073176],[103.7346838,1.3073018],[103.7346507,1.3072943],[103.7346167,1.3072956],[103.7344799,1.307324],[103.73438110011246,1.306903098797556],[103.73436625673799,1.3068962756334872],[103.7339442,1.3069964],[103.7339347,1.3069537],[103.73382,1.3069807],[103.7338276,1.3070181],[103.73364757040133,1.3070581479707353],[103.7338208945137,1.3078732578816037],[103.73473264023484,1.3076627960988838],[103.73473923081161,1.3076611462607584],[103.7347401,1.3076606],[103.7347631,1.3076356],[103.7347789,1.3076056],[103.7347864,1.3075724],[103.73478605251655,1.307563985936634],[103.73478082437155,1.3075269532428648],[103.73478032545518,1.3075027749869899],[103.73476764049381,1.3074058307013314],[103.73476628772946,1.3073990943004214],[103.73476378038687,1.3073910509440148],[103.7347557275789,1.3073672934897969],[103.7347388,1.3073406],[103.7347139,1.3073176]],[[103.7346626,1.3075931],[103.7346451,1.3075897],[103.7346316,1.3075779],[103.7346258,1.3075609],[103.7346073,1.3074239],[103.7346108,1.3074063],[103.7346226,1.3073928],[103.7346395,1.307387],[103.7346571,1.3073904],[103.7346706,1.3074022],[103.7346764,1.3074192],[103.7346763,1.3074195],[103.7346943,1.3075548],[103.7346948,1.3075563],[103.7346914,1.3075738],[103.7346796,1.3075873],[103.7346626,1.3075931]]]},"clearanceHeight":1.7,"clearancePrepared":true},"geometry":{"type":"Polygon","coordinates":[[[103.7347388,1.3073406],[103.7347139,1.3073176],[103.7346838,1.3073018],[103.7346507,1.3072943],[103.7346167,1.3072956],[103.7344799,1.307324],[103.7343788,1.3068933],[103.7339442,1.3069964],[103.7339347,1.3069537],[103.73382,1.3069807],[103.7338276,1.3070181],[103.7336343,1.3070611],[103.733818,1.3078818],[103.7346417,1.3076894],[103.734645,1.3076902],[103.7346789,1.3076888],[103.7347113,1.3076787],[103.7347401,1.3076606],[103.7347631,1.3076356],[103.7347789,1.3076056],[103.7347864,1.3075724],[103.734785,1.3075385],[103.7347671,1.3074017],[103.734757,1.3073693],[103.7347388,1.3073406]],[[103.7346796,1.3075873],[103.7346626,1.3075931],[103.7346451,1.3075897],[103.7346316,1.3075779],[103.7346258,1.3075609],[103.7346073,1.3074239],[103.7346108,1.3074063],[103.7346226,1.3073928],[103.7346395,1.307387],[103.7346571,1.3073904],[103.7346706,1.3074022],[103.7346764,1.3074192],[103.7346763,1.3074195],[103.7346943,1.3075548],[103.7346948,1.3075563],[103.7346914,1.3075738],[103.7346796,1.3075873]]]}},{"type":"Feature","id":"way/117564752-0","properties":{"building":"yes","clearanceGeometry":{"type":"Polygon","coordinates":[[[103.7311269,1.3065245],[103.7309654,1.3065595],[103.7310738,1.3070593],[103.7311873,1.3070346],[103.7312181,1.3071762],[103.73134393750254,1.3071489129553509],[103.73119816767012,1.306509040184402],[103.7311269,1.3065245]]]},"clearanceHeight":1.7,"clearancePrepared":true},"geometry":{"type":"Polygon","coordinates":[[[103.7313689,1.3071435],[103.7312297,1.3065022],[103.7311269,1.3065245],[103.7309654,1.3065595],[103.7310738,1.3070593],[103.7311873,1.3070346],[103.7312181,1.3071762],[103.7313689,1.3071435]]]}},{"type":"Feature","id":"way/117564757-0","properties":{"building":"yes","clearanceGeometry":{"type":"Polygon","coordinates":[[[103.7305895,1.3073911],[103.7312343,1.3072512],[103.7312181,1.3071762],[103.7311873,1.3070346],[103.7310738,1.3070593],[103.7309654,1.3065595],[103.7311269,1.3065245],[103.7310678,1.3062522],[103.730375,1.3064025],[103.7305895,1.3073911]]]},"clearanceHeight":1.7,"clearancePrepared":true},"geometry":{"type":"Polygon","coordinates":[[[103.730375,1.3064025],[103.7305895,1.3073911],[103.7312343,1.3072512],[103.7312181,1.3071762],[103.7311873,1.3070346],[103.7310738,1.3070593],[103.7309654,1.3065595],[103.7311269,1.3065245],[103.7310678,1.3062522],[103.730375,1.3064025]]]}},{"type":"Feature","id":"way/117564771-0","properties":{"building":"yes","clearanceGeometry":{"type":"MultiPolygon","coordinates":[[[[103.7318943,1.3090053],[103.7316227,1.307737],[103.73156487222623,1.3077546596203533],[103.73156552457378,1.3077575231719416],[103.7315261,1.3077665],[103.73156552516275,1.3077575257576945],[103.73185222091162,1.3090163898090037],[103.7318943,1.3090053]]],[[[103.7313833,1.3077937],[103.7316498,1.3090682],[103.73176834472194,1.3090380738153033],[103.73177148263315,1.30902604840403],[103.73148667513169,1.3077754755352278],[103.73148635504243,1.3077740704681076],[103.7313833,1.3077937]]]]},"clearanceHeight":1.7,"clearancePrepared":true},"geometry":{"type":"Polygon","coordinates":[[[103.7318131,1.3090267],[103.7318943,1.3090053],[103.7316227,1.307737],[103.7315261,1.3077665],[103.7313833,1.3077937],[103.7316498,1.3090682],[103.7318131,1.3090267]]]}},{"type":"Feature","id":"way/117564774-0","properties":{"building":"yes","name":"27","clearanceGeometry":{"type":"Polygon","coordinates":[[[103.7311453,1.3094115],[103.7313816,1.3093621],[103.7313339,1.3091344],[103.7316498,1.3090684],[103.7313833,1.3077937],[103.7313639,1.3077013],[103.7306719,1.3078459],[103.7309578,1.3092131],[103.7310977,1.3091839],[103.7311453,1.3094115]]]},"clearanceHeight":1.7,"clearancePrepared":true},"geometry":{"type":"Polygon","coordinates":[[[103.7310977,1.3091839],[103.7311453,1.3094115],[103.7313816,1.3093621],[103.7313339,1.3091344],[103.7316498,1.3090684],[103.7313833,1.3077937],[103.7313639,1.3077013],[103.7306719,1.3078459],[103.7309578,1.3092131],[103.7310977,1.3091839]]]}},{"type":"Feature","id":"way/120402474-0","properties":{"building":"yes","clearanceGeometry":{"type":"Polygon","coordinates":[[[103.73105329413187,1.3104453732799302],[103.73102842805707,1.310348959165393],[103.7304598,1.3104632],[103.73060724329817,1.3111971640650775],[103.73115596465132,1.311088912316526],[103.73117854660008,1.311068456199537],[103.73105329413187,1.3104453732799302]]]},"clearanceHeight":1.7,"clearancePrepared":true},"geometry":{"type":"Polygon","coordinates":[[[103.7311834,1.3110926],[103.7310337,1.3103479],[103.7304598,1.3104632],[103.7306094,1.3112079],[103.7311834,1.3110926]]]}},{"type":"Feature","id":"way/120402482-0","properties":{"building":"yes","name":"32","clearanceGeometry":{"type":"Polygon","coordinates":[[[103.73378053415566,1.310566318013254],[103.73378053415566,1.3105679739190597],[103.73376255967827,1.3106042059364715],[103.73356925080104,1.3109000087912945],[103.73351221449204,1.3109873004012673],[103.7336131739695,1.3110521852330603],[103.73389250132934,1.3106382445528044],[103.73378053415566,1.310566318013254]]]},"clearanceHeight":1.7,"clearancePrepared":true},"geometry":{"type":"Polygon","coordinates":[[[103.7336244,1.3110594],[103.7338943,1.3106394],[103.7337721,1.3105609],[103.7335021,1.3109808],[103.7336244,1.3110594]]]}},{"type":"Feature","id":"way/120407088-0","properties":{"building":"yes","name":"30","clearanceGeometry":{"type":"Polygon","coordinates":[[[103.7337056,1.3095689],[103.73307158729426,1.3096959951623972],[103.73317297091778,1.3101941177990992],[103.7338056,1.3100673],[103.7337056,1.3095689]]]},"clearanceHeight":1.7,"clearancePrepared":true},"geometry":{"type":"Polygon","coordinates":[[[103.7338056,1.3100673],[103.7337056,1.3095689],[103.7330556,1.3096992],[103.7331556,1.3101976],[103.7338056,1.3100673]]]}},{"type":"Feature","id":"way/120407096-0","properties":{"building":"industrial","name":"36","clearanceGeometry":{"type":"Polygon","coordinates":[[[103.73210944866439,1.3112747859714053],[103.73203657137499,1.310998653278175],[103.73182616465364,1.3099253446131247],[103.73118190160255,1.310059490441943],[103.73144233525274,1.3114208702197427],[103.73145617764332,1.311478386463003],[103.73148052378328,1.3114893580940368],[103.73205729449047,1.3113897598309212],[103.73212989652824,1.3113729628011532],[103.73210944866439,1.3112747859714053]]]},"clearanceHeight":1.7,"clearancePrepared":true},"geometry":{"type":"Polygon","coordinates":[[[103.7321303,1.3113749],[103.7318283,1.3099249],[103.731154,1.3100653],[103.731456,1.3115153],[103.7321303,1.3113749]]]}},{"type":"Feature","id":"way/120407097-0","properties":{"building":"yes","name":"33","clearanceGeometry":{"type":"Polygon","coordinates":[[[103.7304792,1.3077647],[103.7292609,1.3080199],[103.7293355,1.3083758],[103.7305538,1.3081206],[103.7304792,1.3077647]]]},"clearanceHeight":1.7,"clearancePrepared":true},"geometry":{"type":"Polygon","coordinates":[[[103.7305538,1.3081206],[103.7304792,1.3077647],[103.7292609,1.3080199],[103.7293355,1.3083758],[103.7305538,1.3081206]]]}},{"type":"Feature","id":"way/120407103-0","properties":{"building":"industrial","building:levels":"4","name":"34","clearanceGeometry":{"type":"Polygon","coordinates":[[[103.7326519,1.3112224],[103.7327673,1.3111983],[103.7324585,1.309721],[103.73198114808233,1.3098207799453772],[103.732123704264,1.3105689534327256],[103.73214064748194,1.310655916472491],[103.7322751,1.3112991],[103.7323257,1.3112886],[103.73233530445995,1.3113346893266584],[103.73259852269322,1.3113012407202609],[103.73266418169999,1.3112809742614842],[103.7326519,1.3112224]]]},"clearanceHeight":1.7,"clearancePrepared":true},"geometry":{"type":"Polygon","coordinates":[[[103.7326675,1.3112968],[103.7326519,1.3112224],[103.7327673,1.3111983],[103.7324585,1.309721],[103.7319667,1.3098238],[103.7322751,1.3112991],[103.7323257,1.3112886],[103.7323416,1.3113649],[103.7326675,1.3112968]]]}},{"type":"Feature","id":"way/120407108-0","properties":{"building":"yes","name":"25","clearanceGeometry":{"type":"Polygon","coordinates":[[[103.7333643,1.3083205],[103.7323917,1.3085577],[103.73253,1.3091244],[103.7335026,1.3088873],[103.7333643,1.3083205]]]},"clearanceHeight":1.7,"clearancePrepared":true},"geometry":{"type":"Polygon","coordinates":[[[103.7335026,1.3088873],[103.7333643,1.3083205],[103.7323917,1.3085577],[103.73253,1.3091244],[103.7335026,1.3088873]]]}},{"type":"Feature","id":"way/120407115-0","properties":{"building":"yes","name":"31","clearanceGeometry":{"type":"Polygon","coordinates":[[[103.7305683,1.3082585],[103.7300081,1.3083727],[103.73011801873663,1.3089122395506847],[103.73044914536966,1.3088640806688987],[103.7306821,1.3088166],[103.7305683,1.3082585]]]},"clearanceHeight":1.7,"clearancePrepared":true},"geometry":{"type":"Polygon","coordinates":[[[103.7306821,1.3088166],[103.7305683,1.3082585],[103.7300081,1.3083727],[103.7301218,1.3089308],[103.7306821,1.3088166]]]}},{"type":"Feature","id":"way/120407154-0","properties":{"building":"yes","name":"29","clearanceGeometry":{"type":"Polygon","coordinates":[[[103.7308198,1.3092517],[103.7296779,1.30948],[103.7297445,1.3098131],[103.7308865,1.3095848],[103.7308198,1.3092517]]]},"clearanceHeight":1.7,"clearancePrepared":true},"geometry":{"type":"Polygon","coordinates":[[[103.7308865,1.3095848],[103.7308198,1.3092517],[103.7296779,1.30948],[103.7297445,1.3098131],[103.7308865,1.3095848]]]}},{"type":"Feature","id":"way/120407164-0","properties":{"building":"yes","clearanceGeometry":{"type":"Polygon","coordinates":[[[103.73377432379894,1.3103080770659636],[103.73377370497718,1.3103082252829996],[103.7338276,1.310582],[103.73391845661214,1.3105641120510214],[103.73386171637014,1.310290854334858],[103.73377432379894,1.3103080770659636]]]},"clearanceHeight":1.7,"clearancePrepared":true},"geometry":{"type":"Polygon","coordinates":[[[103.7339302,1.3105618],[103.7338762,1.310288],[103.7337737,1.3103082],[103.7338276,1.310582],[103.7339302,1.3105618]]]}},{"type":"Feature","id":"way/120407170-0","properties":{"building":"yes","clearanceGeometry":{"type":"Polygon","coordinates":[[[103.7328955,1.3095257],[103.73266348672196,1.3095726912728018],[103.73272508184743,1.309867843847551],[103.73271887531871,1.3098691384320813],[103.7327916,1.3102281],[103.7327092,1.3102447],[103.7326904,1.3101517],[103.7327076,1.3101483],[103.7326861,1.3100424],[103.7326217917941,1.3100553682293672],[103.73272963501455,1.3105944064312138],[103.7327861,1.310583],[103.7327767,1.3105366],[103.732851,1.3105216],[103.732917,1.3108478],[103.7331535,1.3108],[103.7328955,1.3095257]]]},"clearanceHeight":1.7,"clearancePrepared":true},"geometry":{"type":"Polygon","coordinates":[[[103.7331535,1.3108],[103.7328955,1.3095257],[103.732659,1.3095736],[103.7327916,1.3102281],[103.7327092,1.3102447],[103.7326904,1.3101517],[103.7327076,1.3101483],[103.7326861,1.3100424],[103.7326137,1.310057],[103.7326336,1.3101553],[103.7326073,1.3101607],[103.7326965,1.3106011],[103.7327861,1.310583],[103.7327767,1.3105366],[103.732851,1.3105216],[103.732917,1.3108478],[103.7331535,1.3108]]]}},{"type":"Feature","id":"way/120407176-0","properties":{"building":"yes","name":"35","clearanceGeometry":{"type":"Polygon","coordinates":[[[103.7303457,1.3069594],[103.7293265,1.3071471],[103.7291548,1.3072865],[103.729187,1.3074903],[103.7299434,1.3073455],[103.730026,1.3077402],[103.73014287769341,1.3077167199951942],[103.7304531761532,1.3076456955448532],[103.73045507811885,1.3076540008631201],[103.7304959,1.3076458],[103.7303457,1.3069594]]]},"clearanceHeight":1.7,"clearancePrepared":true},"geometry":{"type":"Polygon","coordinates":[[[103.7304959,1.3076458],[103.7303457,1.3069594],[103.7293265,1.3071471],[103.7291548,1.3072865],[103.729187,1.3074903],[103.7299434,1.3073455],[103.730026,1.3077402],[103.7304959,1.3076458]]]}},{"type":"Feature","id":"way/120419985-0","properties":{"building":"yes","clearanceGeometry":{"type":"Polygon","coordinates":[[[103.7340604,1.3082425],[103.7339483,1.3082682],[103.7340405,1.3086706],[103.7341527,1.3086449],[103.7340604,1.3082425]]]},"clearanceHeight":1.7,"clearancePrepared":true},"geometry":{"type":"Polygon","coordinates":[[[103.7341527,1.3086449],[103.7340604,1.3082425],[103.7339483,1.3082682],[103.7340405,1.3086706],[103.7341527,1.3086449]]]}},{"type":"Feature","id":"way/453252149-0","properties":{"building":"yes","clearanceGeometry":{"type":"Polygon","coordinates":[[[103.7326069,1.3099107],[103.7326165,1.3099584],[103.7326328,1.3099551],[103.7326504,1.310042],[103.7327157,1.3100288],[103.7326885,1.3098942],[103.7326069,1.3099107]]]},"clearanceHeight":1.7,"clearancePrepared":true},"geometry":{"type":"Polygon","coordinates":[[[103.7326885,1.3098942],[103.7326069,1.3099107],[103.7326165,1.3099584],[103.7326328,1.3099551],[103.7326504,1.310042],[103.7327157,1.3100288],[103.7326885,1.3098942]]]}},{"type":"Feature","id":"way/453252150-0","properties":{"building":"yes","clearanceGeometry":{"type":"Polygon","coordinates":[[[103.7325796,1.3096393],[103.732536,1.3096481],[103.73254241167336,1.3096797945839247],[103.73254877837878,1.3096904215971996],[103.73258199419979,1.3098564459087583],[103.7326219,1.3098483],[103.7325796,1.3096393]]]},"clearanceHeight":1.7,"clearancePrepared":true},"geometry":{"type":"Polygon","coordinates":[[[103.7326219,1.3098483],[103.7325796,1.3096393],[103.732536,1.3096481],[103.7325783,1.3098572],[103.7326219,1.3098483]]]}},{"type":"Feature","id":"way/453252182-0","properties":{"building":"yes","clearanceGeometry":{"type":"Polygon","coordinates":[[[103.7306803,1.3099648],[103.7303874,1.310023],[103.7304197,1.3101853],[103.7307126,1.3101272],[103.7306803,1.3099648]]]},"clearanceHeight":1.7,"clearancePrepared":true},"geometry":{"type":"Polygon","coordinates":[[[103.7307126,1.3101272],[103.7306803,1.3099648],[103.7303874,1.310023],[103.7304197,1.3101853],[103.7307126,1.3101272]]]}},{"type":"Feature","id":"way/544656909-0","properties":{"building":"yes","clearanceGeometry":{"type":"Polygon","coordinates":[[[103.73344829015849,1.311076713563224],[103.73342757017127,1.3110627632791014],[103.73341101579037,1.3110192549703363],[103.73341700402369,1.3109903118425883],[103.73343138449589,1.310993285618737],[103.73342875638536,1.310980316126604],[103.7334227483768,1.3109763924669606],[103.73342672731953,1.310970302866806],[103.7332864,1.3102778],[103.7330952,1.3103165],[103.7332642,1.3111505],[103.7334554,1.3111118],[103.73344829015849,1.311076713563224]]]},"clearanceHeight":1.7,"clearancePrepared":true},"geometry":{"type":"Polygon","coordinates":[[[103.7334554,1.3111118],[103.7332864,1.3102778],[103.7330952,1.3103165],[103.7332642,1.3111505],[103.7334554,1.3111118]]]}},{"type":"Feature","id":"way/1232985122-0","properties":{"building":"yes","clearanceGeometry":{"type":"Polygon","coordinates":[[[103.7295435,1.3108754],[103.73028980926802,1.3107271396402174],[103.73016299661097,1.3100759323441586],[103.73014560243293,1.3100770892016051],[103.7294136,1.3102227],[103.7295435,1.3108754]]]},"clearanceHeight":1.7,"clearancePrepared":true},"geometry":{"type":"Polygon","coordinates":[[[103.7294136,1.3102227],[103.7295435,1.3108754],[103.7303036,1.3107244],[103.7301737,1.3100715],[103.7294136,1.3102227]]]}},{"type":"Feature","id":"node/246579396","properties":{"crossing":"traffic_signals","highway":"traffic_signals"},"geometry":{"type":"Point","coordinates":[103.7333071,1.3068594]}},{"type":"Feature","id":"node/885616091","properties":{"crossing":"traffic_signals","highway":"traffic_signals"},"geometry":{"type":"Point","coordinates":[103.7333787,1.3068473]}},{"type":"Feature","id":"node/7192953859","properties":{"highway":"crossing"},"geometry":{"type":"Point","coordinates":[103.7341572,1.3100537]}},{"type":"Feature","id":"node/7192986315","properties":{"highway":"crossing"},"geometry":{"type":"Point","coordinates":[103.7337172,1.3091485]}},{"type":"Feature","id":"node/7192986316","properties":{"highway":"crossing"},"geometry":{"type":"Point","coordinates":[103.7339511,1.3102241]}},{"type":"Feature","id":"node/8427447026","properties":{"highway":"crossing"},"geometry":{"type":"Point","coordinates":[103.7329697,1.3093983]}},{"type":"Feature","id":"node/8427447028","properties":{"highway":"crossing"},"geometry":{"type":"Point","coordinates":[103.7318936,1.3096166]}},{"type":"Feature","id":"node/8427447029","properties":{"highway":"crossing"},"geometry":{"type":"Point","coordinates":[103.7318085,1.3096318]}},{"type":"Feature","id":"node/8427447031","properties":{"highway":"crossing"},"geometry":{"type":"Point","coordinates":[103.7309213,1.3098122]}},{"type":"Feature","id":"node/8427447042","properties":{"highway":"crossing"},"geometry":{"type":"Point","coordinates":[103.7315016,1.3095232]}},{"type":"Feature","id":"node/8427750424","properties":{"highway":"crossing"},"geometry":{"type":"Point","coordinates":[103.7333924,1.3069168]}},{"type":"Feature","id":"node/8427750426","properties":{"highway":"crossing"},"geometry":{"type":"Point","coordinates":[103.7332223,1.3068759]}},{"type":"Feature","id":"node/8427757770","properties":{"highway":"crossing"},"geometry":{"type":"Point","coordinates":[103.7333234,1.306938]}},{"type":"Feature","id":"node/8427757795","properties":{"crossing:signals":"yes","highway":"crossing"},"geometry":{"type":"Point","coordinates":[103.7334457,1.3068325]}},{"type":"Feature","id":"node/8427757797","properties":{"highway":"crossing"},"geometry":{"type":"Point","coordinates":[103.7333458,1.3066858]}},{"type":"Feature","id":"node/8427757798","properties":{"highway":"crossing"},"geometry":{"type":"Point","coordinates":[103.7332721,1.306701]}},{"type":"Feature","id":"node/11195436028","properties":{"highway":"crossing"},"geometry":{"type":"Point","coordinates":[103.7300674,1.3099769]}},{"type":"Feature","id":"node/13982457015","properties":{"highway":"crossing"},"geometry":{"type":"Point","coordinates":[103.7309465,1.3096282]}},{"type":"Feature","id":"way/70583783-0-0-0","properties":{"highway":"secondary","lanes":"4","lanes:backward":"2","lanes:forward":"2","maxspeed":"50","name":"Tanjong Penjuru","startNodeId":"246579396","endNodeId":"885616091"},"geometry":{"type":"LineString","coordinates":[[103.7333071,1.3068594],[103.7333787,1.3068473]]}},{"type":"Feature","id":"way/75009477-0-0-0","properties":{"highway":"secondary","lanes":"2","lit":"yes","maxspeed":"60","name":"Penjuru Road","oneway":"yes","sidewalk":"no","source":"Yahoo aerial images","startNodeId":"246579393","endNodeId":"4488148852"},"geometry":{"type":"LineString","coordinates":[[103.7338106,1.3091301],[103.7340498,1.3102005]]}},{"type":"Feature","id":"way/120407152-0-0-0","properties":{"highway":"unclassified","lanes":"2","lanes:backward":"1","lanes:forward":"1","maxspeed":"50","name":"Penjuru Street","sidewalk:both":"separate","startNodeId":"5015699689","endNodeId":"6669899684"},"geometry":{"type":"LineString","coordinates":[[103.7315231,1.3070947],[103.7315483,1.3071477]]}},{"type":"Feature","id":"way/120407152-0-1-0","properties":{"highway":"unclassified","lanes":"2","lanes:backward":"1","lanes:forward":"1","maxspeed":"50","name":"Penjuru Street","sidewalk:both":"separate","startNodeId":"6669899684","endNodeId":"6669899682"},"geometry":{"type":"LineString","coordinates":[[103.7315483,1.3071477],[103.7315741,1.3071725]]}},{"type":"Feature","id":"way/120407152-0-2-0","properties":{"highway":"unclassified","lanes":"2","lanes:backward":"1","lanes:forward":"1","maxspeed":"50","name":"Penjuru Street","sidewalk:both":"separate","startNodeId":"6669899682","endNodeId":"5138526263"},"geometry":{"type":"LineString","coordinates":[[103.7315741,1.3071725],[103.7315932,1.3071872]]}},{"type":"Feature","id":"way/120407152-0-3-0","properties":{"highway":"unclassified","lanes":"2","lanes:backward":"1","lanes:forward":"1","maxspeed":"50","name":"Penjuru Street","sidewalk:both":"separate","startNodeId":"5138526263","endNodeId":"6669899683"},"geometry":{"type":"LineString","coordinates":[[103.7315932,1.3071872],[103.7316136,1.307201]]}},{"type":"Feature","id":"way/120407152-0-4-0","properties":{"highway":"unclassified","lanes":"2","lanes:backward":"1","lanes:forward":"1","maxspeed":"50","name":"Penjuru Street","sidewalk:both":"separate","startNodeId":"6669899683","endNodeId":"5138526264"},"geometry":{"type":"LineString","coordinates":[[103.7316136,1.307201],[103.7316314,1.30721]]}},{"type":"Feature","id":"way/120407152-0-5-0","properties":{"highway":"unclassified","lanes":"2","lanes:backward":"1","lanes:forward":"1","maxspeed":"50","name":"Penjuru Street","sidewalk:both":"separate","startNodeId":"5138526264","endNodeId":"1350153775"},"geometry":{"type":"LineString","coordinates":[[103.7316314,1.30721],[103.731826,1.3071777]]}},{"type":"Feature","id":"way/174886177-0-0-0","properties":{"highway":"secondary","lanes":"2","maxspeed":"60","name":"Penjuru Road","oneway":"yes","sidewalk":"no","source":"Yahoo aerial images","startNodeId":"4602541743","endNodeId":"4488148858"},"geometry":{"type":"LineString","coordinates":[[103.7342621,1.3106683],[103.7341162,1.3100637]]}},{"type":"Feature","id":"way/452010718-0-0-0","properties":{"highway":"service","startNodeId":"4488138416","endNodeId":"4488138420"},"geometry":{"type":"LineString","coordinates":[[103.7304622,1.3076851],[103.7291559,1.3079841]]}},{"type":"Feature","id":"way/452010721-0-0-0","properties":{"highway":"service","startNodeId":"4488138412","endNodeId":"4488138423"},"geometry":{"type":"LineString","coordinates":[[103.7299383,1.3084063],[103.7300595,1.3089616]]}},{"type":"Feature","id":"way/452010722-0-0-0","properties":{"highway":"service","startNodeId":"4488138425","endNodeId":"8427447050"},"geometry":{"type":"LineString","coordinates":[[103.7308404,1.3091194],[103.729325,1.3094041]]}},{"type":"Feature","id":"way/452011792-0-0-0","properties":{"highway":"service","startNodeId":"4488148853","endNodeId":"4602541930"},"geometry":{"type":"LineString","coordinates":[[103.7334282,1.310349],[103.7336942,1.3102857]]}},{"type":"Feature","id":"way/452011802-0-0-0","properties":{"highway":"service","startNodeId":"4488148881","endNodeId":"4488148880"},"geometry":{"type":"LineString","coordinates":[[103.7340101,1.3087503],[103.7338763,1.3081408]]}},{"type":"Feature","id":"way/465261034-0-0-0","properties":{"highway":"service","startNodeId":"4488148882","endNodeId":"4488148881"},"geometry":{"type":"LineString","coordinates":[[103.7338208,1.3088001],[103.7340101,1.3087503]]}},{"type":"Feature","id":"way/465261037-0-0-0","properties":{"highway":"service","startNodeId":"4488148858","endNodeId":"7192953859"},"geometry":{"type":"LineString","coordinates":[[103.7341162,1.3100637],[103.7341572,1.3100537]]}},{"type":"Feature","id":"way/465265454-0-0-0","properties":{"highway":"service","oneway":"yes","startNodeId":"4602541926","endNodeId":"13982476169"},"geometry":{"type":"LineString","coordinates":[[103.7334566,1.3109985],[103.7335354,1.3108779]]}},{"type":"Feature","id":"way/465265454-0-1-0","properties":{"highway":"service","oneway":"yes","startNodeId":"13982476169","endNodeId":"4602541927"},"geometry":{"type":"LineString","coordinates":[[103.7335354,1.3108779],[103.7337274,1.3105841]]}},{"type":"Feature","id":"way/465265454-0-2-0","properties":{"highway":"service","oneway":"yes","startNodeId":"4602541927","endNodeId":"4602541928"},"geometry":{"type":"LineString","coordinates":[[103.7337274,1.3105841],[103.7337401,1.3105585]]}},{"type":"Feature","id":"way/465265454-0-3-0","properties":{"highway":"service","oneway":"yes","startNodeId":"4602541928","endNodeId":"4602541929"},"geometry":{"type":"LineString","coordinates":[[103.7337401,1.3105585],[103.7337401,1.3105138]]}},{"type":"Feature","id":"way/465265454-0-4-0","properties":{"highway":"service","oneway":"yes","startNodeId":"4602541929","endNodeId":"4602541930"},"geometry":{"type":"LineString","coordinates":[[103.7337401,1.3105138],[103.7336942,1.3102857]]}},{"type":"Feature","id":"way/465265457-0-0-0","properties":{"destination:street":"Jalan Buroh","highway":"trunk_link","lanes":"1","maxspeed":"50","noname":"yes","oneway":"yes","surface":"asphalt","startNodeId":"4602541735","endNodeId":"4602541734"},"geometry":{"type":"LineString","coordinates":[[103.7341507,1.3106488],[103.7341275,1.310819]]}},{"type":"Feature","id":"way/465265457-0-1-0","properties":{"destination:street":"Jalan Buroh","highway":"trunk_link","lanes":"1","maxspeed":"50","noname":"yes","oneway":"yes","surface":"asphalt","startNodeId":"4602541734","endNodeId":"4602541733"},"geometry":{"type":"LineString","coordinates":[[103.7341275,1.310819],[103.7340628,1.3109879]]}},{"type":"Feature","id":"way/465265504-0-0-0","properties":{"highway":"service","oneway":"yes","startNodeId":"5256544938","endNodeId":"5256544939"},"geometry":{"type":"LineString","coordinates":[[103.7338921,1.3102383],[103.7339611,1.3105706]]}},{"type":"Feature","id":"way/465265504-0-1-0","properties":{"highway":"service","oneway":"yes","startNodeId":"5256544939","endNodeId":"5256544940"},"geometry":{"type":"LineString","coordinates":[[103.7339611,1.3105706],[103.7339623,1.3105881]]}},{"type":"Feature","id":"way/465265504-0-2-0","properties":{"highway":"service","oneway":"yes","startNodeId":"5256544940","endNodeId":"5256544941"},"geometry":{"type":"LineString","coordinates":[[103.7339623,1.3105881],[103.7339576,1.3106091]]}},{"type":"Feature","id":"way/465265504-0-3-0","properties":{"highway":"service","oneway":"yes","startNodeId":"5256544941","endNodeId":"5256544942"},"geometry":{"type":"LineString","coordinates":[[103.7339576,1.3106091],[103.7339506,1.3106231]]}},{"type":"Feature","id":"way/465265504-0-4-0","properties":{"highway":"service","oneway":"yes","startNodeId":"5256544942","endNodeId":"4602541918"},"geometry":{"type":"LineString","coordinates":[[103.7339506,1.3106231],[103.7339297,1.3106554]]}},{"type":"Feature","id":"way/465265504-0-5-0","properties":{"highway":"service","oneway":"yes","startNodeId":"4602541918","endNodeId":"4602541919"},"geometry":{"type":"LineString","coordinates":[[103.7339297,1.3106554],[103.7336338,1.3110939]]}},{"type":"Feature","id":"way/465265506-0-0-0","properties":{"highway":"service","startNodeId":"4602541934","endNodeId":"6046105496"},"geometry":{"type":"LineString","coordinates":[[103.7335273,1.3078586],[103.733304,1.3078985]]}},{"type":"Feature","id":"way/465265506-0-1-0","properties":{"highway":"service","startNodeId":"6046105496","endNodeId":"4602541933"},"geometry":{"type":"LineString","coordinates":[[103.733304,1.3078985],[103.7332073,1.3079098]]}},{"type":"Feature","id":"way/465279711-0-0-0","properties":{"highway":"unclassified","lanes":"3","lanes:backward":"1","lanes:forward":"2","maxspeed":"50","name":"Penjuru Street","sidewalk:both":"separate","startNodeId":"1350153775","endNodeId":"6669899679"},"geometry":{"type":"LineString","coordinates":[[103.731826,1.3071777],[103.731979,1.3071432]]}},{"type":"Feature","id":"way/465279713-0-0-0","properties":{"highway":"service","startNodeId":"4488138419","endNodeId":"4488138418"},"geometry":{"type":"LineString","coordinates":[[103.7292643,1.3084803],[103.7305607,1.3081972]]}},{"type":"Feature","id":"way/465279714-0-0-0","properties":{"highway":"service","startNodeId":"4488138423","endNodeId":"13982396595"},"geometry":{"type":"LineString","coordinates":[[103.7300595,1.3089616],[103.7293439,1.3091087]]}},{"type":"Feature","id":"way/465285314-0-0-0","properties":{"highway":"service","startNodeId":"4602743612","endNodeId":"8427447028"},"geometry":{"type":"LineString","coordinates":[[103.731873,1.309526],[103.7318936,1.3096166]]}},{"type":"Feature","id":"way/465285314-0-1-0","properties":{"highway":"service","startNodeId":"8427447028","endNodeId":"6046105554"},"geometry":{"type":"LineString","coordinates":[[103.7318936,1.3096166],[103.731913,1.3097017]]}},{"type":"Feature","id":"way/465285314-0-2-0","properties":{"highway":"service","startNodeId":"6046105554","endNodeId":"4602743611"},"geometry":{"type":"LineString","coordinates":[[103.731913,1.3097017],[103.7319394,1.3098177]]}},{"type":"Feature","id":"way/465285314-0-3-0","properties":{"highway":"service","startNodeId":"4602743611","endNodeId":"9285505623"},"geometry":{"type":"LineString","coordinates":[[103.7319394,1.3098177],[103.732084,1.3105766]]}},{"type":"Feature","id":"way/465285314-0-4-0","properties":{"highway":"service","startNodeId":"9285505623","endNodeId":"9285505622"},"geometry":{"type":"LineString","coordinates":[[103.732084,1.3105766],[103.7322235,1.3112926]]}},{"type":"Feature","id":"way/465285315-0-0-0","properties":{"highway":"service","startNodeId":"4602743614","endNodeId":"8427447031"},"geometry":{"type":"LineString","coordinates":[[103.7309076,1.3097233],[103.7309213,1.3098122]]}},{"type":"Feature","id":"way/465285315-0-1-0","properties":{"highway":"service","startNodeId":"8427447031","endNodeId":"4602743613"},"geometry":{"type":"LineString","coordinates":[[103.7309213,1.3098122],[103.7310141,1.3101315]]}},{"type":"Feature","id":"way/465285315-0-2-0","properties":{"highway":"service","startNodeId":"4602743613","endNodeId":"6046105571"},"geometry":{"type":"LineString","coordinates":[[103.7310141,1.3101315],[103.7311372,1.3106088]]}},{"type":"Feature","id":"way/465285315-0-3-0","properties":{"highway":"service","startNodeId":"6046105571","endNodeId":"6046105570"},"geometry":{"type":"LineString","coordinates":[[103.7311372,1.3106088],[103.7312284,1.3110057]]}},{"type":"Feature","id":"way/465285316-0-14-0","properties":{"highway":"service","startNodeId":"6046105572","endNodeId":"6640481538"},"geometry":{"type":"LineString","coordinates":[[103.7303419,1.3107831],[103.7301984,1.3100462]]}},{"type":"Feature","id":"way/465285316-0-15-0","properties":{"highway":"service","startNodeId":"6640481538","endNodeId":"8653997252"},"geometry":{"type":"LineString","coordinates":[[103.7301984,1.3100462],[103.7301708,1.3100349]]}},{"type":"Feature","id":"way/465285316-0-16-0","properties":{"highway":"service","startNodeId":"8653997252","endNodeId":"6640481537"},"geometry":{"type":"LineString","coordinates":[[103.7301708,1.3100349],[103.7301287,1.3100377]]}},{"type":"Feature","id":"way/465285316-0-17-0","properties":{"highway":"service","startNodeId":"6640481537","endNodeId":"11195436027"},"geometry":{"type":"LineString","coordinates":[[103.7301287,1.3100377],[103.7300767,1.3100473]]}},{"type":"Feature","id":"way/539450997-0-0-0","properties":{"highway":"unclassified","lanes":"2","lit":"yes","maxspeed":"50","name":"Penjuru Lane","surface":"asphalt","startNodeId":"246579393","endNodeId":"246579386"},"geometry":{"type":"LineString","coordinates":[[103.7338106,1.3091301],[103.7338866,1.3091122]]}},{"type":"Feature","id":"way/539450998-0-0-0","properties":{"highway":"residential","lanes":"4","lanes:backward":"2","lanes:forward":"2","maxspeed":"50","name":"Penjuru Lane","sidewalk:both":"separate","surface":"asphalt","turn:lanes:backward":"left|through","startNodeId":"842290308","endNodeId":"6335961823"},"geometry":{"type":"LineString","coordinates":[[103.7293637,1.3100342],[103.730057,1.309898]]}},{"type":"Feature","id":"way/539450999-0-0-0","properties":{"highway":"secondary","lanes":"2","maxspeed":"60","name":"Penjuru Road","oneway":"yes","sidewalk":"left","source":"Yahoo aerial images","startNodeId":"246579396","endNodeId":"8427757770"},"geometry":{"type":"LineString","coordinates":[[103.7333071,1.3068594],[103.7333234,1.306938]]}},{"type":"Feature","id":"way/539450999-0-1-0","properties":{"highway":"secondary","lanes":"2","maxspeed":"60","name":"Penjuru Road","oneway":"yes","sidewalk":"left","source":"Yahoo aerial images","startNodeId":"8427757770","endNodeId":"4602541934"},"geometry":{"type":"LineString","coordinates":[[103.7333234,1.306938],[103.7335273,1.3078586]]}},{"type":"Feature","id":"way/539451000-0-0-0","properties":{"highway":"secondary","lanes":"2","lit":"yes","maxspeed":"60","name":"Penjuru Road","oneway":"yes","sidewalk":"left","source":"Yahoo aerial images","startNodeId":"246579386","endNodeId":"4488148882"},"geometry":{"type":"LineString","coordinates":[[103.7338866,1.3091122],[103.7338208,1.3088001]]}},{"type":"Feature","id":"way/543768345-0-0-0","properties":{"highway":"service","startNodeId":"5256544922","endNodeId":"5256544921"},"geometry":{"type":"LineString","coordinates":[[103.7335805,1.3094629],[103.7335571,1.3094618]]}},{"type":"Feature","id":"way/543768345-0-1-0","properties":{"highway":"service","startNodeId":"5256544921","endNodeId":"5256544320"},"geometry":{"type":"LineString","coordinates":[[103.7335571,1.3094618],[103.7330058,1.3095755]]}},{"type":"Feature","id":"way/543768346-0-0-0","properties":{"highway":"service","startNodeId":"5256544934","endNodeId":"5256544933"},"geometry":{"type":"LineString","coordinates":[[103.733152,1.3102321],[103.7331672,1.3102403]]}},{"type":"Feature","id":"way/543768346-0-1-0","properties":{"highway":"service","startNodeId":"5256544933","endNodeId":"5256544932"},"geometry":{"type":"LineString","coordinates":[[103.7331672,1.3102403],[103.7331835,1.3102426]]}},{"type":"Feature","id":"way/543768346-0-2-0","properties":{"highway":"service","startNodeId":"5256544932","endNodeId":"5256544931"},"geometry":{"type":"LineString","coordinates":[[103.7331835,1.3102426],[103.733842,1.3101119]]}},{"type":"Feature","id":"way/543768346-0-3-0","properties":{"highway":"service","startNodeId":"5256544931","endNodeId":"5256544930"},"geometry":{"type":"LineString","coordinates":[[103.733842,1.3101119],[103.7338549,1.3101026]]}},{"type":"Feature","id":"way/543768346-0-4-0","properties":{"highway":"service","startNodeId":"5256544930","endNodeId":"5256544929"},"geometry":{"type":"LineString","coordinates":[[103.7338549,1.3101026],[103.7338654,1.3100921]]}},{"type":"Feature","id":"way/543768347-0-0-0","properties":{"highway":"service","startNodeId":"5256544320","endNodeId":"5256544936"},"geometry":{"type":"LineString","coordinates":[[103.7330058,1.3095755],[103.7331349,1.3102098]]}},{"type":"Feature","id":"way/543768347-0-1-0","properties":{"highway":"service","startNodeId":"5256544936","endNodeId":"5256544935"},"geometry":{"type":"LineString","coordinates":[[103.7331349,1.3102098],[103.7331427,1.3102228]]}},{"type":"Feature","id":"way/543768347-0-2-0","properties":{"highway":"service","startNodeId":"5256544935","endNodeId":"5256544934"},"geometry":{"type":"LineString","coordinates":[[103.7331427,1.3102228],[103.733152,1.3102321]]}},{"type":"Feature","id":"way/543768348-0-0-0","properties":{"highway":"service","startNodeId":"5256544929","endNodeId":"5256544928"},"geometry":{"type":"LineString","coordinates":[[103.7338654,1.3100921],[103.73387,1.310078]]}},{"type":"Feature","id":"way/543768348-0-1-0","properties":{"highway":"service","startNodeId":"5256544928","endNodeId":"5256544927"},"geometry":{"type":"LineString","coordinates":[[103.73387,1.310078],[103.73387,1.3100617]]}},{"type":"Feature","id":"way/543768348-0-2-0","properties":{"highway":"service","startNodeId":"5256544927","endNodeId":"5256544926"},"geometry":{"type":"LineString","coordinates":[[103.73387,1.3100617],[103.7337556,1.309561]]}},{"type":"Feature","id":"way/543768348-0-3-0","properties":{"highway":"service","startNodeId":"5256544926","endNodeId":"5256544925"},"geometry":{"type":"LineString","coordinates":[[103.7337556,1.309561],[103.7337474,1.3095481]]}},{"type":"Feature","id":"way/543768348-0-4-0","properties":{"highway":"service","startNodeId":"5256544925","endNodeId":"5256544924"},"geometry":{"type":"LineString","coordinates":[[103.7337474,1.3095481],[103.7337369,1.3095388]]}},{"type":"Feature","id":"way/543768348-0-5-0","properties":{"highway":"service","startNodeId":"5256544924","endNodeId":"5256544923"},"geometry":{"type":"LineString","coordinates":[[103.7337369,1.3095388],[103.7336027,1.3094699]]}},{"type":"Feature","id":"way/543768348-0-6-0","properties":{"highway":"service","startNodeId":"5256544923","endNodeId":"5256544922"},"geometry":{"type":"LineString","coordinates":[[103.7336027,1.3094699],[103.7335805,1.3094629]]}},{"type":"Feature","id":"way/543770901-0-0-0","properties":{"highway":"service","service":"parking_aisle","startNodeId":"5256568594","endNodeId":"4488148881"},"geometry":{"type":"LineString","coordinates":[[103.7340883,1.3087626],[103.7340101,1.3087503]]}},{"type":"Feature","id":"way/543770902-0-0-0","properties":{"highway":"service","service":"parking_aisle","startNodeId":"5256568590","endNodeId":"5256568589"},"geometry":{"type":"LineString","coordinates":[[103.7341232,1.3088484],[103.7342191,1.3088249]]}},{"type":"Feature","id":"way/543777391-0-1-0","properties":{"highway":"service","startNodeId":"5256632078","endNodeId":"5256632077"},"geometry":{"type":"LineString","coordinates":[[103.73352,1.306502],[103.7335465,1.3065487]]}},{"type":"Feature","id":"way/543777391-0-2-0","properties":{"highway":"service","startNodeId":"5256632077","endNodeId":"5256632076"},"geometry":{"type":"LineString","coordinates":[[103.7335465,1.3065487],[103.7335993,1.3065832]]}},{"type":"Feature","id":"way/544618040-0-0-0","properties":{"highway":"service","startNodeId":"5264394679","endNodeId":"5264394678"},"geometry":{"type":"LineString","coordinates":[[103.7329523,1.3065546],[103.7329591,1.3065073]]}},{"type":"Feature","id":"way/544618041-0-0-0","properties":{"highway":"service","startNodeId":"5264394682","endNodeId":"5264394681"},"geometry":{"type":"LineString","coordinates":[[103.731876,1.3068029],[103.7319216,1.3068046]]}},{"type":"Feature","id":"way/544618041-0-1-0","properties":{"highway":"service","startNodeId":"5264394681","endNodeId":"5264394680"},"geometry":{"type":"LineString","coordinates":[[103.7319216,1.3068046],[103.7329168,1.3065816]]}},{"type":"Feature","id":"way/544618041-0-2-0","properties":{"highway":"service","startNodeId":"5264394680","endNodeId":"5264394679"},"geometry":{"type":"LineString","coordinates":[[103.7329168,1.3065816],[103.7329523,1.3065546]]}},{"type":"Feature","id":"way/632420674-0-0-0","properties":{"highway":"secondary","lanes":"2","maxspeed":"60","name":"Penjuru Road","oneway":"yes","sidewalk":"no","source":"Yahoo aerial images","startNodeId":"4488148852","endNodeId":"5973600081"},"geometry":{"type":"LineString","coordinates":[[103.7340498,1.3102005],[103.7340864,1.310352]]}},{"type":"Feature","id":"way/632686350-0-0-0","properties":{"highway":"secondary","lanes":"3","maxspeed":"60","name":"Penjuru Road","oneway":"yes","sidewalk":"no","source":"Yahoo aerial images","turn:lanes":"left;through|through|right","startNodeId":"5973600081","endNodeId":"4602541735"},"geometry":{"type":"LineString","coordinates":[[103.7340864,1.310352],[103.7341507,1.3106488]]}},{"type":"Feature","id":"way/639627925-0-0-0","properties":{"highway":"residential","lanes":"4","lanes:backward":"2","lanes:forward":"2","maxspeed":"50","name":"Penjuru Lane","sidewalk:both":"separate","surface":"asphalt","startNodeId":"5256544937","endNodeId":"6026796260"},"geometry":{"type":"LineString","coordinates":[[103.7329509,1.3093058],[103.7330379,1.309288]]}},{"type":"Feature","id":"way/639627926-0-0-0","properties":{"highway":"residential","lanes":"4","lanes:backward":"2","lanes:forward":"2","lit":"yes","maxspeed":"50","name":"Penjuru Lane","sidewalk:both":"separate","surface":"asphalt","turn:lanes:forward":"through|through;right","startNodeId":"6026796260","endNodeId":"7192986315"},"geometry":{"type":"LineString","coordinates":[[103.7330379,1.309288],[103.7337172,1.3091485]]}},{"type":"Feature","id":"way/639627926-0-1-0","properties":{"highway":"residential","lanes":"4","lanes:backward":"2","lanes:forward":"2","lit":"yes","maxspeed":"50","name":"Penjuru Lane","sidewalk:both":"separate","surface":"asphalt","turn:lanes:forward":"through|through;right","startNodeId":"7192986315","endNodeId":"246579393"},"geometry":{"type":"LineString","coordinates":[[103.7337172,1.3091485],[103.7338106,1.3091301]]}},{"type":"Feature","id":"way/639627927-0-0-0","properties":{"highway":"residential","lanes":"4","lanes:backward":"2","lanes:forward":"2","maxspeed":"50","name":"Penjuru Lane","sidewalk:both":"separate","surface":"asphalt","startNodeId":"6026796259","endNodeId":"5256544937"},"geometry":{"type":"LineString","coordinates":[[103.7328152,1.3093354],[103.7329509,1.3093058]]}},{"type":"Feature","id":"way/639627928-0-0-0","properties":{"highway":"service","lanes":"2","lanes:backward":"1","lanes:forward":"1","startNodeId":"5256544937","endNodeId":"8427447026"},"geometry":{"type":"LineString","coordinates":[[103.7329509,1.3093058],[103.7329697,1.3093983]]}},{"type":"Feature","id":"way/639627928-0-1-0","properties":{"highway":"service","lanes":"2","lanes:backward":"1","lanes:forward":"1","startNodeId":"8427447026","endNodeId":"5256544320"},"geometry":{"type":"LineString","coordinates":[[103.7329697,1.3093983],[103.7330058,1.3095755]]}},{"type":"Feature","id":"way/639854755-0-0-0","properties":{"highway":"secondary","lanes":"2","lit":"yes","maxspeed":"60","name":"Penjuru Road","oneway":"yes","sidewalk":"left","source":"Yahoo aerial images","startNodeId":"4488148882","endNodeId":"6141795119"},"geometry":{"type":"LineString","coordinates":[[103.7338208,1.3088001],[103.7335888,1.3078227]]}},{"type":"Feature","id":"way/639854757-0-0-0","properties":{"highway":"secondary","lanes":"2","lit":"yes","maxspeed":"60","name":"Penjuru Road","oneway":"yes","sidewalk":"left","source":"Yahoo aerial images","startNodeId":"4602541934","endNodeId":"6097186195"},"geometry":{"type":"LineString","coordinates":[[103.7335273,1.3078586],[103.7337015,1.3086406]]}},{"type":"Feature","id":"way/639854758-0-0-0","properties":{"highway":"secondary","lanes":"2","lit":"yes","maxspeed":"60","name":"Penjuru Road","oneway":"yes","sidewalk":"no","source":"Yahoo aerial images","startNodeId":"4488148858","endNodeId":"246579386"},"geometry":{"type":"LineString","coordinates":[[103.7341162,1.3100637],[103.7338866,1.3091122]]}},{"type":"Feature","id":"way/639908745-0-0-0","properties":{"highway":"service","startNodeId":"5256544938","endNodeId":"7192986316"},"geometry":{"type":"LineString","coordinates":[[103.7338921,1.3102383],[103.7339511,1.3102241]]}},{"type":"Feature","id":"way/639908745-0-1-0","properties":{"highway":"service","startNodeId":"7192986316","endNodeId":"4488148852"},"geometry":{"type":"LineString","coordinates":[[103.7339511,1.3102241],[103.7340498,1.3102005]]}},{"type":"Feature","id":"way/639999980-0-0-0","properties":{"highway":"residential","lanes":"4","lanes:backward":"2","lanes:forward":"2","maxspeed":"50","name":"Penjuru Lane","sidewalk:both":"separate","surface":"asphalt","startNodeId":"4602743612","endNodeId":"8654101671"},"geometry":{"type":"LineString","coordinates":[[103.731873,1.309526],[103.732576,1.3093838]]}},{"type":"Feature","id":"way/639999980-0-1-0","properties":{"highway":"residential","lanes":"4","lanes:backward":"2","lanes:forward":"2","maxspeed":"50","name":"Penjuru Lane","sidewalk:both":"separate","surface":"asphalt","startNodeId":"8654101671","endNodeId":"6026796259"},"geometry":{"type":"LineString","coordinates":[[103.732576,1.3093838],[103.7328152,1.3093354]]}},{"type":"Feature","id":"way/639999981-0-0-0","properties":{"highway":"residential","lanes":"4","lanes:backward":"2","lanes:forward":"2","maxspeed":"50","name":"Penjuru Lane","sidewalk:both":"separate","surface":"asphalt","startNodeId":"6046105504","endNodeId":"6046105566"},"geometry":{"type":"LineString","coordinates":[[103.7315162,1.3095989],[103.7317903,1.3095429]]}},{"type":"Feature","id":"way/642154557-0-0-0","properties":{"highway":"service","startNodeId":"6046105490","endNodeId":"6046105489"},"geometry":{"type":"LineString","coordinates":[[103.7326057,1.3073283],[103.7326795,1.307458]]}},{"type":"Feature","id":"way/642154557-0-1-0","properties":{"highway":"service","startNodeId":"6046105489","endNodeId":"6046105486"},"geometry":{"type":"LineString","coordinates":[[103.7326795,1.307458],[103.7327331,1.3077342]]}},{"type":"Feature","id":"way/642154557-0-2-0","properties":{"highway":"service","startNodeId":"6046105486","endNodeId":"6046105488"},"geometry":{"type":"LineString","coordinates":[[103.7327331,1.3077342],[103.7327707,1.3080667]]}},{"type":"Feature","id":"way/642154557-0-3-0","properties":{"highway":"service","startNodeId":"6046105488","endNodeId":"6046105487"},"geometry":{"type":"LineString","coordinates":[[103.7327707,1.3080667],[103.7328565,1.3083644]]}},{"type":"Feature","id":"way/642154559-0-0-0","properties":{"highway":"service","startNodeId":"6046105492","endNodeId":"6046105491"},"geometry":{"type":"LineString","coordinates":[[103.7321573,1.3074141],[103.7324676,1.3085012]]}},{"type":"Feature","id":"way/642154561-0-0-0","properties":{"highway":"service","startNodeId":"4602541933","endNodeId":"6046105495"},"geometry":{"type":"LineString","coordinates":[[103.7332073,1.3079098],[103.7330604,1.3073025]]}},{"type":"Feature","id":"way/642154561-0-1-0","properties":{"highway":"service","startNodeId":"6046105495","endNodeId":"6046105494"},"geometry":{"type":"LineString","coordinates":[[103.7330604,1.3073025],[103.7330067,1.3072516]]}},{"type":"Feature","id":"way/642154561-0-2-0","properties":{"highway":"service","startNodeId":"6046105494","endNodeId":"6046105490"},"geometry":{"type":"LineString","coordinates":[[103.7330067,1.3072516],[103.7326057,1.3073283]]}},{"type":"Feature","id":"way/642154562-0-0-0","properties":{"highway":"service","startNodeId":"6046105504","endNodeId":"8427447042"},"geometry":{"type":"LineString","coordinates":[[103.7315162,1.3095989],[103.7315016,1.3095232]]}},{"type":"Feature","id":"way/642154562-0-1-0","properties":{"highway":"service","startNodeId":"8427447042","endNodeId":"6046105503"},"geometry":{"type":"LineString","coordinates":[[103.7315016,1.3095232],[103.7314618,1.3093163]]}},{"type":"Feature","id":"way/642154562-0-2-0","properties":{"highway":"service","startNodeId":"6046105503","endNodeId":"6046105502"},"geometry":{"type":"LineString","coordinates":[[103.7314618,1.3093163],[103.7314752,1.3092439]]}},{"type":"Feature","id":"way/642154562-0-3-0","properties":{"highway":"service","startNodeId":"6046105502","endNodeId":"6046105501"},"geometry":{"type":"LineString","coordinates":[[103.7314752,1.3092439],[103.7315878,1.3091876]]}},{"type":"Feature","id":"way/642154562-0-4-0","properties":{"highway":"service","startNodeId":"6046105501","endNodeId":"6046105500"},"geometry":{"type":"LineString","coordinates":[[103.7315878,1.3091876],[103.731797,1.3090884]]}},{"type":"Feature","id":"way/642154562-0-5-0","properties":{"highway":"service","startNodeId":"6046105500","endNodeId":"6046105499"},"geometry":{"type":"LineString","coordinates":[[103.731797,1.3090884],[103.7318131,1.3090267]]}},{"type":"Feature","id":"way/642154584-0-0-0","properties":{"highway":"service","startNodeId":"6046105554","endNodeId":"6046105553"},"geometry":{"type":"LineString","coordinates":[[103.731913,1.3097017],[103.7324086,1.3096113]]}},{"type":"Feature","id":"way/642154584-0-1-0","properties":{"highway":"service","startNodeId":"6046105553","endNodeId":"6046105552"},"geometry":{"type":"LineString","coordinates":[[103.7324086,1.3096113],[103.7324703,1.3096381]]}},{"type":"Feature","id":"way/642154584-0-2-0","properties":{"highway":"service","startNodeId":"6046105552","endNodeId":"6046105551"},"geometry":{"type":"LineString","coordinates":[[103.7324703,1.3096381],[103.7325105,1.3097052]]}},{"type":"Feature","id":"way/642154584-0-3-0","properties":{"highway":"service","startNodeId":"6046105551","endNodeId":"6046105550"},"geometry":{"type":"LineString","coordinates":[[103.7325105,1.3097052],[103.7328136,1.3112202]]}},{"type":"Feature","id":"way/642154586-0-0-0","properties":{"highway":"service","startNodeId":"6046105557","endNodeId":"6046105556"},"geometry":{"type":"LineString","coordinates":[[103.7311399,1.3099706],[103.7311587,1.3099465]]}},{"type":"Feature","id":"way/642154586-0-1-0","properties":{"highway":"service","startNodeId":"6046105556","endNodeId":"6046105555"},"geometry":{"type":"LineString","coordinates":[[103.7311587,1.3099465],[103.7318426,1.309799]]}},{"type":"Feature","id":"way/642154587-0-1-0","properties":{"highway":"service","startNodeId":"6046105559","endNodeId":"6046105558"},"geometry":{"type":"LineString","coordinates":[[103.7314028,1.3114294],[103.7311345,1.3100269]]}},{"type":"Feature","id":"way/642154587-0-2-0","properties":{"highway":"service","startNodeId":"6046105558","endNodeId":"6046105557"},"geometry":{"type":"LineString","coordinates":[[103.7311345,1.3100269],[103.7311399,1.3099706]]}},{"type":"Feature","id":"way/642154589-0-0-0","properties":{"highway":"service","startNodeId":"6046105555","endNodeId":"6046105565"},"geometry":{"type":"LineString","coordinates":[[103.7318426,1.309799],[103.732076,1.3109896]]}},{"type":"Feature","id":"way/642154591-0-0-0","properties":{"highway":"service","startNodeId":"6046105566","endNodeId":"8427447029"},"geometry":{"type":"LineString","coordinates":[[103.7317903,1.3095429],[103.7318085,1.3096318]]}},{"type":"Feature","id":"way/642154591-0-1-0","properties":{"highway":"service","startNodeId":"8427447029","endNodeId":"6046105555"},"geometry":{"type":"LineString","coordinates":[[103.7318085,1.3096318],[103.7318426,1.309799]]}},{"type":"Feature","id":"way/642154594-0-1-0","properties":{"highway":"service","startNodeId":"8653997257","endNodeId":"6046105572"},"geometry":{"type":"LineString","coordinates":[[103.7294509,1.3109616],[103.7303419,1.3107831]]}},{"type":"Feature","id":"way/642160289-0-0-0","properties":{"highway":"unclassified","lanes":"2","maxspeed":"60","name":"Penjuru Road","oneway":"yes","sidewalk":"left","source":"Yahoo aerial images","startNodeId":"885616091","endNodeId":"8427757797"},"geometry":{"type":"LineString","coordinates":[[103.7333787,1.3068473],[103.7333458,1.3066858]]}},{"type":"Feature","id":"way/642163523-0-0-0","properties":{"highway":"unclassified","lanes":"2","maxspeed":"60","name":"Penjuru Road","oneway":"yes","source":"Yahoo aerial images","startNodeId":"6046176518","endNodeId":"8427757798"},"geometry":{"type":"LineString","coordinates":[[103.7332275,1.3064989],[103.7332721,1.306701]]}},{"type":"Feature","id":"way/642163523-0-1-0","properties":{"highway":"unclassified","lanes":"2","maxspeed":"60","name":"Penjuru Road","oneway":"yes","source":"Yahoo aerial images","startNodeId":"8427757798","endNodeId":"246579396"},"geometry":{"type":"LineString","coordinates":[[103.7332721,1.306701],[103.7333071,1.3068594]]}},{"type":"Feature","id":"way/645227549-0-0-0","properties":{"highway":"service","startNodeId":"4602541930","endNodeId":"5256544938"},"geometry":{"type":"LineString","coordinates":[[103.7336942,1.3102857],[103.7338921,1.3102383]]}},{"type":"Feature","id":"way/646812315-0-0-0","properties":{"highway":"service","startNodeId":"5264394673","endNodeId":"5264394683"},"geometry":{"type":"LineString","coordinates":[[103.7317926,1.3065018],[103.731854,1.3067739]]}},{"type":"Feature","id":"way/646812315-0-1-0","properties":{"highway":"service","startNodeId":"5264394683","endNodeId":"5264394682"},"geometry":{"type":"LineString","coordinates":[[103.731854,1.3067739],[103.731876,1.3068029]]}},{"type":"Feature","id":"way/646815413-0-0-0","properties":{"highway":"unclassified","lanes":"2","lanes:backward":"1","lanes:forward":"1","maxspeed":"50","name":"Penjuru Street","sidewalk:both":"separate","startNodeId":"5264394687","endNodeId":"5015699689"},"geometry":{"type":"LineString","coordinates":[[103.7312964,1.3062019],[103.7315231,1.3070947]]}},{"type":"Feature","id":"way/646818652-0-2-0","properties":{"highway":"service","service":"parking_aisle","startNodeId":"5256568582","endNodeId":"5256568594"},"geometry":{"type":"LineString","coordinates":[[103.7342023,1.3087318],[103.7340883,1.3087626]]}},{"type":"Feature","id":"way/646818653-0-0-0","properties":{"highway":"service","service":"parking_aisle","startNodeId":"5256568594","endNodeId":"5256568593"},"geometry":{"type":"LineString","coordinates":[[103.7340883,1.3087626],[103.7341058,1.308835]]}},{"type":"Feature","id":"way/646818653-0-1-0","properties":{"highway":"service","service":"parking_aisle","startNodeId":"5256568593","endNodeId":"5256568592"},"geometry":{"type":"LineString","coordinates":[[103.7341058,1.308835],[103.7341098,1.3088424]]}},{"type":"Feature","id":"way/646818653-0-2-0","properties":{"highway":"service","service":"parking_aisle","startNodeId":"5256568592","endNodeId":"5256568591"},"geometry":{"type":"LineString","coordinates":[[103.7341098,1.3088424],[103.7341158,1.3088464]]}},{"type":"Feature","id":"way/646818653-0-3-0","properties":{"highway":"service","service":"parking_aisle","startNodeId":"5256568591","endNodeId":"5256568590"},"geometry":{"type":"LineString","coordinates":[[103.7341158,1.3088464],[103.7341232,1.3088484]]}},{"type":"Feature","id":"way/646827381-0-0-0","properties":{"highway":"service","startNodeId":"5256632076","endNodeId":"5256632075"},"geometry":{"type":"LineString","coordinates":[[103.7335993,1.3065832],[103.7336481,1.3065975]]}},{"type":"Feature","id":"way/646827381-0-1-0","properties":{"highway":"service","startNodeId":"5256632075","endNodeId":"5256632074"},"geometry":{"type":"LineString","coordinates":[[103.7336481,1.3065975],[103.7336786,1.3065914]]}},{"type":"Feature","id":"way/649770880-0-0-0","properties":{"highway":"secondary","lanes":"2","lit":"yes","maxspeed":"60","name":"Penjuru Road","oneway":"yes","sidewalk":"left","source":"Yahoo aerial images","startNodeId":"6097186195","endNodeId":"8427447035"},"geometry":{"type":"LineString","coordinates":[[103.7337015,1.3086406],[103.733768,1.3089388]]}},{"type":"Feature","id":"way/649770880-0-1-0","properties":{"highway":"secondary","lanes":"2","lit":"yes","maxspeed":"60","name":"Penjuru Road","oneway":"yes","sidewalk":"left","source":"Yahoo aerial images","startNodeId":"8427447035","endNodeId":"246579393"},"geometry":{"type":"LineString","coordinates":[[103.733768,1.3089388],[103.7338106,1.3091301]]}},{"type":"Feature","id":"way/652883189-0-0-0","properties":{"highway":"service","startNodeId":"6046105498","endNodeId":"6046105497"},"geometry":{"type":"LineString","coordinates":[[103.7315261,1.3077665],[103.731195,1.3063131]]}},{"type":"Feature","id":"way/652883190-0-0-0","properties":{"covered":"yes","highway":"service","startNodeId":"6046105499","endNodeId":"6046105498"},"geometry":{"type":"LineString","coordinates":[[103.7318131,1.3090267],[103.7315261,1.3077665]]}},{"type":"Feature","id":"way/655531926-0-0-0","properties":{"highway":"secondary","lanes":"2","maxspeed":"60","name":"Penjuru Road","oneway":"yes","sidewalk":"left","source":"Yahoo aerial images","startNodeId":"6141795119","endNodeId":"8427750424"},"geometry":{"type":"LineString","coordinates":[[103.7335888,1.3078227],[103.7333924,1.3069168]]}},{"type":"Feature","id":"way/655531926-0-1-0","properties":{"highway":"secondary","lanes":"2","maxspeed":"60","name":"Penjuru Road","oneway":"yes","sidewalk":"left","source":"Yahoo aerial images","startNodeId":"8427750424","endNodeId":"885616091"},"geometry":{"type":"LineString","coordinates":[[103.7333924,1.3069168],[103.7333787,1.3068473]]}},{"type":"Feature","id":"way/670400907-0-0-0","properties":{"highway":"unclassified","lanes":"2","lanes:backward":"1","lanes:forward":"1","lit":"yes","maxspeed":"50","name":"Penjuru Lane","sidewalk":"both","surface":"asphalt","turn:lanes:backward":"left;through;right","startNodeId":"246579386","endNodeId":"8427747405"},"geometry":{"type":"LineString","coordinates":[[103.7338866,1.3091122],[103.7339391,1.3091003]]}},{"type":"Feature","id":"way/670400907-0-1-0","properties":{"highway":"unclassified","lanes":"2","lanes:backward":"1","lanes:forward":"1","lit":"yes","maxspeed":"50","name":"Penjuru Lane","sidewalk":"both","surface":"asphalt","turn:lanes:backward":"left;through;right","startNodeId":"8427747405","endNodeId":"6278083690"},"geometry":{"type":"LineString","coordinates":[[103.7339391,1.3091003],[103.7343894,1.3089986]]}},{"type":"Feature","id":"way/676603012-0-0-0","properties":{"highway":"residential","lanes":"4","lanes:backward":"2","lanes:forward":"2","maxspeed":"50","name":"Penjuru Lane","sidewalk:both":"separate","surface":"asphalt","startNodeId":"6335961823","endNodeId":"4602743614"},"geometry":{"type":"LineString","coordinates":[[103.730057,1.309898],[103.7309076,1.3097233]]}},{"type":"Feature","id":"way/696383854-0-0-0","properties":{"highway":"unclassified","lanes":"4","lanes:backward":"2","lanes:forward":"2","maxspeed":"50","name":"Penjuru Street","sidewalk:both":"separate","turn:lanes:forward":"left;through|through;right","startNodeId":"6539549238","endNodeId":"8427750426"},"geometry":{"type":"LineString","coordinates":[[103.7324826,1.3070227],[103.7332223,1.3068759]]}},{"type":"Feature","id":"way/696383854-0-1-0","properties":{"highway":"unclassified","lanes":"4","lanes:backward":"2","lanes:forward":"2","maxspeed":"50","name":"Penjuru Street","sidewalk:both":"separate","turn:lanes:forward":"left;through|through;right","startNodeId":"8427750426","endNodeId":"246579396"},"geometry":{"type":"LineString","coordinates":[[103.7332223,1.3068759],[103.7333071,1.3068594]]}},{"type":"Feature","id":"way/709624074-0-0-0","properties":{"highway":"secondary","lanes":"4","lanes:backward":"2","lanes:forward":"2","maxspeed":"50","name":"Tanjong Penjuru","sidewalk":"both","surface":"asphalt","turn:lanes:backward":"left;through|right","startNodeId":"885616091","endNodeId":"8427757795"},"geometry":{"type":"LineString","coordinates":[[103.7333787,1.3068473],[103.7334457,1.3068325]]}},{"type":"Feature","id":"way/709624074-0-1-0","properties":{"highway":"secondary","lanes":"4","lanes:backward":"2","lanes:forward":"2","maxspeed":"50","name":"Tanjong Penjuru","sidewalk":"both","surface":"asphalt","turn:lanes:backward":"left;through|right","startNodeId":"8427757795","endNodeId":"6669899677"},"geometry":{"type":"LineString","coordinates":[[103.7334457,1.3068325],[103.73396,1.3067166]]}},{"type":"Feature","id":"way/709624075-0-0-0","properties":{"highway":"unclassified","lanes":"4","lanes:backward":"2","lanes:forward":"2","maxspeed":"50","name":"Penjuru Street","sidewalk:both":"separate","startNodeId":"6669899679","endNodeId":"6539549238"},"geometry":{"type":"LineString","coordinates":[[103.731979,1.3071432],[103.7324826,1.3070227]]}},{"type":"Feature","id":"way/710825554-0-0-0","properties":{"highway":"secondary","lanes":"4","lanes:backward":"2","lanes:forward":"2","lit":"yes","maxspeed":"50","name":"Tanjong Penjuru","sidewalk":"both","surface":"asphalt","startNodeId":"6669899677","endNodeId":"8657523465"},"geometry":{"type":"LineString","coordinates":[[103.73396,1.3067166],[103.7341202,1.3066763]]}},{"type":"Feature","id":"way/719543534-0-0-0","properties":{"highway":"residential","lanes":"4","lanes:backward":"2","lanes:forward":"2","maxspeed":"50","name":"Penjuru Lane","sidewalk:both":"separate","surface":"asphalt","startNodeId":"6046105566","endNodeId":"4602743612"},"geometry":{"type":"LineString","coordinates":[[103.7317903,1.3095429],[103.731873,1.309526]]}},{"type":"Feature","id":"way/719543535-0-0-0","properties":{"highway":"residential","lanes":"4","lanes:backward":"2","lanes:forward":"2","maxspeed":"50","name":"Penjuru Lane","sidewalk:both":"separate","surface":"asphalt","startNodeId":"4602743614","endNodeId":"13982457014"},"geometry":{"type":"LineString","coordinates":[[103.7309076,1.3097233],[103.7309639,1.3097118]]}},{"type":"Feature","id":"way/719543535-0-1-0","properties":{"highway":"residential","lanes":"4","lanes:backward":"2","lanes:forward":"2","maxspeed":"50","name":"Penjuru Lane","sidewalk:both":"separate","surface":"asphalt","startNodeId":"13982457014","endNodeId":"6046105504"},"geometry":{"type":"LineString","coordinates":[[103.7309639,1.3097118],[103.7315162,1.3095989]]}},{"type":"Feature","id":"way/826032147-0-0-0","properties":{"highway":"service","startNodeId":"6046105490","endNodeId":"6046105492"},"geometry":{"type":"LineString","coordinates":[[103.7326057,1.3073283],[103.7321573,1.3074141]]}},{"type":"Feature","id":"way/826032148-0-0-0","properties":{"highway":"service","startNodeId":"6046105492","endNodeId":"6046105493"},"geometry":{"type":"LineString","coordinates":[[103.7321573,1.3074141],[103.7320116,1.307442]]}},{"type":"Feature","id":"way/933694211-0-0-0","properties":{"highway":"service","startNodeId":"4488138423","endNodeId":"8653992694"},"geometry":{"type":"LineString","coordinates":[[103.7300595,1.3089616],[103.7306625,1.3088739]]}},{"type":"Feature","id":"way/933698111-0-0-0","properties":{"highway":"service","startNodeId":"4602743613","endNodeId":"8654031571"},"geometry":{"type":"LineString","coordinates":[[103.7310141,1.3101315],[103.7304774,1.3102401]]}},{"type":"Feature","id":"way/933705688-0-0-0","properties":{"highway":"service","startNodeId":"8654101671","endNodeId":"8427447027"},"geometry":{"type":"LineString","coordinates":[[103.732576,1.3093838],[103.7326024,1.3094779]]}},{"type":"Feature","id":"way/933705688-0-1-0","properties":{"highway":"service","startNodeId":"8427447027","endNodeId":"8654101670"},"geometry":{"type":"LineString","coordinates":[[103.7326024,1.3094779],[103.7326855,1.3098761]]}},{"type":"Feature","id":"way/933706874-0-4-0","properties":{"highway":"service","startNodeId":"8654102359","endNodeId":"8654102358"},"geometry":{"type":"LineString","coordinates":[[103.729514,1.3069819],[103.7301038,1.3068722]]}},{"type":"Feature","id":"way/934117141-0-0-0","properties":{"highway":"service","startNodeId":"8657523465","endNodeId":"8657523464"},"geometry":{"type":"LineString","coordinates":[[103.7341202,1.3066763],[103.7341627,1.306789]]}},{"type":"Feature","id":"way/934117141-0-1-0","properties":{"highway":"service","startNodeId":"8657523464","endNodeId":"8657523463"},"geometry":{"type":"LineString","coordinates":[[103.7341627,1.306789],[103.7341909,1.3068172]]}},{"type":"Feature","id":"way/1024109470-0-0-0","properties":{"highway":"service","startNodeId":"8657523441","endNodeId":"9443590560"},"geometry":{"type":"LineString","coordinates":[[103.7337899,1.3079219],[103.7335833,1.3069503]]}},{"type":"Feature","id":"way/1024109471-0-0-0","properties":{"highway":"service","startNodeId":"9443590560","endNodeId":"8657523463"},"geometry":{"type":"LineString","coordinates":[[103.7335833,1.3069503],[103.7341909,1.3068172]]}},{"type":"Feature","id":"way/1208230290-0-0-0","properties":{"highway":"service","startNodeId":"6335961823","endNodeId":"11195436028"},"geometry":{"type":"LineString","coordinates":[[103.730057,1.309898],[103.7300674,1.3099769]]}},{"type":"Feature","id":"way/1208230290-0-1-0","properties":{"highway":"service","startNodeId":"11195436028","endNodeId":"11195436027"},"geometry":{"type":"LineString","coordinates":[[103.7300674,1.3099769],[103.7300767,1.3100473]]}},{"type":"Feature","id":"way/1208230291-0-0-0","properties":{"highway":"service","startNodeId":"11195436027","endNodeId":"6640481536"},"geometry":{"type":"LineString","coordinates":[[103.7300767,1.3100473],[103.7294058,1.3101704]]}},{"type":"Feature","id":"way/1534508602-0-0-0","properties":{"highway":"service","startNodeId":"8654102358","endNodeId":"13982382050"},"geometry":{"type":"LineString","coordinates":[[103.7301038,1.3068722],[103.7300398,1.3065624]]}},{"type":"Feature","id":"way/1534508602-0-1-0","properties":{"highway":"service","startNodeId":"13982382050","endNodeId":"13982382051"},"geometry":{"type":"LineString","coordinates":[[103.7300398,1.3065624],[103.7296235,1.3066192]]}},{"type":"Feature","id":"way/1534512289-0-0-0","properties":{"highway":"service","startNodeId":"4488138425","endNodeId":"13982457015"},"geometry":{"type":"LineString","coordinates":[[103.7308404,1.3091194],[103.7309465,1.3096282]]}},{"type":"Feature","id":"way/1534512289-0-1-0","properties":{"highway":"service","startNodeId":"13982457015","endNodeId":"13982457014"},"geometry":{"type":"LineString","coordinates":[[103.7309465,1.3096282],[103.7309639,1.3097118]]}},{"type":"Feature","id":"way/1534515398-0-0-0","properties":{"highway":"service","startNodeId":"4488148853","endNodeId":"13982476169"},"geometry":{"type":"LineString","coordinates":[[103.7334282,1.310349],[103.7335354,1.3108779]]}}]}