{"type":"FeatureCollection","features":[{"type":"Feature","id":"way/452765057-0","properties":{"building":"yes"},"geometry":{"type":"Polygon","coordinates":[[[103.7264176,1.3777728],[103.7263452,1.3777724],[103.7263445,1.3778891],[103.7264169,1.3778895],[103.7264176,1.3777728]]]}},{"type":"Feature","id":"way/452765058-0","properties":{"building":"yes"},"geometry":{"type":"Polygon","coordinates":[[[103.7258811,1.3779927],[103.7258822,1.377922],[103.725791,1.3779206],[103.7257899,1.3779914],[103.7258811,1.3779927]]]}},{"type":"Feature","id":"way/789928247-0","properties":{"building":"roof","building:levels":"1","roof:levels":"1","roof:shape":"pyramidal"},"geometry":{"type":"Polygon","coordinates":[[[103.7263211,1.3741788],[103.7264224,1.3741799],[103.7264235,1.3740844],[103.7263221,1.3740833],[103.7263211,1.3741788]]]}},{"type":"Feature","id":"way/789928248-0","properties":{"building":"roof","building:levels":"1","roof:levels":"1","roof:shape":"pyramidal"},"geometry":{"type":"Polygon","coordinates":[[[103.7258168,1.3740755],[103.7259182,1.3740766],[103.7259192,1.3739811],[103.7258178,1.37398],[103.7258168,1.3740755]]]}},{"type":"Feature","id":"way/789928249-0","properties":{"building":"roof","building:levels":"1","roof:levels":"1","roof:shape":"pyramidal"},"geometry":{"type":"Polygon","coordinates":[[[103.7254534,1.3740715],[103.7255547,1.3740726],[103.7255558,1.3739771],[103.7254544,1.373976],[103.7254534,1.3740715]]]}},{"type":"Feature","id":"way/1153200108-0","properties":{"building":"yes"},"geometry":{"type":"Polygon","coordinates":[[[103.7254511,1.375708],[103.7254524,1.3756584],[103.7253638,1.375656],[103.7253624,1.3757056],[103.7254511,1.375708]]]}},{"type":"Feature","id":"way/109401033-0-0-0","properties":{"destination":"Brickland Road;Sungei Tengah Road;Old Choa Chu Kang Road","highway":"motorway_link","lanes":"1","maxspeed":"50","name":"Kranji Expressway","name:ta":"\u0b95\u0bbf\u0bb0\u0bbe\u0b9e\u0bcd\u0b9a\u0bbf \u0bb5\u0bbf\u0bb0\u0bc8\u0bb5\u0bc1\u0b9a\u0bcd\u0b9a\u0bbe\u0bb2\u0bc8","oneway":"yes","surface":"asphalt"},"geometry":{"type":"LineString","coordinates":[[103.7295997,1.3764373],[103.7296379,1.3765361]]}},{"type":"Feature","id":"way/109401033-0-1-0","properties":{"destination":"Brickland Road;Sungei Tengah Road;Old Choa Chu Kang Road","highway":"motorway_link","lanes":"1","maxspeed":"50","name":"Kranji Expressway","name:ta":"\u0b95\u0bbf\u0bb0\u0bbe\u0b9e\u0bcd\u0b9a\u0bbf \u0bb5\u0bbf\u0bb0\u0bc8\u0bb5\u0bc1\u0b9a\u0bcd\u0b9a\u0bbe\u0bb2\u0bc8","oneway":"yes","surface":"asphalt"},"geometry":{"type":"LineString","coordinates":[[103.7296379,1.3765361],[103.7296586,1.376577]]}},{"type":"Feature","id":"way/109401033-0-2-0","properties":{"destination":"Brickland Road;Sungei Tengah Road;Old Choa Chu Kang Road","highway":"motorway_link","lanes":"1","maxspeed":"50","name":"Kranji Expressway","name:ta":"\u0b95\u0bbf\u0bb0\u0bbe\u0b9e\u0bcd\u0b9a\u0bbf \u0bb5\u0bbf\u0bb0\u0bc8\u0bb5\u0bc1\u0b9a\u0bcd\u0b9a\u0bbe\u0bb2\u0bc8","oneway":"yes","surface":"asphalt"},"geometry":{"type":"LineString","coordinates":[[103.7296586,1.376577],[103.7296939,1.3766154]]}},{"type":"Feature","id":"way/537842043-0-0-0","properties":{"highway":"service"},"geometry":{"type":"LineString","coordinates":[[103.7270334,1.3762057],[103.7270468,1.3766843]]}},{"type":"Feature","id":"way/537842043-0-1-0","properties":{"highway":"service"},"geometry":{"type":"LineString","coordinates":[[103.7270468,1.3766843],[103.7270656,1.3767352]]}},{"type":"Feature","id":"way/537842043-0-2-0","properties":{"highway":"service"},"geometry":{"type":"LineString","coordinates":[[103.7270656,1.3767352],[103.7271005,1.376758]]}},{"type":"Feature","id":"way/537842043-0-3-0","properties":{"highway":"service"},"geometry":{"type":"LineString","coordinates":[[103.7271005,1.376758],[103.7271662,1.3767688]]}},{"type":"Feature","id":"way/537842043-0-4-0","properties":{"highway":"service"},"geometry":{"type":"LineString","coordinates":[[103.7271662,1.3767688],[103.7278327,1.3767674]]}},{"type":"Feature","id":"way/537842043-0-5-0","properties":{"highway":"service"},"geometry":{"type":"LineString","coordinates":[[103.7278327,1.3767674],[103.7278716,1.3767728]]}},{"type":"Feature","id":"way/537842043-0-6-0","properties":{"highway":"service"},"geometry":{"type":"LineString","coordinates":[[103.7278716,1.3767728],[103.7279052,1.3767983]]}},{"type":"Feature","id":"way/537842043-0-7-0","properties":{"highway":"service"},"geometry":{"type":"LineString","coordinates":[[103.7279052,1.3767983],[103.7279306,1.3768841]]}},{"type":"Feature","id":"way/537842043-0-8-0","properties":{"highway":"service"},"geometry":{"type":"LineString","coordinates":[[103.7279306,1.3768841],[103.7279765,1.377043]]}},{"type":"Feature","id":"way/537842043-0-9-0","properties":{"highway":"service"},"geometry":{"type":"LineString","coordinates":[[103.7279765,1.377043],[103.728083,1.3773674]]}},{"type":"Feature","id":"way/537842043-0-10-0","properties":{"highway":"service"},"geometry":{"type":"LineString","coordinates":[[103.728083,1.3773674],[103.7281448,1.3775832]]}},{"type":"Feature","id":"way/537842043-0-11-0","properties":{"highway":"service"},"geometry":{"type":"LineString","coordinates":[[103.7281448,1.3775832],[103.7282606,1.3778721]]}},{"type":"Feature","id":"way/537842043-0-12-0","properties":{"highway":"service"},"geometry":{"type":"LineString","coordinates":[[103.7282606,1.3778721],[103.7282673,1.3779084]]}},{"type":"Feature","id":"way/537842043-0-13-0","properties":{"highway":"service"},"geometry":{"type":"LineString","coordinates":[[103.7282673,1.3779084],[103.7282485,1.3779607]]}},{"type":"Feature","id":"way/537842043-0-14-0","properties":{"highway":"service"},"geometry":{"type":"LineString","coordinates":[[103.7282485,1.3779607],[103.7282042,1.3779848]]}},{"type":"Feature","id":"way/537844241-0-0-0","properties":{"foot":"no","highway":"secondary_link","maxspeed":"50","oneway":"yes"},"geometry":{"type":"LineString","coordinates":[[103.7276938,1.3752693],[103.7277226,1.375274]]}},{"type":"Feature","id":"way/537844241-0-1-0","properties":{"foot":"no","highway":"secondary_link","maxspeed":"50","oneway":"yes"},"geometry":{"type":"LineString","coordinates":[[103.7277226,1.375274],[103.7277683,1.3752645]]}},{"type":"Feature","id":"way/537844241-0-2-0","properties":{"foot":"no","highway":"secondary_link","maxspeed":"50","oneway":"yes"},"geometry":{"type":"LineString","coordinates":[[103.7277683,1.3752645],[103.7277952,1.3752457]]}},{"type":"Feature","id":"way/537844241-0-3-0","properties":{"foot":"no","highway":"secondary_link","maxspeed":"50","oneway":"yes"},"geometry":{"type":"LineString","coordinates":[[103.7277952,1.3752457],[103.7278357,1.3751671]]}},{"type":"Feature","id":"way/544857598-0-0-0","properties":{"highway":"service","lanes":"1","oneway":"yes","service":"parking_aisle","turn:lanes":"left;right"},"geometry":{"type":"LineString","coordinates":[[103.7251531,1.3748571],[103.7256292,1.3748516]]}},{"type":"Feature","id":"way/544857598-0-1-0","properties":{"highway":"service","lanes":"1","oneway":"yes","service":"parking_aisle","turn:lanes":"left;right"},"geometry":{"type":"LineString","coordinates":[[103.7256292,1.3748516],[103.7256884,1.3748532]]}},{"type":"Feature","id":"way/544857598-0-2-0","properties":{"highway":"service","lanes":"1","oneway":"yes","service":"parking_aisle","turn:lanes":"left;right"},"geometry":{"type":"LineString","coordinates":[[103.7256884,1.3748532],[103.725701,1.3748577]]}},{"type":"Feature","id":"way/544857602-0-0-0","properties":{"highway":"service","lanes":"2","lanes:backward":"1","lanes:forward":"1","turn:lanes:backward":"left;right","turn:lanes:forward":"left"},"geometry":{"type":"LineString","coordinates":[[103.7257713,1.3748827],[103.725701,1.3748577]]}},{"type":"Feature","id":"way/544857604-0-0-0","properties":{"highway":"service","lanes":"1","oneway":"yes","service":"parking_aisle"},"geometry":{"type":"LineString","coordinates":[[103.725701,1.3748577],[103.7257151,1.3747751]]}},{"type":"Feature","id":"way/544857604-0-1-0","properties":{"highway":"service","lanes":"1","oneway":"yes","service":"parking_aisle"},"geometry":{"type":"LineString","coordinates":[[103.7257151,1.3747751],[103.7256977,1.3747242]]}},{"type":"Feature","id":"way/544857604-0-2-0","properties":{"highway":"service","lanes":"1","oneway":"yes","service":"parking_aisle"},"geometry":{"type":"LineString","coordinates":[[103.7256977,1.3747242],[103.7256534,1.3746866]]}},{"type":"Feature","id":"way/544857604-0-3-0","properties":{"highway":"service","lanes":"1","oneway":"yes","service":"parking_aisle"},"geometry":{"type":"LineString","coordinates":[[103.7256534,1.3746866],[103.7256056,1.3746683]]}},{"type":"Feature","id":"way/579002621-0-0-0","properties":{"foot":"no","highway":"unclassified","lanes":"2","lanes:backward":"1","lanes:forward":"1","name":"Choa Chu Kang Track 14","surface":"asphalt"},"geometry":{"type":"LineString","coordinates":[[103.7259056,1.3744874],[103.725937,1.3743813]]}},{"type":"Feature","id":"way/633607223-0-4-1","properties":{"highway":"unclassified","lanes":"2","lanes:backward":"1","lanes:forward":"1","name":"Choa Chu Kang Track 14","surface":"asphalt"},"geometry":{"type":"LineString","coordinates":[[103.7253222,1.376205],[103.7257713,1.3748827]]}},{"type":"Feature","id":"way/633812868-0-0-0","properties":{"highway":"secondary","lanes":"3","maxspeed":"60","name":"Old Choa Chu Kang Road","name:en":"Old Choa Chu Kang Road","name:zh":"\u65e7\u8521\u539d\u6e2f\u8def","oneway":"yes","source":"Bing","surface":"asphalt"},"geometry":{"type":"LineString","coordinates":[[103.725937,1.3743813],[103.7248906,1.3743885]]}},{"type":"Feature","id":"way/633812871-0-0-0","properties":{"highway":"secondary","lanes":"3","maxspeed":"60","name":"Old Choa Chu Kang Road","name:en":"Old Choa Chu Kang Road","name:zh":"\u65e7\u8521\u539d\u6e2f\u8def","oneway":"yes","sidewalk":"no","source":"Bing","surface":"asphalt"},"geometry":{"type":"LineString","coordinates":[[103.7278357,1.3751671],[103.7277013,1.375058]]}},{"type":"Feature","id":"way/633812871-0-1-0","properties":{"highway":"secondary","lanes":"3","maxspeed":"60","name":"Old Choa Chu Kang Road","name:en":"Old Choa Chu Kang Road","name:zh":"\u65e7\u8521\u539d\u6e2f\u8def","oneway":"yes","sidewalk":"no","source":"Bing","surface":"asphalt"},"geometry":{"type":"LineString","coordinates":[[103.7277013,1.375058],[103.7274894,1.374881]]}},{"type":"Feature","id":"way/633812871-0-2-0","properties":{"highway":"secondary","lanes":"3","maxspeed":"60","name":"Old Choa Chu Kang Road","name:en":"Old Choa Chu Kang Road","name:zh":"\u65e7\u8521\u539d\u6e2f\u8def","oneway":"yes","sidewalk":"no","source":"Bing","surface":"asphalt"},"geometry":{"type":"LineString","coordinates":[[103.7274894,1.374881],[103.7273513,1.3747805]]}},{"type":"Feature","id":"way/633812871-0-3-0","properties":{"highway":"secondary","lanes":"3","maxspeed":"60","name":"Old Choa Chu Kang Road","name:en":"Old Choa Chu Kang Road","name:zh":"\u65e7\u8521\u539d\u6e2f\u8def","oneway":"yes","sidewalk":"no","source":"Bing","surface":"asphalt"},"geometry":{"type":"LineString","coordinates":[[103.7273513,1.3747805],[103.7271461,1.3746477]]}},{"type":"Feature","id":"way/633812871-0-4-0","properties":{"highway":"secondary","lanes":"3","maxspeed":"60","name":"Old Choa Chu Kang Road","name:en":"Old Choa Chu Kang Road","name:zh":"\u65e7\u8521\u539d\u6e2f\u8def","oneway":"yes","sidewalk":"no","source":"Bing","surface":"asphalt"},"geometry":{"type":"LineString","coordinates":[[103.7271461,1.3746477],[103.7269623,1.3745461]]}},{"type":"Feature","id":"way/633812871-0-5-0","properties":{"highway":"secondary","lanes":"3","maxspeed":"60","name":"Old Choa Chu Kang Road","name:en":"Old Choa Chu Kang Road","name:zh":"\u65e7\u8521\u539d\u6e2f\u8def","oneway":"yes","sidewalk":"no","source":"Bing","surface":"asphalt"},"geometry":{"type":"LineString","coordinates":[[103.7269623,1.3745461],[103.7267157,1.3744571]]}},{"type":"Feature","id":"way/633812871-0-6-0","properties":{"highway":"secondary","lanes":"3","maxspeed":"60","name":"Old Choa Chu Kang Road","name:en":"Old Choa Chu Kang Road","name:zh":"\u65e7\u8521\u539d\u6e2f\u8def","oneway":"yes","sidewalk":"no","source":"Bing","surface":"asphalt"},"geometry":{"type":"LineString","coordinates":[[103.7267157,1.3744571],[103.7264095,1.3743942]]}},{"type":"Feature","id":"way/633812871-0-7-0","properties":{"highway":"secondary","lanes":"3","maxspeed":"60","name":"Old Choa Chu Kang Road","name:en":"Old Choa Chu Kang Road","name:zh":"\u65e7\u8521\u539d\u6e2f\u8def","oneway":"yes","sidewalk":"no","source":"Bing","surface":"asphalt"},"geometry":{"type":"LineString","coordinates":[[103.7264095,1.3743942],[103.7261342,1.3743817]]}},{"type":"Feature","id":"way/633812875-0-1-0","properties":{"highway":"secondary","lanes":"3","maxspeed":"60","name":"Old Choa Chu Kang Road","name:en":"Old Choa Chu Kang Road","name:zh":"\u65e7\u8521\u539d\u6e2f\u8def","oneway":"yes","source":"Bing","surface":"asphalt"},"geometry":{"type":"LineString","coordinates":[[103.7293647,1.3765149],[103.7286704,1.3758926]]}},{"type":"Feature","id":"way/633812875-0-2-0","properties":{"highway":"secondary","lanes":"3","maxspeed":"60","name":"Old Choa Chu Kang Road","name:en":"Old Choa Chu Kang Road","name:zh":"\u65e7\u8521\u539d\u6e2f\u8def","oneway":"yes","source":"Bing","surface":"asphalt"},"geometry":{"type":"LineString","coordinates":[[103.7286704,1.3758926],[103.7279429,1.3752597]]}},{"type":"Feature","id":"way/633812875-0-3-0","properties":{"highway":"secondary","lanes":"3","maxspeed":"60","name":"Old Choa Chu Kang Road","name:en":"Old Choa Chu Kang Road","name:zh":"\u65e7\u8521\u539d\u6e2f\u8def","oneway":"yes","source":"Bing","surface":"asphalt"},"geometry":{"type":"LineString","coordinates":[[103.7279429,1.3752597],[103.7278357,1.3751671]]}},{"type":"Feature","id":"way/634224120-0-1-1","properties":{"highway":"secondary","lanes":"2","maxspeed":"60","name":"Old Choa Chu Kang Road","name:en":"Old Choa Chu Kang Road","name:zh":"\u65e7\u8521\u539d\u6e2f\u8def","oneway":"yes","surface":"asphalt"},"geometry":{"type":"LineString","coordinates":[[103.7249254,1.3745031],[103.7259056,1.3744874]]}},{"type":"Feature","id":"way/634224122-0-0-0","properties":{"highway":"secondary","lanes":"2","maxspeed":"60","name":"Old Choa Chu Kang Road","name:en":"Old Choa Chu Kang Road","name:zh":"\u65e7\u8521\u539d\u6e2f\u8def","oneway":"yes","surface":"asphalt"},"geometry":{"type":"LineString","coordinates":[[103.7259056,1.3744874],[103.7261751,1.3745043]]}},{"type":"Feature","id":"way/634224122-0-1-0","properties":{"highway":"secondary","lanes":"2","maxspeed":"60","name":"Old Choa Chu Kang Road","name:en":"Old Choa Chu Kang Road","name:zh":"\u65e7\u8521\u539d\u6e2f\u8def","oneway":"yes","surface":"asphalt"},"geometry":{"type":"LineString","coordinates":[[103.7261751,1.3745043],[103.7264457,1.3745264]]}},{"type":"Feature","id":"way/634224122-0-2-0","properties":{"highway":"secondary","lanes":"2","maxspeed":"60","name":"Old Choa Chu Kang Road","name:en":"Old Choa Chu Kang Road","name:zh":"\u65e7\u8521\u539d\u6e2f\u8def","oneway":"yes","surface":"asphalt"},"geometry":{"type":"LineString","coordinates":[[103.7264457,1.3745264],[103.7267159,1.3745952]]}},{"type":"Feature","id":"way/634224122-0-3-0","properties":{"highway":"secondary","lanes":"2","maxspeed":"60","name":"Old Choa Chu Kang Road","name:en":"Old Choa Chu Kang Road","name:zh":"\u65e7\u8521\u539d\u6e2f\u8def","oneway":"yes","surface":"asphalt"},"geometry":{"type":"LineString","coordinates":[[103.7267159,1.3745952],[103.7269491,1.3746776]]}},{"type":"Feature","id":"way/634224122-0-4-0","properties":{"highway":"secondary","lanes":"2","maxspeed":"60","name":"Old Choa Chu Kang Road","name:en":"Old Choa Chu Kang Road","name:zh":"\u65e7\u8521\u539d\u6e2f\u8def","oneway":"yes","surface":"asphalt"},"geometry":{"type":"LineString","coordinates":[[103.7269491,1.3746776],[103.7271193,1.3747791]]}},{"type":"Feature","id":"way/634224122-0-5-0","properties":{"highway":"secondary","lanes":"2","maxspeed":"60","name":"Old Choa Chu Kang Road","name:en":"Old Choa Chu Kang Road","name:zh":"\u65e7\u8521\u539d\u6e2f\u8def","oneway":"yes","surface":"asphalt"},"geometry":{"type":"LineString","coordinates":[[103.7271193,1.3747791],[103.7272266,1.3748542]]}},{"type":"Feature","id":"way/634224122-0-6-0","properties":{"highway":"secondary","lanes":"2","maxspeed":"60","name":"Old Choa Chu Kang Road","name:en":"Old Choa Chu Kang Road","name:zh":"\u65e7\u8521\u539d\u6e2f\u8def","oneway":"yes","surface":"asphalt"},"geometry":{"type":"LineString","coordinates":[[103.7272266,1.3748542],[103.7273647,1.3749628]]}},{"type":"Feature","id":"way/634224122-0-7-0","properties":{"highway":"secondary","lanes":"2","maxspeed":"60","name":"Old Choa Chu Kang Road","name:en":"Old Choa Chu Kang Road","name:zh":"\u65e7\u8521\u539d\u6e2f\u8def","oneway":"yes","surface":"asphalt"},"geometry":{"type":"LineString","coordinates":[[103.7273647,1.3749628],[103.7274585,1.375052]]}},{"type":"Feature","id":"way/634224124-0-0-0","properties":{"highway":"secondary","lanes":"2","maxspeed":"60","name":"Old Choa Chu Kang Road","name:en":"Old Choa Chu Kang Road","name:zh":"\u65e7\u8521\u539d\u6e2f\u8def","oneway":"yes","surface":"asphalt"},"geometry":{"type":"LineString","coordinates":[[103.7276938,1.3752693],[103.7278854,1.3754934]]}},{"type":"Feature","id":"way/634224124-0-1-0","properties":{"highway":"secondary","lanes":"2","maxspeed":"60","name":"Old Choa Chu Kang Road","name:en":"Old Choa Chu Kang Road","name:zh":"\u65e7\u8521\u539d\u6e2f\u8def","oneway":"yes","surface":"asphalt"},"geometry":{"type":"LineString","coordinates":[[103.7278854,1.3754934],[103.7282387,1.3759155]]}},{"type":"Feature","id":"way/634224124-0-2-0","properties":{"highway":"secondary","lanes":"2","maxspeed":"60","name":"Old Choa Chu Kang Road","name:en":"Old Choa Chu Kang Road","name:zh":"\u65e7\u8521\u539d\u6e2f\u8def","oneway":"yes","surface":"asphalt"},"geometry":{"type":"LineString","coordinates":[[103.7282387,1.3759155],[103.7286332,1.3762873]]}},{"type":"Feature","id":"way/634224124-0-3-0","properties":{"highway":"secondary","lanes":"2","maxspeed":"60","name":"Old Choa Chu Kang Road","name:en":"Old Choa Chu Kang Road","name:zh":"\u65e7\u8521\u539d\u6e2f\u8def","oneway":"yes","surface":"asphalt"},"geometry":{"type":"LineString","coordinates":[[103.7286332,1.3762873],[103.7292972,1.376938]]}},{"type":"Feature","id":"way/634224124-0-4-0","properties":{"highway":"secondary","lanes":"2","maxspeed":"60","name":"Old Choa Chu Kang Road","name:en":"Old Choa Chu Kang Road","name:zh":"\u65e7\u8521\u539d\u6e2f\u8def","oneway":"yes","surface":"asphalt"},"geometry":{"type":"LineString","coordinates":[[103.7292972,1.376938],[103.7298817,1.377559]]}},{"type":"Feature","id":"way/639682984-0-0-0","properties":{"highway":"secondary","lanes":"3","maxspeed":"60","name":"Old Choa Chu Kang Road","name:en":"Old Choa Chu Kang Road","name:zh":"\u65e7\u8521\u539d\u6e2f\u8def","oneway":"yes","surface":"asphalt","turn:lanes":"through|through|right"},"geometry":{"type":"LineString","coordinates":[[103.7274585,1.375052],[103.7276938,1.3752693]]}},{"type":"Feature","id":"way/644256077-0-0-0","properties":{"highway":"unclassified","lanes":"2","lanes:backward":"1","lanes:forward":"1","name":"Choa Chu Kang Track 14","surface":"asphalt"},"geometry":{"type":"LineString","coordinates":[[103.7257713,1.3748827],[103.7258897,1.3745341]]}},{"type":"Feature","id":"way/644256077-0-1-0","properties":{"highway":"unclassified","lanes":"2","lanes:backward":"1","lanes:forward":"1","name":"Choa Chu Kang Track 14","surface":"asphalt"},"geometry":{"type":"LineString","coordinates":[[103.7258897,1.3745341],[103.7259056,1.3744874]]}},{"type":"Feature","id":"way/644647588-0-0-0","properties":{"highway":"unclassified","name":"Choa Chu Kang Track 14","surface":"asphalt"},"geometry":{"type":"LineString","coordinates":[[103.7282042,1.3779848],[103.7268651,1.3782911]]}},{"type":"Feature","id":"way/649604257-0-0-0","properties":{"highway":"motorway","lanes":"5","maxspeed":"90","name":"Kranji Expressway","name:ms":"Lebuhraya Kranji","name:ta":"\u0b95\u0bbf\u0bb0\u0bbe\u0b9e\u0bcd\u0b9a\u0bbf \u0bb5\u0bbf\u0bb0\u0bc8\u0bb5\u0bc1\u0b9a\u0bcd\u0b9a\u0bbe\u0bb2\u0bc8","name:zh":"\u514b\u5170\u829d\u9ad8\u901f\u516c\u8def","oneway":"yes","ref":"KJE","short_name:ta":"\u0b95\u0bc7\u0b9c\u0bc7\u0b87","surface":"asphalt","turn:lanes":"left|through|through|through|through","wikidata":"Q1164575","wikipedia":"en:Kranji Expressway"},"geometry":{"type":"LineString","coordinates":[[103.7292084,1.3760945],[103.7295997,1.3764373]]}},{"type":"Feature","id":"way/649604259-0-0-0","properties":{"highway":"motorway","lanes":"4","maxspeed":"90","name":"Kranji Expressway","name:ms":"Lebuhraya Kranji","name:ta":"\u0b95\u0bbf\u0bb0\u0bbe\u0b9e\u0bcd\u0b9a\u0bbf \u0bb5\u0bbf\u0bb0\u0bc8\u0bb5\u0bc1\u0b9a\u0bcd\u0b9a\u0bbe\u0bb2\u0bc8","name:zh":"\u514b\u5170\u829d\u9ad8\u901f\u516c\u8def","oneway":"yes","ref":"KJE","short_name:ta":"\u0b95\u0bc7\u0b9c\u0bc7\u0b87","surface":"asphalt","turn:lanes":"through|through|through|through","wikidata":"Q1164575","wikipedia":"en:Kranji Expressway"},"geometry":{"type":"LineString","coordinates":[[103.7287772,1.3757298],[103.7289391,1.3758638]]}},{"type":"Feature","id":"way/655505408-0-0-0","properties":{"highway":"secondary","lanes":"3","maxspeed":"60","name":"Old Choa Chu Kang Road","name:en":"Old Choa Chu Kang Road","name:zh":"\u65e7\u8521\u539d\u6e2f\u8def","oneway":"yes","sidewalk":"no","source":"Bing","surface":"asphalt","turn:lanes":"through|through|through;right"},"geometry":{"type":"LineString","coordinates":[[103.7261342,1.3743817],[103.725937,1.3743813]]}},{"type":"Feature","id":"way/703379840-0-0-0","properties":{"highway":"motorway","lanes":"5","maxspeed":"90","name":"Kranji Expressway","name:ms":"Lebuhraya Kranji","name:ta":"\u0b95\u0bbf\u0bb0\u0bbe\u0b9e\u0bcd\u0b9a\u0bbf \u0bb5\u0bbf\u0bb0\u0bc8\u0bb5\u0bc1\u0b9a\u0bcd\u0b9a\u0bbe\u0bb2\u0bc8","name:zh":"\u514b\u5170\u829d\u9ad8\u901f\u516c\u8def","note":"Current position of KJE S 3 Mar 2026","oneway":"yes","ref":"KJE","short_name:ta":"\u0b95\u0bc7\u0b9c\u0bc7\u0b87","surface":"asphalt","wikidata":"Q1164575","wikipedia":"en:Kranji Expressway"},"geometry":{"type":"LineString","coordinates":[[103.7299518,1.3763505],[103.7293218,1.3754547]]}},{"type":"Feature","id":"way/703379840-0-1-0","properties":{"highway":"motorway","lanes":"5","maxspeed":"90","name":"Kranji Expressway","name:ms":"Lebuhraya Kranji","name:ta":"\u0b95\u0bbf\u0bb0\u0bbe\u0b9e\u0bcd\u0b9a\u0bbf \u0bb5\u0bbf\u0bb0\u0bc8\u0bb5\u0bc1\u0b9a\u0bcd\u0b9a\u0bbe\u0bb2\u0bc8","name:zh":"\u514b\u5170\u829d\u9ad8\u901f\u516c\u8def","note":"Current position of KJE S 3 Mar 2026","oneway":"yes","ref":"KJE","short_name:ta":"\u0b95\u0bc7\u0b9c\u0bc7\u0b87","surface":"asphalt","wikidata":"Q1164575","wikipedia":"en:Kranji Expressway"},"geometry":{"type":"LineString","coordinates":[[103.7293218,1.3754547],[103.7289585,1.375048]]}},{"type":"Feature","id":"way/703379840-0-2-0","properties":{"highway":"motorway","lanes":"5","maxspeed":"90","name":"Kranji Expressway","name:ms":"Lebuhraya Kranji","name:ta":"\u0b95\u0bbf\u0bb0\u0bbe\u0b9e\u0bcd\u0b9a\u0bbf \u0bb5\u0bbf\u0bb0\u0bc8\u0bb5\u0bc1\u0b9a\u0bcd\u0b9a\u0bbe\u0bb2\u0bc8","name:zh":"\u514b\u5170\u829d\u9ad8\u901f\u516c\u8def","note":"Current position of KJE S 3 Mar 2026","oneway":"yes","ref":"KJE","short_name:ta":"\u0b95\u0bc7\u0b9c\u0bc7\u0b87","surface":"asphalt","wikidata":"Q1164575","wikipedia":"en:Kranji Expressway"},"geometry":{"type":"LineString","coordinates":[[103.7289585,1.375048],[103.7285627,1.3746765]]}},{"type":"Feature","id":"way/706568700-0-2-0","properties":{"highway":"service"},"geometry":{"type":"LineString","coordinates":[[103.7252263,1.3776657],[103.7253772,1.377722]]}},{"type":"Feature","id":"way/706568700-0-3-0","properties":{"highway":"service"},"geometry":{"type":"LineString","coordinates":[[103.7253772,1.377722],[103.7254992,1.3777669]]}},{"type":"Feature","id":"way/706568700-0-4-0","properties":{"highway":"service"},"geometry":{"type":"LineString","coordinates":[[103.7254992,1.3777669],[103.7255971,1.3777937]]}},{"type":"Feature","id":"way/706568700-0-5-0","properties":{"highway":"service"},"geometry":{"type":"LineString","coordinates":[[103.7255971,1.3777937],[103.7257849,1.3778011]]}},{"type":"Feature","id":"way/706568700-0-6-0","properties":{"highway":"service"},"geometry":{"type":"LineString","coordinates":[[103.7257849,1.3778011],[103.7259867,1.3778085]]}},{"type":"Feature","id":"way/709595718-0-0-0","properties":{"highway":"motorway","lanes":"5","maxspeed":"90","name":"Kranji Expressway","name:ms":"Lebuhraya Kranji","name:ta":"\u0b95\u0bbf\u0bb0\u0bbe\u0b9e\u0bcd\u0b9a\u0bbf \u0bb5\u0bbf\u0bb0\u0bc8\u0bb5\u0bc1\u0b9a\u0bcd\u0b9a\u0bbe\u0bb2\u0bc8","name:zh":"\u514b\u5170\u829d\u9ad8\u901f\u516c\u8def","oneway":"yes","ref":"KJE","short_name:ta":"\u0b95\u0bc7\u0b9c\u0bc7\u0b87","surface":"asphalt","turn:lanes":"left|through|through|through|through","wikidata":"Q1164575","wikipedia":"en:Kranji Expressway"},"geometry":{"type":"LineString","coordinates":[[103.7289391,1.3758638],[103.7292084,1.3760945]]}},{"type":"Feature","id":"way/933298830-0-0-0","properties":{"highway":"service"},"geometry":{"type":"LineString","coordinates":[[103.7281448,1.3775832],[103.7269714,1.3778582]]}},{"type":"Feature","id":"way/933298830-0-1-0","properties":{"highway":"service"},"geometry":{"type":"LineString","coordinates":[[103.7269714,1.3778582],[103.726728,1.377913]]}},{"type":"Feature","id":"way/933299172-0-0-0","properties":{"highway":"service"},"geometry":{"type":"LineString","coordinates":[[103.7279765,1.377043],[103.7282927,1.3769216]]}},{"type":"Feature","id":"way/933299172-0-1-0","properties":{"highway":"service"},"geometry":{"type":"LineString","coordinates":[[103.7282927,1.3769216],[103.7283397,1.376931]]}},{"type":"Feature","id":"way/933299172-0-2-0","properties":{"highway":"service"},"geometry":{"type":"LineString","coordinates":[[103.7283397,1.376931],[103.728388,1.3769618]]}},{"type":"Feature","id":"way/933299172-0-3-0","properties":{"highway":"service"},"geometry":{"type":"LineString","coordinates":[[103.728388,1.3769618],[103.7284362,1.3770463]]}},{"type":"Feature","id":"way/933299172-0-4-0","properties":{"highway":"service"},"geometry":{"type":"LineString","coordinates":[[103.7284362,1.3770463],[103.7284885,1.3771173]]}},{"type":"Feature","id":"way/933299172-0-5-0","properties":{"highway":"service"},"geometry":{"type":"LineString","coordinates":[[103.7284885,1.3771173],[103.7284973,1.3771468]]}},{"type":"Feature","id":"way/933299172-0-6-0","properties":{"highway":"service"},"geometry":{"type":"LineString","coordinates":[[103.7284973,1.3771468],[103.7284952,1.377171]]}},{"type":"Feature","id":"way/933299172-0-7-0","properties":{"highway":"service"},"geometry":{"type":"LineString","coordinates":[[103.7284952,1.377171],[103.7284684,1.3772032]]}},{"type":"Feature","id":"way/933299172-0-8-0","properties":{"highway":"service"},"geometry":{"type":"LineString","coordinates":[[103.7284684,1.3772032],[103.728447,1.3772219]]}},{"type":"Feature","id":"way/933299172-0-9-0","properties":{"highway":"service"},"geometry":{"type":"LineString","coordinates":[[103.728447,1.3772219],[103.7283745,1.3772528]]}},{"type":"Feature","id":"way/933299172-0-10-0","properties":{"highway":"service"},"geometry":{"type":"LineString","coordinates":[[103.7283745,1.3772528],[103.728083,1.3773674]]}},{"type":"Feature","id":"way/1323416814-0-3-0","properties":{"highway":"motorway","lanes":"4","maxspeed":"90","name":"Kranji Expressway","name:ms":"Lebuhraya Kranji","name:ta":"\u0b95\u0bbf\u0bb0\u0bbe\u0b9e\u0bcd\u0b9a\u0bbf \u0bb5\u0bbf\u0bb0\u0bc8\u0bb5\u0bc1\u0b9a\u0bcd\u0b9a\u0bbe\u0bb2\u0bc8","name:zh":"\u514b\u5170\u829d\u9ad8\u901f\u516c\u8def","oneway":"yes","ref":"KJE","short_name:ta":"\u0b95\u0bc7\u0b9c\u0bc7\u0b87","surface":"asphalt","wikidata":"Q1164575","wikipedia":"en:Kranji Expressway"},"geometry":{"type":"LineString","coordinates":[[103.726306,1.3736103],[103.7272369,1.3743894]]}},{"type":"Feature","id":"way/1323416815-0-0-0","properties":{"highway":"motorway","lanes":"4","maxspeed":"90","name":"Kranji Expressway","name:ms":"Lebuhraya Kranji","name:ta":"\u0b95\u0bbf\u0bb0\u0bbe\u0b9e\u0bcd\u0b9a\u0bbf \u0bb5\u0bbf\u0bb0\u0bc8\u0bb5\u0bc1\u0b9a\u0bcd\u0b9a\u0bbe\u0bb2\u0bc8","name:zh":"\u514b\u5170\u829d\u9ad8\u901f\u516c\u8def","oneway":"yes","ref":"KJE","short_name:ta":"\u0b95\u0bc7\u0b9c\u0bc7\u0b87","surface":"asphalt","wikidata":"Q1164575","wikipedia":"en:Kranji Expressway"},"geometry":{"type":"LineString","coordinates":[[103.7272369,1.3743894],[103.7281256,1.3751709]]}},{"type":"Feature","id":"way/1323416815-0-1-0","properties":{"highway":"motorway","lanes":"4","maxspeed":"90","name":"Kranji Expressway","name:ms":"Lebuhraya Kranji","name:ta":"\u0b95\u0bbf\u0bb0\u0bbe\u0b9e\u0bcd\u0b9a\u0bbf \u0bb5\u0bbf\u0bb0\u0bc8\u0bb5\u0bc1\u0b9a\u0bcd\u0b9a\u0bbe\u0bb2\u0bc8","name:zh":"\u514b\u5170\u829d\u9ad8\u901f\u516c\u8def","oneway":"yes","ref":"KJE","short_name:ta":"\u0b95\u0bc7\u0b9c\u0bc7\u0b87","surface":"asphalt","wikidata":"Q1164575","wikipedia":"en:Kranji Expressway"},"geometry":{"type":"LineString","coordinates":[[103.7281256,1.3751709],[103.7287772,1.3757298]]}},{"type":"Feature","id":"way/1323416817-0-0-0","properties":{"highway":"motorway","lanes":"4","maxspeed":"90","name":"Kranji Expressway","name:ms":"Lebuhraya Kranji","name:ta":"\u0b95\u0bbf\u0bb0\u0bbe\u0b9e\u0bcd\u0b9a\u0bbf \u0bb5\u0bbf\u0bb0\u0bc8\u0bb5\u0bc1\u0b9a\u0bcd\u0b9a\u0bbe\u0bb2\u0bc8","name:zh":"\u514b\u5170\u829d\u9ad8\u901f\u516c\u8def","note":"Current position of KJE S 3 Mar 2026","oneway":"yes","ref":"KJE","short_name:ta":"\u0b95\u0bc7\u0b9c\u0bc7\u0b87","surface":"asphalt","wikidata":"Q1164575","wikipedia":"en:Kranji Expressway"},"geometry":{"type":"LineString","coordinates":[[103.7285627,1.3746765],[103.7276671,1.3739316]]}}]}