{"type":"FeatureCollection","features":[{"type":"Feature","id":"way/722269774-0","properties":{"building":"public"},"geometry":{"type":"Polygon","coordinates":[[[103.725143,1.3291629],[103.7251433,1.3293493],[103.7253464,1.329349],[103.7253463,1.3292634],[103.7254745,1.3292632],[103.7254743,1.3290662],[103.7254235,1.3290663],[103.7254234,1.329046],[103.7251821,1.3290463],[103.725182,1.3290087],[103.7251021,1.3290088],[103.7251023,1.329163],[103.725143,1.3291629]]]}},{"type":"Feature","id":"way/722269793-0","properties":{"addr:city":"Singapore","addr:country":"SG","addr:housenumber":"30","addr:postcode":"618664","addr:street":"Yuan Ching Road","building":"public","building:levels":"1","fee":"yes","leisure":"fitness_centre","name":"Jurong Lake Gardens Gym","name:zh":"\u88d5\u5eca\u6e56\u82b1\u56ed\u5065\u8eab\u623f","opening_hours":"07:00-22:00","payment:activesg_app_credits":"yes","phone":"+65 69701619","sport":"weights;racks;treadmill;rowing_machine;elliptical;gym_equipment","website":"https://www.myactivesg.com/Facilities/jurong-lake-gardens-gym"},"geometry":{"type":"Polygon","coordinates":[[[103.7259418,1.3307676],[103.7258529,1.3307556],[103.7257885,1.330714],[103.7257107,1.330647],[103.72565,1.3306049],[103.7255983,1.3305832],[103.7257956,1.3305699],[103.7258198,1.3305752],[103.7258573,1.3305993],[103.7259256,1.3306865],[103.7259727,1.330714],[103.7260175,1.33072],[103.7260752,1.3307134],[103.7261188,1.3306919],[103.726155,1.3306563],[103.7261731,1.3306188],[103.7261792,1.3305766],[103.7261812,1.3305404],[103.7261677,1.3304968],[103.7261376,1.3304398],[103.7260725,1.3304016],[103.7260061,1.3303842],[103.7254415,1.3304412],[103.725406,1.3304371],[103.7253839,1.3304164],[103.7253571,1.3303647],[103.7253436,1.3302783],[103.7253597,1.3301884],[103.7253544,1.3301328],[103.7253356,1.3300979],[103.7253061,1.3300872],[103.7251076,1.330106],[103.7250821,1.3301235],[103.725066,1.3301409],[103.7250976,1.3305819],[103.7251157,1.3306067],[103.7251438,1.3306262],[103.725406,1.3306041],[103.725579,1.3306141],[103.7256266,1.3306329],[103.7256695,1.3306657],[103.7257601,1.3307355],[103.7259069,1.3308285],[103.7259418,1.3307676]]]}},{"type":"Feature","id":"way/1159195833-0","properties":{"building":"yes"},"geometry":{"type":"Polygon","coordinates":[[[103.7258847,1.3330414],[103.7259011,1.3330404],[103.7258942,1.3329316],[103.7258115,1.3329368],[103.7258184,1.3330456],[103.7258847,1.3330414]]]}},{"type":"Feature","id":"way/1159195834-0","properties":{"building":"yes"},"geometry":{"type":"Polygon","coordinates":[[[103.7258899,1.3331236],[103.7258847,1.3330414],[103.7258184,1.3330456],[103.7258104,1.3330461],[103.7258156,1.3331283],[103.7258899,1.3331236]]]}},{"type":"Feature","id":"way/1335340994-0","properties":{"building":"roof","building:levels":"1","layer":"1","roof:material":"grass","roof:shape":"flat"},"geometry":{"type":"Polygon","coordinates":[[[103.7254892,1.3328569],[103.7256146,1.3328511],[103.7256127,1.3328101],[103.7253711,1.3328213],[103.725376,1.3329263],[103.725335,1.3329282],[103.7253394,1.3330219],[103.7254964,1.3330146],[103.7254892,1.3328569]]]}},{"type":"Feature","id":"way/1335341000-0","properties":{"building:levels":"12","building:part":"yes","roof:levels":"1","roof:material":"grass","roof:shape":"flat"},"geometry":{"type":"Polygon","coordinates":[[[103.725495,1.3334083],[103.7254374,1.3333529],[103.7254553,1.3333343],[103.7254374,1.333317],[103.725477,1.3332759],[103.7254633,1.3332637],[103.7254778,1.3332473],[103.7254386,1.3332127],[103.7254462,1.3332041],[103.7254362,1.3331952],[103.7254671,1.3331601],[103.7254744,1.3331519],[103.7254501,1.3331305],[103.7254419,1.3331398],[103.725384,1.3330887],[103.725334,1.3331453],[103.7253621,1.3331701],[103.7253556,1.3331775],[103.7254063,1.3332223],[103.7253933,1.333237],[103.7253857,1.3332304],[103.72538,1.3332368],[103.7253666,1.333225],[103.7253262,1.3332708],[103.7253471,1.3332893],[103.7253382,1.3332994],[103.7253588,1.3333176],[103.7253677,1.3333075],[103.7254036,1.3333392],[103.7254164,1.3333247],[103.7254294,1.3333361],[103.7253871,1.3333839],[103.7253909,1.3333872],[103.7253661,1.3334152],[103.7253874,1.333434],[103.7253768,1.3334463],[103.7254124,1.3334778],[103.7254634,1.3334219],[103.7254731,1.3334311],[103.725495,1.3334083]]]}},{"type":"Feature","id":"way/1335341001-0","properties":{"building:levels":"11","building:part":"yes","roof:levels":"1","roof:material":"grass","roof:shape":"flat"},"geometry":{"type":"Polygon","coordinates":[[[103.7254374,1.333317],[103.7254553,1.3333343],[103.7254374,1.3333529],[103.725495,1.3334083],[103.7255405,1.3333611],[103.7255308,1.3333518],[103.7255411,1.3333412],[103.7254853,1.3332914],[103.7255497,1.3332184],[103.7254917,1.3331672],[103.7254844,1.3331754],[103.7254671,1.3331601],[103.7254362,1.3331952],[103.7254462,1.3332041],[103.7254386,1.3332127],[103.7254778,1.3332473],[103.7254633,1.3332637],[103.725477,1.3332759],[103.7254374,1.333317]]]}},{"type":"Feature","id":"way/1335341002-0","properties":{"building:levels":"10","building:part":"yes","roof:levels":"1","roof:material":"grass","roof:shape":"flat"},"geometry":{"type":"Polygon","coordinates":[[[103.7255416,1.3333261],[103.7255727,1.333356],[103.7255868,1.33334],[103.7255988,1.3333506],[103.7256302,1.3333151],[103.7255618,1.3332546],[103.7255745,1.3332403],[103.7255497,1.3332184],[103.7254853,1.3332914],[103.7255338,1.3333342],[103.7255416,1.3333261]]]}},{"type":"Feature","id":"way/1335341003-0","properties":{"addr:city":"Singapore","addr:country":"SG","addr:housenumber":"72","addr:postcode":"619601","addr:street":"Yuan Ching Road","building":"residential","residential":"condominium"},"geometry":{"type":"Polygon","coordinates":[[[103.7255868,1.33334],[103.7255988,1.3333506],[103.7256302,1.3333151],[103.7255618,1.3332546],[103.7255745,1.3332403],[103.7255497,1.3332184],[103.7254917,1.3331672],[103.7254844,1.3331754],[103.7254671,1.3331601],[103.7254744,1.3331519],[103.7254501,1.3331305],[103.7254419,1.3331398],[103.725384,1.3330887],[103.725334,1.3331453],[103.7253621,1.3331701],[103.7253556,1.3331775],[103.7254063,1.3332223],[103.7253933,1.333237],[103.7253857,1.3332304],[103.72538,1.3332368],[103.7253666,1.333225],[103.7253262,1.3332708],[103.7253471,1.3332893],[103.7253382,1.3332994],[103.7253588,1.3333176],[103.7253677,1.3333075],[103.7254036,1.3333392],[103.7254164,1.3333247],[103.7254294,1.3333361],[103.7253871,1.3333839],[103.7253909,1.3333872],[103.7253661,1.3334152],[103.7253711,1.3335231],[103.7254144,1.3335211],[103.7254124,1.3334778],[103.7254634,1.3334219],[103.7254731,1.3334311],[103.725495,1.3334083],[103.7255405,1.3333611],[103.7255308,1.3333518],[103.7255411,1.3333412],[103.7255338,1.3333342],[103.7255416,1.3333261],[103.7255727,1.333356],[103.7255868,1.33334]]]}},{"type":"Feature","id":"way/190010166-0-0-0","properties":{"highway":"service","lanes":"2","name":"Japanese Garden Road","name:zh":"\u661f\u548c\u56ed\u8def","surface":"asphalt","turn:lanes":"through|through"},"geometry":{"type":"LineString","coordinates":[[103.7252292,1.3326754],[103.7254918,1.3326614]]}},{"type":"Feature","id":"way/190010166-0-1-0","properties":{"highway":"service","lanes":"2","name":"Japanese Garden Road","name:zh":"\u661f\u548c\u56ed\u8def","surface":"asphalt","turn:lanes":"through|through"},"geometry":{"type":"LineString","coordinates":[[103.7254918,1.3326614],[103.7255204,1.3326447]]}},{"type":"Feature","id":"way/190010166-0-2-0","properties":{"highway":"service","lanes":"2","name":"Japanese Garden Road","name:zh":"\u661f\u548c\u56ed\u8def","surface":"asphalt","turn:lanes":"through|through"},"geometry":{"type":"LineString","coordinates":[[103.7255204,1.3326447],[103.7255609,1.3325966]]}},{"type":"Feature","id":"way/732543620-0-0-0","properties":{"highway":"service","oneway":"yes","service":"parking_aisle"},"geometry":{"type":"LineString","coordinates":[[103.7255647,1.3323623],[103.7255971,1.3322873]]}},{"type":"Feature","id":"way/732543620-0-1-0","properties":{"highway":"service","oneway":"yes","service":"parking_aisle"},"geometry":{"type":"LineString","coordinates":[[103.7255971,1.3322873],[103.7256091,1.3322091]]}},{"type":"Feature","id":"way/732543620-0-2-0","properties":{"highway":"service","oneway":"yes","service":"parking_aisle"},"geometry":{"type":"LineString","coordinates":[[103.7256091,1.3322091],[103.7256041,1.3321216]]}},{"type":"Feature","id":"way/732543620-0-3-0","properties":{"highway":"service","oneway":"yes","service":"parking_aisle"},"geometry":{"type":"LineString","coordinates":[[103.7256041,1.3321216],[103.7255808,1.332034]]}},{"type":"Feature","id":"way/732543620-0-4-0","properties":{"highway":"service","oneway":"yes","service":"parking_aisle"},"geometry":{"type":"LineString","coordinates":[[103.7255808,1.332034],[103.7255044,1.331931]]}},{"type":"Feature","id":"way/732543620-0-5-0","properties":{"highway":"service","oneway":"yes","service":"parking_aisle"},"geometry":{"type":"LineString","coordinates":[[103.7255044,1.331931],[103.7255049,1.3318526]]}},{"type":"Feature","id":"way/732543620-0-6-0","properties":{"highway":"service","oneway":"yes","service":"parking_aisle"},"geometry":{"type":"LineString","coordinates":[[103.7255049,1.3318526],[103.7254849,1.3317643]]}},{"type":"Feature","id":"way/732543620-0-7-0","properties":{"highway":"service","oneway":"yes","service":"parking_aisle"},"geometry":{"type":"LineString","coordinates":[[103.7254849,1.3317643],[103.725488,1.3316265]]}},{"type":"Feature","id":"way/732543620-0-8-0","properties":{"highway":"service","oneway":"yes","service":"parking_aisle"},"geometry":{"type":"LineString","coordinates":[[103.725488,1.3316265],[103.7254903,1.3315204]]}},{"type":"Feature","id":"way/732543620-0-9-0","properties":{"highway":"service","oneway":"yes","service":"parking_aisle"},"geometry":{"type":"LineString","coordinates":[[103.7254903,1.3315204],[103.7255243,1.331439]]}},{"type":"Feature","id":"way/732543620-0-10-0","properties":{"highway":"service","oneway":"yes","service":"parking_aisle"},"geometry":{"type":"LineString","coordinates":[[103.7255243,1.331439],[103.7255475,1.3313468]]}},{"type":"Feature","id":"way/732543620-0-11-0","properties":{"highway":"service","oneway":"yes","service":"parking_aisle"},"geometry":{"type":"LineString","coordinates":[[103.7255475,1.3313468],[103.7255801,1.3309231]]}},{"type":"Feature","id":"way/732543620-0-12-0","properties":{"highway":"service","oneway":"yes","service":"parking_aisle"},"geometry":{"type":"LineString","coordinates":[[103.7255801,1.3309231],[103.7255732,1.330855]]}},{"type":"Feature","id":"way/732543620-0-13-0","properties":{"highway":"service","oneway":"yes","service":"parking_aisle"},"geometry":{"type":"LineString","coordinates":[[103.7255732,1.330855],[103.7255548,1.3308087]]}},{"type":"Feature","id":"way/732543620-0-14-0","properties":{"highway":"service","oneway":"yes","service":"parking_aisle"},"geometry":{"type":"LineString","coordinates":[[103.7255548,1.3308087],[103.7254816,1.3307457]]}},{"type":"Feature","id":"way/732543620-0-15-0","properties":{"highway":"service","oneway":"yes","service":"parking_aisle"},"geometry":{"type":"LineString","coordinates":[[103.7254816,1.3307457],[103.7254145,1.3307293]]}},{"type":"Feature","id":"way/732543620-0-16-0","properties":{"highway":"service","oneway":"yes","service":"parking_aisle"},"geometry":{"type":"LineString","coordinates":[[103.7254145,1.3307293],[103.7253443,1.3307393]]}},{"type":"Feature","id":"way/732543620-0-17-0","properties":{"highway":"service","oneway":"yes","service":"parking_aisle"},"geometry":{"type":"LineString","coordinates":[[103.7253443,1.3307393],[103.7252924,1.3307642]]}},{"type":"Feature","id":"way/744216627-0-0-0","properties":{"highway":"service","oneway":"yes","service":"parking_aisle"},"geometry":{"type":"LineString","coordinates":[[103.7252924,1.3307642],[103.7252599,1.3307363]]}},{"type":"Feature","id":"way/744216627-0-1-0","properties":{"highway":"service","oneway":"yes","service":"parking_aisle"},"geometry":{"type":"LineString","coordinates":[[103.7252599,1.3307363],[103.7252133,1.3307034]]}},{"type":"Feature","id":"way/744216628-0-5-0","properties":{"highway":"service","oneway":"yes","service":"parking_aisle"},"geometry":{"type":"LineString","coordinates":[[103.7252039,1.3307755],[103.7252189,1.3308008]]}},{"type":"Feature","id":"way/744216628-0-6-0","properties":{"highway":"service","oneway":"yes","service":"parking_aisle"},"geometry":{"type":"LineString","coordinates":[[103.7252189,1.3308008],[103.7252371,1.3308302]]}},{"type":"Feature","id":"way/744216700-0-0-0","properties":{"highway":"service","service":"parking_aisle"},"geometry":{"type":"LineString","coordinates":[[103.7252924,1.3307642],[103.7252371,1.3308302]]}},{"type":"Feature","id":"way/744216702-0-0-0","properties":{"highway":"service","oneway":"yes","service":"parking_aisle"},"geometry":{"type":"LineString","coordinates":[[103.7252371,1.3308302],[103.725257,1.331121]]}},{"type":"Feature","id":"way/744216702-0-1-0","properties":{"highway":"service","oneway":"yes","service":"parking_aisle"},"geometry":{"type":"LineString","coordinates":[[103.725257,1.331121],[103.7252991,1.331421]]}},{"type":"Feature","id":"way/744216702-0-2-0","properties":{"highway":"service","oneway":"yes","service":"parking_aisle"},"geometry":{"type":"LineString","coordinates":[[103.7252991,1.331421],[103.7253447,1.3315298]]}},{"type":"Feature","id":"way/744216702-0-3-0","properties":{"highway":"service","oneway":"yes","service":"parking_aisle"},"geometry":{"type":"LineString","coordinates":[[103.7253447,1.3315298],[103.7253455,1.3315849]]}},{"type":"Feature","id":"way/744216702-0-4-0","properties":{"highway":"service","oneway":"yes","service":"parking_aisle"},"geometry":{"type":"LineString","coordinates":[[103.7253455,1.3315849],[103.7253481,1.3317528]]}},{"type":"Feature","id":"way/744216702-0-5-0","properties":{"highway":"service","oneway":"yes","service":"parking_aisle"},"geometry":{"type":"LineString","coordinates":[[103.7253481,1.3317528],[103.7253294,1.3319529]]}},{"type":"Feature","id":"way/744216702-0-6-0","properties":{"highway":"service","oneway":"yes","service":"parking_aisle"},"geometry":{"type":"LineString","coordinates":[[103.7253294,1.3319529],[103.7253134,1.3320843]]}},{"type":"Feature","id":"way/744216702-0-7-0","properties":{"highway":"service","oneway":"yes","service":"parking_aisle"},"geometry":{"type":"LineString","coordinates":[[103.7253134,1.3320843],[103.7253158,1.3321718]]}},{"type":"Feature","id":"way/744216702-0-8-0","properties":{"highway":"service","oneway":"yes","service":"parking_aisle"},"geometry":{"type":"LineString","coordinates":[[103.7253158,1.3321718],[103.7253502,1.3322574]]}},{"type":"Feature","id":"way/744216702-0-9-0","properties":{"highway":"service","oneway":"yes","service":"parking_aisle"},"geometry":{"type":"LineString","coordinates":[[103.7253502,1.3322574],[103.725437,1.3323498]]}},{"type":"Feature","id":"way/744216702-0-10-0","properties":{"highway":"service","oneway":"yes","service":"parking_aisle"},"geometry":{"type":"LineString","coordinates":[[103.725437,1.3323498],[103.7255647,1.3323623]]}},{"type":"Feature","id":"way/923704187-0-0-0","properties":{"highway":"service","oneway":"yes","service":"parking_aisle"},"geometry":{"type":"LineString","coordinates":[[103.7253447,1.3315298],[103.7254903,1.3315204]]}},{"type":"Feature","id":"way/923704188-0-0-0","properties":{"highway":"service","service":"parking_aisle"},"geometry":{"type":"LineString","coordinates":[[103.7255609,1.3325966],[103.7255807,1.3325445]]}},{"type":"Feature","id":"way/923704188-0-1-0","properties":{"highway":"service","service":"parking_aisle"},"geometry":{"type":"LineString","coordinates":[[103.7255807,1.3325445],[103.7255827,1.3324587]]}},{"type":"Feature","id":"way/923704188-0-2-0","properties":{"highway":"service","service":"parking_aisle"},"geometry":{"type":"LineString","coordinates":[[103.7255827,1.3324587],[103.7255647,1.3323623]]}},{"type":"Feature","id":"way/923704189-0-0-0","properties":{"highway":"service","oneway":"yes","service":"parking_aisle"},"geometry":{"type":"LineString","coordinates":[[103.7255044,1.331931],[103.7253294,1.3319529]]}}]}