{"type":"FeatureCollection","features":[{"type":"Feature","id":"way/447604100-0","properties":{"building":"yes","name":"Kok Fah Technology Farm","shop":"supermarket","clearanceGeometry":{"type":"Polygon","coordinates":[[[103.7280133,1.3940057],[103.7281635,1.3939531],[103.728189,1.3940255],[103.7282732,1.393996],[103.7282467,1.3939206],[103.7282228,1.3939289],[103.7280661,1.3934819],[103.7276998,1.3936103],[103.7277735577173,1.3938208147989049],[103.72789875210992,1.3937757962673094],[103.72790135757212,1.3937835334824247],[103.7279317,1.3937729],[103.7280133,1.3940057]]]},"clearanceHeight":1.7,"clearancePrepared":true},"geometry":{"type":"Polygon","coordinates":[[[103.7279317,1.3937729],[103.7280133,1.3940057],[103.7281635,1.3939531],[103.728189,1.3940255],[103.7282732,1.393996],[103.7282467,1.3939206],[103.7282228,1.3939289],[103.7280661,1.3934819],[103.7276998,1.3936103],[103.7277759,1.3938275],[103.7279317,1.3937729]]]}},{"type":"Feature","id":"way/447604101-0","properties":{"building":"yes","clearanceGeometry":{"type":"Polygon","coordinates":[[[103.7279439,1.3941121],[103.7278931,1.3941097],[103.7278922,1.3941285],[103.72789,1.3941742],[103.7279407,1.3941767],[103.7279439,1.3941121]]]},"clearanceHeight":1.7,"clearancePrepared":true},"geometry":{"type":"Polygon","coordinates":[[[103.7279407,1.3941767],[103.7279439,1.3941121],[103.7278931,1.3941097],[103.7278922,1.3941285],[103.72789,1.3941742],[103.7279407,1.3941767]]]}},{"type":"Feature","id":"way/447604102-0","properties":{"building":"yes","clearanceGeometry":{"type":"Polygon","coordinates":[[[103.7288161,1.3945204],[103.7287323,1.3945204],[103.7287323,1.3945613],[103.7288161,1.3945613],[103.7288161,1.3945204]]]},"clearanceHeight":1.7,"clearancePrepared":true},"geometry":{"type":"Polygon","coordinates":[[[103.7288161,1.3945613],[103.7288161,1.3945204],[103.7287323,1.3945204],[103.7287323,1.3945613],[103.7288161,1.3945613]]]}},{"type":"Feature","id":"way/447604103-0","properties":{"building":"yes","clearanceGeometry":{"type":"Polygon","coordinates":[[[103.7280764,1.3941183],[103.7279743,1.3941135],[103.7279704,1.3941959],[103.7280725,1.3942007],[103.7280764,1.3941183]]]},"clearanceHeight":1.7,"clearancePrepared":true},"geometry":{"type":"Polygon","coordinates":[[[103.7280725,1.3942007],[103.7280764,1.3941183],[103.7279743,1.3941135],[103.7279704,1.3941959],[103.7280725,1.3942007]]]}},{"type":"Feature","id":"way/448904870-0","properties":{"building":"yes","clearanceGeometry":{"type":"Polygon","coordinates":[[[103.72869106329755,1.3941564289027244],[103.72862231911397,1.394149694370786],[103.7286196,1.3942201],[103.7286885,1.3942228],[103.72869106329755,1.3941564289027244]]]},"clearanceHeight":1.7,"clearancePrepared":true},"geometry":{"type":"Polygon","coordinates":[[[103.7286885,1.3942228],[103.7286913,1.3941503],[103.7286224,1.3941476],[103.7286196,1.3942201],[103.7286885,1.3942228]]]}},{"type":"Feature","id":"way/452780582-0","properties":{"building":"yes","clearanceGeometry":{"type":"Polygon","coordinates":[[[103.7269642,1.3942257],[103.726883,1.3942666],[103.7269273,1.3943545],[103.7270085,1.3943136],[103.7269642,1.3942257]]]},"clearanceHeight":1.7,"clearancePrepared":true},"geometry":{"type":"Polygon","coordinates":[[[103.7270085,1.3943136],[103.7269642,1.3942257],[103.726883,1.3942666],[103.7269273,1.3943545],[103.7270085,1.3943136]]]}},{"type":"Feature","id":"way/452780583-0","properties":{"building":"yes","clearanceGeometry":{"type":"Polygon","coordinates":[[[103.7268187,1.3923532],[103.7267496,1.3923059],[103.7266853,1.3923997],[103.7267543,1.3924471],[103.7268187,1.3923532]]]},"clearanceHeight":1.7,"clearancePrepared":true},"geometry":{"type":"Polygon","coordinates":[[[103.7267543,1.3924471],[103.7268187,1.3923532],[103.7267496,1.3923059],[103.7266853,1.3923997],[103.7267543,1.3924471]]]}},{"type":"Feature","id":"way/452780584-0","properties":{"building":"yes","clearanceGeometry":{"type":"Polygon","coordinates":[[[103.7263183,1.393196],[103.726272,1.3932523],[103.7263215,1.393293],[103.7263678,1.3932367],[103.7263183,1.393196]]]},"clearanceHeight":1.7,"clearancePrepared":true},"geometry":{"type":"Polygon","coordinates":[[[103.7263678,1.3932367],[103.7263183,1.393196],[103.726272,1.3932523],[103.7263215,1.393293],[103.7263678,1.3932367]]]}},{"type":"Feature","id":"way/452780585-0","properties":{"building":"yes","clearanceGeometry":{"type":"Polygon","coordinates":[[[103.72711742370781,1.394174387667624],[103.72704438053674,1.394199781355574],[103.72703808237715,1.394181674235673],[103.7270248,1.3941867],[103.7270547,1.394266],[103.7271399,1.3942338],[103.72711742370781,1.394174387667624]]]},"clearanceHeight":1.7,"clearancePrepared":true},"geometry":{"type":"Polygon","coordinates":[[[103.7271399,1.3942338],[103.7271099,1.3941545],[103.7270248,1.3941867],[103.7270547,1.394266],[103.7271399,1.3942338]]]}},{"type":"Feature","id":"way/452780589-0","properties":{"building":"yes","clearanceGeometry":{"type":"Polygon","coordinates":[[[103.7274777,1.394976],[103.7273953,1.3950179],[103.7274321,1.3950903],[103.7275146,1.3950485],[103.7274777,1.394976]]]},"clearanceHeight":1.7,"clearancePrepared":true},"geometry":{"type":"Polygon","coordinates":[[[103.7275146,1.3950485],[103.7274777,1.394976],[103.7273953,1.3950179],[103.7274321,1.3950903],[103.7275146,1.3950485]]]}},{"type":"Feature","id":"way/452780604-0","properties":{"building":"yes","clearanceGeometry":{"type":"Polygon","coordinates":[[[103.7278108,1.3947644],[103.727728,1.3947892],[103.727745,1.3948458],[103.7276916,1.3948619],[103.7277108,1.3949257],[103.727847,1.3948847],[103.7278108,1.3947644]]]},"clearanceHeight":1.7,"clearancePrepared":true},"geometry":{"type":"Polygon","coordinates":[[[103.727847,1.3948847],[103.7278108,1.3947644],[103.727728,1.3947892],[103.727745,1.3948458],[103.7276916,1.3948619],[103.7277108,1.3949257],[103.727847,1.3948847]]]}},{"type":"Feature","id":"way/452780606-0","properties":{"building":"yes","clearanceGeometry":{"type":"Polygon","coordinates":[[[103.7296555,1.3948155],[103.7296714,1.39478],[103.7295523,1.3947266],[103.7294897,1.3948661],[103.729823,1.3950156],[103.7298697,1.3949116],[103.7296555,1.3948155]]]},"clearanceHeight":1.7,"clearancePrepared":true},"geometry":{"type":"Polygon","coordinates":[[[103.7298697,1.3949116],[103.7296555,1.3948155],[103.7296714,1.39478],[103.7295523,1.3947266],[103.7294897,1.3948661],[103.729823,1.3950156],[103.7298697,1.3949116]]]}},{"type":"Feature","id":"way/452780713-0","properties":{"building":"yes","clearanceGeometry":{"type":"Polygon","coordinates":[[[103.729677,1.3950057],[103.7295999,1.3951853],[103.729716,1.3952351],[103.7297931,1.3950555],[103.729677,1.3950057]]]},"clearanceHeight":1.7,"clearancePrepared":true},"geometry":{"type":"Polygon","coordinates":[[[103.7297931,1.3950555],[103.729677,1.3950057],[103.7295999,1.3951853],[103.729716,1.3952351],[103.7297931,1.3950555]]]}},{"type":"Feature","id":"way/452780793-0","properties":{"building":"yes","clearanceGeometry":{"type":"Polygon","coordinates":[[[103.7294067,1.3951933],[103.7293456,1.395332],[103.7294858,1.3953938],[103.7294208,1.3955413],[103.7295524,1.3955992],[103.7296784,1.3953129],[103.7294067,1.3951933]]]},"clearanceHeight":1.7,"clearancePrepared":true},"geometry":{"type":"Polygon","coordinates":[[[103.7296784,1.3953129],[103.7294067,1.3951933],[103.7293456,1.395332],[103.7294858,1.3953938],[103.7294208,1.3955413],[103.7295524,1.3955992],[103.7296784,1.3953129]]]}},{"type":"Feature","id":"way/452783944-0","properties":{"building":"yes","clearanceGeometry":{"type":"Polygon","coordinates":[[[103.7267704,1.3925185],[103.7267275,1.3925804],[103.7268137,1.39264],[103.7268566,1.3925781],[103.7267704,1.3925185]]]},"clearanceHeight":1.7,"clearancePrepared":true},"geometry":{"type":"Polygon","coordinates":[[[103.7268566,1.3925781],[103.7267704,1.3925185],[103.7267275,1.3925804],[103.7268137,1.39264],[103.7268566,1.3925781]]]}},{"type":"Feature","id":"way/452783948-0","properties":{"building":"yes","clearanceGeometry":{"type":"Polygon","coordinates":[[[103.7259463,1.3937905],[103.7258363,1.393883],[103.7258959,1.3939538],[103.7260058,1.3938613],[103.7259463,1.3937905]]]},"clearanceHeight":1.7,"clearancePrepared":true},"geometry":{"type":"Polygon","coordinates":[[[103.7260058,1.3938613],[103.7259463,1.3937905],[103.7258363,1.393883],[103.7258959,1.3939538],[103.7260058,1.3938613]]]}},{"type":"Feature","id":"way/452783954-0","properties":{"building":"yes","clearanceGeometry":{"type":"Polygon","coordinates":[[[103.7258946,1.3936346],[103.726024,1.3938558],[103.7261178,1.3938009],[103.7259884,1.3935797],[103.7258946,1.3936346]]]},"clearanceHeight":1.7,"clearancePrepared":true},"geometry":{"type":"Polygon","coordinates":[[[103.7259884,1.3935797],[103.7258946,1.3936346],[103.726024,1.3938558],[103.7261178,1.3938009],[103.7259884,1.3935797]]]}},{"type":"Feature","id":"way/452783966-0","properties":{"building":"yes","clearanceGeometry":{"type":"Polygon","coordinates":[[[103.7264356,1.3930451],[103.7264097,1.3930795],[103.7264968,1.3931452],[103.7265228,1.3931108],[103.7264356,1.3930451]]]},"clearanceHeight":1.7,"clearancePrepared":true},"geometry":{"type":"Polygon","coordinates":[[[103.7265228,1.3931108],[103.7264356,1.3930451],[103.7264097,1.3930795],[103.7264968,1.3931452],[103.7265228,1.3931108]]]}},{"type":"Feature","id":"way/452783976-0","properties":{"building":"yes","clearanceGeometry":{"type":"Polygon","coordinates":[[[103.7268704,1.3942137],[103.7268834,1.3942063],[103.72687,1.3941824],[103.7267969,1.3942236],[103.7268214,1.394267],[103.7268814,1.3942331],[103.7268704,1.3942137]]]},"clearanceHeight":1.7,"clearancePrepared":true},"geometry":{"type":"Polygon","coordinates":[[[103.7268814,1.3942331],[103.7268704,1.3942137],[103.7268834,1.3942063],[103.72687,1.3941824],[103.7267969,1.3942236],[103.7268214,1.394267],[103.7268814,1.3942331]]]}},{"type":"Feature","id":"way/452784155-0","properties":{"building":"yes","clearanceGeometry":{"type":"Polygon","coordinates":[[[103.7290496,1.3922367],[103.7291319,1.3922189],[103.7290998,1.3920701],[103.7290174,1.3920879],[103.7290496,1.3922367]]]},"clearanceHeight":1.7,"clearancePrepared":true},"geometry":{"type":"Polygon","coordinates":[[[103.7290174,1.3920879],[103.7290496,1.3922367],[103.7291319,1.3922189],[103.7290998,1.3920701],[103.7290174,1.3920879]]]}},{"type":"Feature","id":"way/452784157-0","properties":{"building":"yes","clearanceGeometry":{"type":"Polygon","coordinates":[[[103.7279587,1.3929238],[103.7278745,1.3929611],[103.7279248,1.3930744],[103.728009,1.3930371],[103.7279587,1.3929238]]]},"clearanceHeight":1.7,"clearancePrepared":true},"geometry":{"type":"Polygon","coordinates":[[[103.728009,1.3930371],[103.7279587,1.3929238],[103.7278745,1.3929611],[103.7279248,1.3930744],[103.728009,1.3930371]]]}},{"type":"Feature","id":"way/452784158-0","properties":{"building":"yes","clearanceGeometry":{"type":"Polygon","coordinates":[[[103.7285518,1.392932],[103.7284909,1.3929603],[103.7285563,1.3931011],[103.7286171,1.3930728],[103.7285518,1.392932]]]},"clearanceHeight":1.7,"clearancePrepared":true},"geometry":{"type":"Polygon","coordinates":[[[103.7286171,1.3930728],[103.7285518,1.392932],[103.7284909,1.3929603],[103.7285563,1.3931011],[103.7286171,1.3930728]]]}},{"type":"Feature","id":"way/453265496-0","properties":{"building":"yes","clearanceGeometry":{"type":"Polygon","coordinates":[[[103.7297207,1.3956697],[103.7296442,1.3956295],[103.7295816,1.3957486],[103.729658,1.3957888],[103.7297207,1.3956697]]]},"clearanceHeight":1.7,"clearancePrepared":true},"geometry":{"type":"Polygon","coordinates":[[[103.729658,1.3957888],[103.7297207,1.3956697],[103.7296442,1.3956295],[103.7295816,1.3957486],[103.729658,1.3957888]]]}},{"type":"Feature","id":"way/453265504-0","properties":{"building":"yes","clearanceGeometry":{"type":"Polygon","coordinates":[[[103.7295934,1.3960105],[103.7296808,1.3958357],[103.7295869,1.3957888],[103.7294995,1.3959636],[103.7295934,1.3960105]]]},"clearanceHeight":1.7,"clearancePrepared":true},"geometry":{"type":"Polygon","coordinates":[[[103.7294995,1.3959636],[103.7295934,1.3960105],[103.7296808,1.3958357],[103.7295869,1.3957888],[103.7294995,1.3959636]]]}},{"type":"Feature","id":"way/454860405-0","properties":{"building":"yes","clearanceGeometry":{"type":"Polygon","coordinates":[[[103.7279005,1.396078],[103.7279005,1.3961142],[103.7280172,1.3961142],[103.7280172,1.396078],[103.7279005,1.396078]]]},"clearanceHeight":1.7,"clearancePrepared":true},"geometry":{"type":"Polygon","coordinates":[[[103.7280172,1.396078],[103.7279005,1.396078],[103.7279005,1.3961142],[103.7280172,1.3961142],[103.7280172,1.396078]]]}},{"type":"Feature","id":"way/454860407-0","properties":{"building":"yes","clearanceGeometry":{"type":"Polygon","coordinates":[[[103.7277223,1.396123],[103.7277894,1.3961236],[103.7277905,1.3960027],[103.7276792,1.3960016],[103.7276779,1.3961437],[103.7277221,1.3961441],[103.7277223,1.396123]]]},"clearanceHeight":1.7,"clearancePrepared":true},"geometry":{"type":"Polygon","coordinates":[[[103.7277221,1.3961441],[103.7277223,1.396123],[103.7277894,1.3961236],[103.7277905,1.3960027],[103.7276792,1.3960016],[103.7276779,1.3961437],[103.7277221,1.3961441]]]}},{"type":"Feature","id":"way/875754174-0","properties":{"building":"yes","power":"substation","clearanceGeometry":{"type":"Polygon","coordinates":[[[103.7291306,1.3925309],[103.7290769,1.3925597],[103.7291014,1.3926053],[103.7291551,1.3925764],[103.7291306,1.3925309]]]},"clearanceHeight":1.7,"clearancePrepared":true},"geometry":{"type":"Polygon","coordinates":[[[103.7291551,1.3925764],[103.7291306,1.3925309],[103.7290769,1.3925597],[103.7291014,1.3926053],[103.7291551,1.3925764]]]}},{"type":"Feature","id":"way/1153200122-0","properties":{"building":"yes","clearanceGeometry":{"type":"Polygon","coordinates":[[[103.7263522,1.3933476],[103.7263092,1.3933628],[103.726332,1.3934271],[103.7263749,1.3934119],[103.7263522,1.3933476]]]},"clearanceHeight":1.7,"clearancePrepared":true},"geometry":{"type":"Polygon","coordinates":[[[103.7263749,1.3934119],[103.7263522,1.3933476],[103.7263092,1.3933628],[103.726332,1.3934271],[103.7263749,1.3934119]]]}},{"type":"Feature","id":"way/1153200123-0","properties":{"building":"yes","clearanceGeometry":{"type":"Polygon","coordinates":[[[103.7269312,1.3941544],[103.7268819,1.3941752],[103.7268893,1.3941927],[103.7269386,1.3941718],[103.7269312,1.3941544]]]},"clearanceHeight":1.7,"clearancePrepared":true},"geometry":{"type":"Polygon","coordinates":[[[103.7269386,1.3941718],[103.7269312,1.3941544],[103.7268819,1.3941752],[103.7268893,1.3941927],[103.7269386,1.3941718]]]}},{"type":"Feature","id":"way/1153200124-0","properties":{"building":"yes","clearanceGeometry":{"type":"Polygon","coordinates":[[[103.7273676,1.3950539],[103.7272936,1.3950822],[103.7273211,1.3951539],[103.7273951,1.3951256],[103.7273676,1.3950539]]]},"clearanceHeight":1.7,"clearancePrepared":true},"geometry":{"type":"Polygon","coordinates":[[[103.7273951,1.3951256],[103.7273676,1.3950539],[103.7272936,1.3950822],[103.7273211,1.3951539],[103.7273951,1.3951256]]]}},{"type":"Feature","id":"way/227775125-0-0-0","properties":{"highway":"unclassified","lanes":"2","lanes:backward":"1","lanes:forward":"1","startNodeId":"2364347197","endNodeId":"2364347198"},"geometry":{"type":"LineString","coordinates":[[103.7290823,1.3959697],[103.72899,1.3964164]]}},{"type":"Feature","id":"way/389155221-0-0-0","properties":{"highway":"service","startNodeId":"3923163593","endNodeId":"5216939702"},"geometry":{"type":"LineString","coordinates":[[103.7272788,1.393061],[103.7273156,1.3930535]]}},{"type":"Feature","id":"way/389155221-0-1-0","properties":{"highway":"service","startNodeId":"5216939702","endNodeId":"5216939701"},"geometry":{"type":"LineString","coordinates":[[103.7273156,1.3930535],[103.7273598,1.3930528]]}},{"type":"Feature","id":"way/389155221-0-2-0","properties":{"highway":"service","startNodeId":"5216939701","endNodeId":"5216939700"},"geometry":{"type":"LineString","coordinates":[[103.7273598,1.3930528],[103.727385,1.3930555]]}},{"type":"Feature","id":"way/389155221-0-3-0","properties":{"highway":"service","startNodeId":"5216939700","endNodeId":"247752824"},"geometry":{"type":"LineString","coordinates":[[103.727385,1.3930555],[103.7274339,1.3930664]]}},{"type":"Feature","id":"way/389155222-0-0-0","properties":{"highway":"service","startNodeId":"3923163599","endNodeId":"3923163596"},"geometry":{"type":"LineString","coordinates":[[103.7276635,1.3940461],[103.7277393,1.3940277]]}},{"type":"Feature","id":"way/389155222-0-1-0","properties":{"highway":"service","startNodeId":"3923163596","endNodeId":"3923163597"},"geometry":{"type":"LineString","coordinates":[[103.7277393,1.3940277],[103.7277968,1.3940285]]}},{"type":"Feature","id":"way/389155222-0-2-0","properties":{"highway":"service","startNodeId":"3923163597","endNodeId":"3923163598"},"geometry":{"type":"LineString","coordinates":[[103.7277968,1.3940285],[103.7278772,1.3940361]]}},{"type":"Feature","id":"way/389155222-0-3-0","properties":{"highway":"service","startNodeId":"3923163598","endNodeId":"4446920627"},"geometry":{"type":"LineString","coordinates":[[103.7278772,1.3940361],[103.727946,1.3940428]]}},{"type":"Feature","id":"way/447604108-0-0-0","properties":{"highway":"service","startNodeId":"4446920622","endNodeId":"4446920617"},"geometry":{"type":"LineString","coordinates":[[103.7276446,1.393991],[103.7277819,1.3939451]]}},{"type":"Feature","id":"way/447604108-0-1-0","properties":{"highway":"service","startNodeId":"4446920617","endNodeId":"4446920614"},"geometry":{"type":"LineString","coordinates":[[103.7277819,1.3939451],[103.7277568,1.3938698]]}},{"type":"Feature","id":"way/447604108-0-2-0","properties":{"highway":"service","startNodeId":"4446920614","endNodeId":"4446920612"},"geometry":{"type":"LineString","coordinates":[[103.7277568,1.3938698],[103.7278736,1.3938278]]}},{"type":"Feature","id":"way/447604108-0-3-0","properties":{"highway":"service","startNodeId":"4446920612","endNodeId":"4446920627"},"geometry":{"type":"LineString","coordinates":[[103.7278736,1.3938278],[103.727946,1.3940428]]}},{"type":"Feature","id":"way/448905085-0-0-0","properties":{"highway":"service","service":"parking_aisle","startNodeId":"4458773045","endNodeId":"4458773040"},"geometry":{"type":"LineString","coordinates":[[103.7281744,1.394238],[103.7281775,1.3940655]]}},{"type":"Feature","id":"way/448905303-0-0-0","properties":{"highway":"service","startNodeId":"4458774915","endNodeId":"247752819"},"geometry":{"type":"LineString","coordinates":[[103.7282409,1.3958628],[103.7283031,1.3957965]]}},{"type":"Feature","id":"way/448905304-0-0-0","properties":{"highway":"service","startNodeId":"4458774914","endNodeId":"3922956119"},"geometry":{"type":"LineString","coordinates":[[103.7281981,1.3957769],[103.7282679,1.3957546]]}},{"type":"Feature","id":"way/539089608-0-0-0","properties":{"highway":"service","startNodeId":"5216939697","endNodeId":"5216939696"},"geometry":{"type":"LineString","coordinates":[[103.7270311,1.3941616],[103.7272825,1.3940742]]}},{"type":"Feature","id":"way/539089608-0-1-0","properties":{"highway":"service","startNodeId":"5216939696","endNodeId":"5216939695"},"geometry":{"type":"LineString","coordinates":[[103.7272825,1.3940742],[103.7274429,1.3940261]]}},{"type":"Feature","id":"way/539089608-0-2-0","properties":{"highway":"service","startNodeId":"5216939695","endNodeId":"5216939694"},"geometry":{"type":"LineString","coordinates":[[103.7274429,1.3940261],[103.7276378,1.3939712]]}},{"type":"Feature","id":"way/632490224-0-0-0","properties":{"highway":"unclassified","lanes":"2","lanes:backward":"1","lanes:forward":"1","maxspeed":"50","name":"Sungei Tengah Road","name:zh":"\u53cc\u6eaa\u767b\u52a0\u8def","surface":"asphalt","startNodeId":"5216939694","endNodeId":"247752823"},"geometry":{"type":"LineString","coordinates":[[103.7276378,1.3939712],[103.7274048,1.3932869]]}},{"type":"Feature","id":"way/632490224-0-1-0","properties":{"highway":"unclassified","lanes":"2","lanes:backward":"1","lanes:forward":"1","maxspeed":"50","name":"Sungei Tengah Road","name:zh":"\u53cc\u6eaa\u767b\u52a0\u8def","surface":"asphalt","startNodeId":"247752823","endNodeId":"3923155463"},"geometry":{"type":"LineString","coordinates":[[103.7274048,1.3932869],[103.7273999,1.3932082]]}},{"type":"Feature","id":"way/632490224-0-2-0","properties":{"highway":"unclassified","lanes":"2","lanes:backward":"1","lanes:forward":"1","maxspeed":"50","name":"Sungei Tengah Road","name:zh":"\u53cc\u6eaa\u767b\u52a0\u8def","surface":"asphalt","startNodeId":"3923155463","endNodeId":"3923155461"},"geometry":{"type":"LineString","coordinates":[[103.7273999,1.3932082],[103.7274091,1.3931332]]}},{"type":"Feature","id":"way/632490224-0-3-0","properties":{"highway":"unclassified","lanes":"2","lanes:backward":"1","lanes:forward":"1","maxspeed":"50","name":"Sungei Tengah Road","name:zh":"\u53cc\u6eaa\u767b\u52a0\u8def","surface":"asphalt","startNodeId":"3923155461","endNodeId":"247752824"},"geometry":{"type":"LineString","coordinates":[[103.7274091,1.3931332],[103.7274339,1.3930664]]}},{"type":"Feature","id":"way/632490225-0-0-0","properties":{"highway":"unclassified","lanes":"2","lanes:backward":"1","lanes:forward":"1","maxspeed":"50","name":"Sungei Tengah Road","name:zh":"\u53cc\u6eaa\u767b\u52a0\u8def","surface":"asphalt","startNodeId":"6555683698","endNodeId":"247752817"},"geometry":{"type":"LineString","coordinates":[[103.7286913,1.3959043],[103.7284802,1.3958743]]}},{"type":"Feature","id":"way/632490225-0-1-0","properties":{"highway":"unclassified","lanes":"2","lanes:backward":"1","lanes:forward":"1","maxspeed":"50","name":"Sungei Tengah Road","name:zh":"\u53cc\u6eaa\u767b\u52a0\u8def","surface":"asphalt","startNodeId":"247752817","endNodeId":"3922956122"},"geometry":{"type":"LineString","coordinates":[[103.7284802,1.3958743],[103.7283828,1.3958472]]}},{"type":"Feature","id":"way/632490225-0-2-0","properties":{"highway":"unclassified","lanes":"2","lanes:backward":"1","lanes:forward":"1","maxspeed":"50","name":"Sungei Tengah Road","name:zh":"\u53cc\u6eaa\u767b\u52a0\u8def","surface":"asphalt","startNodeId":"3922956122","endNodeId":"247752819"},"geometry":{"type":"LineString","coordinates":[[103.7283828,1.3958472],[103.7283031,1.3957965]]}},{"type":"Feature","id":"way/644274096-0-0-0","properties":{"highway":"unclassified","lanes":"2","lanes:backward":"1","lanes:forward":"1","maxspeed":"50","name":"Sungei Tengah Road","name:zh":"\u53cc\u6eaa\u767b\u52a0\u8def","surface":"asphalt","startNodeId":"247752819","endNodeId":"3922956119"},"geometry":{"type":"LineString","coordinates":[[103.7283031,1.3957965],[103.7282679,1.3957546]]}},{"type":"Feature","id":"way/644274098-0-0-0","properties":{"highway":"unclassified","lanes":"2","lanes:backward":"1","lanes:forward":"1","maxspeed":"50","name":"Sungei Tengah Road","name:zh":"\u53cc\u6eaa\u767b\u52a0\u8def","surface":"asphalt","startNodeId":"3922956119","endNodeId":"247752820"},"geometry":{"type":"LineString","coordinates":[[103.7282679,1.3957546],[103.7282176,1.3956603]]}},{"type":"Feature","id":"way/644274098-0-1-0","properties":{"highway":"unclassified","lanes":"2","lanes:backward":"1","lanes:forward":"1","maxspeed":"50","name":"Sungei Tengah Road","name:zh":"\u53cc\u6eaa\u767b\u52a0\u8def","surface":"asphalt","startNodeId":"247752820","endNodeId":"247752821"},"geometry":{"type":"LineString","coordinates":[[103.7282176,1.3956603],[103.7279444,1.3948599]]}},{"type":"Feature","id":"way/644296275-0-0-0","properties":{"highway":"unclassified","lanes":"2","lanes:backward":"1","lanes:forward":"1","maxspeed":"50","name":"Sungei Tengah Road","name:zh":"\u53cc\u6eaa\u767b\u52a0\u8def","surface":"asphalt","startNodeId":"3922994410","endNodeId":"247752809"},"geometry":{"type":"LineString","coordinates":[[103.7295792,1.3961389],[103.7291838,1.3959981]]}},{"type":"Feature","id":"way/644393236-0-0-0","properties":{"highway":"unclassified","lanes":"2","lanes:backward":"1","lanes:forward":"1","maxspeed":"50","name":"Sungei Tengah Road","name:zh":"\u53cc\u6eaa\u767b\u52a0\u8def","surface":"asphalt","startNodeId":"3923163599","endNodeId":"4446920622"},"geometry":{"type":"LineString","coordinates":[[103.7276635,1.3940461],[103.7276446,1.393991]]}},{"type":"Feature","id":"way/644393237-0-0-0","properties":{"highway":"unclassified","lanes":"2","lanes:backward":"1","lanes:forward":"1","maxspeed":"50","name":"Sungei Tengah Road","name:zh":"\u53cc\u6eaa\u767b\u52a0\u8def","surface":"asphalt","startNodeId":"4446920622","endNodeId":"5216939694"},"geometry":{"type":"LineString","coordinates":[[103.7276446,1.393991],[103.7276378,1.3939712]]}},{"type":"Feature","id":"way/644393238-0-0-0","properties":{"highway":"unclassified","lanes":"2","lanes:backward":"1","lanes:forward":"1","maxspeed":"50","name":"Sungei Tengah Road","name:zh":"\u53cc\u6eaa\u767b\u52a0\u8def","surface":"asphalt","startNodeId":"247752821","endNodeId":"3923163599"},"geometry":{"type":"LineString","coordinates":[[103.7279444,1.3948599],[103.7276635,1.3940461]]}},{"type":"Feature","id":"way/644393473-0-0-0","properties":{"highway":"service","startNodeId":"4458773040","endNodeId":"3923163600"},"geometry":{"type":"LineString","coordinates":[[103.7281775,1.3940655],[103.7288655,1.3941329]]}},{"type":"Feature","id":"way/644393474-0-0-0","properties":{"highway":"service","startNodeId":"4446920627","endNodeId":"4458773040"},"geometry":{"type":"LineString","coordinates":[[103.727946,1.3940428],[103.7281775,1.3940655]]}},{"type":"Feature","id":"way/644632398-0-0-0","properties":{"highway":"service","startNodeId":"3923163595","endNodeId":"3923163593"},"geometry":{"type":"LineString","coordinates":[[103.726056,1.3936115],[103.7272788,1.393061]]}},{"type":"Feature","id":"way/644643346-0-0-0","properties":{"highway":"unclassified","lanes":"2","lanes:backward":"1","lanes:forward":"1","maxspeed":"50","name":"Sungei Tengah Road","name:zh":"\u53cc\u6eaa\u767b\u52a0\u8def","surface":"asphalt","startNodeId":"3923489853","endNodeId":"247752827"},"geometry":{"type":"LineString","coordinates":[[103.7283371,1.3927269],[103.7287923,1.3925885]]}},{"type":"Feature","id":"way/644643348-0-0-0","properties":{"highway":"unclassified","lanes":"2","lanes:backward":"1","lanes:forward":"1","maxspeed":"50","name":"Sungei Tengah Road","name:zh":"\u53cc\u6eaa\u767b\u52a0\u8def","surface":"asphalt","startNodeId":"247752824","endNodeId":"3923155460"},"geometry":{"type":"LineString","coordinates":[[103.7274339,1.3930664],[103.7274796,1.3930091]]}},{"type":"Feature","id":"way/644643348-0-1-0","properties":{"highway":"unclassified","lanes":"2","lanes:backward":"1","lanes:forward":"1","maxspeed":"50","name":"Sungei Tengah Road","name:zh":"\u53cc\u6eaa\u767b\u52a0\u8def","surface":"asphalt","startNodeId":"3923155460","endNodeId":"3923155459"},"geometry":{"type":"LineString","coordinates":[[103.7274796,1.3930091],[103.7275455,1.3929677]]}},{"type":"Feature","id":"way/644643348-0-2-0","properties":{"highway":"unclassified","lanes":"2","lanes:backward":"1","lanes:forward":"1","maxspeed":"50","name":"Sungei Tengah Road","name:zh":"\u53cc\u6eaa\u767b\u52a0\u8def","surface":"asphalt","startNodeId":"3923155459","endNodeId":"3923489853"},"geometry":{"type":"LineString","coordinates":[[103.7275455,1.3929677],[103.7283371,1.3927269]]}},{"type":"Feature","id":"way/645204251-0-0-0","properties":{"highway":"unclassified","lanes":"2","lanes:backward":"1","lanes:forward":"1","maxspeed":"50","name":"Sungei Tengah Road","name:zh":"\u53cc\u6eaa\u767b\u52a0\u8def","surface":"asphalt","startNodeId":"247752809","endNodeId":"2364347197"},"geometry":{"type":"LineString","coordinates":[[103.7291838,1.3959981],[103.7290823,1.3959697]]}},{"type":"Feature","id":"way/646970688-0-0-0","properties":{"highway":"unclassified","lanes":"2","lanes:backward":"1","lanes:forward":"1","maxspeed":"50","name":"Sungei Tengah Road","name:zh":"\u53cc\u6eaa\u767b\u52a0\u8def","surface":"asphalt","startNodeId":"247752827","endNodeId":"3922997045"},"geometry":{"type":"LineString","coordinates":[[103.7287923,1.3925885],[103.7289847,1.3925034]]}},{"type":"Feature","id":"way/646970688-0-1-0","properties":{"highway":"unclassified","lanes":"2","lanes:backward":"1","lanes:forward":"1","maxspeed":"50","name":"Sungei Tengah Road","name:zh":"\u53cc\u6eaa\u767b\u52a0\u8def","surface":"asphalt","startNodeId":"3922997045","endNodeId":"247752828"},"geometry":{"type":"LineString","coordinates":[[103.7289847,1.3925034],[103.7300767,1.3918546]]}},{"type":"Feature","id":"way/698046257-0-0-0","properties":{"highway":"unclassified","lanes":"2","lanes:backward":"1","lanes:forward":"1","maxspeed":"50","name":"Sungei Tengah Road","name:zh":"\u53cc\u6eaa\u767b\u52a0\u8def","surface":"asphalt","turn:lanes:backward":"left;through","turn:lanes:forward":"through","startNodeId":"2364347197","endNodeId":"247752816"},"geometry":{"type":"LineString","coordinates":[[103.7290823,1.3959697],[103.7288606,1.3959283]]}},{"type":"Feature","id":"way/698046257-0-1-0","properties":{"highway":"unclassified","lanes":"2","lanes:backward":"1","lanes:forward":"1","maxspeed":"50","name":"Sungei Tengah Road","name:zh":"\u53cc\u6eaa\u767b\u52a0\u8def","surface":"asphalt","turn:lanes:backward":"left;through","turn:lanes:forward":"through","startNodeId":"247752816","endNodeId":"6555683698"},"geometry":{"type":"LineString","coordinates":[[103.7288606,1.3959283],[103.7286913,1.3959043]]}}]}