{"type":"FeatureCollection","features":[{"type":"Feature","id":"way/117564753-0","properties":{"building":"yes","name":"J4","clearanceGeometry":{"type":"Polygon","coordinates":[[[103.7271142,1.3015454],[103.7268082,1.3009114],[103.7255971,1.3014957],[103.7259032,1.3021297],[103.7271142,1.3015454]]]},"clearanceHeight":1.7,"clearancePrepared":true},"geometry":{"type":"Polygon","coordinates":[[[103.7259032,1.3021297],[103.7271142,1.3015454],[103.7268082,1.3009114],[103.7255971,1.3014957],[103.7259032,1.3021297]]]}},{"type":"Feature","id":"way/632381484-0-0-0","properties":{"highway":"service","lanes":"1","oneway":"yes","startNodeId":"5971087731","endNodeId":"5971087732"},"geometry":{"type":"LineString","coordinates":[[103.7269369,1.3008079],[103.7268913,1.3008052]]}},{"type":"Feature","id":"way/632381484-0-1-0","properties":{"highway":"service","lanes":"1","oneway":"yes","startNodeId":"5971087732","endNodeId":"5971087733"},"geometry":{"type":"LineString","coordinates":[[103.7268913,1.3008052],[103.7268376,1.300832]]}},{"type":"Feature","id":"way/632381484-0-2-0","properties":{"highway":"service","lanes":"1","oneway":"yes","startNodeId":"5971087733","endNodeId":"5971087740"},"geometry":{"type":"LineString","coordinates":[[103.7268376,1.300832],[103.7255153,1.3014783]]}},{"type":"Feature","id":"way/632381489-0-0-0","properties":{"highway":"service","lanes":"2","lanes:backward":"1","lanes:forward":"1","startNodeId":"5971087728","endNodeId":"5971087729"},"geometry":{"type":"LineString","coordinates":[[103.7272909,1.3015158],[103.7272587,1.3014246]]}},{"type":"Feature","id":"way/632381489-0-1-0","properties":{"highway":"service","lanes":"2","lanes:backward":"1","lanes:forward":"1","startNodeId":"5971087729","endNodeId":"5971087730"},"geometry":{"type":"LineString","coordinates":[[103.7272587,1.3014246],[103.7270012,1.3008722]]}},{"type":"Feature","id":"way/632381489-0-2-0","properties":{"highway":"service","lanes":"2","lanes:backward":"1","lanes:forward":"1","startNodeId":"5971087730","endNodeId":"5971087731"},"geometry":{"type":"LineString","coordinates":[[103.7270012,1.3008722],[103.7269369,1.3008079]]}},{"type":"Feature","id":"way/632381491-0-0-0","properties":{"highway":"service","lanes":"2","oneway":"yes","startNodeId":"5971087740","endNodeId":"5971087739"},"geometry":{"type":"LineString","coordinates":[[103.7255153,1.3014783],[103.7258771,1.30225]]}},{"type":"Feature","id":"way/632385107-0-0-0","properties":{"highway":"service","lanes":"2","lanes:backward":"1","lanes:forward":"1","startNodeId":"4459074349","endNodeId":"5971087727"},"geometry":{"type":"LineString","coordinates":[[103.7272065,1.3015976],[103.7272748,1.301548]]}},{"type":"Feature","id":"way/632385107-0-1-0","properties":{"highway":"service","lanes":"2","lanes:backward":"1","lanes:forward":"1","startNodeId":"5971087727","endNodeId":"5971087728"},"geometry":{"type":"LineString","coordinates":[[103.7272748,1.301548],[103.7272909,1.3015158]]}}]}