{"type":"FeatureCollection","features":[{"type":"Feature","id":"way/1157124143-0","properties":{"building":"yes"},"geometry":{"type":"Polygon","coordinates":[[[103.7234975,1.4252754],[103.7233524,1.4253169],[103.723365,1.425361],[103.7235102,1.4253195],[103.7234975,1.4252754]]]}},{"type":"Feature","id":"way/1157124144-0","properties":{"building":"yes"},"geometry":{"type":"Polygon","coordinates":[[[103.7239874,1.4255793],[103.7239593,1.4254786],[103.7238185,1.4255178],[103.7238466,1.4256185],[103.7239874,1.4255793]]]}},{"type":"Feature","id":"way/387625238-0-0-0","properties":{"bridge":"yes","highway":"service","layer":"1"},"geometry":{"type":"LineString","coordinates":[[103.7251975,1.4233249],[103.7251811,1.4232707]]}},{"type":"Feature","id":"way/387625240-0-0-0","properties":{"highway":"service"},"geometry":{"type":"LineString","coordinates":[[103.7251811,1.4232707],[103.7251757,1.4232532]]}},{"type":"Feature","id":"way/633148519-0-4-0","properties":{"highway":"primary","lanes":"2","lanes:backward":"1","lanes:forward":"1","maxspeed":"50","name":"Neo Tiew Road","name:ta":"\u0ba8\u0bbf\u0baf\u0bcb \u0ba4\u0bbf\u0baf\u0bc2 \u0bb0\u0bcb\u0b9f\u0bcd\u0b9f\u0bc8","name:zh":"\u6881\u5e99\u8def","source":"Yahoo aerial images","surface":"asphalt"},"geometry":{"type":"LineString","coordinates":[[103.7207332,1.4243715],[103.7207832,1.4245679]]}},{"type":"Feature","id":"way/633157852-0-0-0","properties":{"highway":"residential","lanes":"2","lanes:backward":"1","lanes:forward":"1","maxspeed":"50","name":"Turut Track","surface":"asphalt"},"geometry":{"type":"LineString","coordinates":[[103.7227967,1.4240698],[103.7228693,1.4240513]]}},{"type":"Feature","id":"way/633157852-0-1-0","properties":{"highway":"residential","lanes":"2","lanes:backward":"1","lanes:forward":"1","maxspeed":"50","name":"Turut Track","surface":"asphalt"},"geometry":{"type":"LineString","coordinates":[[103.7228693,1.4240513],[103.7229968,1.4240146]]}},{"type":"Feature","id":"way/633157852-0-2-0","properties":{"highway":"residential","lanes":"2","lanes:backward":"1","lanes:forward":"1","maxspeed":"50","name":"Turut Track","surface":"asphalt"},"geometry":{"type":"LineString","coordinates":[[103.7229968,1.4240146],[103.7235615,1.4239255]]}},{"type":"Feature","id":"way/633157852-0-3-0","properties":{"highway":"residential","lanes":"2","lanes:backward":"1","lanes:forward":"1","maxspeed":"50","name":"Turut Track","surface":"asphalt"},"geometry":{"type":"LineString","coordinates":[[103.7235615,1.4239255],[103.7238686,1.4238529]]}},{"type":"Feature","id":"way/633157852-0-4-0","properties":{"highway":"residential","lanes":"2","lanes:backward":"1","lanes:forward":"1","maxspeed":"50","name":"Turut Track","surface":"asphalt"},"geometry":{"type":"LineString","coordinates":[[103.7238686,1.4238529],[103.7243177,1.423701]]}},{"type":"Feature","id":"way/633157852-0-5-0","properties":{"highway":"residential","lanes":"2","lanes:backward":"1","lanes:forward":"1","maxspeed":"50","name":"Turut Track","surface":"asphalt"},"geometry":{"type":"LineString","coordinates":[[103.7243177,1.423701],[103.7245951,1.4235624]]}},{"type":"Feature","id":"way/633157852-0-6-0","properties":{"highway":"residential","lanes":"2","lanes:backward":"1","lanes:forward":"1","maxspeed":"50","name":"Turut Track","surface":"asphalt"},"geometry":{"type":"LineString","coordinates":[[103.7245951,1.4235624],[103.7252201,1.423399]]}},{"type":"Feature","id":"way/633164618-0-0-0","properties":{"highway":"primary","lanes":"2","lanes:backward":"1","lanes:forward":"1","maxspeed":"50","name":"Neo Tiew Road","name:ta":"\u0ba8\u0bbf\u0baf\u0bcb \u0ba4\u0bbf\u0baf\u0bc2 \u0bb0\u0bcb\u0b9f\u0bcd\u0b9f\u0bc8","name:zh":"\u6881\u5e99\u8def","source":"Yahoo aerial images","surface":"asphalt"},"geometry":{"type":"LineString","coordinates":[[103.7208067,1.4264271],[103.7208053,1.4264981]]}},{"type":"Feature","id":"way/633164618-0-1-0","properties":{"highway":"primary","lanes":"2","lanes:backward":"1","lanes:forward":"1","maxspeed":"50","name":"Neo Tiew Road","name:ta":"\u0ba8\u0bbf\u0baf\u0bcb \u0ba4\u0bbf\u0baf\u0bc2 \u0bb0\u0bcb\u0b9f\u0bcd\u0b9f\u0bc8","name:zh":"\u6881\u5e99\u8def","source":"Yahoo aerial images","surface":"asphalt"},"geometry":{"type":"LineString","coordinates":[[103.7208053,1.4264981],[103.7207986,1.4267714]]}},{"type":"Feature","id":"way/633164618-0-2-0","properties":{"highway":"primary","lanes":"2","lanes:backward":"1","lanes:forward":"1","maxspeed":"50","name":"Neo Tiew Road","name:ta":"\u0ba8\u0bbf\u0baf\u0bcb \u0ba4\u0bbf\u0baf\u0bc2 \u0bb0\u0bcb\u0b9f\u0bcd\u0b9f\u0bc8","name:zh":"\u6881\u5e99\u8def","source":"Yahoo aerial images","surface":"asphalt"},"geometry":{"type":"LineString","coordinates":[[103.7207986,1.4267714],[103.7208079,1.4268926]]}},{"type":"Feature","id":"way/633164618-0-3-0","properties":{"highway":"primary","lanes":"2","lanes:backward":"1","lanes:forward":"1","maxspeed":"50","name":"Neo Tiew Road","name:ta":"\u0ba8\u0bbf\u0baf\u0bcb \u0ba4\u0bbf\u0baf\u0bc2 \u0bb0\u0bcb\u0b9f\u0bcd\u0b9f\u0bc8","name:zh":"\u6881\u5e99\u8def","source":"Yahoo aerial images","surface":"asphalt"},"geometry":{"type":"LineString","coordinates":[[103.7208079,1.4268926],[103.720857,1.427021]]}},{"type":"Feature","id":"way/633164618-0-4-0","properties":{"highway":"primary","lanes":"2","lanes:backward":"1","lanes:forward":"1","maxspeed":"50","name":"Neo Tiew Road","name:ta":"\u0ba8\u0bbf\u0baf\u0bcb \u0ba4\u0bbf\u0baf\u0bc2 \u0bb0\u0bcb\u0b9f\u0bcd\u0b9f\u0bc8","name:zh":"\u6881\u5e99\u8def","source":"Yahoo aerial images","surface":"asphalt"},"geometry":{"type":"LineString","coordinates":[[103.720857,1.427021],[103.7211279,1.4275417]]}},{"type":"Feature","id":"way/633164622-0-0-0","properties":{"highway":"primary","lanes":"2","lanes:backward":"1","lanes:forward":"1","maxspeed":"50","name":"Neo Tiew Road","name:ta":"\u0ba8\u0bbf\u0baf\u0bcb \u0ba4\u0bbf\u0baf\u0bc2 \u0bb0\u0bcb\u0b9f\u0bcd\u0b9f\u0bc8","name:zh":"\u6881\u5e99\u8def","source":"Yahoo aerial images","surface":"asphalt"},"geometry":{"type":"LineString","coordinates":[[103.7207832,1.4245679],[103.7208103,1.4247264]]}},{"type":"Feature","id":"way/633164622-0-1-0","properties":{"highway":"primary","lanes":"2","lanes:backward":"1","lanes:forward":"1","maxspeed":"50","name":"Neo Tiew Road","name:ta":"\u0ba8\u0bbf\u0baf\u0bcb \u0ba4\u0bbf\u0baf\u0bc2 \u0bb0\u0bcb\u0b9f\u0bcd\u0b9f\u0bc8","name:zh":"\u6881\u5e99\u8def","source":"Yahoo aerial images","surface":"asphalt"},"geometry":{"type":"LineString","coordinates":[[103.7208103,1.4247264],[103.7208219,1.4249201]]}},{"type":"Feature","id":"way/633164622-0-2-0","properties":{"highway":"primary","lanes":"2","lanes:backward":"1","lanes:forward":"1","maxspeed":"50","name":"Neo Tiew Road","name:ta":"\u0ba8\u0bbf\u0baf\u0bcb \u0ba4\u0bbf\u0baf\u0bc2 \u0bb0\u0bcb\u0b9f\u0bcd\u0b9f\u0bc8","name:zh":"\u6881\u5e99\u8def","source":"Yahoo aerial images","surface":"asphalt"},"geometry":{"type":"LineString","coordinates":[[103.7208219,1.4249201],[103.7208021,1.4262254]]}},{"type":"Feature","id":"way/633164622-0-3-0","properties":{"highway":"primary","lanes":"2","lanes:backward":"1","lanes:forward":"1","maxspeed":"50","name":"Neo Tiew Road","name:ta":"\u0ba8\u0bbf\u0baf\u0bcb \u0ba4\u0bbf\u0baf\u0bc2 \u0bb0\u0bcb\u0b9f\u0bcd\u0b9f\u0bc8","name:zh":"\u6881\u5e99\u8def","source":"Yahoo aerial images","surface":"asphalt"},"geometry":{"type":"LineString","coordinates":[[103.7208021,1.4262254],[103.7208069,1.4263188]]}},{"type":"Feature","id":"way/633332541-0-0-0","properties":{"highway":"primary","lanes":"2","lanes:backward":"1","lanes:forward":"1","maxspeed":"50","name":"Neo Tiew Road","name:ta":"\u0ba8\u0bbf\u0baf\u0bcb \u0ba4\u0bbf\u0baf\u0bc2 \u0bb0\u0bcb\u0b9f\u0bcd\u0b9f\u0bc8","name:zh":"\u6881\u5e99\u8def","source":"Yahoo aerial images","surface":"asphalt"},"geometry":{"type":"LineString","coordinates":[[103.7208069,1.4263188],[103.7208067,1.4264271]]}},{"type":"Feature","id":"way/633334776-0-0-0","properties":{"highway":"residential","lanes":"2","lanes:backward":"1","lanes:forward":"1","maxspeed":"50","name":"Neo Tiew Lane 3","source":"Yahoo aerial images","surface":"asphalt","turn:lanes:backward":"left;right"},"geometry":{"type":"LineString","coordinates":[[103.7208069,1.4263188],[103.7209333,1.4263138]]}},{"type":"Feature","id":"way/633334776-0-1-0","properties":{"highway":"residential","lanes":"2","lanes:backward":"1","lanes:forward":"1","maxspeed":"50","name":"Neo Tiew Lane 3","source":"Yahoo aerial images","surface":"asphalt","turn:lanes:backward":"left;right"},"geometry":{"type":"LineString","coordinates":[[103.7209333,1.4263138],[103.7210065,1.4262813]]}},{"type":"Feature","id":"way/633334776-0-2-0","properties":{"highway":"residential","lanes":"2","lanes:backward":"1","lanes:forward":"1","maxspeed":"50","name":"Neo Tiew Lane 3","source":"Yahoo aerial images","surface":"asphalt","turn:lanes:backward":"left;right"},"geometry":{"type":"LineString","coordinates":[[103.7210065,1.4262813],[103.7212949,1.4260863]]}},{"type":"Feature","id":"way/633334776-0-3-0","properties":{"highway":"residential","lanes":"2","lanes:backward":"1","lanes:forward":"1","maxspeed":"50","name":"Neo Tiew Lane 3","source":"Yahoo aerial images","surface":"asphalt","turn:lanes:backward":"left;right"},"geometry":{"type":"LineString","coordinates":[[103.7212949,1.4260863],[103.721728,1.4259618]]}},{"type":"Feature","id":"way/639130076-0-4-0","properties":{"highway":"service"},"geometry":{"type":"LineString","coordinates":[[103.7206876,1.4276107],[103.7209784,1.4276038]]}},{"type":"Feature","id":"way/639130079-0-0-0","properties":{"highway":"service"},"geometry":{"type":"LineString","coordinates":[[103.7209784,1.4276038],[103.7210003,1.4276052]]}},{"type":"Feature","id":"way/639130079-0-1-0","properties":{"highway":"service"},"geometry":{"type":"LineString","coordinates":[[103.7210003,1.4276052],[103.7210291,1.4276216]]}},{"type":"Feature","id":"way/639130079-0-2-0","properties":{"highway":"service"},"geometry":{"type":"LineString","coordinates":[[103.7210291,1.4276216],[103.7210511,1.4276477]]}},{"type":"Feature","id":"way/642575680-0-2-0","properties":{"highway":"service","lanes":"2","lanes:backward":"1","lanes:forward":"1","surface":"concrete"},"geometry":{"type":"LineString","coordinates":[[103.7207074,1.4264673],[103.7207356,1.4264445]]}},{"type":"Feature","id":"way/642575680-0-3-0","properties":{"highway":"service","lanes":"2","lanes:backward":"1","lanes:forward":"1","surface":"concrete"},"geometry":{"type":"LineString","coordinates":[[103.7207356,1.4264445],[103.7208067,1.4264271]]}},{"type":"Feature","id":"way/649175889-0-0-0","properties":{"highway":"residential","lanes":"2","lanes:backward":"1","lanes:forward":"1","maxspeed":"50","name":"Neo Tiew Lane 3","source":"Yahoo aerial images","surface":"asphalt"},"geometry":{"type":"LineString","coordinates":[[103.721728,1.4259618],[103.7226031,1.4257125]]}},{"type":"Feature","id":"way/649175889-0-0-1","properties":{"highway":"residential","lanes":"2","lanes:backward":"1","lanes:forward":"1","maxspeed":"50","name":"Neo Tiew Lane 3","source":"Yahoo aerial images","surface":"asphalt"},"geometry":{"type":"LineString","coordinates":[[103.7226031,1.4257125],[103.7234782,1.4254631]]}},{"type":"Feature","id":"way/649175889-0-1-0","properties":{"highway":"residential","lanes":"2","lanes:backward":"1","lanes:forward":"1","maxspeed":"50","name":"Neo Tiew Lane 3","source":"Yahoo aerial images","surface":"asphalt"},"geometry":{"type":"LineString","coordinates":[[103.7234782,1.4254631],[103.7235848,1.4254334]]}},{"type":"Feature","id":"way/649175889-0-2-0","properties":{"highway":"residential","lanes":"2","lanes:backward":"1","lanes:forward":"1","maxspeed":"50","name":"Neo Tiew Lane 3","source":"Yahoo aerial images","surface":"asphalt"},"geometry":{"type":"LineString","coordinates":[[103.7235848,1.4254334],[103.723772,1.4253812]]}},{"type":"Feature","id":"way/649175889-0-3-0","properties":{"highway":"residential","lanes":"2","lanes:backward":"1","lanes:forward":"1","maxspeed":"50","name":"Neo Tiew Lane 3","source":"Yahoo aerial images","surface":"asphalt"},"geometry":{"type":"LineString","coordinates":[[103.723772,1.4253812],[103.7244545,1.425191]]}},{"type":"Feature","id":"way/668179454-0-0-0","properties":{"highway":"residential","lanes":"2","lanes:backward":"1","lanes:forward":"1","maxspeed":"50","name":"Neo Tiew Lane 3","source":"Yahoo aerial images","surface":"asphalt","turn:lanes:forward":"through;right"},"geometry":{"type":"LineString","coordinates":[[103.7244545,1.425191],[103.7253438,1.4247673]]}},{"type":"Feature","id":"way/706337172-0-0-0","properties":{"bridge":"yes","highway":"residential","layer":"1","maxspeed":"50","name":"Neo Tiew Harvest Link","surface":"asphalt"},"geometry":{"type":"LineString","coordinates":[[103.7227665,1.423915],[103.7227913,1.4240486]]}},{"type":"Feature","id":"way/711385814-0-0-0","properties":{"highway":"residential","lanes":"2","lanes:backward":"1","lanes:forward":"1","maxspeed":"50","name":"Turut Track","surface":"asphalt"},"geometry":{"type":"LineString","coordinates":[[103.7207832,1.4245679],[103.7211806,1.4245098]]}},{"type":"Feature","id":"way/711385814-0-1-0","properties":{"highway":"residential","lanes":"2","lanes:backward":"1","lanes:forward":"1","maxspeed":"50","name":"Turut Track","surface":"asphalt"},"geometry":{"type":"LineString","coordinates":[[103.7211806,1.4245098],[103.7227285,1.4240876]]}},{"type":"Feature","id":"way/711385814-0-2-0","properties":{"highway":"residential","lanes":"2","lanes:backward":"1","lanes:forward":"1","maxspeed":"50","name":"Turut Track","surface":"asphalt"},"geometry":{"type":"LineString","coordinates":[[103.7227285,1.4240876],[103.7227967,1.4240698]]}},{"type":"Feature","id":"way/711385815-0-0-0","properties":{"highway":"residential","maxspeed":"50","name":"Neo Tiew Harvest Link"},"geometry":{"type":"LineString","coordinates":[[103.7227967,1.4240698],[103.7227913,1.4240486]]}},{"type":"Feature","id":"way/1157124142-0-0-0","properties":{"highway":"service"},"geometry":{"type":"LineString","coordinates":[[103.7235848,1.4254334],[103.7235657,1.4253595]]}},{"type":"Feature","id":"way/1157124142-0-1-0","properties":{"highway":"service"},"geometry":{"type":"LineString","coordinates":[[103.7235657,1.4253595],[103.7234978,1.4251442]]}},{"type":"Feature","id":"way/1157124142-0-2-0","properties":{"highway":"service"},"geometry":{"type":"LineString","coordinates":[[103.7234978,1.4251442],[103.7232667,1.4252157]]}},{"type":"Feature","id":"way/1157124145-0-0-0","properties":{"highway":"service","service":"driveway"},"geometry":{"type":"LineString","coordinates":[[103.723772,1.4253812],[103.723789,1.4254496]]}},{"type":"Feature","id":"way/1157124145-0-1-0","properties":{"highway":"service","service":"driveway"},"geometry":{"type":"LineString","coordinates":[[103.723789,1.4254496],[103.7238047,1.4255065]]}},{"type":"Feature","id":"way/1157124145-0-2-0","properties":{"highway":"service","service":"driveway"},"geometry":{"type":"LineString","coordinates":[[103.7238047,1.4255065],[103.7238378,1.425627]]}},{"type":"Feature","id":"way/1157124145-0-3-0","properties":{"highway":"service","service":"driveway"},"geometry":{"type":"LineString","coordinates":[[103.7238378,1.425627],[103.723976,1.4255879]]}},{"type":"Feature","id":"way/1157124146-0-0-0","properties":{"highway":"service","service":"driveway"},"geometry":{"type":"LineString","coordinates":[[103.7238047,1.4255065],[103.7239424,1.4254674]]}}]}