{"type":"FeatureCollection","features":[{"type":"Feature","id":"relation/7782882-0","properties":{"building":"yes","name":"15","type":"multipolygon"},"geometry":{"type":"Polygon","coordinates":[[[103.7226172,1.3083482],[103.7225913,1.3083593],[103.7224624,1.3080576],[103.7218334,1.3083261],[103.7221555,1.3090802],[103.7220424,1.3091285],[103.7221949,1.3094855],[103.722963,1.3091576],[103.7226172,1.3083482]],[[103.7220872,1.3084864],[103.7220652,1.3084847],[103.7220495,1.3084753],[103.7220051,1.308382],[103.7220043,1.308361],[103.7220134,1.3083431],[103.7220413,1.3083292],[103.7223566,1.3081918],[103.7223794,1.3081893],[103.7223935,1.3081931],[103.7224075,1.3082021],[103.7224501,1.308291],[103.7224503,1.3083063],[103.7224437,1.3083246],[103.722425,1.3083424],[103.7221078,1.3084795],[103.7220872,1.3084864]]]}},{"type":"Feature","id":"way/117564739-0","properties":{"building":"yes"},"geometry":{"type":"Polygon","coordinates":[[[103.7242847,1.3090029],[103.7237337,1.307683],[103.7234987,1.307781],[103.7240497,1.3091009],[103.7242847,1.3090029]]]}},{"type":"Feature","id":"way/117564749-0","properties":{"building":"yes"},"geometry":{"type":"Polygon","coordinates":[[[103.7237199,1.3072929],[103.7233795,1.306472],[103.7229312,1.3066578],[103.7229843,1.3067859],[103.7222296,1.3070988],[103.7223625,1.3074192],[103.7223734,1.3074456],[103.7231532,1.3071224],[103.7232967,1.3074683],[103.7237199,1.3072929]]]}},{"type":"Feature","id":"way/117564751-0","properties":{"building":"yes","name":"16"},"geometry":{"type":"Polygon","coordinates":[[[103.7215114,1.3078581],[103.721806,1.307609],[103.7204969,1.3060614],[103.7202022,1.3063105],[103.7215114,1.3078581]]]}},{"type":"Feature","id":"way/117564760-0","properties":{"building":"yes","name":"31"},"geometry":{"type":"Polygon","coordinates":[[[103.7246735,1.309779],[103.7244395,1.3098122],[103.7244181,1.3097157],[103.724095,1.309782],[103.7241177,1.3098873],[103.7239245,1.3099195],[103.723828,1.3100106],[103.7239027,1.3104101],[103.7235405,1.310485],[103.7235887,1.3107355],[103.7236416,1.3107253],[103.7236791,1.31092],[103.7248515,1.3106716],[103.7246735,1.309779]]]}},{"type":"Feature","id":"way/117564767-0","properties":{"building":"yes"},"geometry":{"type":"Polygon","coordinates":[[[103.7245455,1.3088991],[103.7240037,1.3075908],[103.7237337,1.307683],[103.7242847,1.3090029],[103.7245455,1.3088991]]]}},{"type":"Feature","id":"way/117564773-0","properties":{"building":"yes","name":"J1"},"geometry":{"type":"Polygon","coordinates":[[[103.7232967,1.3074683],[103.7231532,1.3071224],[103.7223734,1.3074456],[103.7225168,1.3077915],[103.7232967,1.3074683]]]}},{"type":"Feature","id":"way/117564778-0","properties":{"building":"yes"},"geometry":{"type":"Polygon","coordinates":[[[103.7217869,1.3074474],[103.7220176,1.3077263],[103.7223625,1.3074192],[103.7222296,1.3070988],[103.7217869,1.3074474]]]}},{"type":"Feature","id":"way/117925345-0","properties":{"building":"yes","name":"12"},"geometry":{"type":"Polygon","coordinates":[[[103.7219363,1.310981],[103.7218735,1.3106516],[103.7214362,1.3107349],[103.721499,1.3110643],[103.7219363,1.310981]]]}},{"type":"Feature","id":"way/117925352-0","properties":{"building":"yes","name":"29"},"geometry":{"type":"Polygon","coordinates":[[[103.7232284,1.3107096],[103.7231722,1.310367],[103.722798,1.3104283],[103.7228099,1.3105008],[103.7227818,1.3105054],[103.7228261,1.3107754],[103.7232284,1.3107096]]]}},{"type":"Feature","id":"way/117925359-0","properties":{"building":"yes","name":"10"},"geometry":{"type":"Polygon","coordinates":[[[103.7226412,1.3108468],[103.7226004,1.3106313],[103.7224139,1.3106666],[103.7223909,1.3105448],[103.7220529,1.3106087],[103.7221168,1.310946],[103.7226412,1.3108468]]]}},{"type":"Feature","id":"way/117925370-0","properties":{"building":"yes","name":"5"},"geometry":{"type":"Polygon","coordinates":[[[103.7222087,1.3102273],[103.722186,1.3100528],[103.7220241,1.3100739],[103.7219975,1.3098695],[103.7218615,1.3098872],[103.7219108,1.310266],[103.7222087,1.3102273]]]}},{"type":"Feature","id":"way/117925391-0","properties":{"building":"yes","name":"39"},"geometry":{"type":"Polygon","coordinates":[[[103.7222531,1.3099208],[103.7222712,1.3099116],[103.7223123,1.3099924],[103.7223814,1.3099573],[103.7223958,1.3099856],[103.7223259,1.3100212],[103.7223624,1.3100604],[103.7225501,1.3100417],[103.7225951,1.3101484],[103.7229169,1.3100853],[103.7229894,1.3100562],[103.7226931,1.3094027],[103.7221354,1.3096466],[103.7222531,1.3099208]]]}},{"type":"Feature","id":"way/453250362-0","properties":{"building":"yes"},"geometry":{"type":"Polygon","coordinates":[[[103.7223691,1.3079022],[103.7222699,1.3076704],[103.7220143,1.3077797],[103.7220343,1.3078265],[103.7218682,1.3078976],[103.7218958,1.3079621],[103.7217369,1.3080301],[103.7217517,1.3080648],[103.7216618,1.3081033],[103.7216985,1.3081891],[103.7223691,1.3079022]]]}},{"type":"Feature","id":"way/453250413-0","properties":{"building":"yes"},"geometry":{"type":"Polygon","coordinates":[[[103.7211069,1.3078205],[103.7211103,1.3078661],[103.7211308,1.3079069],[103.7211654,1.3079367],[103.7212088,1.307951],[103.7212544,1.3079476],[103.7212952,1.3079271],[103.721325,1.3078925],[103.7213393,1.3078491],[103.721336,1.3078035],[103.7213154,1.3077627],[103.7212808,1.3077329],[103.7212374,1.3077186],[103.7211918,1.307722],[103.721151,1.3077425],[103.7211212,1.3077772],[103.7211069,1.3078205]]]}},{"type":"Feature","id":"way/453252152-0","properties":{"building":"yes"},"geometry":{"type":"Polygon","coordinates":[[[103.7229738,1.3079923],[103.7229441,1.3079237],[103.7229945,1.3079019],[103.722951,1.3078013],[103.7228237,1.3078564],[103.7228701,1.3079634],[103.7228807,1.3079588],[103.7229077,1.3080209],[103.7229738,1.3079923]]]}},{"type":"Feature","id":"way/453252154-0","properties":{"building":"yes"},"geometry":{"type":"Polygon","coordinates":[[[103.722808,1.3078663],[103.7227526,1.3078891],[103.7227454,1.3078716],[103.722676,1.3079003],[103.7227072,1.3079756],[103.7227234,1.3079689],[103.7227461,1.3080239],[103.7228546,1.3079791],[103.722808,1.3078663]]]}},{"type":"Feature","id":"way/453252156-0","properties":{"building":"yes"},"geometry":{"type":"Polygon","coordinates":[[[103.722651,1.3078909],[103.7226405,1.3078653],[103.7226697,1.3078533],[103.7226571,1.3078226],[103.7226313,1.3078332],[103.7226109,1.3077838],[103.7224771,1.3078389],[103.7225206,1.3079446],[103.722651,1.3078909]]]}},{"type":"Feature","id":"way/453252158-0","properties":{"building":"yes"},"geometry":{"type":"Polygon","coordinates":[[[103.723505,1.3088925],[103.7233897,1.3086219],[103.72299,1.3087922],[103.7231054,1.3090628],[103.723505,1.3088925]]]}},{"type":"Feature","id":"way/453252160-0","properties":{"building":"yes"},"geometry":{"type":"Polygon","coordinates":[[[103.7232985,1.3086337],[103.7231997,1.3084062],[103.7231449,1.30843],[103.7231311,1.3083983],[103.7228091,1.3085381],[103.7229216,1.3087973],[103.7232985,1.3086337]]]}},{"type":"Feature","id":"way/453252162-0","properties":{"building":"yes"},"geometry":{"type":"Polygon","coordinates":[[[103.7236659,1.3091298],[103.7236312,1.3090481],[103.7235939,1.3090639],[103.7235862,1.3090457],[103.7228118,1.309374],[103.7228565,1.3094796],[103.7228966,1.3094626],[103.7230414,1.3098037],[103.7229774,1.3098309],[103.7230228,1.3099377],[103.7230868,1.3099105],[103.7230879,1.3099133],[103.7232054,1.3098635],[103.7232067,1.3098664],[103.7238223,1.3096054],[103.7238082,1.3095723],[103.7238539,1.3095529],[103.7238228,1.3094794],[103.7231614,1.3097598],[103.7230118,1.3094072],[103.7236659,1.3091298]]]}},{"type":"Feature","id":"way/503589912-0","properties":{"building":"yes"},"geometry":{"type":"Polygon","coordinates":[[[103.7218519,1.3102644],[103.7218092,1.3099736],[103.7217685,1.3099795],[103.7217871,1.3101061],[103.7216227,1.3101302],[103.7216327,1.3102088],[103.7215737,1.3102303],[103.7215844,1.3103036],[103.7218519,1.3102644]]]}},{"type":"Feature","id":"way/70585701-0-0-0","properties":{"highway":"residential","lanes":"2","lanes:backward":"1","lanes:forward":"1","maxspeed":"50","name":"Jalan Tepong","sidewalk":"right"},"geometry":{"type":"LineString","coordinates":[[103.721728,1.3086393],[103.7217657,1.3087212]]}},{"type":"Feature","id":"way/70585701-0-1-0","properties":{"highway":"residential","lanes":"2","lanes:backward":"1","lanes:forward":"1","maxspeed":"50","name":"Jalan Tepong","sidewalk":"right"},"geometry":{"type":"LineString","coordinates":[[103.7217657,1.3087212],[103.721847,1.3088981]]}},{"type":"Feature","id":"way/70585701-0-2-0","properties":{"highway":"residential","lanes":"2","lanes:backward":"1","lanes:forward":"1","maxspeed":"50","name":"Jalan Tepong","sidewalk":"right"},"geometry":{"type":"LineString","coordinates":[[103.721847,1.3088981],[103.7218691,1.3090197]]}},{"type":"Feature","id":"way/70585701-0-3-0","properties":{"highway":"residential","lanes":"2","lanes:backward":"1","lanes:forward":"1","maxspeed":"50","name":"Jalan Tepong","sidewalk":"right"},"geometry":{"type":"LineString","coordinates":[[103.7218691,1.3090197],[103.7218728,1.3091559]]}},{"type":"Feature","id":"way/70585701-0-4-0","properties":{"highway":"residential","lanes":"2","lanes:backward":"1","lanes:forward":"1","maxspeed":"50","name":"Jalan Tepong","sidewalk":"right"},"geometry":{"type":"LineString","coordinates":[[103.7218728,1.3091559],[103.7218765,1.3092865]]}},{"type":"Feature","id":"way/75045952-0-0-0","properties":{"highway":"unclassified","lanes":"2","lanes:backward":"1","lanes:forward":"1","maxspeed":"50","name":"Jalan Tepong","sidewalk":"right","turn:lanes:backward":"left;through"},"geometry":{"type":"LineString","coordinates":[[103.7212233,1.3106094],[103.7212002,1.310643]]}},{"type":"Feature","id":"way/75045952-0-1-0","properties":{"highway":"unclassified","lanes":"2","lanes:backward":"1","lanes:forward":"1","maxspeed":"50","name":"Jalan Tepong","sidewalk":"right","turn:lanes:backward":"left;through"},"geometry":{"type":"LineString","coordinates":[[103.7212002,1.310643],[103.7209922,1.3110087]]}},{"type":"Feature","id":"way/452010723-0-0-0","properties":{"highway":"service"},"geometry":{"type":"LineString","coordinates":[[103.7233687,1.3109142],[103.7232976,1.3104558]]}},{"type":"Feature","id":"way/452010729-0-0-0","properties":{"highway":"service","lanes":"1"},"geometry":{"type":"LineString","coordinates":[[103.7234248,1.3093128],[103.7235218,1.309532]]}},{"type":"Feature","id":"way/452010730-0-0-0","properties":{"highway":"service","lanes":"1"},"geometry":{"type":"LineString","coordinates":[[103.7232606,1.3093854],[103.7233579,1.3096064]]}},{"type":"Feature","id":"way/452010731-0-0-0","properties":{"highway":"service","lanes":"2","lanes:backward":"1","lanes:forward":"1"},"geometry":{"type":"LineString","coordinates":[[103.7234248,1.3093128],[103.7232606,1.3093854]]}},{"type":"Feature","id":"way/452010732-0-0-0","properties":{"highway":"service","lanes":"2","lanes:backward":"1","lanes:forward":"1"},"geometry":{"type":"LineString","coordinates":[[103.7231981,1.3096789],[103.7233579,1.3096064]]}},{"type":"Feature","id":"way/452010733-0-0-0","properties":{"highway":"service","service":"parking_aisle"},"geometry":{"type":"LineString","coordinates":[[103.723211,1.3076582],[103.7234399,1.3082016]]}},{"type":"Feature","id":"way/452010734-0-0-0","properties":{"highway":"service"},"geometry":{"type":"LineString","coordinates":[[103.7240394,1.3095858],[103.7239448,1.3096369]]}},{"type":"Feature","id":"way/453252164-0-0-0","properties":{"highway":"service","lanes":"2","lanes:backward":"1","lanes:forward":"1"},"geometry":{"type":"LineString","coordinates":[[103.7238323,1.309391],[103.7239448,1.3096369]]}},{"type":"Feature","id":"way/465279718-0-0-0","properties":{"highway":"service","lanes":"2","lanes:backward":"1","lanes:forward":"1"},"geometry":{"type":"LineString","coordinates":[[103.7238323,1.309391],[103.7236868,1.3094571]]}},{"type":"Feature","id":"way/465279719-0-0-0","properties":{"highway":"service","lanes":"2","lanes:backward":"1","lanes:forward":"1"},"geometry":{"type":"LineString","coordinates":[[103.7237328,1.3091713],[103.7238323,1.309391]]}},{"type":"Feature","id":"way/465279720-0-0-0","properties":{"highway":"service","lanes":"2","lanes:backward":"1","lanes:forward":"1"},"geometry":{"type":"LineString","coordinates":[[103.7235884,1.3092397],[103.7237328,1.3091713]]}},{"type":"Feature","id":"way/465279721-0-0-0","properties":{"highway":"service"},"geometry":{"type":"LineString","coordinates":[[103.7230975,1.3094575],[103.7231981,1.3096789]]}},{"type":"Feature","id":"way/465279722-0-0-0","properties":{"highway":"service"},"geometry":{"type":"LineString","coordinates":[[103.7236868,1.3094571],[103.7235884,1.3092397]]}},{"type":"Feature","id":"way/465279724-0-0-0","properties":{"highway":"service"},"geometry":{"type":"LineString","coordinates":[[103.7232976,1.3104558],[103.7236137,1.3103899]]}},{"type":"Feature","id":"way/465279725-0-0-0","properties":{"highway":"service"},"geometry":{"type":"LineString","coordinates":[[103.7236137,1.3103899],[103.7235963,1.3102919]]}},{"type":"Feature","id":"way/465279725-0-1-0","properties":{"highway":"service"},"geometry":{"type":"LineString","coordinates":[[103.7235963,1.3102919],[103.7235776,1.3101869]]}},{"type":"Feature","id":"way/465279725-0-2-0","properties":{"highway":"service"},"geometry":{"type":"LineString","coordinates":[[103.7235776,1.3101869],[103.7235714,1.3101517]]}},{"type":"Feature","id":"way/465279727-0-0-0","properties":{"highway":"service","lanes":"2","lanes:backward":"1","lanes:forward":"1"},"geometry":{"type":"LineString","coordinates":[[103.7235714,1.3101517],[103.7231218,1.3102441]]}},{"type":"Feature","id":"way/465279728-0-0-0","properties":{"highway":"service","lanes":"2","lanes:backward":"1","lanes:forward":"1"},"geometry":{"type":"LineString","coordinates":[[103.7231218,1.3102441],[103.72263,1.3103331]]}},{"type":"Feature","id":"way/465284848-0-0-0","properties":{"highway":"service"},"geometry":{"type":"LineString","coordinates":[[103.7214732,1.3081794],[103.7213717,1.3081431]]}},{"type":"Feature","id":"way/465284848-0-1-0","properties":{"highway":"service"},"geometry":{"type":"LineString","coordinates":[[103.7213717,1.3081431],[103.7213032,1.3081237]]}},{"type":"Feature","id":"way/465284848-0-2-0","properties":{"highway":"service"},"geometry":{"type":"LineString","coordinates":[[103.7213032,1.3081237],[103.7211652,1.3080069]]}},{"type":"Feature","id":"way/465284850-0-0-0","properties":{"highway":"residential","lanes":"2","lanes:backward":"1","lanes:forward":"1","maxspeed":"50","name":"Jalan Tepong"},"geometry":{"type":"LineString","coordinates":[[103.7218021,1.307835],[103.7215121,1.3080962]]}},{"type":"Feature","id":"way/465284850-0-1-0","properties":{"highway":"residential","lanes":"2","lanes:backward":"1","lanes:forward":"1","maxspeed":"50","name":"Jalan Tepong"},"geometry":{"type":"LineString","coordinates":[[103.7215121,1.3080962],[103.7214732,1.3081794]]}},{"type":"Feature","id":"way/544624844-0-0-0","properties":{"highway":"service","lanes":"2","lanes:backward":"1","lanes:forward":"1"},"geometry":{"type":"LineString","coordinates":[[103.7237328,1.3091713],[103.7236057,1.3088888]]}},{"type":"Feature","id":"way/544624847-0-0-0","properties":{"highway":"service"},"geometry":{"type":"LineString","coordinates":[[103.7231006,1.3090871],[103.7236057,1.3088888]]}},{"type":"Feature","id":"way/544624848-0-0-0","properties":{"highway":"service","service":"parking_aisle"},"geometry":{"type":"LineString","coordinates":[[103.723211,1.3076582],[103.7230819,1.3077128]]}},{"type":"Feature","id":"way/544624848-0-1-0","properties":{"highway":"service","service":"parking_aisle"},"geometry":{"type":"LineString","coordinates":[[103.7230819,1.3077128],[103.7230691,1.3077309]]}},{"type":"Feature","id":"way/544624848-0-2-0","properties":{"highway":"service","service":"parking_aisle"},"geometry":{"type":"LineString","coordinates":[[103.7230691,1.3077309],[103.7230664,1.3077564]]}},{"type":"Feature","id":"way/544624848-0-3-0","properties":{"highway":"service","service":"parking_aisle"},"geometry":{"type":"LineString","coordinates":[[103.7230664,1.3077564],[103.7232801,1.3082733]]}},{"type":"Feature","id":"way/544624852-0-0-0","properties":{"highway":"service"},"geometry":{"type":"LineString","coordinates":[[103.723028,1.3083881],[103.7232801,1.3082733]]}},{"type":"Feature","id":"way/544624853-0-0-0","properties":{"highway":"service"},"geometry":{"type":"LineString","coordinates":[[103.7236404,1.3086575],[103.7238074,1.3085778]]}},{"type":"Feature","id":"way/544624856-0-0-0","properties":{"highway":"service","service":"parking_aisle"},"geometry":{"type":"LineString","coordinates":[[103.7242957,1.3092469],[103.7243011,1.3092767]]}},{"type":"Feature","id":"way/544624856-0-1-0","properties":{"highway":"service","service":"parking_aisle"},"geometry":{"type":"LineString","coordinates":[[103.7243011,1.3092767],[103.7243792,1.3094639]]}},{"type":"Feature","id":"way/544624858-0-0-0","properties":{"highway":"service","service":"parking_aisle"},"geometry":{"type":"LineString","coordinates":[[103.7245927,1.309116],[103.724565,1.3091192]]}},{"type":"Feature","id":"way/544624858-0-1-0","properties":{"highway":"service","service":"parking_aisle"},"geometry":{"type":"LineString","coordinates":[[103.724565,1.3091192],[103.7244495,1.3091674]]}},{"type":"Feature","id":"way/544624860-0-0-0","properties":{"highway":"service","service":"parking_aisle"},"geometry":{"type":"LineString","coordinates":[[103.724683,1.3093182],[103.72468,1.3092905]]}},{"type":"Feature","id":"way/544624860-0-1-0","properties":{"highway":"service","service":"parking_aisle"},"geometry":{"type":"LineString","coordinates":[[103.72468,1.3092905],[103.7246161,1.3091277]]}},{"type":"Feature","id":"way/544624860-0-2-0","properties":{"highway":"service","service":"parking_aisle"},"geometry":{"type":"LineString","coordinates":[[103.7246161,1.3091277],[103.7245927,1.309116]]}},{"type":"Feature","id":"way/544624863-0-0-0","properties":{"highway":"service"},"geometry":{"type":"LineString","coordinates":[[103.724634,1.3089516],[103.724669,1.3089648]]}},{"type":"Feature","id":"way/544624863-0-1-0","properties":{"highway":"service"},"geometry":{"type":"LineString","coordinates":[[103.724669,1.3089648],[103.7246992,1.308998]]}},{"type":"Feature","id":"way/544624863-0-2-0","properties":{"highway":"service"},"geometry":{"type":"LineString","coordinates":[[103.7246992,1.308998],[103.7252632,1.3104613]]}},{"type":"Feature","id":"way/544624865-0-0-0","properties":{"highway":"service"},"geometry":{"type":"LineString","coordinates":[[103.7240647,1.3091523],[103.7240899,1.3091501]]}},{"type":"Feature","id":"way/544624865-0-1-0","properties":{"highway":"service"},"geometry":{"type":"LineString","coordinates":[[103.7240899,1.3091501],[103.7245791,1.3089516]]}},{"type":"Feature","id":"way/544624865-0-2-0","properties":{"highway":"service"},"geometry":{"type":"LineString","coordinates":[[103.7245791,1.3089516],[103.724594,1.3089516]]}},{"type":"Feature","id":"way/544624865-0-3-0","properties":{"highway":"service"},"geometry":{"type":"LineString","coordinates":[[103.724594,1.3089516],[103.724634,1.3089516]]}},{"type":"Feature","id":"way/544624867-0-0-0","properties":{"highway":"service","service":"parking_aisle"},"geometry":{"type":"LineString","coordinates":[[103.7244495,1.3091674],[103.7245401,1.3093979]]}},{"type":"Feature","id":"way/544624869-0-0-0","properties":{"highway":"service"},"geometry":{"type":"LineString","coordinates":[[103.7240394,1.3095858],[103.7242504,1.3095108]]}},{"type":"Feature","id":"way/544624869-0-1-0","properties":{"highway":"service"},"geometry":{"type":"LineString","coordinates":[[103.7242504,1.3095108],[103.7243062,1.3094939]]}},{"type":"Feature","id":"way/544624869-0-2-0","properties":{"highway":"service"},"geometry":{"type":"LineString","coordinates":[[103.7243062,1.3094939],[103.7243792,1.3094639]]}},{"type":"Feature","id":"way/544624872-0-0-0","properties":{"highway":"service","service":"parking_aisle"},"geometry":{"type":"LineString","coordinates":[[103.7239211,1.3073665],[103.7238976,1.3073676]]}},{"type":"Feature","id":"way/544624872-0-1-0","properties":{"highway":"service","service":"parking_aisle"},"geometry":{"type":"LineString","coordinates":[[103.7238976,1.3073676],[103.7233891,1.3075865]]}},{"type":"Feature","id":"way/544624874-0-0-0","properties":{"highway":"service","service":"parking_aisle"},"geometry":{"type":"LineString","coordinates":[[103.7239817,1.3075049],[103.723986,1.3074804]]}},{"type":"Feature","id":"way/544624874-0-1-0","properties":{"highway":"service","service":"parking_aisle"},"geometry":{"type":"LineString","coordinates":[[103.723986,1.3074804],[103.7239402,1.3073761]]}},{"type":"Feature","id":"way/544624874-0-2-0","properties":{"highway":"service","service":"parking_aisle"},"geometry":{"type":"LineString","coordinates":[[103.7239402,1.3073761],[103.7239211,1.3073665]]}},{"type":"Feature","id":"way/544624876-0-0-0","properties":{"highway":"service","service":"parking_aisle"},"geometry":{"type":"LineString","coordinates":[[103.7234551,1.3077396],[103.7239615,1.3075262]]}},{"type":"Feature","id":"way/544624876-0-1-0","properties":{"highway":"service","service":"parking_aisle"},"geometry":{"type":"LineString","coordinates":[[103.7239615,1.3075262],[103.7239817,1.3075049]]}},{"type":"Feature","id":"way/544624878-0-0-0","properties":{"highway":"service"},"geometry":{"type":"LineString","coordinates":[[103.7238074,1.3085778],[103.7240435,1.309129]]}},{"type":"Feature","id":"way/544624878-0-1-0","properties":{"highway":"service"},"geometry":{"type":"LineString","coordinates":[[103.7240435,1.309129],[103.7240647,1.3091523]]}},{"type":"Feature","id":"way/544629093-0-0-0","properties":{"highway":"unclassified","lanes":"2","lanes:backward":"1","lanes:forward":"1","maxspeed":"50","name":"Fishery Port Road","surface":"asphalt","turn:lanes:backward":"left;right"},"geometry":{"type":"LineString","coordinates":[[103.7212233,1.3106094],[103.7216198,1.3105315]]}},{"type":"Feature","id":"way/639892087-0-0-0","properties":{"highway":"residential","lanes":"2","lanes:backward":"1","lanes:forward":"1","maxspeed":"50","name":"Jalan Tepong","sidewalk":"right"},"geometry":{"type":"LineString","coordinates":[[103.7218765,1.3092865],[103.7218507,1.3095022]]}},{"type":"Feature","id":"way/639892087-0-1-0","properties":{"highway":"residential","lanes":"2","lanes:backward":"1","lanes:forward":"1","maxspeed":"50","name":"Jalan Tepong","sidewalk":"right"},"geometry":{"type":"LineString","coordinates":[[103.7218507,1.3095022],[103.7218028,1.3096679]]}},{"type":"Feature","id":"way/639909205-0-0-0","properties":{"highway":"unclassified","lanes":"2","lanes:backward":"1","lanes:forward":"1","maxspeed":"50","name":"Fishery Port Road","surface":"asphalt","turn:lanes:backward":"left;right"},"geometry":{"type":"LineString","coordinates":[[103.72263,1.3103331],[103.7226432,1.3103912]]}},{"type":"Feature","id":"way/639909205-0-1-0","properties":{"highway":"unclassified","lanes":"2","lanes:backward":"1","lanes:forward":"1","maxspeed":"50","name":"Fishery Port Road","surface":"asphalt","turn:lanes:backward":"left;right"},"geometry":{"type":"LineString","coordinates":[[103.7226432,1.3103912],[103.7227434,1.3108317]]}},{"type":"Feature","id":"way/639909205-0-2-0","properties":{"highway":"unclassified","lanes":"2","lanes:backward":"1","lanes:forward":"1","maxspeed":"50","name":"Fishery Port Road","surface":"asphalt","turn:lanes:backward":"left;right"},"geometry":{"type":"LineString","coordinates":[[103.7227434,1.3108317],[103.7227709,1.3109526]]}},{"type":"Feature","id":"way/642154595-0-0-0","properties":{"highway":"service"},"geometry":{"type":"LineString","coordinates":[[103.7222591,1.3070103],[103.7225246,1.3068252]]}},{"type":"Feature","id":"way/642154595-0-1-0","properties":{"highway":"service"},"geometry":{"type":"LineString","coordinates":[[103.7225246,1.3068252],[103.7229913,1.3064578]]}},{"type":"Feature","id":"way/642154597-0-0-0","properties":{"highway":"service"},"geometry":{"type":"LineString","coordinates":[[103.7217602,1.3073588],[103.7216717,1.307332]]}},{"type":"Feature","id":"way/642154597-0-1-0","properties":{"highway":"service"},"geometry":{"type":"LineString","coordinates":[[103.7216717,1.307332],[103.7213606,1.3069352]]}},{"type":"Feature","id":"way/642154599-0-0-0","properties":{"highway":"service"},"geometry":{"type":"LineString","coordinates":[[103.7222591,1.3070103],[103.7217602,1.3073588]]}},{"type":"Feature","id":"way/642154602-0-1-0","properties":{"highway":"service"},"geometry":{"type":"LineString","coordinates":[[103.722041,1.3067435],[103.7221998,1.3069377]]}},{"type":"Feature","id":"way/642154602-0-2-0","properties":{"highway":"service"},"geometry":{"type":"LineString","coordinates":[[103.7221998,1.3069377],[103.7222591,1.3070103]]}},{"type":"Feature","id":"way/642154603-0-0-0","properties":{"highway":"service","lanes":"2","lanes:backward":"1","lanes:forward":"1"},"geometry":{"type":"LineString","coordinates":[[103.7208291,1.3091249],[103.7214249,1.3086245]]}},{"type":"Feature","id":"way/642154605-0-0-0","properties":{"highway":"service","lanes":"2","lanes:backward":"1","lanes:forward":"1"},"geometry":{"type":"LineString","coordinates":[[103.721063,1.3094061],[103.7215403,1.3089651]]}},{"type":"Feature","id":"way/642154606-0-0-0","properties":{"highway":"service","lanes":"2","lanes:backward":"1","lanes:forward":"1"},"geometry":{"type":"LineString","coordinates":[[103.7212635,1.309647],[103.7216073,1.3093673]]}},{"type":"Feature","id":"way/642154609-0-0-0","properties":{"highway":"service","lanes":"2","lanes:backward":"1","lanes:forward":"1"},"geometry":{"type":"LineString","coordinates":[[103.7212635,1.309647],[103.7213297,1.3097226]]}},{"type":"Feature","id":"way/642154609-0-1-0","properties":{"highway":"service","lanes":"2","lanes:backward":"1","lanes:forward":"1"},"geometry":{"type":"LineString","coordinates":[[103.7213297,1.3097226],[103.721323,1.309783]]}},{"type":"Feature","id":"way/642154609-0-2-0","properties":{"highway":"service","lanes":"2","lanes:backward":"1","lanes:forward":"1"},"geometry":{"type":"LineString","coordinates":[[103.721323,1.309783],[103.7209743,1.3101074]]}},{"type":"Feature","id":"way/644458655-0-0-0","properties":{"highway":"service","lanes":"2","lanes:backward":"1","lanes:forward":"1"},"geometry":{"type":"LineString","coordinates":[[103.7235218,1.309532],[103.7236868,1.3094571]]}},{"type":"Feature","id":"way/644459180-0-0-0","properties":{"highway":"service","lanes":"2","lanes:backward":"1","lanes:forward":"1"},"geometry":{"type":"LineString","coordinates":[[103.7235884,1.3092397],[103.7234248,1.3093128]]}},{"type":"Feature","id":"way/644459603-0-0-0","properties":{"highway":"service","lanes":"2","lanes:backward":"1","lanes:forward":"1"},"geometry":{"type":"LineString","coordinates":[[103.7233579,1.3096064],[103.7235218,1.309532]]}},{"type":"Feature","id":"way/644462130-0-0-0","properties":{"highway":"service","lanes":"2","lanes:backward":"1","lanes:forward":"1"},"geometry":{"type":"LineString","coordinates":[[103.7232606,1.3093854],[103.7230975,1.3094575]]}},{"type":"Feature","id":"way/644844113-0-0-0","properties":{"highway":"service"},"geometry":{"type":"LineString","coordinates":[[103.7239448,1.3096369],[103.7231218,1.3102441]]}},{"type":"Feature","id":"way/646818475-0-0-0","properties":{"highway":"service"},"geometry":{"type":"LineString","coordinates":[[103.7236057,1.3088888],[103.7237194,1.3088368]]}},{"type":"Feature","id":"way/646819358-0-0-0","properties":{"highway":"service","service":"parking_aisle"},"geometry":{"type":"LineString","coordinates":[[103.7237194,1.3088368],[103.7240394,1.3095858]]}},{"type":"Feature","id":"way/646819360-0-0-0","properties":{"highway":"service","service":"parking_aisle"},"geometry":{"type":"LineString","coordinates":[[103.7236404,1.3086575],[103.7237194,1.3088368]]}},{"type":"Feature","id":"way/646819539-0-0-0","properties":{"highway":"service"},"geometry":{"type":"LineString","coordinates":[[103.7232801,1.3082733],[103.7234399,1.3082016]]}},{"type":"Feature","id":"way/646819886-0-0-0","properties":{"highway":"service","service":"parking_aisle"},"geometry":{"type":"LineString","coordinates":[[103.7234399,1.3082016],[103.7236404,1.3086575]]}},{"type":"Feature","id":"way/646820475-0-0-0","properties":{"highway":"service"},"geometry":{"type":"LineString","coordinates":[[103.7234551,1.3077396],[103.7238074,1.3085778]]}},{"type":"Feature","id":"way/646820477-0-0-0","properties":{"highway":"service"},"geometry":{"type":"LineString","coordinates":[[103.7233891,1.3075865],[103.7234551,1.3077396]]}},{"type":"Feature","id":"way/646826561-0-0-0","properties":{"highway":"service"},"geometry":{"type":"LineString","coordinates":[[103.7243792,1.3094639],[103.7245401,1.3093979]]}},{"type":"Feature","id":"way/646826562-0-0-0","properties":{"highway":"service"},"geometry":{"type":"LineString","coordinates":[[103.7245401,1.3093979],[103.7246729,1.3093435]]}},{"type":"Feature","id":"way/646826562-0-1-0","properties":{"highway":"service"},"geometry":{"type":"LineString","coordinates":[[103.7246729,1.3093435],[103.724683,1.3093182]]}},{"type":"Feature","id":"way/646826821-0-0-0","properties":{"highway":"service","service":"parking_aisle"},"geometry":{"type":"LineString","coordinates":[[103.7244495,1.3091674],[103.7243075,1.3092267]]}},{"type":"Feature","id":"way/646826821-0-1-0","properties":{"highway":"service","service":"parking_aisle"},"geometry":{"type":"LineString","coordinates":[[103.7243075,1.3092267],[103.7242957,1.3092469]]}},{"type":"Feature","id":"way/646832570-0-0-0","properties":{"highway":"service","service":"parking_aisle"},"geometry":{"type":"LineString","coordinates":[[103.7233891,1.3075865],[103.723211,1.3076582]]}},{"type":"Feature","id":"way/669919053-0-0-0","properties":{"highway":"unclassified","lanes":"2","lanes:backward":"1","lanes:forward":"1","maxspeed":"50","name":"Fishery Port Road","surface":"asphalt"},"geometry":{"type":"LineString","coordinates":[[103.7216198,1.3105315],[103.7224467,1.3103691]]}},{"type":"Feature","id":"way/669919053-0-1-0","properties":{"highway":"unclassified","lanes":"2","lanes:backward":"1","lanes:forward":"1","maxspeed":"50","name":"Fishery Port Road","surface":"asphalt"},"geometry":{"type":"LineString","coordinates":[[103.7224467,1.3103691],[103.72263,1.3103331]]}},{"type":"Feature","id":"way/680897085-0-0-0","properties":{"highway":"residential","lanes":"2","lanes:backward":"1","lanes:forward":"1","maxspeed":"50","name":"Jalan Tepong","sidewalk":"right","turn:lanes:forward":"through;right"},"geometry":{"type":"LineString","coordinates":[[103.7216149,1.3100436],[103.7214713,1.3102527]]}},{"type":"Feature","id":"way/680897085-0-1-0","properties":{"highway":"residential","lanes":"2","lanes:backward":"1","lanes:forward":"1","maxspeed":"50","name":"Jalan Tepong","sidewalk":"right","turn:lanes:forward":"through;right"},"geometry":{"type":"LineString","coordinates":[[103.7214713,1.3102527],[103.7213331,1.3104514]]}},{"type":"Feature","id":"way/680897085-0-2-0","properties":{"highway":"residential","lanes":"2","lanes:backward":"1","lanes:forward":"1","maxspeed":"50","name":"Jalan Tepong","sidewalk":"right","turn:lanes:forward":"through;right"},"geometry":{"type":"LineString","coordinates":[[103.7213331,1.3104514],[103.7212233,1.3106094]]}},{"type":"Feature","id":"way/680897086-0-0-0","properties":{"highway":"residential","lanes":"2","lanes:backward":"1","lanes:forward":"1","maxspeed":"50","name":"Jalan Tepong","sidewalk":"right","turn:lanes:forward":"through;right"},"geometry":{"type":"LineString","coordinates":[[103.7218028,1.3096679],[103.721718,1.3098521]]}},{"type":"Feature","id":"way/680897086-0-1-0","properties":{"highway":"residential","lanes":"2","lanes:backward":"1","lanes:forward":"1","maxspeed":"50","name":"Jalan Tepong","sidewalk":"right","turn:lanes:forward":"through;right"},"geometry":{"type":"LineString","coordinates":[[103.721718,1.3098521],[103.7216149,1.3100436]]}},{"type":"Feature","id":"way/705461793-0-0-0","properties":{"highway":"service","lanes":"2","lanes:backward":"1","lanes:forward":"1"},"geometry":{"type":"LineString","coordinates":[[103.7209743,1.3101074],[103.7211459,1.3103139]]}},{"type":"Feature","id":"way/730963487-0-0-0","properties":{"highway":"service","lanes":"2","lanes:backward":"1","lanes:forward":"1"},"geometry":{"type":"LineString","coordinates":[[103.721063,1.3094061],[103.7212635,1.309647]]}},{"type":"Feature","id":"way/730963488-0-0-0","properties":{"highway":"service","lanes":"2","lanes:backward":"1","lanes:forward":"1"},"geometry":{"type":"LineString","coordinates":[[103.7208291,1.3091249],[103.721063,1.3094061]]}},{"type":"Feature","id":"way/905819702-0-0-0","properties":{"highway":"residential","lanes":"2","lanes:backward":"1","lanes:forward":"1","maxspeed":"50","name":"Jalan Tepong"},"geometry":{"type":"LineString","coordinates":[[103.7214732,1.3081794],[103.7214974,1.3082638]]}},{"type":"Feature","id":"way/905819702-0-1-0","properties":{"highway":"residential","lanes":"2","lanes:backward":"1","lanes:forward":"1","maxspeed":"50","name":"Jalan Tepong"},"geometry":{"type":"LineString","coordinates":[[103.7214974,1.3082638],[103.721728,1.3086393]]}},{"type":"Feature","id":"way/910618720-0-0-0","properties":{"highway":"service"},"geometry":{"type":"LineString","coordinates":[[103.7215121,1.3080962],[103.7215342,1.3079841]]}},{"type":"Feature","id":"way/910618720-0-1-0","properties":{"highway":"service"},"geometry":{"type":"LineString","coordinates":[[103.7215342,1.3079841],[103.7215261,1.3079444]]}},{"type":"Feature","id":"way/910618720-0-2-0","properties":{"highway":"service"},"geometry":{"type":"LineString","coordinates":[[103.7215261,1.3079444],[103.721163,1.3075196]]}},{"type":"Feature","id":"way/933708643-0-0-0","properties":{"highway":"service"},"geometry":{"type":"LineString","coordinates":[[103.7235963,1.3102919],[103.7236834,1.3100779]]}},{"type":"Feature","id":"way/933708643-0-1-0","properties":{"highway":"service"},"geometry":{"type":"LineString","coordinates":[[103.7236834,1.3100779],[103.723788,1.3099492]]}},{"type":"Feature","id":"way/933708643-0-2-0","properties":{"highway":"service"},"geometry":{"type":"LineString","coordinates":[[103.723788,1.3099492],[103.7239891,1.3097829]]}},{"type":"Feature","id":"way/933708643-0-3-0","properties":{"highway":"service"},"geometry":{"type":"LineString","coordinates":[[103.7239891,1.3097829],[103.724134,1.3097052]]}},{"type":"Feature","id":"way/933708643-0-4-0","properties":{"highway":"service"},"geometry":{"type":"LineString","coordinates":[[103.724134,1.3097052],[103.7242627,1.309681]]}},{"type":"Feature","id":"way/933708643-0-5-0","properties":{"highway":"service"},"geometry":{"type":"LineString","coordinates":[[103.7242627,1.309681],[103.7244639,1.3096488]]}},{"type":"Feature","id":"way/933708643-0-6-0","properties":{"highway":"service"},"geometry":{"type":"LineString","coordinates":[[103.7244639,1.3096488],[103.7245631,1.3096569]]}},{"type":"Feature","id":"way/933708643-0-7-0","properties":{"highway":"service"},"geometry":{"type":"LineString","coordinates":[[103.7245631,1.3096569],[103.7246141,1.3096783]]}},{"type":"Feature","id":"way/933708643-0-8-0","properties":{"highway":"service"},"geometry":{"type":"LineString","coordinates":[[103.7246141,1.3096783],[103.7246811,1.309732]]}},{"type":"Feature","id":"way/933708643-0-9-0","properties":{"highway":"service"},"geometry":{"type":"LineString","coordinates":[[103.7246811,1.309732],[103.7247723,1.3099224]]}},{"type":"Feature","id":"way/933708643-0-10-0","properties":{"highway":"service"},"geometry":{"type":"LineString","coordinates":[[103.7247723,1.3099224],[103.7249306,1.3106651]]}},{"type":"Feature","id":"way/933712630-0-0-0","properties":{"highway":"service"},"geometry":{"type":"LineString","coordinates":[[103.7239817,1.3075049],[103.7241809,1.3079595]]}},{"type":"Feature","id":"way/933712630-0-1-0","properties":{"highway":"service"},"geometry":{"type":"LineString","coordinates":[[103.7241809,1.3079595],[103.7244116,1.3085146]]}},{"type":"Feature","id":"way/933712630-0-2-0","properties":{"highway":"service"},"geometry":{"type":"LineString","coordinates":[[103.7244116,1.3085146],[103.724594,1.3089516]]}},{"type":"Feature","id":"way/933713161-0-1-0","properties":{"highway":"service"},"geometry":{"type":"LineString","coordinates":[[103.7234272,1.3063318],[103.723788,1.3072958]]}},{"type":"Feature","id":"way/934117992-0-0-0","properties":{"highway":"service"},"geometry":{"type":"LineString","coordinates":[[103.7240647,1.3091523],[103.7242504,1.3095108]]}},{"type":"Feature","id":"way/1534490706-0-0-0","properties":{"highway":"service","oneway":"yes"},"geometry":{"type":"LineString","coordinates":[[103.7224191,1.3102355],[103.7229898,1.3101219]]}},{"type":"Feature","id":"way/1534490706-0-1-0","properties":{"highway":"service","oneway":"yes"},"geometry":{"type":"LineString","coordinates":[[103.7229898,1.3101219],[103.7226803,1.3093959]]}},{"type":"Feature","id":"way/1534490706-0-2-0","properties":{"highway":"service","oneway":"yes"},"geometry":{"type":"LineString","coordinates":[[103.7226803,1.3093959],[103.7220875,1.3096599]]}},{"type":"Feature","id":"way/1534490706-0-3-0","properties":{"highway":"service","oneway":"yes"},"geometry":{"type":"LineString","coordinates":[[103.7220875,1.3096599],[103.7223506,1.3102484]]}},{"type":"Feature","id":"way/1534490706-0-4-0","properties":{"highway":"service","oneway":"yes"},"geometry":{"type":"LineString","coordinates":[[103.7223506,1.3102484],[103.7224191,1.3102355]]}},{"type":"Feature","id":"way/1534490707-0-0-0","properties":{"highway":"service"},"geometry":{"type":"LineString","coordinates":[[103.7224467,1.3103691],[103.7224191,1.3102355]]}},{"type":"Feature","id":"way/1536796869-0-0-0","properties":{"highway":"service"},"geometry":{"type":"LineString","coordinates":[[103.7220183,1.3095381],[103.7220387,1.3095566]]}},{"type":"Feature","id":"way/1536796869-0-1-0","properties":{"highway":"service"},"geometry":{"type":"LineString","coordinates":[[103.7220387,1.3095566],[103.722106,1.3095718]]}},{"type":"Feature","id":"way/1536796869-0-2-0","properties":{"highway":"service"},"geometry":{"type":"LineString","coordinates":[[103.722106,1.3095718],[103.7221193,1.3095728]]}},{"type":"Feature","id":"way/1536796869-0-3-0","properties":{"highway":"service"},"geometry":{"type":"LineString","coordinates":[[103.7221193,1.3095728],[103.7221287,1.3095704]]}},{"type":"Feature","id":"way/1536796869-0-4-0","properties":{"highway":"service"},"geometry":{"type":"LineString","coordinates":[[103.7221287,1.3095704],[103.7230006,1.309205]]}},{"type":"Feature","id":"way/1536796870-0-0-0","properties":{"highway":"service"},"geometry":{"type":"LineString","coordinates":[[103.7220006,1.309296],[103.7219862,1.308913]]}},{"type":"Feature","id":"way/1536796870-0-1-0","properties":{"highway":"service"},"geometry":{"type":"LineString","coordinates":[[103.7219862,1.308913],[103.7219806,1.3088731]]}},{"type":"Feature","id":"way/1536796871-0-0-0","properties":{"highway":"service"},"geometry":{"type":"LineString","coordinates":[[103.7219806,1.3088731],[103.7219005,1.3086643]]}},{"type":"Feature","id":"way/1536796871-0-1-0","properties":{"highway":"service"},"geometry":{"type":"LineString","coordinates":[[103.7219005,1.3086643],[103.7217657,1.3087212]]}},{"type":"Feature","id":"way/1536796872-0-0-0","properties":{"highway":"service"},"geometry":{"type":"LineString","coordinates":[[103.7220006,1.309296],[103.7220107,1.3095071]]}},{"type":"Feature","id":"way/1536796872-0-1-0","properties":{"highway":"service"},"geometry":{"type":"LineString","coordinates":[[103.7220107,1.3095071],[103.7220183,1.3095381]]}},{"type":"Feature","id":"way/1536796873-0-0-0","properties":{"highway":"service"},"geometry":{"type":"LineString","coordinates":[[103.7218765,1.3092865],[103.7220006,1.309296]]}}]}