{"type":"FeatureCollection","features":[{"type":"Feature","id":"relation/19206650-0","properties":{"building":"industrial","name":"North Spring Bizhub","type":"multipolygon","clearanceGeometry":{"type":"MultiPolygon","coordinates":[[[[103.8437249,1.4394171],[103.8437266,1.4394406],[103.843735,1.4394641],[103.8437501,1.4394876],[103.8437837,1.4395194],[103.8438307,1.4395446],[103.8438811,1.4395614],[103.84389462296656,1.4395614],[103.84397921214179,1.4394788086367403],[103.84440119290709,1.4390471603857953],[103.84452796908145,1.4388957116174892],[103.84460738998435,1.4387589257993645],[103.84461033624561,1.4387525595642505],[103.844608,1.4387391],[103.8445912,1.4387072],[103.8445677,1.4386753],[103.8445307,1.4386551],[103.8445005,1.4386417],[103.844467,1.4386283],[103.8444384,1.4386283],[103.8444082,1.4386316],[103.8443897,1.4386367],[103.8440578,1.4389937],[103.8440047,1.4389446],[103.8442819,1.4386452],[103.8443928,1.4385259],[103.8442887,1.438429],[103.8442018,1.4385225],[103.8441032,1.4384314],[103.8441909,1.4383385],[103.8440917,1.4382465],[103.843703,1.4386654],[103.8436134,1.4385825],[103.8438907,1.4382832],[103.8440017,1.4381639],[103.8438976,1.438067],[103.8438107,1.4381605],[103.843712,1.4380695],[103.8437997,1.4379766],[103.8437005,1.4378846],[103.8433123,1.4383038],[103.8432184,1.4382165],[103.8434969,1.4379166],[103.8431958,1.4376372],[103.8429172,1.4379382],[103.84290508530302,1.437926999346025],[103.84274995507059,1.438086394454566],[103.8427653,1.4381006],[103.8424469,1.4384441],[103.8427479,1.4387233],[103.8430665,1.4383802],[103.8431605,1.4384661],[103.8428407,1.4388108],[103.8431417,1.43909],[103.8434622,1.4387452],[103.8435518,1.4388281],[103.8432319,1.4391727],[103.8435328,1.4394519],[103.8438539,1.4391076],[103.8439084,1.4391579],[103.8437232,1.439365],[103.8437232,1.4393835],[103.8437249,1.4394171]],[[103.8439106,1.4392916],[103.8444011,1.438776],[103.8444229,1.4387743],[103.8444468,1.438776],[103.8444642,1.4387887],[103.8444737,1.4388076],[103.8444737,1.4388296],[103.8444658,1.438847],[103.8439894,1.4393721],[103.8439611,1.4393926],[103.8439342,1.4393957],[103.8439074,1.4393878],[103.8438869,1.4393642],[103.8438901,1.4393263],[103.8439106,1.4392916]]],[[[103.8428337,1.437861],[103.8431123,1.4375595],[103.84297072541585,1.437428128565884],[103.84219458296978,1.4382097431211882],[103.8423632,1.4383662],[103.8426818,1.4380233],[103.84269060056674,1.4380314471114881],[103.8428456943844,1.4378720894188597],[103.8428337,1.437861]]],[[[103.8428112,1.4372801],[103.8420623,1.438087],[103.84213527621398,1.4381547133896482],[103.84291142012825,1.4373730973557965],[103.8428112,1.4372801]]]]},"clearanceHeight":1.7,"clearancePrepared":true},"geometry":{"type":"Polygon","coordinates":[[[103.8437232,1.4393835],[103.8437249,1.4394171],[103.8437266,1.4394406],[103.843735,1.4394641],[103.8437501,1.4394876],[103.8437837,1.4395194],[103.8438307,1.4395446],[103.8438811,1.4395614],[103.8439096,1.4395614],[103.8439432,1.4395564],[103.8439616,1.4395513],[103.8440372,1.4394842],[103.8445727,1.438917],[103.8445845,1.4388951],[103.8446029,1.4388666],[103.844613,1.4388297],[103.8446147,1.4387777],[103.844608,1.4387391],[103.8445912,1.4387072],[103.8445677,1.4386753],[103.8445307,1.4386551],[103.8445005,1.4386417],[103.844467,1.4386283],[103.8444384,1.4386283],[103.8444082,1.4386316],[103.8443897,1.4386367],[103.8440578,1.4389937],[103.8440047,1.4389446],[103.8442819,1.4386452],[103.8443928,1.4385259],[103.8442887,1.438429],[103.8442018,1.4385225],[103.8441032,1.4384314],[103.8441909,1.4383385],[103.8440917,1.4382465],[103.843703,1.4386654],[103.8436134,1.4385825],[103.8438907,1.4382832],[103.8440017,1.4381639],[103.8438976,1.438067],[103.8438107,1.4381605],[103.843712,1.4380695],[103.8437997,1.4379766],[103.8437005,1.4378846],[103.8433123,1.4383038],[103.8432184,1.4382165],[103.8434969,1.4379166],[103.8431958,1.4376372],[103.8429172,1.4379382],[103.8428337,1.437861],[103.8431123,1.4375595],[103.8428112,1.4372801],[103.8420623,1.438087],[103.8423632,1.4383662],[103.8426818,1.4380233],[103.8427653,1.4381006],[103.8424469,1.4384441],[103.8427479,1.4387233],[103.8430665,1.4383802],[103.8431605,1.4384661],[103.8428407,1.4388108],[103.8431417,1.43909],[103.8434622,1.4387452],[103.8435518,1.4388281],[103.8432319,1.4391727],[103.8435328,1.4394519],[103.8438539,1.4391076],[103.8439084,1.4391579],[103.8437232,1.439365],[103.8437232,1.4393835]],[[103.8438901,1.4393263],[103.8439106,1.4392916],[103.8444011,1.438776],[103.8444229,1.4387743],[103.8444468,1.438776],[103.8444642,1.4387887],[103.8444737,1.4388076],[103.8444737,1.4388296],[103.8444658,1.438847],[103.8439894,1.4393721],[103.8439611,1.4393926],[103.8439342,1.4393957],[103.8439074,1.4393878],[103.8438869,1.4393642],[103.8438901,1.4393263]]]}},{"type":"Feature","id":"way/125275075-0","properties":{"addr:city":"Singapore","addr:housenumber":"5","addr:postcode":"768442","addr:street":"Yishun Street 23","building":"industrial","name":"JCET STATS ChipPAC","name:en":"JCET STATS ChipPAC","clearanceGeometry":{"type":"Polygon","coordinates":[[[103.8423696,1.4405375],[103.8425088,1.4404457],[103.8425389,1.4404781],[103.8426116,1.4405636],[103.8427119,1.4404844],[103.8428481,1.4403826],[103.8427494,1.4402708],[103.8429414,1.440129],[103.8423247,1.4393309],[103.842242,1.4392402],[103.84170909403352,1.4396760356984395],[103.8417048960225,1.4396928277424954],[103.8423696,1.4405375]]]},"clearanceHeight":1.7,"clearancePrepared":true},"geometry":{"type":"Polygon","coordinates":[[[103.8416985,1.4396847],[103.8423696,1.4405375],[103.8425088,1.4404457],[103.8425389,1.4404781],[103.8426116,1.4405636],[103.8427119,1.4404844],[103.8428481,1.4403826],[103.8427494,1.4402708],[103.8429414,1.440129],[103.8423247,1.4393309],[103.842242,1.4392402],[103.8416985,1.4396847]]]}},{"type":"Feature","id":"way/291271725-0","properties":{"addr:city":"Singapore","addr:housenumber":"1","addr:postcode":"768160","addr:street":"Yishun Industrial Street 1","building":"commercial","building:levels":"9","name":"A'posh Bizhub","clearanceGeometry":{"type":"Polygon","coordinates":[[[103.842048,1.4374722],[103.842111,1.4374074],[103.8422678,1.4375399],[103.8425272,1.437241],[103.8424718,1.4371416],[103.8422403,1.4373934],[103.8421188,1.4372817],[103.84222872505009,1.4371621958340524],[103.84222347272564,1.4371572833771156],[103.8423487601156,1.4370233952621796],[103.8422022,1.4368887],[103.8419571,1.4371552],[103.8419298,1.4371848],[103.8420147,1.4372628],[103.8420395,1.4372358],[103.8420868,1.4372793],[103.8419465,1.4374319],[103.8419,1.4373892],[103.8419289,1.4373578],[103.8418433,1.4372792],[103.84158524669706,1.4375597998773306],[103.84172544713707,1.4376935187476405],[103.8419344,1.4374664],[103.842056,1.4375781],[103.84184494867351,1.4378074956399614],[103.84197755953643,1.4379339758049314],[103.84219987412234,1.4376922325804355],[103.84223795050983,1.4376467170308986],[103.842048,1.4374722]]]},"clearanceHeight":1.7,"clearancePrepared":true},"geometry":{"type":"Polygon","coordinates":[[[103.84224,1.4376486],[103.842048,1.4374722],[103.842111,1.4374074],[103.8422678,1.4375399],[103.8425272,1.437241],[103.8424718,1.4371416],[103.8422403,1.4373934],[103.8421188,1.4372817],[103.8423529,1.4370272],[103.8422022,1.4368887],[103.8419571,1.4371552],[103.8419298,1.4371848],[103.8420147,1.4372628],[103.8420395,1.4372358],[103.8420868,1.4372793],[103.8419465,1.4374319],[103.8419,1.4373892],[103.8419289,1.4373578],[103.8418433,1.4372792],[103.8415606,1.4375866],[103.8417032,1.4377177],[103.8419344,1.4374664],[103.842056,1.4375781],[103.8418259,1.4378282],[103.8419608,1.4379522],[103.84224,1.4376486]]]}},{"type":"Feature","id":"way/453726851-0","properties":{"building":"yes","clearanceGeometry":{"type":"Polygon","coordinates":[[[103.8421499,1.4406802],[103.8422250924429,1.4406223990064726],[103.84206943838356,1.440409196226946],[103.841989,1.4404711],[103.8421499,1.4406802]]]},"clearanceHeight":1.7,"clearancePrepared":true},"geometry":{"type":"Polygon","coordinates":[[[103.841989,1.4404711],[103.8421499,1.4406802],[103.8422381,1.4406124],[103.8420771,1.4404033],[103.841989,1.4404711]]]}},{"type":"Feature","id":"way/453726854-0","properties":{"building":"yes","clearanceGeometry":{"type":"Polygon","coordinates":[[[103.8423236,1.4408071],[103.8422243,1.440673],[103.8421576,1.4407224],[103.8422568,1.4408564],[103.8423236,1.4408071]]]},"clearanceHeight":1.7,"clearancePrepared":true},"geometry":{"type":"Polygon","coordinates":[[[103.8422568,1.4408564],[103.8423236,1.4408071],[103.8422243,1.440673],[103.8421576,1.4407224],[103.8422568,1.4408564]]]}},{"type":"Feature","id":"way/463202988-0","properties":{"addr:housenumber":"15","addr:street":"Yishun Industrial Street 1","building":"industrial","building:levels":"9","name":"Win 5","source":"Kaart Ground Survey 2017","clearanceGeometry":{"type":"Polygon","coordinates":[[[103.844898,1.4380656],[103.8452032,1.4377301],[103.8451446,1.4376768],[103.8452582,1.437552],[103.8452057,1.4375042],[103.8452626,1.4374418],[103.8448376,1.4370554],[103.8443651,1.4375746],[103.8440938,1.4373279],[103.8437841,1.4376682],[103.8438992719631,1.4377729199482387],[103.8439541982325,1.4378160919334573],[103.844711210084,1.4385015144003626],[103.84500137042929,1.4381826693618782],[103.8450106629502,1.438167967380339],[103.844898,1.4380656]]]},"clearanceHeight":1.7,"clearancePrepared":true},"geometry":{"type":"Polygon","coordinates":[[[103.8450129,1.43817],[103.844898,1.4380656],[103.8452032,1.4377301],[103.8451446,1.4376768],[103.8452582,1.437552],[103.8452057,1.4375042],[103.8452626,1.4374418],[103.8448376,1.4370554],[103.8443651,1.4375746],[103.8440938,1.4373279],[103.8437841,1.4376682],[103.8447064,1.4385068],[103.8450129,1.43817]]]}},{"type":"Feature","id":"way/544009169-0","properties":{"addr:city":"Singapore","addr:street":"Yishun Street 23","building":"industrial","height":"20","name":"JCET","clearanceGeometry":{"type":"Polygon","coordinates":[[[103.8434545,1.4398733],[103.8427063,1.4389075],[103.8424154,1.4391327],[103.8431635,1.4400986],[103.8434545,1.4398733]]]},"clearanceHeight":1.7,"clearancePrepared":true},"geometry":{"type":"Polygon","coordinates":[[[103.8431635,1.4400986],[103.8434545,1.4398733],[103.8427063,1.4389075],[103.8424154,1.4391327],[103.8431635,1.4400986]]]}},{"type":"Feature","id":"way/544009170-0","properties":{"building":"yes","clearanceGeometry":{"type":"Polygon","coordinates":[[[103.8444584,1.4372836],[103.8447666,1.4369447],[103.84465051838713,1.4368392308817801],[103.84464481689824,1.436846484556607],[103.84457755553052,1.4367936427364305],[103.84456242800324,1.4367908506032985],[103.84455051074197,1.4367955323845205],[103.84451126996557,1.4368358918672564],[103.84446374893511,1.4368867240619374],[103.8442637,1.4371067],[103.8444584,1.4372836]]]},"clearanceHeight":1.7,"clearancePrepared":true},"geometry":{"type":"Polygon","coordinates":[[[103.8442637,1.4371067],[103.8444584,1.4372836],[103.8447666,1.4369447],[103.8445719,1.4367678],[103.8442637,1.4371067]]]}},{"type":"Feature","id":"node/3444600603","properties":{"highway":"traffic_signals"},"geometry":{"type":"Point","coordinates":[103.8455731,1.4371117]}},{"type":"Feature","id":"node/4602460461","properties":{"highway":"traffic_signals"},"geometry":{"type":"Point","coordinates":[103.8456062,1.437012]}},{"type":"Feature","id":"node/4721093572","properties":{"highway":"traffic_signals"},"geometry":{"type":"Point","coordinates":[103.8457207,1.437149]}},{"type":"Feature","id":"node/4721093573","properties":{"highway":"traffic_signals"},"geometry":{"type":"Point","coordinates":[103.8457546,1.4370545]}},{"type":"Feature","id":"node/5278323814","properties":{"highway":"crossing"},"geometry":{"type":"Point","coordinates":[103.8420276,1.4384873]}},{"type":"Feature","id":"node/5683604805","properties":{"highway":"crossing"},"geometry":{"type":"Point","coordinates":[103.8441502,1.4370669]}},{"type":"Feature","id":"node/8083033219","properties":{"highway":"crossing"},"geometry":{"type":"Point","coordinates":[103.8440695,1.4368401]}},{"type":"Feature","id":"node/8083085520","properties":{"highway":"crossing"},"geometry":{"type":"Point","coordinates":[103.8426457,1.4369685]}},{"type":"Feature","id":"node/8083085521","properties":{"highway":"crossing"},"geometry":{"type":"Point","coordinates":[103.8426802,1.4369951]}},{"type":"Feature","id":"node/8083085523","properties":{"highway":"crossing"},"geometry":{"type":"Point","coordinates":[103.8430288,1.4373114]}},{"type":"Feature","id":"node/8083085524","properties":{"highway":"crossing"},"geometry":{"type":"Point","coordinates":[103.8430633,1.4373404]}},{"type":"Feature","id":"node/8083085531","properties":{"highway":"crossing"},"geometry":{"type":"Point","coordinates":[103.8440388,1.437191]}},{"type":"Feature","id":"node/14051315186","properties":{"crossing":"traffic_signals","crossing:markings":"dots","highway":"crossing"},"geometry":{"type":"Point","coordinates":[103.8455226,1.4370946]}},{"type":"Feature","id":"node/14051315187","properties":{"crossing":"traffic_signals","crossing:markings":"dots","highway":"crossing"},"geometry":{"type":"Point","coordinates":[103.8455558,1.4369945]}},{"type":"Feature","id":"node/14051315188","properties":{"crossing":"traffic_signals","crossing:markings":"dots","highway":"crossing"},"geometry":{"type":"Point","coordinates":[103.8456243,1.4369467]}},{"type":"Feature","id":"node/14051315189","properties":{"crossing":"traffic_signals","crossing:markings":"dots","highway":"crossing"},"geometry":{"type":"Point","coordinates":[103.8457762,1.4369924]}},{"type":"Feature","id":"node/14051315190","properties":{"crossing":"traffic_signals","crossing:markings":"dots","highway":"crossing"},"geometry":{"type":"Point","coordinates":[103.8455586,1.4371584]}},{"type":"Feature","id":"node/14051315191","properties":{"crossing":"traffic_signals","crossing:markings":"dots","highway":"crossing"},"geometry":{"type":"Point","coordinates":[103.8457026,1.4372049]}},{"type":"Feature","id":"node/14051315192","properties":{"highway":"crossing"},"geometry":{"type":"Point","coordinates":[103.8454426,1.4371963]}},{"type":"Feature","id":"node/14051315193","properties":{"highway":"crossing"},"geometry":{"type":"Point","coordinates":[103.845548,1.436845]}},{"type":"Feature","id":"way/465060014-0-2-0","properties":{"highway":"service","lanes":"2","lanes:backward":"1","lanes:forward":"1","turn:lanes:backward":"through","turn:lanes:forward":"through","startNodeId":"6435158492","endNodeId":"6435158494"},"geometry":{"type":"LineString","coordinates":[[103.8420174,1.4379724],[103.8420244,1.437965]]}},{"type":"Feature","id":"way/465060014-0-3-0","properties":{"highway":"service","lanes":"2","lanes:backward":"1","lanes:forward":"1","turn:lanes:backward":"through","turn:lanes:forward":"through","startNodeId":"6435158494","endNodeId":"6435158509"},"geometry":{"type":"LineString","coordinates":[[103.8420244,1.437965],[103.8426903,1.437169]]}},{"type":"Feature","id":"way/465060014-0-4-0","properties":{"highway":"service","lanes":"2","lanes:backward":"1","lanes:forward":"1","turn:lanes:backward":"through","turn:lanes:forward":"through","startNodeId":"6435158509","endNodeId":"6435158507"},"geometry":{"type":"LineString","coordinates":[[103.8426903,1.437169],[103.8426946,1.4371566]]}},{"type":"Feature","id":"way/465060014-0-5-0","properties":{"highway":"service","lanes":"2","lanes:backward":"1","lanes:forward":"1","turn:lanes:backward":"through","turn:lanes:forward":"through","startNodeId":"6435158507","endNodeId":"6435158506"},"geometry":{"type":"LineString","coordinates":[[103.8426946,1.4371566],[103.8426973,1.4371402]]}},{"type":"Feature","id":"way/465060014-0-6-0","properties":{"highway":"service","lanes":"2","lanes:backward":"1","lanes:forward":"1","turn:lanes:backward":"through","turn:lanes:forward":"through","startNodeId":"6435158506","endNodeId":"6435158505"},"geometry":{"type":"LineString","coordinates":[[103.8426973,1.4371402],[103.8426977,1.4371246]]}},{"type":"Feature","id":"way/465060014-0-7-0","properties":{"highway":"service","lanes":"2","lanes:backward":"1","lanes:forward":"1","turn:lanes:backward":"through","turn:lanes:forward":"through","startNodeId":"6435158505","endNodeId":"6435158508"},"geometry":{"type":"LineString","coordinates":[[103.8426977,1.4371246],[103.8426953,1.437111]]}},{"type":"Feature","id":"way/465060014-0-8-0","properties":{"highway":"service","lanes":"2","lanes:backward":"1","lanes:forward":"1","turn:lanes:backward":"through","turn:lanes:forward":"through","startNodeId":"6435158508","endNodeId":"5184338473"},"geometry":{"type":"LineString","coordinates":[[103.8426953,1.437111],[103.8426298,1.4370469]]}},{"type":"Feature","id":"way/465060037-0-6-0","properties":{"highway":"service","lanes":"2","lanes:backward":"1","lanes:forward":"1","service":"parking_aisle","surface":"asphalt","startNodeId":"4600814185","endNodeId":"4600814184"},"geometry":{"type":"LineString","coordinates":[[103.8423801,1.4408723],[103.8423989,1.4407919]]}},{"type":"Feature","id":"way/465060037-0-7-0","properties":{"highway":"service","lanes":"2","lanes:backward":"1","lanes:forward":"1","service":"parking_aisle","surface":"asphalt","startNodeId":"4600814184","endNodeId":"4600814183"},"geometry":{"type":"LineString","coordinates":[[103.8423989,1.4407919],[103.8419134,1.4401269]]}},{"type":"Feature","id":"way/465227194-0-5-0","properties":{"highway":"service","lanes":"2","lanes:backward":"1","lanes:forward":"1","service":"parking_aisle","startNodeId":"4602218914","endNodeId":"4602218917"},"geometry":{"type":"LineString","coordinates":[[103.8418264,1.4394437],[103.8423172,1.4390549]]}},{"type":"Feature","id":"way/465227195-0-0-0","properties":{"highway":"service","lanes":"2","lanes:backward":"1","lanes:forward":"1","service":"parking_aisle","turn:lanes:backward":"through","turn:lanes:forward":"left;through","startNodeId":"4602218927","endNodeId":"4602218926"},"geometry":{"type":"LineString","coordinates":[[103.8423663,1.43865],[103.842453,1.4387095]]}},{"type":"Feature","id":"way/465227195-0-1-0","properties":{"highway":"service","lanes":"2","lanes:backward":"1","lanes:forward":"1","service":"parking_aisle","turn:lanes:backward":"through","turn:lanes:forward":"left;through","startNodeId":"4602218926","endNodeId":"4602218925"},"geometry":{"type":"LineString","coordinates":[[103.842453,1.4387095],[103.8425198,1.4387828]]}},{"type":"Feature","id":"way/465227195-0-2-0","properties":{"highway":"service","lanes":"2","lanes:backward":"1","lanes:forward":"1","service":"parking_aisle","turn:lanes:backward":"through","turn:lanes:forward":"left;through","startNodeId":"4602218925","endNodeId":"4602218915"},"geometry":{"type":"LineString","coordinates":[[103.8425198,1.4387828],[103.8425988,1.4388595]]}},{"type":"Feature","id":"way/468925211-0-3-1","properties":{"highway":"primary","lanes":"3","maxspeed":"60","name":"Yishun Avenue 8","name:zh":"\u4e49\u987a8\u9053","oneway":"yes","surface":"asphalt","startNodeId":"way/468925211-0:3:1","endNodeId":"way/468925211-0:3:2"},"geometry":{"type":"LineString","coordinates":[[103.8422968,1.4413646],[103.843156,1.4406671]]}},{"type":"Feature","id":"way/468925211-0-3-2","properties":{"highway":"primary","lanes":"3","maxspeed":"60","name":"Yishun Avenue 8","name:zh":"\u4e49\u987a8\u9053","oneway":"yes","surface":"asphalt","startNodeId":"way/468925211-0:3:2","endNodeId":"4633769862"},"geometry":{"type":"LineString","coordinates":[[103.843156,1.4406671],[103.8440152,1.4399696]]}},{"type":"Feature","id":"way/468925211-0-4-0","properties":{"highway":"primary","lanes":"3","maxspeed":"60","name":"Yishun Avenue 8","name:zh":"\u4e49\u987a8\u9053","oneway":"yes","surface":"asphalt","startNodeId":"4633769862","endNodeId":"4633769863"},"geometry":{"type":"LineString","coordinates":[[103.8440152,1.4399696],[103.8442488,1.4397484]]}},{"type":"Feature","id":"way/468925211-0-5-0","properties":{"highway":"primary","lanes":"3","maxspeed":"60","name":"Yishun Avenue 8","name:zh":"\u4e49\u987a8\u9053","oneway":"yes","surface":"asphalt","startNodeId":"4633769863","endNodeId":"4633769864"},"geometry":{"type":"LineString","coordinates":[[103.8442488,1.4397484],[103.8445921,1.439339]]}},{"type":"Feature","id":"way/468925211-0-6-0","properties":{"highway":"primary","lanes":"3","maxspeed":"60","name":"Yishun Avenue 8","name:zh":"\u4e49\u987a8\u9053","oneway":"yes","surface":"asphalt","startNodeId":"4633769864","endNodeId":"4633769865"},"geometry":{"type":"LineString","coordinates":[[103.8445921,1.439339],[103.8448972,1.4389382]]}},{"type":"Feature","id":"way/468925211-0-7-0","properties":{"highway":"primary","lanes":"3","maxspeed":"60","name":"Yishun Avenue 8","name:zh":"\u4e49\u987a8\u9053","oneway":"yes","surface":"asphalt","startNodeId":"4633769865","endNodeId":"5148080479"},"geometry":{"type":"LineString","coordinates":[[103.8448972,1.4389382],[103.8450809,1.4386612]]}},{"type":"Feature","id":"way/468925211-0-8-0","properties":{"highway":"primary","lanes":"3","maxspeed":"60","name":"Yishun Avenue 8","name:zh":"\u4e49\u987a8\u9053","oneway":"yes","surface":"asphalt","startNodeId":"5148080479","endNodeId":"4633769866"},"geometry":{"type":"LineString","coordinates":[[103.8450809,1.4386612],[103.8452491,1.4383445]]}},{"type":"Feature","id":"way/468925211-0-9-0","properties":{"highway":"primary","lanes":"3","maxspeed":"60","name":"Yishun Avenue 8","name:zh":"\u4e49\u987a8\u9053","oneway":"yes","surface":"asphalt","startNodeId":"4633769866","endNodeId":"4721273591"},"geometry":{"type":"LineString","coordinates":[[103.8452491,1.4383445],[103.8454331,1.4379833]]}},{"type":"Feature","id":"way/478925344-0-0-0","properties":{"highway":"residential","lanes":"1","maxspeed":"50","name":"Yishun Industrial Street 1","oneway":"yes","surface":"asphalt","startNodeId":"4722664162","endNodeId":"4722664163"},"geometry":{"type":"LineString","coordinates":[[103.8436878,1.4373521],[103.8436087,1.4373894]]}},{"type":"Feature","id":"way/478925344-0-1-0","properties":{"highway":"residential","lanes":"1","maxspeed":"50","name":"Yishun Industrial Street 1","oneway":"yes","surface":"asphalt","startNodeId":"4722664163","endNodeId":"4722664164"},"geometry":{"type":"LineString","coordinates":[[103.8436087,1.4373894],[103.8435038,1.4374149]]}},{"type":"Feature","id":"way/478925344-0-2-0","properties":{"highway":"residential","lanes":"1","maxspeed":"50","name":"Yishun Industrial Street 1","oneway":"yes","surface":"asphalt","startNodeId":"4722664164","endNodeId":"4722664165"},"geometry":{"type":"LineString","coordinates":[[103.8435038,1.4374149],[103.8434187,1.4374036]]}},{"type":"Feature","id":"way/478929280-0-0-0","properties":{"highway":"tertiary","lanes":"3","maxspeed":"50","name":"Yishun Avenue 9","oneway":"yes","source":"Yahoo aerial images","surface":"asphalt","turn:lanes":"left|right|right","startNodeId":"4721093571","endNodeId":"5189186278"},"geometry":{"type":"LineString","coordinates":[[103.8447435,1.4366836],[103.844934,1.4368348]]}},{"type":"Feature","id":"way/478929280-0-1-0","properties":{"highway":"tertiary","lanes":"3","maxspeed":"50","name":"Yishun Avenue 9","oneway":"yes","source":"Yahoo aerial images","surface":"asphalt","turn:lanes":"left|right|right","startNodeId":"5189186278","endNodeId":"5189186279"},"geometry":{"type":"LineString","coordinates":[[103.844934,1.4368348],[103.8451056,1.4369474]]}},{"type":"Feature","id":"way/478929280-0-2-0","properties":{"highway":"tertiary","lanes":"3","maxspeed":"50","name":"Yishun Avenue 9","oneway":"yes","source":"Yahoo aerial images","surface":"asphalt","turn:lanes":"left|right|right","startNodeId":"5189186279","endNodeId":"4721093574"},"geometry":{"type":"LineString","coordinates":[[103.8451056,1.4369474],[103.8452804,1.4370123]]}},{"type":"Feature","id":"way/478929281-0-0-0","properties":{"highway":"primary_link","lanes":"1","maxspeed":"50","oneway":"yes","surface":"asphalt","startNodeId":"4721093574","endNodeId":"4721093575"},"geometry":{"type":"LineString","coordinates":[[103.8452804,1.4370123],[103.8453944,1.4371249]]}},{"type":"Feature","id":"way/478929281-0-1-0","properties":{"highway":"primary_link","lanes":"1","maxspeed":"50","oneway":"yes","surface":"asphalt","startNodeId":"4721093575","endNodeId":"14051315192"},"geometry":{"type":"LineString","coordinates":[[103.8453944,1.4371249],[103.8454426,1.4371963]]}},{"type":"Feature","id":"way/478929281-0-2-0","properties":{"highway":"primary_link","lanes":"1","maxspeed":"50","oneway":"yes","surface":"asphalt","startNodeId":"14051315192","endNodeId":"4721093576"},"geometry":{"type":"LineString","coordinates":[[103.8454426,1.4371963],[103.8454675,1.4372332]]}},{"type":"Feature","id":"way/478929281-0-3-0","properties":{"highway":"primary_link","lanes":"1","maxspeed":"50","oneway":"yes","surface":"asphalt","startNodeId":"4721093576","endNodeId":"4721093577"},"geometry":{"type":"LineString","coordinates":[[103.8454675,1.4372332],[103.8454951,1.4372901]]}},{"type":"Feature","id":"way/478929281-0-4-0","properties":{"highway":"primary_link","lanes":"1","maxspeed":"50","oneway":"yes","surface":"asphalt","startNodeId":"4721093577","endNodeId":"4721093578"},"geometry":{"type":"LineString","coordinates":[[103.8454951,1.4372901],[103.8454951,1.4373633]]}},{"type":"Feature","id":"way/478929282-0-0-0","properties":{"highway":"tertiary","lanes":"2","maxspeed":"50","name":"Yishun Avenue 9","oneway":"yes","source":"Yahoo aerial images","surface":"asphalt","turn:lanes":"right|right","startNodeId":"4721093574","endNodeId":"14051315186"},"geometry":{"type":"LineString","coordinates":[[103.8452804,1.4370123],[103.8455226,1.4370946]]}},{"type":"Feature","id":"way/478929282-0-1-0","properties":{"highway":"tertiary","lanes":"2","maxspeed":"50","name":"Yishun Avenue 9","oneway":"yes","source":"Yahoo aerial images","surface":"asphalt","turn:lanes":"right|right","startNodeId":"14051315186","endNodeId":"3444600603"},"geometry":{"type":"LineString","coordinates":[[103.8455226,1.4370946],[103.8455731,1.4371117]]}},{"type":"Feature","id":"way/478952791-0-0-0","properties":{"highway":"primary","lanes":"4","maxspeed":"60","name":"Yishun Avenue 8","name:zh":"\u4e49\u987a8\u9053","oneway":"yes","surface":"asphalt","turn:lanes":"through|through|through;right|right","startNodeId":"4721273591","endNodeId":"4633769867"},"geometry":{"type":"LineString","coordinates":[[103.8454331,1.4379833],[103.8455718,1.4376085]]}},{"type":"Feature","id":"way/478952791-0-1-0","properties":{"highway":"primary","lanes":"4","maxspeed":"60","name":"Yishun Avenue 8","name:zh":"\u4e49\u987a8\u9053","oneway":"yes","surface":"asphalt","turn:lanes":"through|through|through;right|right","startNodeId":"4633769867","endNodeId":"14051315191"},"geometry":{"type":"LineString","coordinates":[[103.8455718,1.4376085],[103.8457026,1.4372049]]}},{"type":"Feature","id":"way/478952791-0-2-0","properties":{"highway":"primary","lanes":"4","maxspeed":"60","name":"Yishun Avenue 8","name:zh":"\u4e49\u987a8\u9053","oneway":"yes","surface":"asphalt","turn:lanes":"through|through|through;right|right","startNodeId":"14051315191","endNodeId":"4721093572"},"geometry":{"type":"LineString","coordinates":[[103.8457026,1.4372049],[103.8457207,1.437149]]}},{"type":"Feature","id":"way/478952792-0-0-0","properties":{"highway":"tertiary","lanes":"2","maxspeed":"50","name":"Yishun Avenue 9","oneway":"yes","surface":"asphalt","startNodeId":"4726464046","endNodeId":"5189186281"},"geometry":{"type":"LineString","coordinates":[[103.8453493,1.4369228],[103.8451036,1.436826]]}},{"type":"Feature","id":"way/478952792-0-1-0","properties":{"highway":"tertiary","lanes":"2","maxspeed":"50","name":"Yishun Avenue 9","oneway":"yes","surface":"asphalt","startNodeId":"5189186281","endNodeId":"5189186282"},"geometry":{"type":"LineString","coordinates":[[103.8451036,1.436826],[103.8449338,1.4367321]]}},{"type":"Feature","id":"way/478952793-0-0-0","properties":{"highway":"primary","lanes":"3","maxspeed":"60","name":"Yishun Avenue 8","name:zh":"\u4e49\u987a8\u9053","oneway":"yes","surface":"asphalt","startNodeId":"4721093573","endNodeId":"14051315189"},"geometry":{"type":"LineString","coordinates":[[103.8457546,1.4370545],[103.8457762,1.4369924]]}},{"type":"Feature","id":"way/478952793-0-1-0","properties":{"highway":"primary","lanes":"3","maxspeed":"60","name":"Yishun Avenue 8","name:zh":"\u4e49\u987a8\u9053","oneway":"yes","surface":"asphalt","startNodeId":"14051315189","endNodeId":"4633769868"},"geometry":{"type":"LineString","coordinates":[[103.8457762,1.4369924],[103.8458003,1.4369233]]}},{"type":"Feature","id":"way/479177477-0-0-0","properties":{"highway":"residential","lanes":"1","maxspeed":"50","name":"Yishun Street 23","oneway":"yes","source":"Yahoo aerial images","surface":"asphalt","startNodeId":"4602218927","endNodeId":"4602460405"},"geometry":{"type":"LineString","coordinates":[[103.8423663,1.43865],[103.8423692,1.4386269]]}},{"type":"Feature","id":"way/479177477-0-1-0","properties":{"highway":"residential","lanes":"1","maxspeed":"50","name":"Yishun Street 23","oneway":"yes","source":"Yahoo aerial images","surface":"asphalt","startNodeId":"4602460405","endNodeId":"5145235089"},"geometry":{"type":"LineString","coordinates":[[103.8423692,1.4386269],[103.842369,1.4386134]]}},{"type":"Feature","id":"way/479177477-0-2-0","properties":{"highway":"residential","lanes":"1","maxspeed":"50","name":"Yishun Street 23","oneway":"yes","source":"Yahoo aerial images","surface":"asphalt","startNodeId":"5145235089","endNodeId":"4600814115"},"geometry":{"type":"LineString","coordinates":[[103.842369,1.4386134],[103.8423629,1.4385989]]}},{"type":"Feature","id":"way/479177477-0-3-0","properties":{"highway":"residential","lanes":"1","maxspeed":"50","name":"Yishun Street 23","oneway":"yes","source":"Yahoo aerial images","surface":"asphalt","startNodeId":"4600814115","endNodeId":"5145235090"},"geometry":{"type":"LineString","coordinates":[[103.8423629,1.4385989],[103.8421749,1.4384137]]}},{"type":"Feature","id":"way/479177477-0-4-0","properties":{"highway":"residential","lanes":"1","maxspeed":"50","name":"Yishun Street 23","oneway":"yes","source":"Yahoo aerial images","surface":"asphalt","startNodeId":"5145235090","endNodeId":"244918956"},"geometry":{"type":"LineString","coordinates":[[103.8421749,1.4384137],[103.8420753,1.4383601]]}},{"type":"Feature","id":"way/479359300-0-0-0","properties":{"highway":"residential","lanes":"2","maxspeed":"50","name":"Yishun Industrial Street 1","oneway":"yes","surface":"asphalt","turn:lanes":"left|left","startNodeId":"7130387395","endNodeId":"4722664170"},"geometry":{"type":"LineString","coordinates":[[103.8441874,1.4369466],[103.84447,1.4366445]]}},{"type":"Feature","id":"way/479556875-0-0-0","properties":{"highway":"primary","lanes":"3","maxspeed":"60","name":"Yishun Avenue 8","name:zh":"\u4e49\u987a8\u9053","oneway":"yes","surface":"asphalt","startNodeId":"4721093578","endNodeId":"4606346094"},"geometry":{"type":"LineString","coordinates":[[103.8454951,1.4373633],[103.8451701,1.4381964]]}},{"type":"Feature","id":"way/479556875-0-1-0","properties":{"highway":"primary","lanes":"3","maxspeed":"60","name":"Yishun Avenue 8","name:zh":"\u4e49\u987a8\u9053","oneway":"yes","surface":"asphalt","startNodeId":"4606346094","endNodeId":"5148080482"},"geometry":{"type":"LineString","coordinates":[[103.8451701,1.4381964],[103.8449214,1.4386481]]}},{"type":"Feature","id":"way/479556875-0-2-0","properties":{"highway":"primary","lanes":"3","maxspeed":"60","name":"Yishun Avenue 8","name:zh":"\u4e49\u987a8\u9053","oneway":"yes","surface":"asphalt","startNodeId":"5148080482","endNodeId":"4443046721"},"geometry":{"type":"LineString","coordinates":[[103.8449214,1.4386481],[103.8446914,1.438983]]}},{"type":"Feature","id":"way/479556875-0-3-0","properties":{"highway":"primary","lanes":"3","maxspeed":"60","name":"Yishun Avenue 8","name:zh":"\u4e49\u987a8\u9053","oneway":"yes","surface":"asphalt","startNodeId":"4443046721","endNodeId":"4606346095"},"geometry":{"type":"LineString","coordinates":[[103.8446914,1.438983],[103.8442571,1.4395117]]}},{"type":"Feature","id":"way/479556875-0-4-0","properties":{"highway":"primary","lanes":"3","maxspeed":"60","name":"Yishun Avenue 8","name:zh":"\u4e49\u987a8\u9053","oneway":"yes","surface":"asphalt","startNodeId":"4606346095","endNodeId":"8083002391"},"geometry":{"type":"LineString","coordinates":[[103.8442571,1.4395117],[103.8438842,1.4398705]]}},{"type":"Feature","id":"way/479556875-0-5-0","properties":{"highway":"primary","lanes":"3","maxspeed":"60","name":"Yishun Avenue 8","name:zh":"\u4e49\u987a8\u9053","oneway":"yes","surface":"asphalt","startNodeId":"8083002391","endNodeId":"4443046722"},"geometry":{"type":"LineString","coordinates":[[103.8438842,1.4398705],[103.8438289,1.4399237]]}},{"type":"Feature","id":"way/479556875-0-6-0","properties":{"highway":"primary","lanes":"3","maxspeed":"60","name":"Yishun Avenue 8","name:zh":"\u4e49\u987a8\u9053","oneway":"yes","surface":"asphalt","startNodeId":"4443046722","endNodeId":"way/479556875-0:6:1"},"geometry":{"type":"LineString","coordinates":[[103.8438289,1.4399237],[103.8431792,1.4404698]]}},{"type":"Feature","id":"way/479556875-0-6-1","properties":{"highway":"primary","lanes":"3","maxspeed":"60","name":"Yishun Avenue 8","name:zh":"\u4e49\u987a8\u9053","oneway":"yes","surface":"asphalt","startNodeId":"way/479556875-0:6:1","endNodeId":"5184343140"},"geometry":{"type":"LineString","coordinates":[[103.8431792,1.4404698],[103.8425295,1.441016]]}},{"type":"Feature","id":"way/479570233-0-0-0","properties":{"highway":"primary_link","lanes":"1","maxspeed":"50","oneway":"yes","surface":"asphalt","startNodeId":"4726464043","endNodeId":"4726464044"},"geometry":{"type":"LineString","coordinates":[[103.8456901,1.4367096],[103.8455763,1.4368214]]}},{"type":"Feature","id":"way/479570233-0-1-0","properties":{"highway":"primary_link","lanes":"1","maxspeed":"50","oneway":"yes","surface":"asphalt","startNodeId":"4726464044","endNodeId":"14051315193"},"geometry":{"type":"LineString","coordinates":[[103.8455763,1.4368214],[103.845548,1.436845]]}},{"type":"Feature","id":"way/479570233-0-2-0","properties":{"highway":"primary_link","lanes":"1","maxspeed":"50","oneway":"yes","surface":"asphalt","startNodeId":"14051315193","endNodeId":"5189186280"},"geometry":{"type":"LineString","coordinates":[[103.845548,1.436845],[103.8454945,1.4368898]]}},{"type":"Feature","id":"way/479570233-0-3-0","properties":{"highway":"primary_link","lanes":"1","maxspeed":"50","oneway":"yes","surface":"asphalt","startNodeId":"5189186280","endNodeId":"4726464045"},"geometry":{"type":"LineString","coordinates":[[103.8454945,1.4368898],[103.8454342,1.4369153]]}},{"type":"Feature","id":"way/479570233-0-4-0","properties":{"highway":"primary_link","lanes":"1","maxspeed":"50","oneway":"yes","surface":"asphalt","startNodeId":"4726464045","endNodeId":"4726464046"},"geometry":{"type":"LineString","coordinates":[[103.8454342,1.4369153],[103.8453493,1.4369228]]}},{"type":"Feature","id":"way/529702606-0-0-0","properties":{"highway":"residential","lanes":"1","maxspeed":"50","name":"Yishun Street 23","oneway":"yes","source":"Yahoo aerial images","surface":"asphalt","startNodeId":"5278323817","endNodeId":"5145235086"},"geometry":{"type":"LineString","coordinates":[[103.8420991,1.4384889],[103.8421222,1.438614]]}},{"type":"Feature","id":"way/529702606-0-1-0","properties":{"highway":"residential","lanes":"1","maxspeed":"50","name":"Yishun Street 23","oneway":"yes","source":"Yahoo aerial images","surface":"asphalt","startNodeId":"5145235086","endNodeId":"5145235085"},"geometry":{"type":"LineString","coordinates":[[103.8421222,1.438614],[103.8421258,1.4386298]]}},{"type":"Feature","id":"way/529702606-0-2-0","properties":{"highway":"residential","lanes":"1","maxspeed":"50","name":"Yishun Street 23","oneway":"yes","source":"Yahoo aerial images","surface":"asphalt","startNodeId":"5145235085","endNodeId":"5145235087"},"geometry":{"type":"LineString","coordinates":[[103.8421258,1.4386298],[103.8421351,1.4386367]]}},{"type":"Feature","id":"way/529702606-0-3-0","properties":{"highway":"residential","lanes":"1","maxspeed":"50","name":"Yishun Street 23","oneway":"yes","source":"Yahoo aerial images","surface":"asphalt","startNodeId":"5145235087","endNodeId":"4600814114"},"geometry":{"type":"LineString","coordinates":[[103.8421351,1.4386367],[103.8422784,1.438757]]}},{"type":"Feature","id":"way/534620471-0-0-0","properties":{"highway":"service","startNodeId":"5683604810","endNodeId":"10017299170"},"geometry":{"type":"LineString","coordinates":[[103.8430398,1.4373643],[103.8432278,1.4375381]]}},{"type":"Feature","id":"way/534620471-0-1-0","properties":{"highway":"service","startNodeId":"10017299170","endNodeId":"5683604809"},"geometry":{"type":"LineString","coordinates":[[103.8432278,1.4375381],[103.8433026,1.4376072]]}},{"type":"Feature","id":"way/534620471-0-2-0","properties":{"highway":"service","startNodeId":"5683604809","endNodeId":"6435158513"},"geometry":{"type":"LineString","coordinates":[[103.8433026,1.4376072],[103.8434201,1.4376789]]}},{"type":"Feature","id":"way/534620471-0-3-0","properties":{"highway":"service","startNodeId":"6435158513","endNodeId":"6435158512"},"geometry":{"type":"LineString","coordinates":[[103.8434201,1.4376789],[103.8436281,1.4377439]]}},{"type":"Feature","id":"way/534620471-0-4-0","properties":{"highway":"service","startNodeId":"6435158512","endNodeId":"5683604808"},"geometry":{"type":"LineString","coordinates":[[103.8436281,1.4377439],[103.843706,1.4377881]]}},{"type":"Feature","id":"way/534620471-0-5-0","properties":{"highway":"service","startNodeId":"5683604808","endNodeId":"5683604807"},"geometry":{"type":"LineString","coordinates":[[103.843706,1.4377881],[103.8446456,1.4386474]]}},{"type":"Feature","id":"way/534620471-0-6-0","properties":{"highway":"service","startNodeId":"5683604807","endNodeId":"6435158511"},"geometry":{"type":"LineString","coordinates":[[103.8446456,1.4386474],[103.844661,1.4386809]]}},{"type":"Feature","id":"way/534620471-0-7-0","properties":{"highway":"service","startNodeId":"6435158511","endNodeId":"6435158510"},"geometry":{"type":"LineString","coordinates":[[103.844661,1.4386809],[103.8446688,1.4387225]]}},{"type":"Feature","id":"way/534620471-0-8-0","properties":{"highway":"service","startNodeId":"6435158510","endNodeId":"5683604806"},"geometry":{"type":"LineString","coordinates":[[103.8446688,1.4387225],[103.8446433,1.4387776]]}},{"type":"Feature","id":"way/534620471-0-9-0","properties":{"highway":"service","startNodeId":"5683604806","endNodeId":"8655427658"},"geometry":{"type":"LineString","coordinates":[[103.8446433,1.4387776],[103.8445612,1.438919]]}},{"type":"Feature","id":"way/534620471-0-10-0","properties":{"highway":"service","startNodeId":"8655427658","endNodeId":"8655427664"},"geometry":{"type":"LineString","coordinates":[[103.8445612,1.438919],[103.8444312,1.4390743]]}},{"type":"Feature","id":"way/534620471-0-11-0","properties":{"highway":"service","startNodeId":"8655427664","endNodeId":"8655427663"},"geometry":{"type":"LineString","coordinates":[[103.8444312,1.4390743],[103.8440078,1.4395074]]}},{"type":"Feature","id":"way/534620471-0-12-0","properties":{"highway":"service","startNodeId":"8655427663","endNodeId":"8655427662"},"geometry":{"type":"LineString","coordinates":[[103.8440078,1.4395074],[103.8438215,1.4396893]]}},{"type":"Feature","id":"way/534620471-0-13-0","properties":{"highway":"service","startNodeId":"8655427662","endNodeId":"8655427659"},"geometry":{"type":"LineString","coordinates":[[103.8438215,1.4396893],[103.843773,1.4397091]]}},{"type":"Feature","id":"way/534620471-0-14-0","properties":{"highway":"service","startNodeId":"8655427659","endNodeId":"8655427661"},"geometry":{"type":"LineString","coordinates":[[103.843773,1.4397091],[103.8437223,1.4397025]]}},{"type":"Feature","id":"way/534620471-0-15-0","properties":{"highway":"service","startNodeId":"8655427661","endNodeId":"way/534620471-0:15:1"},"geometry":{"type":"LineString","coordinates":[[103.8437223,1.4397025],[103.8430361,1.4390703]]}},{"type":"Feature","id":"way/534620471-0-15-1","properties":{"highway":"service","startNodeId":"way/534620471-0:15:1","endNodeId":"10017299173"},"geometry":{"type":"LineString","coordinates":[[103.8430361,1.4390703],[103.84235,1.438438]]}},{"type":"Feature","id":"way/534620471-0-16-0","properties":{"highway":"service","startNodeId":"10017299173","endNodeId":"10017299169"},"geometry":{"type":"LineString","coordinates":[[103.84235,1.438438],[103.8421164,1.4382311]]}},{"type":"Feature","id":"way/534620471-0-17-0","properties":{"highway":"service","startNodeId":"10017299169","endNodeId":"8655427660"},"geometry":{"type":"LineString","coordinates":[[103.8421164,1.4382311],[103.8419822,1.4381082]]}},{"type":"Feature","id":"way/536626306-0-0-0","properties":{"highway":"primary","lanes":"4","maxspeed":"60","name":"Yishun Avenue 8","name:zh":"\u4e49\u987a8\u9053","oneway":"yes","surface":"asphalt","startNodeId":"4721093572","endNodeId":"4721093573"},"geometry":{"type":"LineString","coordinates":[[103.8457207,1.437149],[103.8457546,1.4370545]]}},{"type":"Feature","id":"way/536626307-0-0-0","properties":{"highway":"primary","lanes":"3","maxspeed":"60","name":"Yishun Avenue 8","name:zh":"\u4e49\u987a8\u9053","oneway":"yes","surface":"asphalt","startNodeId":"4602460461","endNodeId":"3444600603"},"geometry":{"type":"LineString","coordinates":[[103.8456062,1.437012],[103.8455731,1.4371117]]}},{"type":"Feature","id":"way/536626309-0-0-0","properties":{"highway":"tertiary","lanes":"2","maxspeed":"50","name":"Yishun Avenue 9","oneway":"yes","surface":"asphalt","startNodeId":"4721093573","endNodeId":"4602460461"},"geometry":{"type":"LineString","coordinates":[[103.8457546,1.4370545],[103.8456062,1.437012]]}},{"type":"Feature","id":"way/536626310-0-0-0","properties":{"highway":"tertiary","lanes":"2","maxspeed":"50","name":"Yishun Avenue 9","oneway":"yes","source":"Yahoo aerial images","surface":"asphalt","startNodeId":"3444600603","endNodeId":"4721093572"},"geometry":{"type":"LineString","coordinates":[[103.8455731,1.4371117],[103.8457207,1.437149]]}},{"type":"Feature","id":"way/543991224-0-0-0","properties":{"highway":"service","oneway":"yes","startNodeId":"5258551117","endNodeId":"12625348940"},"geometry":{"type":"LineString","coordinates":[[103.844034,1.4368107],[103.8439385,1.4369115]]}},{"type":"Feature","id":"way/543991224-0-1-0","properties":{"highway":"service","oneway":"yes","startNodeId":"12625348940","endNodeId":"5258551110"},"geometry":{"type":"LineString","coordinates":[[103.8439385,1.4369115],[103.8436009,1.4372679]]}},{"type":"Feature","id":"way/543991224-0-2-0","properties":{"highway":"service","oneway":"yes","startNodeId":"5258551110","endNodeId":"5258551109"},"geometry":{"type":"LineString","coordinates":[[103.8436009,1.4372679],[103.8435445,1.4372933]]}},{"type":"Feature","id":"way/543991224-0-3-0","properties":{"highway":"service","oneway":"yes","startNodeId":"5258551109","endNodeId":"5683604795"},"geometry":{"type":"LineString","coordinates":[[103.8435445,1.4372933],[103.84351,1.437304]]}},{"type":"Feature","id":"way/543991224-0-4-0","properties":{"highway":"service","oneway":"yes","startNodeId":"5683604795","endNodeId":"5258551108"},"geometry":{"type":"LineString","coordinates":[[103.84351,1.437304],[103.8434708,1.4373041]]}},{"type":"Feature","id":"way/543991224-0-5-0","properties":{"highway":"service","oneway":"yes","startNodeId":"5258551108","endNodeId":"5258551107"},"geometry":{"type":"LineString","coordinates":[[103.8434708,1.4373041],[103.8434077,1.4372987]]}},{"type":"Feature","id":"way/543991224-0-6-0","properties":{"highway":"service","oneway":"yes","startNodeId":"5258551107","endNodeId":"5258551106"},"geometry":{"type":"LineString","coordinates":[[103.8434077,1.4372987],[103.843346,1.4372639]]}},{"type":"Feature","id":"way/543991224-0-7-0","properties":{"highway":"service","oneway":"yes","startNodeId":"5258551106","endNodeId":"5258551105"},"geometry":{"type":"LineString","coordinates":[[103.843346,1.4372639],[103.8430269,1.4369608]]}},{"type":"Feature","id":"way/543991225-0-0-0","properties":{"highway":"service","oneway":"yes","startNodeId":"5258551105","endNodeId":"7374232422"},"geometry":{"type":"LineString","coordinates":[[103.8430269,1.4369608],[103.8430202,1.4369327]]}},{"type":"Feature","id":"way/543991225-0-1-0","properties":{"highway":"service","oneway":"yes","startNodeId":"7374232422","endNodeId":"7374232423"},"geometry":{"type":"LineString","coordinates":[[103.8430202,1.4369327],[103.8430229,1.4369032]]}},{"type":"Feature","id":"way/543991225-0-2-0","properties":{"highway":"service","oneway":"yes","startNodeId":"7374232423","endNodeId":"5683604796"},"geometry":{"type":"LineString","coordinates":[[103.8430229,1.4369032],[103.8430403,1.4368764]]}},{"type":"Feature","id":"way/543991225-0-11-0","properties":{"highway":"service","oneway":"yes","startNodeId":"12625348941","endNodeId":"5258551117"},"geometry":{"type":"LineString","coordinates":[[103.8440989,1.4367458],[103.844034,1.4368107]]}},{"type":"Feature","id":"way/543991226-0-0-0","properties":{"highway":"service","lanes":"2","lanes:backward":"1","lanes:forward":"1","turn:lanes:backward":"right","turn:lanes:forward":"left","startNodeId":"5258551117","endNodeId":"8083033219"},"geometry":{"type":"LineString","coordinates":[[103.844034,1.4368107],[103.8440695,1.4368401]]}},{"type":"Feature","id":"way/543991226-0-1-0","properties":{"highway":"service","lanes":"2","lanes:backward":"1","lanes:forward":"1","turn:lanes:backward":"right","turn:lanes:forward":"left","startNodeId":"8083033219","endNodeId":"5258551116"},"geometry":{"type":"LineString","coordinates":[[103.8440695,1.4368401],[103.8441136,1.4368765]]}},{"type":"Feature","id":"way/596693009-0-0-0","properties":{"highway":"service","startNodeId":"7374232429","endNodeId":"7374232430"},"geometry":{"type":"LineString","coordinates":[[103.8440891,1.4372343],[103.8443224,1.4374368]]}},{"type":"Feature","id":"way/596693009-0-1-0","properties":{"highway":"service","startNodeId":"7374232430","endNodeId":"7374232425"},"geometry":{"type":"LineString","coordinates":[[103.8443224,1.4374368],[103.8443586,1.4374636]]}},{"type":"Feature","id":"way/596693009-0-2-0","properties":{"highway":"service","startNodeId":"7374232425","endNodeId":"7374232424"},"geometry":{"type":"LineString","coordinates":[[103.8443586,1.4374636],[103.8443745,1.437469]]}},{"type":"Feature","id":"way/596693009-0-3-0","properties":{"highway":"service","startNodeId":"7374232424","endNodeId":"5683604799"},"geometry":{"type":"LineString","coordinates":[[103.8443745,1.437469],[103.8443921,1.4374649]]}},{"type":"Feature","id":"way/596693009-0-4-0","properties":{"highway":"service","startNodeId":"5683604799","endNodeId":"5683604804"},"geometry":{"type":"LineString","coordinates":[[103.8443921,1.4374649],[103.844419,1.4374361]]}},{"type":"Feature","id":"way/596693010-0-0-0","properties":{"highway":"service","startNodeId":"5683604804","endNodeId":"6435158489"},"geometry":{"type":"LineString","coordinates":[[103.844419,1.4374361],[103.8448166,1.436997]]}},{"type":"Feature","id":"way/596693010-0-1-0","properties":{"highway":"service","startNodeId":"6435158489","endNodeId":"6435158488"},"geometry":{"type":"LineString","coordinates":[[103.8448166,1.436997],[103.844836,1.4369896]]}},{"type":"Feature","id":"way/596693010-0-2-0","properties":{"highway":"service","startNodeId":"6435158488","endNodeId":"6435158487"},"geometry":{"type":"LineString","coordinates":[[103.844836,1.4369896],[103.8448536,1.4369895]]}},{"type":"Feature","id":"way/596693010-0-3-0","properties":{"highway":"service","startNodeId":"6435158487","endNodeId":"5683604803"},"geometry":{"type":"LineString","coordinates":[[103.8448536,1.4369895],[103.8448722,1.436993]]}},{"type":"Feature","id":"way/596693010-0-4-0","properties":{"highway":"service","startNodeId":"5683604803","endNodeId":"5683604802"},"geometry":{"type":"LineString","coordinates":[[103.8448722,1.436993],[103.8453242,1.4373872]]}},{"type":"Feature","id":"way/596693010-0-5-0","properties":{"highway":"service","startNodeId":"5683604802","endNodeId":"6435158485"},"geometry":{"type":"LineString","coordinates":[[103.8453242,1.4373872],[103.8453306,1.4373979]]}},{"type":"Feature","id":"way/596693010-0-6-0","properties":{"highway":"service","startNodeId":"6435158485","endNodeId":"6435157684"},"geometry":{"type":"LineString","coordinates":[[103.8453306,1.4373979],[103.8453326,1.4374085]]}},{"type":"Feature","id":"way/596693010-0-7-0","properties":{"highway":"service","startNodeId":"6435157684","endNodeId":"6435158486"},"geometry":{"type":"LineString","coordinates":[[103.8453326,1.4374085],[103.8453375,1.4374441]]}},{"type":"Feature","id":"way/596693010-0-8-0","properties":{"highway":"service","startNodeId":"6435158486","endNodeId":"10961183789"},"geometry":{"type":"LineString","coordinates":[[103.8453375,1.4374441],[103.8453378,1.4374719]]}},{"type":"Feature","id":"way/596693010-0-9-0","properties":{"highway":"service","startNodeId":"10961183789","endNodeId":"10961195159"},"geometry":{"type":"LineString","coordinates":[[103.8453378,1.4374719],[103.845325,1.4375469]]}},{"type":"Feature","id":"way/596693010-0-10-0","properties":{"highway":"service","startNodeId":"10961195159","endNodeId":"10961183790"},"geometry":{"type":"LineString","coordinates":[[103.845325,1.4375469],[103.8452154,1.437821]]}},{"type":"Feature","id":"way/596693010-0-11-0","properties":{"highway":"service","startNodeId":"10961183790","endNodeId":"5683604801"},"geometry":{"type":"LineString","coordinates":[[103.8452154,1.437821],[103.8450598,1.4381659]]}},{"type":"Feature","id":"way/596693010-0-12-0","properties":{"highway":"service","startNodeId":"5683604801","endNodeId":"10961195160"},"geometry":{"type":"LineString","coordinates":[[103.8450598,1.4381659],[103.8449143,1.4383961]]}},{"type":"Feature","id":"way/596693010-0-13-0","properties":{"highway":"service","startNodeId":"10961195160","endNodeId":"5683604800"},"geometry":{"type":"LineString","coordinates":[[103.8449143,1.4383961],[103.8447529,1.4385938]]}},{"type":"Feature","id":"way/635694513-0-0-0","properties":{"highway":"primary","lanes":"3","maxspeed":"60","name":"Yishun Avenue 8","name:zh":"\u4e49\u987a8\u9053","oneway":"yes","surface":"asphalt","startNodeId":"3444600603","endNodeId":"14051315190"},"geometry":{"type":"LineString","coordinates":[[103.8455731,1.4371117],[103.8455586,1.4371584]]}},{"type":"Feature","id":"way/635694513-0-1-0","properties":{"highway":"primary","lanes":"3","maxspeed":"60","name":"Yishun Avenue 8","name:zh":"\u4e49\u987a8\u9053","oneway":"yes","surface":"asphalt","startNodeId":"14051315190","endNodeId":"4721093578"},"geometry":{"type":"LineString","coordinates":[[103.8455586,1.4371584],[103.8454951,1.4373633]]}},{"type":"Feature","id":"way/635715736-0-0-0","properties":{"highway":"tertiary","lanes":"2","maxspeed":"50","name":"Yishun Avenue 9","oneway":"yes","surface":"asphalt","startNodeId":"4602460461","endNodeId":"14051315187"},"geometry":{"type":"LineString","coordinates":[[103.8456062,1.437012],[103.8455558,1.4369945]]}},{"type":"Feature","id":"way/635715736-0-1-0","properties":{"highway":"tertiary","lanes":"2","maxspeed":"50","name":"Yishun Avenue 9","oneway":"yes","surface":"asphalt","startNodeId":"14051315187","endNodeId":"4726464046"},"geometry":{"type":"LineString","coordinates":[[103.8455558,1.4369945],[103.8453493,1.4369228]]}},{"type":"Feature","id":"way/635715737-0-0-0","properties":{"highway":"primary","lanes":"3","maxspeed":"60","name":"Yishun Avenue 8","name:zh":"\u4e49\u987a8\u9053","oneway":"yes","surface":"asphalt","turn:lanes":"through|through|through","startNodeId":"4726464043","endNodeId":"14051315188"},"geometry":{"type":"LineString","coordinates":[[103.8456901,1.4367096],[103.8456243,1.4369467]]}},{"type":"Feature","id":"way/635715737-0-1-0","properties":{"highway":"primary","lanes":"3","maxspeed":"60","name":"Yishun Avenue 8","name:zh":"\u4e49\u987a8\u9053","oneway":"yes","surface":"asphalt","turn:lanes":"through|through|through","startNodeId":"14051315188","endNodeId":"4602460461"},"geometry":{"type":"LineString","coordinates":[[103.8456243,1.4369467],[103.8456062,1.437012]]}},{"type":"Feature","id":"way/639872039-0-2-0","properties":{"highway":"service","lanes":"2","lanes:backward":"1","lanes:forward":"1","turn:lanes:backward":"through","turn:lanes:forward":"through","startNodeId":"5278323814","endNodeId":"5278323813"},"geometry":{"type":"LineString","coordinates":[[103.8420276,1.4384873],[103.8420588,1.4384918]]}},{"type":"Feature","id":"way/639872039-0-3-0","properties":{"highway":"service","lanes":"2","lanes:backward":"1","lanes:forward":"1","turn:lanes:backward":"through","turn:lanes:forward":"through","startNodeId":"5278323813","endNodeId":"5278323817"},"geometry":{"type":"LineString","coordinates":[[103.8420588,1.4384918],[103.8420991,1.4384889]]}},{"type":"Feature","id":"way/640056487-0-0-0","properties":{"highway":"residential","lanes":"1","maxspeed":"50","name":"Yishun Street 23","oneway":"yes","source":"Yahoo aerial images","surface":"asphalt","startNodeId":"244918956","endNodeId":"5278323817"},"geometry":{"type":"LineString","coordinates":[[103.8420753,1.4383601],[103.8420991,1.4384889]]}},{"type":"Feature","id":"way/640056490-0-0-0","properties":{"highway":"residential","lanes":"1","maxspeed":"50","name":"Yishun Street 23","oneway":"yes","sidewalk":"left","source":"Yahoo aerial images","surface":"asphalt","turn:lanes":"left;right","startNodeId":"4600814114","endNodeId":"4602218927"},"geometry":{"type":"LineString","coordinates":[[103.8422784,1.438757],[103.8423663,1.43865]]}},{"type":"Feature","id":"way/645148365-0-0-0","properties":{"highway":"service","lanes":"2","lanes:backward":"1","lanes:forward":"1","turn:lanes:backward":"through","turn:lanes:forward":"through","startNodeId":"7130387394","endNodeId":"5683604805"},"geometry":{"type":"LineString","coordinates":[[103.8441064,1.4370314],[103.8441502,1.4370669]]}},{"type":"Feature","id":"way/645148365-0-1-0","properties":{"highway":"service","lanes":"2","lanes:backward":"1","lanes:forward":"1","turn:lanes:backward":"through","turn:lanes:forward":"through","startNodeId":"5683604805","endNodeId":"7374159900"},"geometry":{"type":"LineString","coordinates":[[103.8441502,1.4370669],[103.8441964,1.4371135]]}},{"type":"Feature","id":"way/645266564-0-0-0","properties":{"highway":"service","lanes":"2","lanes:backward":"1","lanes:forward":"1","service":"parking_aisle","turn:lanes:backward":"through;right","turn:lanes:forward":"through","startNodeId":"4602218917","endNodeId":"4602218916"},"geometry":{"type":"LineString","coordinates":[[103.8423172,1.4390549],[103.8423791,1.4390208]]}},{"type":"Feature","id":"way/645266564-0-1-0","properties":{"highway":"service","lanes":"2","lanes:backward":"1","lanes:forward":"1","service":"parking_aisle","turn:lanes:backward":"through;right","turn:lanes:forward":"through","startNodeId":"4602218916","endNodeId":"7413161247"},"geometry":{"type":"LineString","coordinates":[[103.8423791,1.4390208],[103.8424616,1.4389678]]}},{"type":"Feature","id":"way/646329271-0-0-0","properties":{"highway":"service","lanes":"1","oneway":"yes","turn:lanes":"left;right","startNodeId":"5184338473","endNodeId":"8083085521"},"geometry":{"type":"LineString","coordinates":[[103.8426298,1.4370469],[103.8426802,1.4369951]]}},{"type":"Feature","id":"way/646329271-0-1-0","properties":{"highway":"service","lanes":"1","oneway":"yes","turn:lanes":"left;right","startNodeId":"8083085521","endNodeId":"4600814116"},"geometry":{"type":"LineString","coordinates":[[103.8426802,1.4369951],[103.8427619,1.4369109]]}},{"type":"Feature","id":"way/646399357-0-2-0","properties":{"highway":"service","lanes":"2","lanes:backward":"1","lanes:forward":"1","turn:lanes:backward":"through","turn:lanes:forward":"through","startNodeId":"5184338474","endNodeId":"7414045829"},"geometry":{"type":"LineString","coordinates":[[103.8422372,1.4367126],[103.8424919,1.4369296]]}},{"type":"Feature","id":"way/652150799-0-0-0","properties":{"highway":"residential","lanes":"2","maxspeed":"50","name":"Yishun Industrial Street 1","oneway":"yes","surface":"asphalt","startNodeId":"2375720445","endNodeId":"6435158490"},"geometry":{"type":"LineString","coordinates":[[103.8436335,1.4374853],[103.8436934,1.4374569]]}},{"type":"Feature","id":"way/652150799-0-1-0","properties":{"highway":"residential","lanes":"2","maxspeed":"50","name":"Yishun Industrial Street 1","oneway":"yes","surface":"asphalt","startNodeId":"6435158490","endNodeId":"2375720444"},"geometry":{"type":"LineString","coordinates":[[103.8436934,1.4374569],[103.8437613,1.4374022]]}},{"type":"Feature","id":"way/652150799-0-2-0","properties":{"highway":"residential","lanes":"2","maxspeed":"50","name":"Yishun Industrial Street 1","oneway":"yes","surface":"asphalt","startNodeId":"2375720444","endNodeId":"7374232428"},"geometry":{"type":"LineString","coordinates":[[103.8437613,1.4374022],[103.8439945,1.4371529]]}},{"type":"Feature","id":"way/652150800-0-0-0","properties":{"highway":"residential","lanes":"2","maxspeed":"50","name":"Yishun Industrial Street 1","oneway":"yes","surface":"asphalt","turn:lanes":"through|through","startNodeId":"2375720447","endNodeId":"5148132567"},"geometry":{"type":"LineString","coordinates":[[103.8432786,1.437437],[103.8433629,1.4374802]]}},{"type":"Feature","id":"way/652150800-0-1-0","properties":{"highway":"residential","lanes":"2","maxspeed":"50","name":"Yishun Industrial Street 1","oneway":"yes","surface":"asphalt","turn:lanes":"through|through","startNodeId":"5148132567","endNodeId":"2375720446"},"geometry":{"type":"LineString","coordinates":[[103.8433629,1.4374802],[103.8434581,1.4374988]]}},{"type":"Feature","id":"way/652150800-0-2-0","properties":{"highway":"residential","lanes":"2","maxspeed":"50","name":"Yishun Industrial Street 1","oneway":"yes","surface":"asphalt","turn:lanes":"through|through","startNodeId":"2375720446","endNodeId":"2375720445"},"geometry":{"type":"LineString","coordinates":[[103.8434581,1.4374988],[103.8436335,1.4374853]]}},{"type":"Feature","id":"way/652150801-0-0-0","properties":{"highway":"residential","lanes":"1","maxspeed":"50","name":"Yishun Industrial Street 1","oneway":"yes","surface":"asphalt","startNodeId":"4724765564","endNodeId":"6435158502"},"geometry":{"type":"LineString","coordinates":[[103.8430493,1.4371818],[103.843081,1.437252]]}},{"type":"Feature","id":"way/652152242-0-0-0","properties":{"highway":"residential","lanes":"2","lanes:backward":"1","lanes:forward":"1","maxspeed":"50","name":"Yishun Industrial Street 1","surface":"asphalt","startNodeId":"4724765565","endNodeId":"6435158499"},"geometry":{"type":"LineString","coordinates":[[103.8425266,1.4366948],[103.8427293,1.4368799]]}},{"type":"Feature","id":"way/686551498-0-0-0","properties":{"highway":"service","lanes":"2","lanes:backward":"1","lanes:forward":"1","startNodeId":"6435158498","endNodeId":"5184338473"},"geometry":{"type":"LineString","coordinates":[[103.8425989,1.437018],[103.8426298,1.4370469]]}},{"type":"Feature","id":"way/686551501-0-0-0","properties":{"highway":"service","lanes":"1","oneway":"yes","turn:lanes":"through","startNodeId":"6435158499","endNodeId":"8083085520"},"geometry":{"type":"LineString","coordinates":[[103.8427293,1.4368799],[103.8426457,1.4369685]]}},{"type":"Feature","id":"way/686551501-0-1-0","properties":{"highway":"service","lanes":"1","oneway":"yes","turn:lanes":"through","startNodeId":"8083085520","endNodeId":"6435158498"},"geometry":{"type":"LineString","coordinates":[[103.8426457,1.4369685],[103.8425989,1.437018]]}},{"type":"Feature","id":"way/686551503-0-0-0","properties":{"highway":"service","lanes":"1","oneway":"yes","startNodeId":"6435158502","endNodeId":"8083085523"},"geometry":{"type":"LineString","coordinates":[[103.843081,1.437252],[103.8430288,1.4373114]]}},{"type":"Feature","id":"way/686551503-0-1-0","properties":{"highway":"service","lanes":"1","oneway":"yes","startNodeId":"8083085523","endNodeId":"6435158503"},"geometry":{"type":"LineString","coordinates":[[103.8430288,1.4373114],[103.8430058,1.4373344]]}},{"type":"Feature","id":"way/686551504-0-0-0","properties":{"highway":"residential","lanes":"1","maxspeed":"50","name":"Yishun Industrial Street 1","oneway":"yes","surface":"asphalt","startNodeId":"6435158519","endNodeId":"2375720447"},"geometry":{"type":"LineString","coordinates":[[103.8431167,1.4372862],[103.8432786,1.437437]]}},{"type":"Feature","id":"way/686551505-0-0-0","properties":{"highway":"residential","lanes":"1","maxspeed":"50","name":"Yishun Industrial Street 1","oneway":"yes","surface":"asphalt","startNodeId":"6435158502","endNodeId":"6435158519"},"geometry":{"type":"LineString","coordinates":[[103.843081,1.437252],[103.8431167,1.4372862]]}},{"type":"Feature","id":"way/686551506-0-0-0","properties":{"highway":"service","startNodeId":"6435158503","endNodeId":"5683604810"},"geometry":{"type":"LineString","coordinates":[[103.8430058,1.4373344],[103.8430398,1.4373643]]}},{"type":"Feature","id":"way/686551507-0-0-0","properties":{"highway":"residential","lanes":"1","maxspeed":"50","name":"Yishun Industrial Street 1","oneway":"yes","surface":"asphalt","startNodeId":"6435158501","endNodeId":"4724765564"},"geometry":{"type":"LineString","coordinates":[[103.8431275,1.4371991],[103.8430493,1.4371818]]}},{"type":"Feature","id":"way/686551508-0-0-0","properties":{"highway":"residential","lanes":"2","maxspeed":"50","name":"Yishun Industrial Street 1","oneway":"yes","surface":"asphalt","startNodeId":"6435158504","endNodeId":"6435158501"},"geometry":{"type":"LineString","coordinates":[[103.8431645,1.4372349],[103.8431275,1.4371991]]}},{"type":"Feature","id":"way/686551509-0-0-0","properties":{"highway":"service","lanes":"1","oneway":"yes","startNodeId":"6435158501","endNodeId":"6435158502"},"geometry":{"type":"LineString","coordinates":[[103.8431275,1.4371991],[103.843081,1.437252]]}},{"type":"Feature","id":"way/686551510-0-0-0","properties":{"highway":"service","lanes":"1","oneway":"yes","startNodeId":"5683604810","endNodeId":"8083085524"},"geometry":{"type":"LineString","coordinates":[[103.8430398,1.4373643],[103.8430633,1.4373404]]}},{"type":"Feature","id":"way/686551510-0-1-0","properties":{"highway":"service","lanes":"1","oneway":"yes","startNodeId":"8083085524","endNodeId":"6435158519"},"geometry":{"type":"LineString","coordinates":[[103.8430633,1.4373404],[103.8431167,1.4372862]]}},{"type":"Feature","id":"way/686551511-0-0-0","properties":{"highway":"service","lanes":"1","oneway":"yes","startNodeId":"6435158519","endNodeId":"6435158504"},"geometry":{"type":"LineString","coordinates":[[103.8431167,1.4372862],[103.8431645,1.4372349]]}},{"type":"Feature","id":"way/686551512-0-0-0","properties":{"highway":"service","startNodeId":"6435158518","endNodeId":"6435158517"},"geometry":{"type":"LineString","coordinates":[[103.8427969,1.4371988],[103.8428244,1.4371941]]}},{"type":"Feature","id":"way/686551512-0-1-0","properties":{"highway":"service","startNodeId":"6435158517","endNodeId":"6435158515"},"geometry":{"type":"LineString","coordinates":[[103.8428244,1.4371941],[103.8428437,1.4371983]]}},{"type":"Feature","id":"way/686551512-0-2-0","properties":{"highway":"service","startNodeId":"6435158515","endNodeId":"6435158514"},"geometry":{"type":"LineString","coordinates":[[103.8428437,1.4371983],[103.8428603,1.4372045]]}},{"type":"Feature","id":"way/686551512-0-3-0","properties":{"highway":"service","startNodeId":"6435158514","endNodeId":"6435158516"},"geometry":{"type":"LineString","coordinates":[[103.8428603,1.4372045],[103.8428747,1.4372122]]}},{"type":"Feature","id":"way/686551512-0-4-0","properties":{"highway":"service","startNodeId":"6435158516","endNodeId":"6435158503"},"geometry":{"type":"LineString","coordinates":[[103.8428747,1.4372122],[103.8430058,1.4373344]]}},{"type":"Feature","id":"way/763043319-0-0-0","properties":{"highway":"residential","lanes":"2","maxspeed":"50","name":"Yishun Industrial Street 1","oneway":"yes","surface":"asphalt","startNodeId":"5258551116","endNodeId":"7374360638"},"geometry":{"type":"LineString","coordinates":[[103.8441136,1.4368765],[103.8440353,1.4369687]]}},{"type":"Feature","id":"way/763043320-0-0-0","properties":{"highway":"residential","lanes":"2","maxspeed":"50","name":"Yishun Industrial Street 1","oneway":"yes","surface":"asphalt","startNodeId":"7130387394","endNodeId":"7130387395"},"geometry":{"type":"LineString","coordinates":[[103.8441064,1.4370314],[103.8441874,1.4369466]]}},{"type":"Feature","id":"way/763043321-0-4-0","properties":{"highway":"residential","lanes":"2","maxspeed":"50","name":"Yishun Industrial Street 1","oneway":"yes","surface":"asphalt","startNodeId":"4721061549","endNodeId":"5258551116"},"geometry":{"type":"LineString","coordinates":[[103.8443762,1.4365983],[103.8441136,1.4368765]]}},{"type":"Feature","id":"way/763043322-0-0-0","properties":{"highway":"service","lanes":"2","lanes:backward":"1","lanes:forward":"1","startNodeId":"5258551116","endNodeId":"7130387395"},"geometry":{"type":"LineString","coordinates":[[103.8441136,1.4368765],[103.8441874,1.4369466]]}},{"type":"Feature","id":"way/763044383-0-0-0","properties":{"highway":"residential","lanes":"2","lanes:backward":"1","lanes:forward":"1","maxspeed":"50","name":"Yishun Industrial Street 1","surface":"asphalt","turn:lanes:backward":"left;right","startNodeId":"6435158499","endNodeId":"4600814116"},"geometry":{"type":"LineString","coordinates":[[103.8427293,1.4368799],[103.8427619,1.4369109]]}},{"type":"Feature","id":"way/763044384-0-0-0","properties":{"highway":"residential","lanes":"2","lanes:backward":"1","lanes:forward":"1","maxspeed":"50","name":"Yishun Industrial Street 1","surface":"asphalt","turn:lanes:backward":"left;right","startNodeId":"4600814116","endNodeId":"7663085550"},"geometry":{"type":"LineString","coordinates":[[103.8427619,1.4369109],[103.8428345,1.436983]]}},{"type":"Feature","id":"way/788748404-0-0-0","properties":{"highway":"service","startNodeId":"7374159900","endNodeId":"7374232426"},"geometry":{"type":"LineString","coordinates":[[103.8441964,1.4371135],[103.8444123,1.437308]]}},{"type":"Feature","id":"way/788748405-0-0-0","properties":{"highway":"residential","lanes":"2","maxspeed":"50","name":"Yishun Industrial Street 1","oneway":"yes","surface":"asphalt","startNodeId":"7374232427","endNodeId":"4721061550"},"geometry":{"type":"LineString","coordinates":[[103.84393,1.4370926],[103.8437899,1.4372574]]}},{"type":"Feature","id":"way/788748405-0-1-0","properties":{"highway":"residential","lanes":"2","maxspeed":"50","name":"Yishun Industrial Street 1","oneway":"yes","surface":"asphalt","startNodeId":"4721061550","endNodeId":"4722664162"},"geometry":{"type":"LineString","coordinates":[[103.8437899,1.4372574],[103.8436878,1.4373521]]}},{"type":"Feature","id":"way/788748406-0-0-0","properties":{"highway":"service","startNodeId":"7374159900","endNodeId":"7374159899"},"geometry":{"type":"LineString","coordinates":[[103.8441964,1.4371135],[103.844482,1.436808]]}},{"type":"Feature","id":"way/788748406-0-1-0","properties":{"highway":"service","startNodeId":"7374159899","endNodeId":"7374159898"},"geometry":{"type":"LineString","coordinates":[[103.844482,1.436808],[103.8445276,1.4367611]]}},{"type":"Feature","id":"way/788748406-0-2-0","properties":{"highway":"service","startNodeId":"7374159898","endNodeId":"7374159897"},"geometry":{"type":"LineString","coordinates":[[103.8445276,1.4367611],[103.8445584,1.436749]]}},{"type":"Feature","id":"way/788748406-0-3-0","properties":{"highway":"service","startNodeId":"7374159897","endNodeId":"7374159896"},"geometry":{"type":"LineString","coordinates":[[103.8445584,1.436749],[103.8445947,1.4367557]]}},{"type":"Feature","id":"way/788748406-0-4-0","properties":{"highway":"service","startNodeId":"7374159896","endNodeId":"7374159895"},"geometry":{"type":"LineString","coordinates":[[103.8445947,1.4367557],[103.8446698,1.4368147]]}},{"type":"Feature","id":"way/788760147-0-0-0","properties":{"highway":"residential","lanes":"1","maxspeed":"50","name":"Yishun Industrial Street 1","oneway":"yes","surface":"asphalt","turn:lanes":"through;right","startNodeId":"4722664165","endNodeId":"4722664166"},"geometry":{"type":"LineString","coordinates":[[103.8434187,1.4374036],[103.8433252,1.4373753]]}},{"type":"Feature","id":"way/788760147-0-1-0","properties":{"highway":"residential","lanes":"1","maxspeed":"50","name":"Yishun Industrial Street 1","oneway":"yes","surface":"asphalt","turn:lanes":"through;right","startNodeId":"4722664166","endNodeId":"4722664167"},"geometry":{"type":"LineString","coordinates":[[103.8433252,1.4373753],[103.8432515,1.4373186]]}},{"type":"Feature","id":"way/788760147-0-2-0","properties":{"highway":"residential","lanes":"1","maxspeed":"50","name":"Yishun Industrial Street 1","oneway":"yes","surface":"asphalt","turn:lanes":"through;right","startNodeId":"4722664167","endNodeId":"6435158504"},"geometry":{"type":"LineString","coordinates":[[103.8432515,1.4373186],[103.8431645,1.4372349]]}},{"type":"Feature","id":"way/788760148-0-0-0","properties":{"highway":"residential","lanes":"2","maxspeed":"50","name":"Yishun Industrial Street 1","oneway":"yes","surface":"asphalt","startNodeId":"7374360638","endNodeId":"7374232427"},"geometry":{"type":"LineString","coordinates":[[103.8440353,1.4369687],[103.84393,1.4370926]]}},{"type":"Feature","id":"way/788760149-0-0-0","properties":{"highway":"residential","lanes":"2","maxspeed":"50","name":"Yishun Industrial Street 1","oneway":"yes","surface":"asphalt","startNodeId":"7374232428","endNodeId":"7130387394"},"geometry":{"type":"LineString","coordinates":[[103.8439945,1.4371529],[103.8441064,1.4370314]]}},{"type":"Feature","id":"way/788760150-0-0-0","properties":{"highway":"service","lanes":"2","lanes:backward":"1","lanes:forward":"1","startNodeId":"7374232427","endNodeId":"7374232428"},"geometry":{"type":"LineString","coordinates":[[103.84393,1.4370926],[103.8439945,1.4371529]]}},{"type":"Feature","id":"way/788770710-0-0-0","properties":{"highway":"service","startNodeId":"7374232429","endNodeId":"7374360637"},"geometry":{"type":"LineString","coordinates":[[103.8440891,1.4372343],[103.8438128,1.4375507]]}},{"type":"Feature","id":"way/788770710-0-1-0","properties":{"highway":"service","startNodeId":"7374360637","endNodeId":"7374360636"},"geometry":{"type":"LineString","coordinates":[[103.8438128,1.4375507],[103.8437444,1.4376258]]}},{"type":"Feature","id":"way/788770710-0-2-0","properties":{"highway":"service","startNodeId":"7374360636","endNodeId":"7374360635"},"geometry":{"type":"LineString","coordinates":[[103.8437444,1.4376258],[103.843735,1.4376674]]}},{"type":"Feature","id":"way/788770710-0-3-0","properties":{"highway":"service","startNodeId":"7374360635","endNodeId":"7374360634"},"geometry":{"type":"LineString","coordinates":[[103.843735,1.4376674],[103.8437524,1.4377089]]}},{"type":"Feature","id":"way/788770710-0-4-0","properties":{"highway":"service","startNodeId":"7374360634","endNodeId":"7374360633"},"geometry":{"type":"LineString","coordinates":[[103.8437524,1.4377089],[103.8439281,1.437847]]}},{"type":"Feature","id":"way/788770710-0-5-0","properties":{"highway":"service","startNodeId":"7374360633","endNodeId":"5683604800"},"geometry":{"type":"LineString","coordinates":[[103.8439281,1.437847],[103.8447529,1.4385938]]}},{"type":"Feature","id":"way/788770711-0-0-0","properties":{"highway":"service","lanes":"2","lanes:backward":"1","lanes:forward":"1","turn:lanes:backward":"left","turn:lanes:forward":"through","startNodeId":"7374232428","endNodeId":"8083085531"},"geometry":{"type":"LineString","coordinates":[[103.8439945,1.4371529],[103.8440388,1.437191]]}},{"type":"Feature","id":"way/788770711-0-1-0","properties":{"highway":"service","lanes":"2","lanes:backward":"1","lanes:forward":"1","turn:lanes:backward":"left","turn:lanes:forward":"through","startNodeId":"8083085531","endNodeId":"7374232429"},"geometry":{"type":"LineString","coordinates":[[103.8440388,1.437191],[103.8440891,1.4372343]]}},{"type":"Feature","id":"way/792379354-0-0-0","properties":{"highway":"service","lanes":"1","oneway":"yes","surface":"asphalt","turn:lanes":"through","startNodeId":"4600814114","endNodeId":"5278323810"},"geometry":{"type":"LineString","coordinates":[[103.8422784,1.438757],[103.8422246,1.4388567]]}},{"type":"Feature","id":"way/792379354-0-1-0","properties":{"highway":"service","lanes":"1","oneway":"yes","surface":"asphalt","turn:lanes":"through","startNodeId":"5278323810","endNodeId":"5145235088"},"geometry":{"type":"LineString","coordinates":[[103.8422246,1.4388567],[103.8421848,1.4389304]]}},{"type":"Feature","id":"way/792379354-0-2-0","properties":{"highway":"service","lanes":"1","oneway":"yes","surface":"asphalt","turn:lanes":"through","startNodeId":"5145235088","endNodeId":"4600814111"},"geometry":{"type":"LineString","coordinates":[[103.8421848,1.4389304],[103.8420493,1.4390696]]}},{"type":"Feature","id":"way/792780392-0-0-0","properties":{"highway":"service","lanes":"2","lanes:backward":"1","lanes:forward":"1","service":"parking_aisle","turn:lanes:backward":"through","turn:lanes:forward":"left;right","startNodeId":"7413161247","endNodeId":"4602218915"},"geometry":{"type":"LineString","coordinates":[[103.8424616,1.4389678],[103.8425988,1.4388595]]}},{"type":"Feature","id":"way/792858631-0-0-0","properties":{"highway":"service","lanes":"2","lanes:backward":"1","lanes:forward":"1","startNodeId":"7414045830","endNodeId":"7414045829"},"geometry":{"type":"LineString","coordinates":[[103.842253,1.4371849],[103.8424919,1.4369296]]}},{"type":"Feature","id":"way/792861268-0-0-0","properties":{"highway":"service","lanes":"2","lanes:backward":"1","lanes:forward":"1","turn:lanes:backward":"through","turn:lanes:forward":"through","startNodeId":"7414045829","endNodeId":"6435158498"},"geometry":{"type":"LineString","coordinates":[[103.8424919,1.4369296],[103.8425989,1.437018]]}},{"type":"Feature","id":"way/820856931-0-0-0","properties":{"highway":"residential","lanes":"2","lanes:backward":"1","lanes:forward":"1","maxspeed":"50","name":"Yishun Industrial Street 1","surface":"asphalt","startNodeId":"7663085550","endNodeId":"4724765564"},"geometry":{"type":"LineString","coordinates":[[103.8428345,1.436983],[103.8430493,1.4371818]]}},{"type":"Feature","id":"way/1093710753-0-0-0","properties":{"highway":"service","oneway":"yes","startNodeId":"8655427660","endNodeId":"6435158518"},"geometry":{"type":"LineString","coordinates":[[103.8419822,1.4381082],[103.8427969,1.4371988]]}},{"type":"Feature","id":"way/1093710754-0-0-0","properties":{"highway":"service","startNodeId":"6435158503","endNodeId":"10017299168"},"geometry":{"type":"LineString","coordinates":[[103.8430058,1.4373344],[103.8429816,1.4373598]]}},{"type":"Feature","id":"way/1093710755-0-0-0","properties":{"covered":"yes","highway":"service","startNodeId":"10017299168","endNodeId":"10017299169"},"geometry":{"type":"LineString","coordinates":[[103.8429816,1.4373598],[103.8421164,1.4382311]]}},{"type":"Feature","id":"way/1093710756-0-0-0","properties":{"highway":"service","oneway":"yes","startNodeId":"10017299170","endNodeId":"10017299171"},"geometry":{"type":"LineString","coordinates":[[103.8432278,1.4375381],[103.843204,1.4375619]]}},{"type":"Feature","id":"way/1093710757-0-0-0","properties":{"highway":"service","oneway":"yes","startNodeId":"10017299171","endNodeId":"10017299172"},"geometry":{"type":"LineString","coordinates":[[103.843204,1.4375619],[103.8423674,1.4384215]]}},{"type":"Feature","id":"way/1093710758-0-0-0","properties":{"highway":"service","oneway":"yes","startNodeId":"10017299172","endNodeId":"10017299173"},"geometry":{"type":"LineString","coordinates":[[103.8423674,1.4384215],[103.84235,1.438438]]}}]}