{"type":"FeatureCollection","features":[{"type":"Feature","id":"relation/13648334-0","properties":{"building":"yes","type":"multipolygon"},"geometry":{"type":"Polygon","coordinates":[[[103.7171183,1.4475648],[103.7174579,1.4471447],[103.7170925,1.446855],[103.7170214,1.4469575],[103.7172833,1.4471657],[103.717117,1.4473755],[103.7168678,1.4471788],[103.7167839,1.4472997],[103.7171183,1.4475648]]]}},{"type":"Feature","id":"way/109969363-0","properties":{"building":"yes"},"geometry":{"type":"Polygon","coordinates":[[[103.7163471,1.44696],[103.7164526,1.4468252],[103.7161209,1.446566],[103.7160154,1.4467009],[103.7163471,1.44696]]]}},{"type":"Feature","id":"way/109969364-0","properties":{"building":"yes"},"geometry":{"type":"Polygon","coordinates":[[[103.7166552,1.447134],[103.7167161,1.447053],[103.7165799,1.4469504],[103.7165189,1.4470314],[103.7166552,1.447134]]]}},{"type":"Feature","id":"way/109969371-0","properties":{"building":"yes"},"geometry":{"type":"Polygon","coordinates":[[[103.7165112,1.4467722],[103.7166127,1.4466479],[103.7162787,1.4463765],[103.716169,1.446493],[103.7165112,1.4467722]]]}},{"type":"Feature","id":"way/453254081-0","properties":{"building":"yes"},"geometry":{"type":"Polygon","coordinates":[[[103.7173798,1.4467679],[103.7172363,1.4466452],[103.7171658,1.446735],[103.7173116,1.4468552],[103.7173798,1.4467679]]]}},{"type":"Feature","id":"way/453254098-0","properties":{"building":"yes"},"geometry":{"type":"Polygon","coordinates":[[[103.7170091,1.4467875],[103.7170766,1.446694],[103.7168832,1.4465546],[103.7168158,1.4466481],[103.7170091,1.4467875]]]}},{"type":"Feature","id":"way/453254106-0","properties":{"building":"yes"},"geometry":{"type":"Polygon","coordinates":[[[103.7175389,1.4470425],[103.7176072,1.4469622],[103.7173882,1.4467751],[103.7173166,1.4468593],[103.7175389,1.4470425]]]}},{"type":"Feature","id":"way/454852835-0","properties":{"building":"yes"},"geometry":{"type":"Polygon","coordinates":[[[103.7176108,1.4465061],[103.717661,1.4464349],[103.7174571,1.4462914],[103.717407,1.4463626],[103.7176108,1.4465061]]]}},{"type":"Feature","id":"way/454852836-0","properties":{"building":"yes"},"geometry":{"type":"Polygon","coordinates":[[[103.7175371,1.4466093],[103.7175993,1.4465184],[103.7174035,1.4463844],[103.7173413,1.4464752],[103.7175371,1.4466093]]]}},{"type":"Feature","id":"way/1019345227-0","properties":{"building":"yes"},"geometry":{"type":"Polygon","coordinates":[[[103.7175145,1.4458304],[103.7173645,1.4457214],[103.7173271,1.4457729],[103.7174771,1.4458819],[103.7175145,1.4458304]]]}},{"type":"Feature","id":"way/1019345228-0","properties":{"building":"yes"},"geometry":{"type":"Polygon","coordinates":[[[103.7175604,1.4457679],[103.7174104,1.4456589],[103.717373,1.4457104],[103.717523,1.4458193],[103.7175604,1.4457679]]]}},{"type":"Feature","id":"way/1019345229-0","properties":{"building":"yes"},"geometry":{"type":"Polygon","coordinates":[[[103.7176248,1.4460055],[103.7174846,1.4459032],[103.7174472,1.4459547],[103.7175802,1.4460542],[103.7176248,1.4460055]]]}},{"type":"Feature","id":"way/1019345230-0","properties":{"building":"yes"},"geometry":{"type":"Polygon","coordinates":[[[103.7176705,1.4459451],[103.7175272,1.4458424],[103.7174898,1.4458939],[103.7176304,1.4459979],[103.7176705,1.4459451]]]}},{"type":"Feature","id":"way/1019345231-0","properties":{"building":"yes"},"geometry":{"type":"Polygon","coordinates":[[[103.7177128,1.445883],[103.7175731,1.4457799],[103.7175357,1.4458313],[103.717675,1.4459367],[103.7177128,1.445883]]]}},{"type":"Feature","id":"way/1019350310-0","properties":{"building":"yes"},"geometry":{"type":"Polygon","coordinates":[[[103.7166379,1.446524],[103.7163483,1.4463028],[103.7163076,1.4463459],[103.7166017,1.4465714],[103.7166379,1.446524]]]}},{"type":"Feature","id":"way/1019353724-0","properties":{"building":"yes"},"geometry":{"type":"Polygon","coordinates":[[[103.7175239,1.4470623],[103.7172344,1.446837],[103.717201,1.4468798],[103.7174905,1.4471052],[103.7175239,1.4470623]]]}},{"type":"Feature","id":"way/1019354721-0","properties":{"building":"yes"},"geometry":{"type":"Polygon","coordinates":[[[103.7174707,1.4458888],[103.7173207,1.4457798],[103.7172833,1.4458313],[103.7174333,1.4459403],[103.7174707,1.4458888]]]}},{"type":"Feature","id":"way/1019377519-0","properties":{"amenity":"shelter","building":"yes"},"geometry":{"type":"Polygon","coordinates":[[[103.7205411,1.4474109],[103.720516,1.4473712],[103.7204955,1.4473842],[103.7204731,1.4473487],[103.7204203,1.4473821],[103.7204678,1.4474572],[103.7205411,1.4474109]]]}},{"type":"Feature","id":"way/539540271-0-0-0","properties":{"highway":"service"},"geometry":{"type":"LineString","coordinates":[[103.7171387,1.446739],[103.7176167,1.4460266]]}},{"type":"Feature","id":"way/539540271-0-1-0","properties":{"highway":"service"},"geometry":{"type":"LineString","coordinates":[[103.7176167,1.4460266],[103.7176387,1.4460105]]}},{"type":"Feature","id":"way/639070394-0-0-0","properties":{"highway":"service"},"geometry":{"type":"LineString","coordinates":[[103.7171387,1.446739],[103.717415,1.4469583]]}},{"type":"Feature","id":"way/639070395-0-0-0","properties":{"bridge":"yes","highway":"service","layer":"1"},"geometry":{"type":"LineString","coordinates":[[103.7162724,1.4463215],[103.7163207,1.4462571]]}},{"type":"Feature","id":"way/639070396-0-2-0","properties":{"highway":"service"},"geometry":{"type":"LineString","coordinates":[[103.7161705,1.4464368],[103.7162724,1.4463215]]}},{"type":"Feature","id":"way/639070398-0-0-0","properties":{"highway":"service"},"geometry":{"type":"LineString","coordinates":[[103.7163207,1.4462571],[103.7168786,1.4454795]]}},{"type":"Feature","id":"way/643457205-0-0-0","properties":{"highway":"service"},"geometry":{"type":"LineString","coordinates":[[103.7166487,1.4473847],[103.7171387,1.446739]]}},{"type":"Feature","id":"way/691578242-0-0-0","properties":{"highway":"service"},"geometry":{"type":"LineString","coordinates":[[103.7161238,1.446501],[103.7164186,1.4467196]]}}]}