{"type":"FeatureCollection","features":[{"type":"Feature","id":"way/111151590-0","properties":{"addr:housenumber":"11","addr:street":"Lim Chu Kang Lane 6","building":"yes","source":"Kaart Ground Survey 2017","clearanceGeometry":{"type":"Polygon","coordinates":[[[103.71267471450376,1.4356221756557752],[103.71266267188838,1.4355553304139037],[103.7126446894507,1.435465040971545],[103.7119856,1.4356019],[103.7120182,1.4357585],[103.71267471450376,1.4356221756557752]]]},"clearanceHeight":1.7,"clearancePrepared":true},"geometry":{"type":"Polygon","coordinates":[[[103.7120182,1.4357585],[103.7126876,1.4356195],[103.712655,1.4354629],[103.7119856,1.4356019],[103.7120182,1.4357585]]]}},{"type":"Feature","id":"way/288256974-0","properties":{"building":"yes","source":"Bing","clearanceGeometry":{"type":"Polygon","coordinates":[[[103.71615330582006,1.4324231309369866],[103.71604467658719,1.4324614534843192],[103.71602799609502,1.432465363829203],[103.71604551494882,1.4325073309998597],[103.71602762344973,1.4325147959103202],[103.7160536,1.4326009],[103.7162011,1.4325472],[103.71615330582006,1.4324231309369866]]]},"clearanceHeight":1.7,"clearancePrepared":true},"geometry":{"type":"Polygon","coordinates":[[[103.7162011,1.4325472],[103.7161474,1.4324078],[103.7160107,1.4324587],[103.7160536,1.4326009],[103.7162011,1.4325472]]]}},{"type":"Feature","id":"way/288257002-0","properties":{"building":"yes","source":"Bing","clearanceGeometry":{"type":"Polygon","coordinates":[[[103.71486,1.4327108],[103.71464,1.4327832],[103.7146642,1.4328744],[103.7148922,1.4327993],[103.71486,1.4327108]]]},"clearanceHeight":1.7,"clearancePrepared":true},"geometry":{"type":"Polygon","coordinates":[[[103.7148922,1.4327993],[103.71486,1.4327108],[103.71464,1.4327832],[103.7146642,1.4328744],[103.7148922,1.4327993]]]}},{"type":"Feature","id":"way/288257006-0","properties":{"building":"yes","source":"Bing","clearanceGeometry":{"type":"Polygon","coordinates":[[[103.7145381,1.4328636],[103.7143557,1.4329253],[103.7143799,1.4330004],[103.7145703,1.4329414],[103.7145381,1.4328636]]]},"clearanceHeight":1.7,"clearancePrepared":true},"geometry":{"type":"Polygon","coordinates":[[[103.7145703,1.4329414],[103.7145381,1.4328636],[103.7143557,1.4329253],[103.7143799,1.4330004],[103.7145703,1.4329414]]]}},{"type":"Feature","id":"way/288257032-0","properties":{"building":"yes","source":"Bing","clearanceGeometry":{"type":"Polygon","coordinates":[[[103.7147259,1.4329548],[103.714404,1.4330755],[103.7144496,1.4331827],[103.7147609512699,1.4330685668845957],[103.71476269155811,1.4330643914916108],[103.71474897524546,1.433010413365701],[103.7147259,1.4329548]]]},"clearanceHeight":1.7,"clearancePrepared":true},"geometry":{"type":"Polygon","coordinates":[[[103.7147715,1.4330647],[103.7147259,1.4329548],[103.714404,1.4330755],[103.7144496,1.4331827],[103.7147715,1.4330647]]]}},{"type":"Feature","id":"way/451921871-0","properties":{"building":"yes","clearanceGeometry":{"type":"Polygon","coordinates":[[[103.7147808,1.4352778],[103.714763,1.4351886],[103.714413,1.4352583],[103.7144308,1.4353475],[103.7147808,1.4352778]]]},"clearanceHeight":1.7,"clearancePrepared":true},"geometry":{"type":"Polygon","coordinates":[[[103.7144308,1.4353475],[103.7147808,1.4352778],[103.714763,1.4351886],[103.714413,1.4352583],[103.7144308,1.4353475]]]}},{"type":"Feature","id":"way/451921872-0","properties":{"building":"yes","clearanceGeometry":{"type":"Polygon","coordinates":[[[103.7129481,1.4327279],[103.7129307,1.4324531],[103.7127324,1.4324656],[103.7127498,1.4327405],[103.7129481,1.4327279]]]},"clearanceHeight":1.7,"clearancePrepared":true},"geometry":{"type":"Polygon","coordinates":[[[103.7127498,1.4327405],[103.7129481,1.4327279],[103.7129307,1.4324531],[103.7127324,1.4324656],[103.7127498,1.4327405]]]}},{"type":"Feature","id":"way/451921878-0","properties":{"building":"yes","clearanceGeometry":{"type":"Polygon","coordinates":[[[103.7144633,1.435447],[103.714808,1.43538],[103.7147965,1.4353213],[103.7144519,1.4353883],[103.7144633,1.435447]]]},"clearanceHeight":1.7,"clearancePrepared":true},"geometry":{"type":"Polygon","coordinates":[[[103.7144519,1.4353883],[103.7144633,1.435447],[103.714808,1.43538],[103.7147965,1.4353213],[103.7144519,1.4353883]]]}},{"type":"Feature","id":"way/451921882-0","properties":{"building":"yes","clearanceGeometry":{"type":"Polygon","coordinates":[[[103.7125296,1.4331202],[103.7125303,1.4329547],[103.7124441,1.4329543],[103.7124434,1.4331199],[103.7125296,1.4331202]]]},"clearanceHeight":1.7,"clearancePrepared":true},"geometry":{"type":"Polygon","coordinates":[[[103.7124434,1.4331199],[103.7125296,1.4331202],[103.7125303,1.4329547],[103.7124441,1.4329543],[103.7124434,1.4331199]]]}},{"type":"Feature","id":"way/451921883-0","properties":{"building":"yes","clearanceGeometry":{"type":"Polygon","coordinates":[[[103.7160621,1.4350457],[103.7159329,1.4350046],[103.71589200701202,1.4351330520916825],[103.71602867766346,1.4351509330643775],[103.7160621,1.4350457]]]},"clearanceHeight":1.7,"clearancePrepared":true},"geometry":{"type":"Polygon","coordinates":[[[103.7158904,1.4351381],[103.7160197,1.4351792],[103.7160621,1.4350457],[103.7159329,1.4350046],[103.7158904,1.4351381]]]}},{"type":"Feature","id":"way/451921886-0","properties":{"building":"yes","clearanceGeometry":{"type":"Polygon","coordinates":[[[103.7154408,1.4351618],[103.7154274,1.435021],[103.7152304,1.4350398],[103.7152438,1.4351805],[103.7154408,1.4351618]]]},"clearanceHeight":1.7,"clearancePrepared":true},"geometry":{"type":"Polygon","coordinates":[[[103.7152438,1.4351805],[103.7154408,1.4351618],[103.7154274,1.435021],[103.7152304,1.4350398],[103.7152438,1.4351805]]]}},{"type":"Feature","id":"way/451921891-0","properties":{"building":"yes","clearanceGeometry":{"type":"Polygon","coordinates":[[[103.7142622,1.4354037],[103.7142319,1.435273],[103.7138725,1.4353562],[103.7139028,1.4354869],[103.7142622,1.4354037]]]},"clearanceHeight":1.7,"clearancePrepared":true},"geometry":{"type":"Polygon","coordinates":[[[103.7139028,1.4354869],[103.7142622,1.4354037],[103.7142319,1.435273],[103.7138725,1.4353562],[103.7139028,1.4354869]]]}},{"type":"Feature","id":"way/451921893-0","properties":{"building":"yes","clearanceGeometry":{"type":"Polygon","coordinates":[[[103.7155522207105,1.4351383872042638],[103.7155519796083,1.4351296915186973],[103.71572776892414,1.4351248199178293],[103.7157185,1.4349848],[103.7154745,1.4350009],[103.7154838,1.4351429],[103.7155522207105,1.4351383872042638]]]},"clearanceHeight":1.7,"clearancePrepared":true},"geometry":{"type":"Polygon","coordinates":[[[103.7154838,1.4351429],[103.7157279,1.4351268],[103.7157185,1.4349848],[103.7154745,1.4350009],[103.7154838,1.4351429]]]}},{"type":"Feature","id":"way/451921897-0","properties":{"building":"yes","clearanceGeometry":{"type":"Polygon","coordinates":[[[103.7160287,1.4330582],[103.7159912,1.432959],[103.7158351,1.433018],[103.7158726,1.4331172],[103.7160287,1.4330582]]]},"clearanceHeight":1.7,"clearancePrepared":true},"geometry":{"type":"Polygon","coordinates":[[[103.7158726,1.4331172],[103.7160287,1.4330582],[103.7159912,1.432959],[103.7158351,1.433018],[103.7158726,1.4331172]]]}},{"type":"Feature","id":"way/451921907-0","properties":{"building":"yes","clearanceGeometry":{"type":"Polygon","coordinates":[[[103.7121353,1.435167],[103.7121125,1.4349136],[103.7119914,1.4349245],[103.71200685256548,1.43509617258058],[103.71201658572608,1.4351775872349994],[103.7121353,1.435167]]]},"clearanceHeight":1.7,"clearancePrepared":true},"geometry":{"type":"Polygon","coordinates":[[[103.7120142,1.4351778],[103.7121353,1.435167],[103.7121125,1.4349136],[103.7119914,1.4349245],[103.7120142,1.4351778]]]}},{"type":"Feature","id":"way/451921911-0","properties":{"building":"yes","clearanceGeometry":{"type":"Polygon","coordinates":[[[103.7131696,1.4325488],[103.7131696,1.4324415],[103.7130891,1.4324415],[103.7130891,1.4325488],[103.7131696,1.4325488]]]},"clearanceHeight":1.7,"clearancePrepared":true},"geometry":{"type":"Polygon","coordinates":[[[103.7130891,1.4325488],[103.7131696,1.4325488],[103.7131696,1.4324415],[103.7130891,1.4324415],[103.7130891,1.4325488]]]}},{"type":"Feature","id":"way/451921914-0","properties":{"building":"yes","clearanceGeometry":{"type":"Polygon","coordinates":[[[103.712919,1.4332202],[103.7129175,1.4331454],[103.7128531,1.4331467],[103.7128547,1.4332215],[103.712919,1.4332202]]]},"clearanceHeight":1.7,"clearancePrepared":true},"geometry":{"type":"Polygon","coordinates":[[[103.7128547,1.4332215],[103.712919,1.4332202],[103.7129175,1.4331454],[103.7128531,1.4331467],[103.7128547,1.4332215]]]}},{"type":"Feature","id":"way/451921916-0","properties":{"building":"yes","clearanceGeometry":{"type":"Polygon","coordinates":[[[103.71609682613854,1.4367013389625751],[103.71611073776867,1.4366612416182492],[103.7161133,1.4366298],[103.7159819,1.4366191],[103.715976,1.4366915],[103.71609682613854,1.4367013389625751]]]},"clearanceHeight":1.7,"clearancePrepared":true},"geometry":{"type":"Polygon","coordinates":[[[103.715976,1.4366915],[103.7161074,1.4367022],[103.7161133,1.4366298],[103.7159819,1.4366191],[103.715976,1.4366915]]]}},{"type":"Feature","id":"way/451921924-0","properties":{"building":"yes","clearanceGeometry":{"type":"Polygon","coordinates":[[[103.7150664,1.4365804],[103.7149088,1.4365781],[103.7149073,1.4366747],[103.7150649,1.4366771],[103.7150664,1.4365804]]]},"clearanceHeight":1.7,"clearancePrepared":true},"geometry":{"type":"Polygon","coordinates":[[[103.7150649,1.4366771],[103.7150664,1.4365804],[103.7149088,1.4365781],[103.7149073,1.4366747],[103.7150649,1.4366771]]]}},{"type":"Feature","id":"way/451921926-0","properties":{"building":"yes","clearanceGeometry":{"type":"Polygon","coordinates":[[[103.7119025,1.4350722],[103.7118757,1.4348014],[103.711797,1.4348092],[103.7118238,1.43508],[103.7119025,1.4350722]]]},"clearanceHeight":1.7,"clearancePrepared":true},"geometry":{"type":"Polygon","coordinates":[[[103.7118238,1.43508],[103.7119025,1.4350722],[103.7118757,1.4348014],[103.711797,1.4348092],[103.7118238,1.43508]]]}},{"type":"Feature","id":"way/451921932-0","properties":{"building":"yes","clearanceGeometry":{"type":"Polygon","coordinates":[[[103.7125306,1.4327566],[103.7125306,1.4325528],[103.7124582,1.4325528],[103.7124582,1.4327566],[103.7125306,1.4327566]]]},"clearanceHeight":1.7,"clearancePrepared":true},"geometry":{"type":"Polygon","coordinates":[[[103.7124582,1.4327566],[103.7125306,1.4327566],[103.7125306,1.4325528],[103.7124582,1.4325528],[103.7124582,1.4327566]]]}},{"type":"Feature","id":"way/451921933-0","properties":{"building":"yes","clearanceGeometry":{"type":"Polygon","coordinates":[[[103.7133544,1.4325597],[103.7132096,1.4325584],[103.7132085,1.4326735],[103.7133533,1.4326748],[103.7133544,1.4325597]]]},"clearanceHeight":1.7,"clearancePrepared":true},"geometry":{"type":"Polygon","coordinates":[[[103.7133533,1.4326748],[103.7133544,1.4325597],[103.7132096,1.4325584],[103.7132085,1.4326735],[103.7133533,1.4326748]]]}},{"type":"Feature","id":"way/451921936-0","properties":{"building":"yes","clearanceGeometry":{"type":"Polygon","coordinates":[[[103.7131614,1.4357528],[103.7131268,1.4355668],[103.7129802,1.4355941],[103.7130036,1.4357203],[103.7128838,1.4357426],[103.7128521,1.4355718],[103.71275118356498,1.4355905339142172],[103.71276289236451,1.4356555262361896],[103.71279283834872,1.4358213545080034],[103.7131614,1.4357528]]]},"clearanceHeight":1.7,"clearancePrepared":true},"geometry":{"type":"Polygon","coordinates":[[[103.7127641,1.4358267],[103.7131614,1.4357528],[103.7131268,1.4355668],[103.7129802,1.4355941],[103.7130036,1.4357203],[103.7128838,1.4357426],[103.7128521,1.4355718],[103.7127212,1.4355961],[103.7127641,1.4358267]]]}},{"type":"Feature","id":"way/1201762805-0","properties":{"building":"yes","clearanceGeometry":{"type":"Polygon","coordinates":[[[103.7126832,1.4359648],[103.71273468762855,1.4359543945660855],[103.71270162698988,1.4357713186472538],[103.7126463,1.4357825],[103.7126832,1.4359648]]]},"clearanceHeight":1.7,"clearancePrepared":true},"geometry":{"type":"Polygon","coordinates":[[[103.7126463,1.4357825],[103.7126832,1.4359648],[103.71275,1.4359513],[103.7127131,1.435769],[103.7126463,1.4357825]]]}},{"type":"Feature","id":"way/1201762806-0","properties":{"building":"yes","clearanceGeometry":{"type":"Polygon","coordinates":[[[103.7125467,1.4358071],[103.7125012,1.4358172],[103.7125388,1.4359862],[103.7125843,1.435976],[103.7125467,1.4358071]]]},"clearanceHeight":1.7,"clearancePrepared":true},"geometry":{"type":"Polygon","coordinates":[[[103.7125843,1.435976],[103.7125467,1.4358071],[103.7125012,1.4358172],[103.7125388,1.4359862],[103.7125843,1.435976]]]}},{"type":"Feature","id":"way/1201762807-0","properties":{"building":"yes","clearanceGeometry":{"type":"Polygon","coordinates":[[[103.7126306,1.4357851],[103.7125589,1.4358011],[103.7125991,1.4359808],[103.7126708,1.4359648],[103.7126306,1.4357851]]]},"clearanceHeight":1.7,"clearancePrepared":true},"geometry":{"type":"Polygon","coordinates":[[[103.7126708,1.4359648],[103.7126306,1.4357851],[103.7125589,1.4358011],[103.7125991,1.4359808],[103.7126708,1.4359648]]]}},{"type":"Feature","id":"way/1201762808-0","properties":{"building":"yes","clearanceGeometry":{"type":"Polygon","coordinates":[[[103.7127389,1.4360192],[103.7126259,1.4360425],[103.7126635,1.4362248],[103.7127765,1.4362016],[103.7127389,1.4360192]]]},"clearanceHeight":1.7,"clearancePrepared":true},"geometry":{"type":"Polygon","coordinates":[[[103.7127765,1.4362016],[103.7127389,1.4360192],[103.7126259,1.4360425],[103.7126635,1.4362248],[103.7127765,1.4362016]]]}},{"type":"Feature","id":"way/22752949-0-4-0","properties":{"highway":"residential","lanes":"2","lanes:backward":"1","lanes:forward":"1","maxspeed":"50","name":"Lim Chu Kang Lane 6","source":"Yahoo aerial images","surface":"asphalt","startNodeId":"2660745351","endNodeId":"244139549"},"geometry":{"type":"LineString","coordinates":[[103.7117501,1.4353462],[103.711916,1.4353317]]}},{"type":"Feature","id":"way/22752949-0-5-0","properties":{"highway":"residential","lanes":"2","lanes:backward":"1","lanes:forward":"1","maxspeed":"50","name":"Lim Chu Kang Lane 6","source":"Yahoo aerial images","surface":"asphalt","startNodeId":"244139549","endNodeId":"6022436460"},"geometry":{"type":"LineString","coordinates":[[103.711916,1.4353317],[103.7119943,1.4353318]]}},{"type":"Feature","id":"way/539532904-0-0-0","properties":{"highway":"service","startNodeId":"6022522038","endNodeId":"6022522039"},"geometry":{"type":"LineString","coordinates":[[103.7153918,1.4366066],[103.7156821,1.436689]]}},{"type":"Feature","id":"way/539532909-0-0-0","properties":{"highway":"service","startNodeId":"5220705267","endNodeId":"5220705266"},"geometry":{"type":"LineString","coordinates":[[103.7127251,1.4324069],[103.7126947,1.4324475]]}},{"type":"Feature","id":"way/539532909-0-1-0","properties":{"highway":"service","startNodeId":"5220705266","endNodeId":"5220705265"},"geometry":{"type":"LineString","coordinates":[[103.7126947,1.4324475],[103.7126829,1.4324948]]}},{"type":"Feature","id":"way/539532909-0-2-0","properties":{"highway":"service","startNodeId":"5220705265","endNodeId":"5220705264"},"geometry":{"type":"LineString","coordinates":[[103.7126829,1.4324948],[103.7126372,1.4330336]]}},{"type":"Feature","id":"way/539532909-0-3-0","properties":{"highway":"service","startNodeId":"5220705264","endNodeId":"5220705277"},"geometry":{"type":"LineString","coordinates":[[103.7126372,1.4330336],[103.7126488,1.4330636]]}},{"type":"Feature","id":"way/539532910-0-0-0","properties":{"highway":"service","startNodeId":"5220705271","endNodeId":"5220705270"},"geometry":{"type":"LineString","coordinates":[[103.7133809,1.4324263],[103.7133481,1.4324129]]}},{"type":"Feature","id":"way/539532910-0-1-0","properties":{"highway":"service","startNodeId":"5220705270","endNodeId":"5220705269"},"geometry":{"type":"LineString","coordinates":[[103.7133481,1.4324129],[103.712818,1.4323664]]}},{"type":"Feature","id":"way/539532910-0-2-0","properties":{"highway":"service","startNodeId":"5220705269","endNodeId":"5220705268"},"geometry":{"type":"LineString","coordinates":[[103.712818,1.4323664],[103.712769,1.4323765]]}},{"type":"Feature","id":"way/539532910-0-3-0","properties":{"highway":"service","startNodeId":"5220705268","endNodeId":"5220705267"},"geometry":{"type":"LineString","coordinates":[[103.712769,1.4323765],[103.7127251,1.4324069]]}},{"type":"Feature","id":"way/539532911-0-0-0","properties":{"highway":"service","startNodeId":"5220705274","endNodeId":"5220705273"},"geometry":{"type":"LineString","coordinates":[[103.7133995,1.4330453],[103.7134128,1.4330175]]}},{"type":"Feature","id":"way/539532911-0-1-0","properties":{"highway":"service","startNodeId":"5220705273","endNodeId":"5220705272"},"geometry":{"type":"LineString","coordinates":[[103.7134128,1.4330175],[103.7133959,1.432461]]}},{"type":"Feature","id":"way/539532911-0-2-0","properties":{"highway":"service","startNodeId":"5220705272","endNodeId":"5220705271"},"geometry":{"type":"LineString","coordinates":[[103.7133959,1.432461],[103.7133809,1.4324263]]}},{"type":"Feature","id":"way/539532912-0-0-0","properties":{"highway":"service","startNodeId":"5220705277","endNodeId":"5220705276"},"geometry":{"type":"LineString","coordinates":[[103.7126488,1.4330636],[103.7126761,1.4330725]]}},{"type":"Feature","id":"way/539532912-0-1-0","properties":{"highway":"service","startNodeId":"5220705276","endNodeId":"5220705278"},"geometry":{"type":"LineString","coordinates":[[103.7126761,1.4330725],[103.7129987,1.4330643]]}},{"type":"Feature","id":"way/539532913-0-0-0","properties":{"highway":"service","startNodeId":"5220705279","endNodeId":"5220705278"},"geometry":{"type":"LineString","coordinates":[[103.7130055,1.4333838],[103.7129987,1.4330643]]}},{"type":"Feature","id":"way/639083027-0-0-0","properties":{"highway":"service","startNodeId":"6022436417","endNodeId":"6022436416"},"geometry":{"type":"LineString","coordinates":[[103.7147984,1.4332299],[103.7147784,1.4331318]]}},{"type":"Feature","id":"way/639083027-0-1-0","properties":{"highway":"service","startNodeId":"6022436416","endNodeId":"6022436415"},"geometry":{"type":"LineString","coordinates":[[103.7147784,1.4331318],[103.7148052,1.4330675]]}},{"type":"Feature","id":"way/639083027-0-2-0","properties":{"highway":"service","startNodeId":"6022436415","endNodeId":"6022436414"},"geometry":{"type":"LineString","coordinates":[[103.7148052,1.4330675],[103.714765,1.4329093]]}},{"type":"Feature","id":"way/639083040-0-0-0","properties":{"highway":"service","startNodeId":"6022436458","endNodeId":"6047949201"},"geometry":{"type":"LineString","coordinates":[[103.7131663,1.4333847],[103.7131683,1.4335352]]}},{"type":"Feature","id":"way/639083041-0-0-0","properties":{"highway":"service","startNodeId":"6022436460","endNodeId":"6022436459"},"geometry":{"type":"LineString","coordinates":[[103.7119943,1.4353318],[103.7119326,1.4348157]]}},{"type":"Feature","id":"way/639083046-0-0-0","properties":{"highway":"service","startNodeId":"6022436482","endNodeId":"6022436481"},"geometry":{"type":"LineString","coordinates":[[103.7142776,1.4351221],[103.7143573,1.4355638]]}},{"type":"Feature","id":"way/639083047-0-1-0","properties":{"highway":"service","startNodeId":"6022436484","endNodeId":"6022436483"},"geometry":{"type":"LineString","coordinates":[[103.712233,1.4368214],[103.7120396,1.4358105]]}},{"type":"Feature","id":"way/639083049-0-1-0","properties":{"highway":"service","startNodeId":"6022436493","endNodeId":"6022436492"},"geometry":{"type":"LineString","coordinates":[[103.7124369,1.4365667],[103.7123966,1.436336]]}},{"type":"Feature","id":"way/639083049-0-2-0","properties":{"highway":"service","startNodeId":"6022436492","endNodeId":"6022436491"},"geometry":{"type":"LineString","coordinates":[[103.7123966,1.436336],[103.7123537,1.4360626]]}},{"type":"Feature","id":"way/639083049-0-3-0","properties":{"highway":"service","startNodeId":"6022436491","endNodeId":"6022436490"},"geometry":{"type":"LineString","coordinates":[[103.7123537,1.4360626],[103.7123618,1.4359044]]}},{"type":"Feature","id":"way/639083049-0-4-0","properties":{"highway":"service","startNodeId":"6022436490","endNodeId":"6022436489"},"geometry":{"type":"LineString","coordinates":[[103.7123618,1.4359044],[103.7123279,1.4357482]]}},{"type":"Feature","id":"way/639083050-0-0-0","properties":{"highway":"service","startNodeId":"6022436489","endNodeId":"6022436498"},"geometry":{"type":"LineString","coordinates":[[103.7123279,1.4357482],[103.7120667,1.4358052]]}},{"type":"Feature","id":"way/639083050-0-1-0","properties":{"highway":"service","startNodeId":"6022436498","endNodeId":"6022436483"},"geometry":{"type":"LineString","coordinates":[[103.7120667,1.4358052],[103.7120396,1.4358105]]}},{"type":"Feature","id":"way/639083051-0-0-0","properties":{"highway":"service","startNodeId":"6022436500","endNodeId":"6022436503"},"geometry":{"type":"LineString","coordinates":[[103.7127231,1.4356627],[103.7128016,1.4360974]]}},{"type":"Feature","id":"way/639083051-0-1-0","properties":{"highway":"service","startNodeId":"6022436503","endNodeId":"6022436502"},"geometry":{"type":"LineString","coordinates":[[103.7128016,1.4360974],[103.7129974,1.4370466]]}},{"type":"Feature","id":"way/639095684-0-0-0","properties":{"highway":"service","startNodeId":"6022522012","endNodeId":"6022522010"},"geometry":{"type":"LineString","coordinates":[[103.7159723,1.4324369],[103.7160082,1.4325229]]}},{"type":"Feature","id":"way/639095686-0-1-0","properties":{"highway":"service","startNodeId":"6022522013","endNodeId":"6022522012"},"geometry":{"type":"LineString","coordinates":[[103.7160333,1.4324226],[103.7159723,1.4324369]]}},{"type":"Feature","id":"way/639095697-0-0-0","properties":{"highway":"service","startNodeId":"6022522032","endNodeId":"6022522031"},"geometry":{"type":"LineString","coordinates":[[103.7155531,1.4351701],[103.7158093,1.435163]]}},{"type":"Feature","id":"way/639095697-0-1-0","properties":{"highway":"service","startNodeId":"6022522031","endNodeId":"6022522030"},"geometry":{"type":"LineString","coordinates":[[103.7158093,1.435163],[103.7160279,1.4351916]]}},{"type":"Feature","id":"way/639095697-0-2-0","properties":{"highway":"service","startNodeId":"6022522030","endNodeId":"6022522035"},"geometry":{"type":"LineString","coordinates":[[103.7160279,1.4351916],[103.7161694,1.4352239]]}},{"type":"Feature","id":"way/639095699-0-1-0","properties":{"highway":"service","startNodeId":"6022522036","endNodeId":"6022522035"},"geometry":{"type":"LineString","coordinates":[[103.7161873,1.4351737],[103.7161694,1.4352239]]}},{"type":"Feature","id":"way/639095703-0-3-0","properties":{"highway":"service","startNodeId":"6022602354","endNodeId":"6022522044"},"geometry":{"type":"LineString","coordinates":[[103.7161234,1.4367481],[103.716216,1.4364812]]}},{"type":"Feature","id":"way/639124746-0-0-0","properties":{"highway":"residential","lanes":"2","lanes:backward":"1","lanes:forward":"1","maxspeed":"50","name":"Lim Chu Kang Lane 6C","source":"Yahoo aerial images","surface":"asphalt","turn:lanes:forward":"left;right","startNodeId":"6369533868","endNodeId":"244139544"},"geometry":{"type":"LineString","coordinates":[[103.713621,1.4360961],[103.7135178,1.4358621]]}},{"type":"Feature","id":"way/639124746-0-1-0","properties":{"highway":"residential","lanes":"2","lanes:backward":"1","lanes:forward":"1","maxspeed":"50","name":"Lim Chu Kang Lane 6C","source":"Yahoo aerial images","surface":"asphalt","turn:lanes:forward":"left;right","startNodeId":"244139544","endNodeId":"2660745358"},"geometry":{"type":"LineString","coordinates":[[103.7135178,1.4358621],[103.7134631,1.4357383]]}},{"type":"Feature","id":"way/639124746-0-2-0","properties":{"highway":"residential","lanes":"2","lanes:backward":"1","lanes:forward":"1","maxspeed":"50","name":"Lim Chu Kang Lane 6C","source":"Yahoo aerial images","surface":"asphalt","turn:lanes:forward":"left;right","startNodeId":"2660745358","endNodeId":"2660745357"},"geometry":{"type":"LineString","coordinates":[[103.7134631,1.4357383],[103.7134259,1.4356222]]}},{"type":"Feature","id":"way/639124746-0-3-0","properties":{"highway":"residential","lanes":"2","lanes:backward":"1","lanes:forward":"1","maxspeed":"50","name":"Lim Chu Kang Lane 6C","source":"Yahoo aerial images","surface":"asphalt","turn:lanes:forward":"left;right","startNodeId":"2660745357","endNodeId":"2660745355"},"geometry":{"type":"LineString","coordinates":[[103.7134259,1.4356222],[103.7134077,1.4355033]]}},{"type":"Feature","id":"way/639124746-0-4-0","properties":{"highway":"residential","lanes":"2","lanes:backward":"1","lanes:forward":"1","maxspeed":"50","name":"Lim Chu Kang Lane 6C","source":"Yahoo aerial images","surface":"asphalt","turn:lanes:forward":"left;right","startNodeId":"2660745355","endNodeId":"244139545"},"geometry":{"type":"LineString","coordinates":[[103.7134077,1.4355033],[103.7133878,1.4353152]]}},{"type":"Feature","id":"way/639699331-0-0-0","properties":{"highway":"residential","lanes":"2","lanes:backward":"1","lanes:forward":"1","maxspeed":"50","name":"Lim Chu Kang Lane 6","source":"Yahoo aerial images","surface":"asphalt","startNodeId":"6022436460","endNodeId":"6022436505"},"geometry":{"type":"LineString","coordinates":[[103.7119943,1.4353318],[103.7126595,1.4353324]]}},{"type":"Feature","id":"way/639699332-0-0-0","properties":{"highway":"residential","lanes":"2","lanes:backward":"1","lanes:forward":"1","maxspeed":"50","name":"Lim Chu Kang Lane 6","source":"Yahoo aerial images","surface":"asphalt","turn:lanes:forward":"left;through","startNodeId":"6022436505","endNodeId":"2660745349"},"geometry":{"type":"LineString","coordinates":[[103.7126595,1.4353324],[103.7131582,1.4353328]]}},{"type":"Feature","id":"way/639699332-0-1-0","properties":{"highway":"residential","lanes":"2","lanes:backward":"1","lanes:forward":"1","maxspeed":"50","name":"Lim Chu Kang Lane 6","source":"Yahoo aerial images","surface":"asphalt","turn:lanes:forward":"left;through","startNodeId":"2660745349","endNodeId":"244139545"},"geometry":{"type":"LineString","coordinates":[[103.7131582,1.4353328],[103.7133878,1.4353152]]}},{"type":"Feature","id":"way/639699333-0-0-0","properties":{"highway":"residential","lanes":"2","lanes:backward":"1","lanes:forward":"1","maxspeed":"50","name":"Lim Chu Kang Lane 6","source":"Yahoo aerial images","surface":"asphalt","turn:lanes:backward":"through;right","startNodeId":"244139545","endNodeId":"6022436482"},"geometry":{"type":"LineString","coordinates":[[103.7133878,1.4353152],[103.7142776,1.4351221]]}},{"type":"Feature","id":"way/639699334-0-0-0","properties":{"highway":"residential","lanes":"2","lanes:backward":"1","lanes:forward":"1","maxspeed":"50","name":"Lim Chu Kang Lane 6","source":"Yahoo aerial images","surface":"asphalt","startNodeId":"6022436482","endNodeId":"244139550"},"geometry":{"type":"LineString","coordinates":[[103.7142776,1.4351221],[103.7157501,1.4348024]]}},{"type":"Feature","id":"way/639699334-0-1-0","properties":{"highway":"residential","lanes":"2","lanes:backward":"1","lanes:forward":"1","maxspeed":"50","name":"Lim Chu Kang Lane 6","source":"Yahoo aerial images","surface":"asphalt","startNodeId":"244139550","endNodeId":"6022522037"},"geometry":{"type":"LineString","coordinates":[[103.7157501,1.4348024],[103.7162533,1.4349872]]}},{"type":"Feature","id":"way/639699342-0-0-0","properties":{"highway":"residential","lanes":"2","lanes:backward":"1","lanes:forward":"1","maxspeed":"50","name":"Lim Chu Kang Lane 5","source":"Yahoo aerial images","surface":"asphalt","startNodeId":"6022436458","endNodeId":"5220705279"},"geometry":{"type":"LineString","coordinates":[[103.7131663,1.4333847],[103.7130055,1.4333838]]}},{"type":"Feature","id":"way/639699343-0-0-0","properties":{"highway":"residential","lanes":"2","lanes:backward":"1","lanes:forward":"1","maxspeed":"50","name":"Lim Chu Kang Lane 5","source":"Yahoo aerial images","surface":"asphalt","startNodeId":"6022436417","endNodeId":"244139553"},"geometry":{"type":"LineString","coordinates":[[103.7147984,1.4332299],[103.7143487,1.4333916]]}},{"type":"Feature","id":"way/639699343-0-1-0","properties":{"highway":"residential","lanes":"2","lanes:backward":"1","lanes:forward":"1","maxspeed":"50","name":"Lim Chu Kang Lane 5","source":"Yahoo aerial images","surface":"asphalt","startNodeId":"244139553","endNodeId":"6022436458"},"geometry":{"type":"LineString","coordinates":[[103.7143487,1.4333916],[103.7131663,1.4333847]]}},{"type":"Feature","id":"way/639699344-0-0-0","properties":{"highway":"residential","lanes":"2","lanes:backward":"1","lanes:forward":"1","maxspeed":"50","name":"Lim Chu Kang Lane 5","source":"Yahoo aerial images","surface":"asphalt","startNodeId":"5220705279","endNodeId":"244139520"},"geometry":{"type":"LineString","coordinates":[[103.7130055,1.4333838],[103.7123467,1.43338]]}},{"type":"Feature","id":"way/639699344-0-1-0","properties":{"highway":"residential","lanes":"2","lanes:backward":"1","lanes:forward":"1","maxspeed":"50","name":"Lim Chu Kang Lane 5","source":"Yahoo aerial images","surface":"asphalt","startNodeId":"244139520","endNodeId":"244139519"},"geometry":{"type":"LineString","coordinates":[[103.7123467,1.43338],[103.711276,1.4331531]]}},{"type":"Feature","id":"way/642411242-0-0-0","properties":{"highway":"service","startNodeId":"6022436504","endNodeId":"6047949185"},"geometry":{"type":"LineString","coordinates":[[103.7127024,1.4355478],[103.7130725,1.4355008]]}},{"type":"Feature","id":"way/642411243-0-0-0","properties":{"highway":"service","startNodeId":"6047949199","endNodeId":"6047949190"},"geometry":{"type":"LineString","coordinates":[[103.7129304,1.4335448],[103.7123819,1.4335381]]}},{"type":"Feature","id":"way/642411243-0-1-0","properties":{"highway":"service","startNodeId":"6047949190","endNodeId":"6047949189"},"geometry":{"type":"LineString","coordinates":[[103.7123819,1.4335381],[103.7123296,1.4335475]]}},{"type":"Feature","id":"way/642411243-0-2-0","properties":{"highway":"service","startNodeId":"6047949189","endNodeId":"6047949188"},"geometry":{"type":"LineString","coordinates":[[103.7123296,1.4335475],[103.712288,1.4335783]]}},{"type":"Feature","id":"way/642411243-0-3-0","properties":{"highway":"service","startNodeId":"6047949188","endNodeId":"6047949187"},"geometry":{"type":"LineString","coordinates":[[103.712288,1.4335783],[103.7122746,1.4336614]]}},{"type":"Feature","id":"way/642411243-0-4-0","properties":{"highway":"service","startNodeId":"6047949187","endNodeId":"6047949193"},"geometry":{"type":"LineString","coordinates":[[103.7122746,1.4336614],[103.712343,1.4341695]]}},{"type":"Feature","id":"way/642411244-0-0-0","properties":{"highway":"service","startNodeId":"6047949193","endNodeId":"6047949192"},"geometry":{"type":"LineString","coordinates":[[103.712343,1.4341695],[103.712964,1.4341024]]}},{"type":"Feature","id":"way/642411245-0-0-0","properties":{"highway":"service","startNodeId":"6047949196","endNodeId":"6047949195"},"geometry":{"type":"LineString","coordinates":[[103.7123886,1.4346079],[103.7129941,1.4345716]]}},{"type":"Feature","id":"way/642411246-0-0-0","properties":{"highway":"service","startNodeId":"6047949199","endNodeId":"6047949198"},"geometry":{"type":"LineString","coordinates":[[103.7129304,1.4335448],[103.7129304,1.4335796]]}},{"type":"Feature","id":"way/642411246-0-1-0","properties":{"highway":"service","startNodeId":"6047949198","endNodeId":"6047949192"},"geometry":{"type":"LineString","coordinates":[[103.7129304,1.4335796],[103.712964,1.4341024]]}},{"type":"Feature","id":"way/642413819-0-0-0","properties":{"highway":"service","startNodeId":"6047963413","endNodeId":"6047963416"},"geometry":{"type":"LineString","coordinates":[[103.7116031,1.4346888],[103.7118776,1.4346468]]}},{"type":"Feature","id":"way/642413819-0-1-0","properties":{"highway":"service","startNodeId":"6047963416","endNodeId":"6047963415"},"geometry":{"type":"LineString","coordinates":[[103.7118776,1.4346468],[103.7118937,1.4346696]]}},{"type":"Feature","id":"way/642413819-0-2-0","properties":{"highway":"service","startNodeId":"6047963415","endNodeId":"6022436459"},"geometry":{"type":"LineString","coordinates":[[103.7118937,1.4346696],[103.7119326,1.4348157]]}},{"type":"Feature","id":"way/643239242-0-0-0","properties":{"highway":"service","startNodeId":"6022436483","endNodeId":"6022436497"},"geometry":{"type":"LineString","coordinates":[[103.7120396,1.4358105],[103.7117368,1.4358695]]}},{"type":"Feature","id":"way/643239243-0-0-0","properties":{"highway":"service","startNodeId":"6022436500","endNodeId":"6022436499"},"geometry":{"type":"LineString","coordinates":[[103.7127231,1.4356627],[103.7124476,1.435722]]}},{"type":"Feature","id":"way/643239243-0-1-0","properties":{"highway":"service","startNodeId":"6022436499","endNodeId":"6022436489"},"geometry":{"type":"LineString","coordinates":[[103.7124476,1.435722],[103.7123279,1.4357482]]}},{"type":"Feature","id":"way/643239246-0-0-0","properties":{"highway":"service","startNodeId":"6022436504","endNodeId":"6022436500"},"geometry":{"type":"LineString","coordinates":[[103.7127024,1.4355478],[103.7127231,1.4356627]]}},{"type":"Feature","id":"way/643239248-0-0-0","properties":{"highway":"service","startNodeId":"6022436505","endNodeId":"6022436504"},"geometry":{"type":"LineString","coordinates":[[103.7126595,1.4353324],[103.7127024,1.4355478]]}},{"type":"Feature","id":"way/643255536-0-0-0","properties":{"highway":"service","startNodeId":"6047949201","endNodeId":"6022436457"},"geometry":{"type":"LineString","coordinates":[[103.7131683,1.4335352],[103.7131718,1.433829]]}},{"type":"Feature","id":"way/643255537-0-0-0","properties":{"highway":"service","startNodeId":"6047949196","endNodeId":"6047949186"},"geometry":{"type":"LineString","coordinates":[[103.7123886,1.4346079],[103.7124597,1.4352354]]}},{"type":"Feature","id":"way/643255538-0-0-0","properties":{"highway":"service","startNodeId":"6047949193","endNodeId":"6047949196"},"geometry":{"type":"LineString","coordinates":[[103.712343,1.4341695],[103.7123886,1.4346079]]}},{"type":"Feature","id":"way/643255539-0-0-0","properties":{"highway":"service","startNodeId":"6047949192","endNodeId":"6047949191"},"geometry":{"type":"LineString","coordinates":[[103.712964,1.4341024],[103.7133944,1.4340784]]}},{"type":"Feature","id":"way/643255540-0-0-0","properties":{"highway":"service","startNodeId":"6047949195","endNodeId":"6047949194"},"geometry":{"type":"LineString","coordinates":[[103.7129941,1.4345716],[103.713558,1.4345396]]}},{"type":"Feature","id":"way/643255541-0-0-0","properties":{"highway":"service","startNodeId":"6047949195","endNodeId":"6047949197"},"geometry":{"type":"LineString","coordinates":[[103.7129941,1.4345716],[103.713035,1.4352072]]}},{"type":"Feature","id":"way/643255542-0-0-0","properties":{"highway":"service","startNodeId":"6047949192","endNodeId":"6047949195"},"geometry":{"type":"LineString","coordinates":[[103.712964,1.4341024],[103.7129941,1.4345716]]}},{"type":"Feature","id":"way/643255543-0-0-0","properties":{"highway":"service","startNodeId":"6047949201","endNodeId":"6047949200"},"geometry":{"type":"LineString","coordinates":[[103.7131683,1.4335352],[103.7129679,1.4335287]]}},{"type":"Feature","id":"way/643255543-0-1-0","properties":{"highway":"service","startNodeId":"6047949200","endNodeId":"6047949199"},"geometry":{"type":"LineString","coordinates":[[103.7129679,1.4335287],[103.7129304,1.4335448]]}},{"type":"Feature","id":"way/643255660-0-0-0","properties":{"highway":"service","startNodeId":"5220705278","endNodeId":"5220705275"},"geometry":{"type":"LineString","coordinates":[[103.7129987,1.4330643],[103.7133693,1.4330556]]}},{"type":"Feature","id":"way/643255660-0-1-0","properties":{"highway":"service","startNodeId":"5220705275","endNodeId":"5220705274"},"geometry":{"type":"LineString","coordinates":[[103.7133693,1.4330556],[103.7133995,1.4330453]]}},{"type":"Feature","id":"way/680265208-0-0-0","properties":{"highway":"residential","lanes":"2","lanes:backward":"1","lanes:forward":"1","maxspeed":"50","name":"Lim Chu Kang Lane 6C","source":"Yahoo aerial images","surface":"asphalt","turn:lanes:backward":"through;right","startNodeId":"244139542","endNodeId":"7157984715"},"geometry":{"type":"LineString","coordinates":[[103.7139613,1.4367768],[103.7138344,1.436523]]}},{"type":"Feature","id":"way/681171746-0-0-0","properties":{"highway":"residential","lanes":"2","lanes:backward":"1","lanes:forward":"1","maxspeed":"50","name":"Lim Chu Kang Lane 5","source":"Yahoo aerial images","surface":"asphalt","startNodeId":"6378769773","endNodeId":"way/681171746-0:0:1"},"geometry":{"type":"LineString","coordinates":[[103.7164146,1.4326572],[103.7156065,1.4329436]]}},{"type":"Feature","id":"way/681171746-0-0-1","properties":{"highway":"residential","lanes":"2","lanes:backward":"1","lanes:forward":"1","maxspeed":"50","name":"Lim Chu Kang Lane 5","source":"Yahoo aerial images","surface":"asphalt","startNodeId":"way/681171746-0:0:1","endNodeId":"6022436417"},"geometry":{"type":"LineString","coordinates":[[103.7156065,1.4329436],[103.7147984,1.4332299]]}},{"type":"Feature","id":"way/766410611-0-0-0","properties":{"highway":"residential","lanes":"2","lanes:backward":"1","lanes:forward":"1","maxspeed":"50","name":"Lim Chu Kang Lane 6C","source":"Yahoo aerial images","surface":"asphalt","startNodeId":"7157984715","endNodeId":"6369533868"},"geometry":{"type":"LineString","coordinates":[[103.7138344,1.436523],[103.713621,1.4360961]]}}]}