{"type":"FeatureCollection","features":[{"type":"Feature","id":"way/453269163-0","properties":{"building":"yes","clearanceGeometry":{"type":"Polygon","coordinates":[[[103.7114749,1.378098],[103.7111467,1.3777459],[103.7110877,1.3778008],[103.7114159,1.3781529],[103.7114749,1.378098]]]},"clearanceHeight":1.7,"clearancePrepared":true},"geometry":{"type":"Polygon","coordinates":[[[103.7114159,1.3781529],[103.7114749,1.378098],[103.7111467,1.3777459],[103.7110877,1.3778008],[103.7114159,1.3781529]]]}},{"type":"Feature","id":"way/453269220-0","properties":{"building":"yes","clearanceGeometry":{"type":"Polygon","coordinates":[[[103.7112969,1.3775474],[103.7115812,1.3778317],[103.7118495,1.3775635],[103.7115672,1.3772813],[103.7116095,1.3772397],[103.7113211,1.3769468],[103.7109777,1.3772847],[103.7112662,1.3775776],[103.7112969,1.3775474]]]},"clearanceHeight":1.7,"clearancePrepared":true},"geometry":{"type":"Polygon","coordinates":[[[103.7112662,1.3775776],[103.7112969,1.3775474],[103.7115812,1.3778317],[103.7118495,1.3775635],[103.7115672,1.3772813],[103.7116095,1.3772397],[103.7113211,1.3769468],[103.7109777,1.3772847],[103.7112662,1.3775776]]]}},{"type":"Feature","id":"way/453271404-0","properties":{"building":"yes","clearanceGeometry":{"type":"Polygon","coordinates":[[[103.7112315,1.3762463],[103.7111475,1.376164],[103.7111752,1.3761363],[103.7111403,1.3761015],[103.7111123,1.3761295],[103.7111028,1.3761202],[103.7109368,1.3762898],[103.710941,1.3762939],[103.7108963,1.3763428],[103.710958,1.3763991],[103.7110007,1.3763523],[103.7110655,1.3764158],[103.7112315,1.3762463]]]},"clearanceHeight":1.7,"clearancePrepared":true},"geometry":{"type":"Polygon","coordinates":[[[103.7110655,1.3764158],[103.7112315,1.3762463],[103.7111475,1.376164],[103.7111752,1.3761363],[103.7111403,1.3761015],[103.7111123,1.3761295],[103.7111028,1.3761202],[103.7109368,1.3762898],[103.710941,1.3762939],[103.7108963,1.3763428],[103.710958,1.3763991],[103.7110007,1.3763523],[103.7110655,1.3764158]]]}},{"type":"Feature","id":"way/453271409-0","properties":{"building":"yes","clearanceGeometry":{"type":"Polygon","coordinates":[[[103.7111967,1.3756],[103.7111296,1.3756671],[103.7114231,1.3759605],[103.7113853,1.3759978],[103.7111162,1.3757341],[103.7110925,1.3757583],[103.7110196,1.3756832],[103.7109064,1.3757928],[103.7109821,1.3758709],[103.7109896,1.3758786],[103.7109898,1.3758784],[103.7112488,1.3761322],[103.7112425,1.3761384],[103.7112986,1.3761953],[103.7114796,1.376017],[103.7115467,1.37595],[103.7111967,1.3756]]]},"clearanceHeight":1.7,"clearancePrepared":true},"geometry":{"type":"Polygon","coordinates":[[[103.7115467,1.37595],[103.7111967,1.3756],[103.7111296,1.3756671],[103.7114231,1.3759605],[103.7113853,1.3759978],[103.7111162,1.3757341],[103.7110925,1.3757583],[103.7110196,1.3756832],[103.7109064,1.3757928],[103.7109821,1.3758709],[103.7109896,1.3758786],[103.7109898,1.3758784],[103.7112488,1.3761322],[103.7112425,1.3761384],[103.7112986,1.3761953],[103.7114796,1.376017],[103.7115467,1.37595]]]}},{"type":"Feature","id":"way/453271419-0","properties":{"building":"yes","clearanceGeometry":{"type":"Polygon","coordinates":[[[103.7109735,1.3765427],[103.710893,1.3766311],[103.7109741,1.3767048],[103.7110545,1.3766163],[103.7109735,1.3765427]]]},"clearanceHeight":1.7,"clearancePrepared":true},"geometry":{"type":"Polygon","coordinates":[[[103.7110545,1.3766163],[103.7109735,1.3765427],[103.710893,1.3766311],[103.7109741,1.3767048],[103.7110545,1.3766163]]]}},{"type":"Feature","id":"way/453271420-0","properties":{"building":"yes","layer":"1","clearanceGeometry":{"type":"Polygon","coordinates":[[[103.7110696,1.3744788],[103.7109453,1.3743598],[103.7108262,1.3744841],[103.7108596,1.3745161],[103.7107831,1.374596],[103.710874,1.374683],[103.7110696,1.3744788]]]},"clearanceHeight":1.7,"clearancePrepared":true},"geometry":{"type":"Polygon","coordinates":[[[103.710874,1.374683],[103.7110696,1.3744788],[103.7109453,1.3743598],[103.7108262,1.3744841],[103.7108596,1.3745161],[103.7107831,1.374596],[103.710874,1.374683]]]}},{"type":"Feature","id":"way/453271423-0","properties":{"access":"permit","amenity":"toilets","building:part":"yes","female":"yes","male":"yes","toilets:disposal":"flush","clearanceGeometry":{"type":"Polygon","coordinates":[[[103.7111725,1.3742004],[103.7111464,1.3741743],[103.7111026,1.3742179],[103.7111288,1.3742436],[103.7111725,1.3742004]]]},"clearanceHeight":1.7,"clearancePrepared":true},"geometry":{"type":"Polygon","coordinates":[[[103.7111288,1.3742436],[103.7111725,1.3742004],[103.7111464,1.3741743],[103.7111026,1.3742179],[103.7111288,1.3742436]]]}},{"type":"Feature","id":"way/453271432-0","properties":{"building:part":"yes","clearanceGeometry":{"type":"Polygon","coordinates":[[[103.7115247,1.3744126],[103.7115454,1.374392],[103.7114628,1.3743091],[103.7113151,1.3744549],[103.7111477,1.3746222],[103.7110504,1.3747191],[103.7111439012393,1.3748128595300209],[103.71153298185082,1.3744209142018098],[103.7115247,1.3744126]]]},"clearanceHeight":1.7,"clearancePrepared":true},"geometry":{"type":"Polygon","coordinates":[[[103.711159,1.374828],[103.7115503,1.3744383],[103.7115247,1.3744126],[103.7115454,1.374392],[103.7114628,1.3743091],[103.7113151,1.3744549],[103.7111477,1.3746222],[103.7110504,1.3747191],[103.711159,1.374828]]]}},{"type":"Feature","id":"way/453271433-0","properties":{"addr:city":"Singapore","addr:postcode":"698923","addr:street":"Old Choa Chu Kang Road","building":"yes","building:levels":"1","name":"Cookhouse","clearanceGeometry":{"type":"Polygon","coordinates":[[[103.7115247,1.3744126],[103.7115454,1.374392],[103.7114628,1.3743091],[103.7112652,1.374109],[103.7111725,1.3742004],[103.7111464,1.3741743],[103.7111026,1.3742179],[103.7111288,1.3742436],[103.7111174,1.3742548],[103.7109963,1.3743739],[103.7109682,1.3744019],[103.7110055,1.3744392],[103.7109989,1.3744457],[103.7110331,1.37448],[103.7110195,1.3744935],[103.7111477,1.3746222],[103.7110504,1.3747191],[103.7111439012393,1.3748128595300209],[103.71153298185082,1.3744209142018098],[103.7115247,1.3744126]]]},"clearanceHeight":1.7,"clearancePrepared":true},"geometry":{"type":"Polygon","coordinates":[[[103.7115503,1.3744383],[103.7115247,1.3744126],[103.7115454,1.374392],[103.7114628,1.3743091],[103.7112652,1.374109],[103.7111725,1.3742004],[103.7111464,1.3741743],[103.7111026,1.3742179],[103.7111288,1.3742436],[103.7111174,1.3742548],[103.7109963,1.3743739],[103.7109682,1.3744019],[103.7110055,1.3744392],[103.7109989,1.3744457],[103.7110331,1.37448],[103.7110195,1.3744935],[103.7111477,1.3746222],[103.7110504,1.3747191],[103.711159,1.374828],[103.7115503,1.3744383]]]}},{"type":"Feature","id":"way/453271439-0","properties":{"building":"yes","clearanceGeometry":{"type":"Polygon","coordinates":[[[103.7117037,1.376777],[103.7115065,1.3767785],[103.7115078,1.3769542],[103.7117051,1.3769527],[103.7117037,1.376777]]]},"clearanceHeight":1.7,"clearancePrepared":true},"geometry":{"type":"Polygon","coordinates":[[[103.7117051,1.3769527],[103.7117037,1.376777],[103.7115065,1.3767785],[103.7115078,1.3769542],[103.7117051,1.3769527]]]}},{"type":"Feature","id":"way/453271450-0","properties":{"building:part":"yes","clearanceGeometry":{"type":"Polygon","coordinates":[[[103.7111174,1.3742548],[103.7109963,1.3743739],[103.7111952,1.3745743],[103.7113151,1.3744549],[103.7111174,1.3742548]]]},"clearanceHeight":1.7,"clearancePrepared":true},"geometry":{"type":"Polygon","coordinates":[[[103.7113151,1.3744549],[103.7111174,1.3742548],[103.7109963,1.3743739],[103.7111952,1.3745743],[103.7113151,1.3744549]]]}},{"type":"Feature","id":"way/453271453-0","properties":{"building:part":"yes","clearanceGeometry":{"type":"Polygon","coordinates":[[[103.7112652,1.374109],[103.7111725,1.3742004],[103.7111288,1.3742436],[103.7111174,1.3742548],[103.7113151,1.3744549],[103.7114628,1.3743091],[103.7112652,1.374109]]]},"clearanceHeight":1.7,"clearancePrepared":true},"geometry":{"type":"Polygon","coordinates":[[[103.7114628,1.3743091],[103.7112652,1.374109],[103.7111725,1.3742004],[103.7111288,1.3742436],[103.7111174,1.3742548],[103.7113151,1.3744549],[103.7114628,1.3743091]]]}},{"type":"Feature","id":"way/453495067-0","properties":{"building":"yes","clearanceGeometry":{"type":"Polygon","coordinates":[[[103.7095315,1.3777562],[103.7096701,1.3777454],[103.7096272,1.3771983],[103.7094886,1.3772092],[103.7095315,1.3777562]]]},"clearanceHeight":1.7,"clearancePrepared":true},"geometry":{"type":"Polygon","coordinates":[[[103.7094886,1.3772092],[103.7095315,1.3777562],[103.7096701,1.3777454],[103.7096272,1.3771983],[103.7094886,1.3772092]]]}},{"type":"Feature","id":"way/453495068-0","properties":{"building":"yes","clearanceGeometry":{"type":"Polygon","coordinates":[[[103.710525,1.3785414],[103.7108825,1.3785176],[103.7108396,1.3778741],[103.7104821,1.3778979],[103.710525,1.3785414]]]},"clearanceHeight":1.7,"clearancePrepared":true},"geometry":{"type":"Polygon","coordinates":[[[103.7104821,1.3778979],[103.710525,1.3785414],[103.7108825,1.3785176],[103.7108396,1.3778741],[103.7104821,1.3778979]]]}},{"type":"Feature","id":"way/453495069-0","properties":{"building":"yes","clearanceGeometry":{"type":"Polygon","coordinates":[[[103.7097602,1.3755137],[103.7098405,1.3755084],[103.7098324,1.3753877],[103.7097521,1.3753931],[103.7097602,1.3755137]]]},"clearanceHeight":1.7,"clearancePrepared":true},"geometry":{"type":"Polygon","coordinates":[[[103.7097521,1.3753931],[103.7097602,1.3755137],[103.7098405,1.3755084],[103.7098324,1.3753877],[103.7097521,1.3753931]]]}},{"type":"Feature","id":"way/453495070-0","properties":{"building":"yes","clearanceGeometry":{"type":"Polygon","coordinates":[[[103.7098133,1.3741814],[103.7096685,1.3741787],[103.7096661,1.3743044],[103.709811,1.3743071],[103.7098133,1.3741814]]]},"clearanceHeight":1.7,"clearancePrepared":true},"geometry":{"type":"Polygon","coordinates":[[[103.709811,1.3743071],[103.7098133,1.3741814],[103.7096685,1.3741787],[103.7096661,1.3743044],[103.709811,1.3743071]]]}},{"type":"Feature","id":"way/453495073-0","properties":{"building":"yes","clearanceGeometry":{"type":"Polygon","coordinates":[[[103.7099642,1.3749668],[103.7105382,1.3744091],[103.710442,1.3743101],[103.709868,1.3748678],[103.7099642,1.3749668]]]},"clearanceHeight":1.7,"clearancePrepared":true},"geometry":{"type":"Polygon","coordinates":[[[103.709868,1.3748678],[103.7099642,1.3749668],[103.7105382,1.3744091],[103.710442,1.3743101],[103.709868,1.3748678]]]}},{"type":"Feature","id":"way/453495074-0","properties":{"building":"yes","clearanceGeometry":{"type":"Polygon","coordinates":[[[103.7108756,1.3756339],[103.7107817,1.3755374],[103.7107477,1.3755704],[103.7108416,1.3756669],[103.7108756,1.3756339]]]},"clearanceHeight":1.7,"clearancePrepared":true},"geometry":{"type":"Polygon","coordinates":[[[103.7108416,1.3756669],[103.7108756,1.3756339],[103.7107817,1.3755374],[103.7107477,1.3755704],[103.7108416,1.3756669]]]}},{"type":"Feature","id":"way/453495075-0","properties":{"building":"yes","clearanceGeometry":{"type":"Polygon","coordinates":[[[103.7110763,1.3760463],[103.710902,1.375872],[103.7106673,1.3761067],[103.7108416,1.376281],[103.7110763,1.3760463]]]},"clearanceHeight":1.7,"clearancePrepared":true},"geometry":{"type":"Polygon","coordinates":[[[103.7108416,1.376281],[103.7110763,1.3760463],[103.710902,1.375872],[103.7106673,1.3761067],[103.7108416,1.376281]]]}},{"type":"Feature","id":"way/1387598244-0","properties":{"addr:city":"Singapore","addr:street":"Old Choa Chu Kang Road","building":"yes","building:levels":"0","clearanceGeometry":{"type":"Polygon","coordinates":[[[103.7116094,1.3740929],[103.7114389,1.3739159],[103.7113562,1.3739955],[103.7115267,1.3741725],[103.7116094,1.3740929]]]},"clearanceHeight":0.0,"clearancePrepared":true},"geometry":{"type":"Polygon","coordinates":[[[103.7115267,1.3741725],[103.7116094,1.3740929],[103.7114389,1.3739159],[103.7113562,1.3739955],[103.7115267,1.3741725]]]}},{"type":"Feature","id":"way/452241033-0-0-0","properties":{"access":"permit","bicycle":"permit","foot":"permit","highway":"service","horse":"no","lanes":"1","maxspeed":"40","motor_vehicle":"permit","oneway":"yes","surface":"asphalt","startNodeId":"4490304622","endNodeId":"8649651251"},"geometry":{"type":"LineString","coordinates":[[103.7105447,1.3747216],[103.7107306,1.3749076]]}},{"type":"Feature","id":"way/452241033-0-1-0","properties":{"access":"permit","bicycle":"permit","foot":"permit","highway":"service","horse":"no","lanes":"1","maxspeed":"40","motor_vehicle":"permit","oneway":"yes","surface":"asphalt","startNodeId":"8649651251","endNodeId":"5208670619"},"geometry":{"type":"LineString","coordinates":[[103.7107306,1.3749076],[103.7109194,1.3750964]]}},{"type":"Feature","id":"way/452241033-0-2-0","properties":{"access":"permit","bicycle":"permit","foot":"permit","highway":"service","horse":"no","lanes":"1","maxspeed":"40","motor_vehicle":"permit","oneway":"yes","surface":"asphalt","startNodeId":"5208670619","endNodeId":"5186586186"},"geometry":{"type":"LineString","coordinates":[[103.7109194,1.3750964],[103.711699,1.3758882]]}},{"type":"Feature","id":"way/538028052-0-0-0","properties":{"access":"permit","bicycle":"permit","foot":"permit","highway":"service","horse":"no","maxspeed":"40","motor_vehicle":"permit","oneway":"yes","surface":"asphalt","startNodeId":"5208670619","endNodeId":"5208670618"},"geometry":{"type":"LineString","coordinates":[[103.7109194,1.3750964],[103.7118158,1.3741934]]}},{"type":"Feature","id":"way/538028056-0-0-0","properties":{"access":"permit","bicycle":"permit","foot":"permit","highway":"service","horse":"no","lanes":"2","lanes:backward":"1","lanes:forward":"1","maxspeed":"40","motor_vehicle":"permit","surface":"asphalt","turn:lanes:backward":"left;through","turn:lanes:forward":"left;through","startNodeId":"4490304683","endNodeId":"4490306090"},"geometry":{"type":"LineString","coordinates":[[103.7111864,1.3740248],[103.7114229,1.3737928]]}},{"type":"Feature","id":"way/538028058-0-0-0","properties":{"access":"permit","bicycle":"permit","foot":"permit","highway":"service","horse":"no","maxspeed":"40","motor_vehicle":"permit","oneway":"yes","surface":"asphalt","startNodeId":"4490304683","endNodeId":"12844731138"},"geometry":{"type":"LineString","coordinates":[[103.7111864,1.3740248],[103.7107488,1.3744543]]}},{"type":"Feature","id":"way/538028058-0-1-0","properties":{"access":"permit","bicycle":"permit","foot":"permit","highway":"service","horse":"no","maxspeed":"40","motor_vehicle":"permit","oneway":"yes","surface":"asphalt","startNodeId":"12844731138","endNodeId":"12844731114"},"geometry":{"type":"LineString","coordinates":[[103.7107488,1.3744543],[103.7105762,1.3746238]]}},{"type":"Feature","id":"way/538028058-0-2-0","properties":{"access":"permit","bicycle":"permit","foot":"permit","highway":"service","horse":"no","maxspeed":"40","motor_vehicle":"permit","oneway":"yes","surface":"asphalt","startNodeId":"12844731114","endNodeId":"12844731115"},"geometry":{"type":"LineString","coordinates":[[103.7105762,1.3746238],[103.7105511,1.374668]]}},{"type":"Feature","id":"way/538028058-0-3-0","properties":{"access":"permit","bicycle":"permit","foot":"permit","highway":"service","horse":"no","maxspeed":"40","motor_vehicle":"permit","oneway":"yes","surface":"asphalt","startNodeId":"12844731115","endNodeId":"4490304622"},"geometry":{"type":"LineString","coordinates":[[103.7105511,1.374668],[103.7105447,1.3747216]]}},{"type":"Feature","id":"way/538028065-0-0-0","properties":{"access":"permit","bicycle":"permit","foot":"permit","highway":"service","horse":"no","lanes":"2","lanes:backward":"1","lanes:forward":"1","maxspeed":"40","motor_vehicle":"permit","surface":"asphalt","startNodeId":"4490306090","endNodeId":"5208670618"},"geometry":{"type":"LineString","coordinates":[[103.7114229,1.3737928],[103.7118158,1.3741934]]}},{"type":"Feature","id":"way/933127347-0-0-0","properties":{"highway":"service","startNodeId":"8649651250","endNodeId":"8649651243"},"geometry":{"type":"LineString","coordinates":[[103.7103014,1.3753433],[103.7104332,1.3754642]]}},{"type":"Feature","id":"way/933127347-0-1-0","properties":{"highway":"service","startNodeId":"8649651243","endNodeId":"8649651238"},"geometry":{"type":"LineString","coordinates":[[103.7104332,1.3754642],[103.7104695,1.375487]]}},{"type":"Feature","id":"way/933127347-0-2-0","properties":{"highway":"service","startNodeId":"8649651238","endNodeId":"8649651242"},"geometry":{"type":"LineString","coordinates":[[103.7104695,1.375487],[103.7105137,1.3754911]]}},{"type":"Feature","id":"way/933127347-0-3-0","properties":{"highway":"service","startNodeId":"8649651242","endNodeId":"8649651241"},"geometry":{"type":"LineString","coordinates":[[103.7105137,1.3754911],[103.7105633,1.3755125]]}},{"type":"Feature","id":"way/933127347-0-4-0","properties":{"highway":"service","startNodeId":"8649651241","endNodeId":"8649651240"},"geometry":{"type":"LineString","coordinates":[[103.7105633,1.3755125],[103.7106049,1.3755474]]}},{"type":"Feature","id":"way/933127347-0-5-0","properties":{"highway":"service","startNodeId":"8649651240","endNodeId":"8649651239"},"geometry":{"type":"LineString","coordinates":[[103.7106049,1.3755474],[103.7107672,1.3757163]]}},{"type":"Feature","id":"way/933127348-0-0-0","properties":{"highway":"service","startNodeId":"8649651251","endNodeId":"8649651250"},"geometry":{"type":"LineString","coordinates":[[103.7107306,1.3749076],[103.7103014,1.3753433]]}},{"type":"Feature","id":"way/933127348-0-1-0","properties":{"highway":"service","startNodeId":"8649651250","endNodeId":"8649651249"},"geometry":{"type":"LineString","coordinates":[[103.7103014,1.3753433],[103.710224,1.3754227]]}},{"type":"Feature","id":"way/933127348-0-2-0","properties":{"highway":"service","startNodeId":"8649651249","endNodeId":"8649651248"},"geometry":{"type":"LineString","coordinates":[[103.710224,1.3754227],[103.7098686,1.3757699]]}},{"type":"Feature","id":"way/933127348-0-3-0","properties":{"highway":"service","startNodeId":"8649651248","endNodeId":"8649651244"},"geometry":{"type":"LineString","coordinates":[[103.7098686,1.3757699],[103.7098452,1.3758021]]}},{"type":"Feature","id":"way/933127348-0-4-0","properties":{"highway":"service","startNodeId":"8649651244","endNodeId":"8649651247"},"geometry":{"type":"LineString","coordinates":[[103.7098452,1.3758021],[103.7098458,1.375841]]}},{"type":"Feature","id":"way/933127348-0-5-0","properties":{"highway":"service","startNodeId":"8649651247","endNodeId":"8649651246"},"geometry":{"type":"LineString","coordinates":[[103.7098458,1.375841],[103.7098807,1.3758866]]}},{"type":"Feature","id":"way/933127348-0-6-0","properties":{"highway":"service","startNodeId":"8649651246","endNodeId":"8649651245"},"geometry":{"type":"LineString","coordinates":[[103.7098807,1.3758866],[103.7101221,1.3761292]]}},{"type":"Feature","id":"way/1387598246-0-0-0","properties":{"access":"permit","bicycle":"permit","foot":"permit","highway":"service","horse":"no","lanes":"2","lanes:backward":"1","lanes:forward":"1","maxspeed":"40","motor_vehicle":"permit","surface":"asphalt","turn:lanes:backward":"left;through","turn:lanes:forward":"left;through","startNodeId":"12844731137","endNodeId":"12844731136"},"geometry":{"type":"LineString","coordinates":[[103.7108353,1.373661],[103.7103671,1.3741108]]}},{"type":"Feature","id":"way/1387598246-0-1-0","properties":{"access":"permit","bicycle":"permit","foot":"permit","highway":"service","horse":"no","lanes":"2","lanes:backward":"1","lanes:forward":"1","maxspeed":"40","motor_vehicle":"permit","surface":"asphalt","turn:lanes:backward":"left;through","turn:lanes:forward":"left;through","startNodeId":"12844731136","endNodeId":"12844731138"},"geometry":{"type":"LineString","coordinates":[[103.7103671,1.3741108],[103.7107488,1.3744543]]}}]}