{"type":"FeatureCollection","features":[{"type":"Feature","id":"way/136806264-0","properties":{"building":"yes","clearanceGeometry":{"type":"Polygon","coordinates":[[[103.7055082,1.4363666],[103.7053814,1.4363537],[103.7053679,1.4364863],[103.7054947,1.4364992],[103.7055082,1.4363666]]]},"clearanceHeight":1.7,"clearancePrepared":true},"geometry":{"type":"Polygon","coordinates":[[[103.7054947,1.4364992],[103.7055082,1.4363666],[103.7053814,1.4363537],[103.7053679,1.4364863],[103.7054947,1.4364992]]]}},{"type":"Feature","id":"way/136806266-0","properties":{"building":"yes","clearanceGeometry":{"type":"Polygon","coordinates":[[[103.7042511,1.4365324],[103.7039177,1.4365093],[103.7039059,1.4366802],[103.7042393,1.4367033],[103.7042511,1.4365324]]]},"clearanceHeight":1.7,"clearancePrepared":true},"geometry":{"type":"Polygon","coordinates":[[[103.7042393,1.4367033],[103.7042511,1.4365324],[103.7039177,1.4365093],[103.7039059,1.4366802],[103.7042393,1.4367033]]]}},{"type":"Feature","id":"way/454847141-0","properties":{"building":"yes","clearanceGeometry":{"type":"Polygon","coordinates":[[[103.7048586,1.4322044],[103.704699,1.4322352],[103.7047229,1.4323589],[103.7048825,1.432328],[103.7048586,1.4322044]]]},"clearanceHeight":1.7,"clearancePrepared":true},"geometry":{"type":"Polygon","coordinates":[[[103.7048825,1.432328],[103.7048586,1.4322044],[103.704699,1.4322352],[103.7047229,1.4323589],[103.7048825,1.432328]]]}},{"type":"Feature","id":"way/454847625-0","properties":{"building":"yes","clearanceGeometry":{"type":"Polygon","coordinates":[[[103.7052488,1.436372],[103.7052079,1.4363092],[103.7050668,1.4364011],[103.7049538,1.4363841],[103.70494347226389,1.4364528093187665],[103.70509544102589,1.4364719049501866],[103.7052488,1.436372]]]},"clearanceHeight":1.7,"clearancePrepared":true},"geometry":{"type":"Polygon","coordinates":[[[103.7050758,1.4364847],[103.7052488,1.436372],[103.7052079,1.4363092],[103.7050668,1.4364011],[103.7049538,1.4363841],[103.7049417,1.4364646],[103.7050758,1.4364847]]]}},{"type":"Feature","id":"way/22753195-0-1-0","properties":{"highway":"residential","maxspeed":"50","name":"Bahtera Track","source":"Yahoo aerial images","surface":"rocky","startNodeId":"4501059861","endNodeId":"5175618279"},"geometry":{"type":"LineString","coordinates":[[103.7066559,1.4345825],[103.7055074,1.4344564]]}},{"type":"Feature","id":"way/22753195-0-2-0","properties":{"highway":"residential","maxspeed":"50","name":"Bahtera Track","source":"Yahoo aerial images","surface":"rocky","startNodeId":"5175618279","endNodeId":"244149196"},"geometry":{"type":"LineString","coordinates":[[103.7055074,1.4344564],[103.7052512,1.4344792]]}},{"type":"Feature","id":"way/22753195-0-3-0","properties":{"highway":"residential","maxspeed":"50","name":"Bahtera Track","source":"Yahoo aerial images","surface":"rocky","startNodeId":"244149196","endNodeId":"244149197"},"geometry":{"type":"LineString","coordinates":[[103.7052512,1.4344792],[103.7047093,1.4346053]]}},{"type":"Feature","id":"way/22753195-0-4-0","properties":{"highway":"residential","maxspeed":"50","name":"Bahtera Track","source":"Yahoo aerial images","surface":"rocky","startNodeId":"244149197","endNodeId":"way/22753195-0:4:1"},"geometry":{"type":"LineString","coordinates":[[103.7047093,1.4346053],[103.703471,1.4348913]]}},{"type":"Feature","id":"way/22753195-0-4-1","properties":{"highway":"residential","maxspeed":"50","name":"Bahtera Track","source":"Yahoo aerial images","surface":"rocky","startNodeId":"way/22753195-0:4:1","endNodeId":"way/22753195-0:4:2"},"geometry":{"type":"LineString","coordinates":[[103.703471,1.4348913],[103.7022328,1.4351773]]}},{"type":"Feature","id":"way/639083085-0-0-0","properties":{"highway":"service","startNodeId":"6022436850","endNodeId":"6022436849"},"geometry":{"type":"LineString","coordinates":[[103.7061109,1.4365345],[103.7056965,1.4364728]]}},{"type":"Feature","id":"way/639083085-0-1-0","properties":{"highway":"service","startNodeId":"6022436849","endNodeId":"6022436848"},"geometry":{"type":"LineString","coordinates":[[103.7056965,1.4364728],[103.7056026,1.4365318]]}},{"type":"Feature","id":"way/639083085-0-2-0","properties":{"highway":"service","startNodeId":"6022436848","endNodeId":"6022436847"},"geometry":{"type":"LineString","coordinates":[[103.7056026,1.4365318],[103.7055302,1.4365479]]}},{"type":"Feature","id":"way/639083085-0-3-0","properties":{"highway":"service","startNodeId":"6022436847","endNodeId":"6022436846"},"geometry":{"type":"LineString","coordinates":[[103.7055302,1.4365479],[103.7052968,1.4365265]]}},{"type":"Feature","id":"way/639083085-0-4-0","properties":{"highway":"service","startNodeId":"6022436846","endNodeId":"6022436845"},"geometry":{"type":"LineString","coordinates":[[103.7052968,1.4365265],[103.7051842,1.4365238]]}},{"type":"Feature","id":"way/639083085-0-5-0","properties":{"highway":"service","startNodeId":"6022436845","endNodeId":"6022436844"},"geometry":{"type":"LineString","coordinates":[[103.7051842,1.4365238],[103.7041918,1.4363991]]}},{"type":"Feature","id":"way/639083085-0-6-0","properties":{"highway":"service","startNodeId":"6022436844","endNodeId":"6734150239"},"geometry":{"type":"LineString","coordinates":[[103.7041918,1.4363991],[103.7041656,1.4363796]]}},{"type":"Feature","id":"way/639083085-0-7-0","properties":{"highway":"service","startNodeId":"6734150239","endNodeId":"6022436843"},"geometry":{"type":"LineString","coordinates":[[103.7041656,1.4363796],[103.7041569,1.4363522]]}},{"type":"Feature","id":"way/639083085-0-8-0","properties":{"highway":"service","startNodeId":"6022436843","endNodeId":"6022436842"},"geometry":{"type":"LineString","coordinates":[[103.7041569,1.4363522],[103.7041622,1.4362851]]}},{"type":"Feature","id":"way/643245294-0-0-0","properties":{"highway":"service","startNodeId":"6022436850","endNodeId":"1500886793"},"geometry":{"type":"LineString","coordinates":[[103.7061109,1.4365345],[103.7061073,1.4360996]]}}]}