{"type":"FeatureCollection","features":[{"type":"Feature","id":"way/111151557-0","properties":{"building":"yes"},"geometry":{"type":"Polygon","coordinates":[[[103.7047295,1.4381403],[103.7048246,1.4375053],[103.7041354,1.4374021],[103.7040402,1.4380371],[103.7047295,1.4381403]]]}},{"type":"Feature","id":"way/136806261-0","properties":{"building":"yes"},"geometry":{"type":"Polygon","coordinates":[[[103.7061303,1.4405632],[103.7061464,1.4402829],[103.7056281,1.4402533],[103.705612,1.4405335],[103.7061303,1.4405632]]]}},{"type":"Feature","id":"way/136806262-0","properties":{"building":"yes"},"geometry":{"type":"Polygon","coordinates":[[[103.7052429,1.4381923],[103.7052589,1.4380606],[103.7049745,1.438026],[103.7049585,1.4381577],[103.7052429,1.4381923]]]}},{"type":"Feature","id":"way/136806263-0","properties":{"building":"yes"},"geometry":{"type":"Polygon","coordinates":[[[103.706016,1.4392893],[103.706022,1.438818],[103.7057381,1.4388144],[103.7057321,1.4392857],[103.706016,1.4392893]]]}},{"type":"Feature","id":"way/136806265-0","properties":{"building":"yes"},"geometry":{"type":"Polygon","coordinates":[[[103.7055855,1.4377356],[103.7056033,1.4375928],[103.7054755,1.4375769],[103.7054578,1.4377197],[103.7055855,1.4377356]]]}},{"type":"Feature","id":"way/136806267-0","properties":{"building":"yes"},"geometry":{"type":"Polygon","coordinates":[[[103.7053028,1.4376907],[103.7053174,1.4375646],[103.7052054,1.4375516],[103.7051907,1.4376777],[103.7053028,1.4376907]]]}},{"type":"Feature","id":"way/136806268-0","properties":{"building":"yes"},"geometry":{"type":"Polygon","coordinates":[[[103.7055363,1.4412113],[103.7055395,1.4411269],[103.7061064,1.441148],[103.7061217,1.4407361],[103.7051983,1.4407018],[103.7051798,1.441198],[103.7055363,1.4412113]]]}},{"type":"Feature","id":"way/136806269-0","properties":{"building":"yes"},"geometry":{"type":"Polygon","coordinates":[[[103.7059846,1.4369287],[103.7060004,1.436671],[103.7059325,1.4366669],[103.7059254,1.4367814],[103.7059132,1.4367807],[103.7059044,1.4369238],[103.7059846,1.4369287]]]}},{"type":"Feature","id":"way/136806270-0","properties":{"building":"yes"},"geometry":{"type":"Polygon","coordinates":[[[103.7056224,1.4392949],[103.7056262,1.4388158],[103.7055084,1.4388148],[103.705507,1.4389842],[103.7053549,1.438983],[103.7053525,1.4392928],[103.7056224,1.4392949]]]}},{"type":"Feature","id":"way/454844767-0","properties":{"building":"yes"},"geometry":{"type":"Polygon","coordinates":[[[103.7060559,1.4400771],[103.7060606,1.4399924],[103.7060076,1.4399894],[103.7060029,1.4400741],[103.7060559,1.4400771]]]}},{"type":"Feature","id":"way/454844771-0","properties":{"building":"yes"},"geometry":{"type":"Polygon","coordinates":[[[103.7048807,1.4407618],[103.7048472,1.4405781],[103.7046886,1.4406071],[103.7047221,1.4407907],[103.7048807,1.4407618]]]}},{"type":"Feature","id":"way/454844780-0","properties":{"building":"yes"},"geometry":{"type":"Polygon","coordinates":[[[103.707052,1.4396986],[103.7070543,1.4396572],[103.7070097,1.4396547],[103.7070074,1.4396961],[103.707052,1.4396986]]]}},{"type":"Feature","id":"way/454847121-0","properties":{"building":"yes"},"geometry":{"type":"Polygon","coordinates":[[[103.7047284,1.4371019],[103.7047431,1.437004],[103.7046518,1.4369903],[103.7046371,1.4370881],[103.7047284,1.4371019]]]}},{"type":"Feature","id":"way/454847624-0","properties":{"building":"yes"},"geometry":{"type":"Polygon","coordinates":[[[103.7052184,1.4374935],[103.705221,1.4374438],[103.7051603,1.4374406],[103.7051576,1.4374902],[103.7052184,1.4374935]]]}},{"type":"Feature","id":"way/454847626-0","properties":{"building":"yes"},"geometry":{"type":"Polygon","coordinates":[[[103.7058333,1.4368749],[103.7058494,1.4366215],[103.7056793,1.4366107],[103.7056632,1.4368641],[103.7058333,1.4368749]]]}},{"type":"Feature","id":"way/454850743-0","properties":{"building":"yes"},"geometry":{"type":"Polygon","coordinates":[[[103.7044851,1.4393656],[103.7044814,1.4392579],[103.7043634,1.4392619],[103.7043671,1.4393696],[103.7044851,1.4393656]]]}},{"type":"Feature","id":"way/454850744-0","properties":{"building":"yes"},"geometry":{"type":"Polygon","coordinates":[[[103.7049223,1.4396914],[103.7049223,1.4396311],[103.7049397,1.4396311],[103.7049397,1.4395962],[103.7048365,1.4395962],[103.7048365,1.4396914],[103.7049223,1.4396914]]]}},{"type":"Feature","id":"way/454850745-0","properties":{"building":"yes"},"geometry":{"type":"Polygon","coordinates":[[[103.7065128,1.4398033],[103.7065119,1.4398616],[103.706736,1.4398649],[103.7067369,1.4398014],[103.7065975,1.4397993],[103.7065987,1.4397134],[103.7064673,1.4397115],[103.7064659,1.4398027],[103.7065128,1.4398033]]]}},{"type":"Feature","id":"way/454850746-0","properties":{"building":"yes"},"geometry":{"type":"Polygon","coordinates":[[[103.706765,1.4400413],[103.706765,1.439989],[103.7066604,1.439989],[103.7066604,1.4400413],[103.706765,1.4400413]]]}},{"type":"Feature","id":"way/136806246-0-0-0","properties":{"bicycle":"yes","highway":"service"},"geometry":{"type":"LineString","coordinates":[[103.7061185,1.4374703],[103.7061109,1.4365345]]}},{"type":"Feature","id":"way/136806247-0-0-0","properties":{"bicycle":"yes","highway":"service","surface":"asphalt"},"geometry":{"type":"LineString","coordinates":[[103.7067598,1.4379914],[103.7065812,1.437932]]}},{"type":"Feature","id":"way/136806247-0-1-0","properties":{"bicycle":"yes","highway":"service","surface":"asphalt"},"geometry":{"type":"LineString","coordinates":[[103.7065812,1.437932],[103.7061221,1.4379118]]}},{"type":"Feature","id":"way/136806248-0-0-0","properties":{"highway":"service","service":"driveway"},"geometry":{"type":"LineString","coordinates":[[103.7061533,1.4387566],[103.7060865,1.4393553]]}},{"type":"Feature","id":"way/136806248-0-1-0","properties":{"highway":"service","service":"driveway"},"geometry":{"type":"LineString","coordinates":[[103.7060865,1.4393553],[103.7060398,1.4393875]]}},{"type":"Feature","id":"way/136806248-0-2-0","properties":{"highway":"service","service":"driveway"},"geometry":{"type":"LineString","coordinates":[[103.7060398,1.4393875],[103.7056829,1.439368]]}},{"type":"Feature","id":"way/136806249-0-0-0","properties":{"bicycle":"yes","highway":"service","surface":"asphalt"},"geometry":{"type":"LineString","coordinates":[[103.7063735,1.4381684],[103.7063429,1.4382894]]}},{"type":"Feature","id":"way/136806249-0-1-0","properties":{"bicycle":"yes","highway":"service","surface":"asphalt"},"geometry":{"type":"LineString","coordinates":[[103.7063429,1.4382894],[103.7063034,1.4394251]]}},{"type":"Feature","id":"way/452371833-0-0-0","properties":{"highway":"service"},"geometry":{"type":"LineString","coordinates":[[103.7049401,1.4405943],[103.7047335,1.4404576]]}},{"type":"Feature","id":"way/452371833-0-1-0","properties":{"highway":"service"},"geometry":{"type":"LineString","coordinates":[[103.7047335,1.4404576],[103.7046128,1.4402752]]}},{"type":"Feature","id":"way/452371833-0-2-0","properties":{"highway":"service"},"geometry":{"type":"LineString","coordinates":[[103.7046128,1.4402752],[103.7046316,1.4400366]]}},{"type":"Feature","id":"way/452371833-0-3-0","properties":{"highway":"service"},"geometry":{"type":"LineString","coordinates":[[103.7046316,1.4400366],[103.7046128,1.4399132]]}},{"type":"Feature","id":"way/452371833-0-4-0","properties":{"highway":"service"},"geometry":{"type":"LineString","coordinates":[[103.7046128,1.4399132],[103.7045887,1.4395754]]}},{"type":"Feature","id":"way/452371833-0-5-0","properties":{"highway":"service"},"geometry":{"type":"LineString","coordinates":[[103.7045887,1.4395754],[103.7047067,1.4395218]]}},{"type":"Feature","id":"way/452371833-0-6-0","properties":{"highway":"service"},"geometry":{"type":"LineString","coordinates":[[103.7047067,1.4395218],[103.7049186,1.4395325]]}},{"type":"Feature","id":"way/452371833-0-7-0","properties":{"highway":"service"},"geometry":{"type":"LineString","coordinates":[[103.7049186,1.4395325],[103.7049991,1.4395835]]}},{"type":"Feature","id":"way/452371833-0-8-0","properties":{"highway":"service"},"geometry":{"type":"LineString","coordinates":[[103.7049991,1.4395835],[103.7050152,1.4397899]]}},{"type":"Feature","id":"way/452371833-0-9-0","properties":{"highway":"service"},"geometry":{"type":"LineString","coordinates":[[103.7050152,1.4397899],[103.7050044,1.4399991]]}},{"type":"Feature","id":"way/452371833-0-10-0","properties":{"highway":"service"},"geometry":{"type":"LineString","coordinates":[[103.7050044,1.4399991],[103.7049186,1.4401787]]}},{"type":"Feature","id":"way/452371833-0-11-0","properties":{"highway":"service"},"geometry":{"type":"LineString","coordinates":[[103.7049186,1.4401787],[103.7048596,1.4403182]]}},{"type":"Feature","id":"way/452371833-0-12-0","properties":{"highway":"service"},"geometry":{"type":"LineString","coordinates":[[103.7048596,1.4403182],[103.7049186,1.440479]]}},{"type":"Feature","id":"way/452371838-0-0-0","properties":{"highway":"service"},"geometry":{"type":"LineString","coordinates":[[103.7062957,1.4396451],[103.7065574,1.4396505]]}},{"type":"Feature","id":"way/452371838-0-1-0","properties":{"highway":"service"},"geometry":{"type":"LineString","coordinates":[[103.7065574,1.4396505],[103.7068632,1.4396961]]}},{"type":"Feature","id":"way/452371838-0-2-0","properties":{"highway":"service"},"geometry":{"type":"LineString","coordinates":[[103.7068632,1.4396961],[103.707051,1.4397685]]}},{"type":"Feature","id":"way/452371838-0-3-0","properties":{"highway":"service"},"geometry":{"type":"LineString","coordinates":[[103.707051,1.4397685],[103.7073058,1.4399025]]}},{"type":"Feature","id":"way/633151218-0-1-0","properties":{"bicycle":"yes","highway":"service","surface":"asphalt"},"geometry":{"type":"LineString","coordinates":[[103.7069178,1.4379357],[103.7067598,1.4379914]]}},{"type":"Feature","id":"way/639083081-0-0-0","properties":{"highway":"service"},"geometry":{"type":"LineString","coordinates":[[103.7069008,1.4411089],[103.7069464,1.4411706]]}},{"type":"Feature","id":"way/639083082-0-0-0","properties":{"highway":"service"},"geometry":{"type":"LineString","coordinates":[[103.7069008,1.4411089],[103.7070671,1.4410499]]}},{"type":"Feature","id":"way/639083082-0-1-0","properties":{"highway":"service"},"geometry":{"type":"LineString","coordinates":[[103.7070671,1.4410499],[103.7071958,1.4408917]]}},{"type":"Feature","id":"way/639083082-0-2-0","properties":{"highway":"service"},"geometry":{"type":"LineString","coordinates":[[103.7071958,1.4408917],[103.7071958,1.4407523]]}},{"type":"Feature","id":"way/639083082-0-3-0","properties":{"highway":"service"},"geometry":{"type":"LineString","coordinates":[[103.7071958,1.4407523],[103.707118,1.440511]]}},{"type":"Feature","id":"way/639083082-0-4-0","properties":{"highway":"service"},"geometry":{"type":"LineString","coordinates":[[103.707118,1.440511],[103.7070885,1.4403259]]}},{"type":"Feature","id":"way/639083082-0-5-0","properties":{"highway":"service"},"geometry":{"type":"LineString","coordinates":[[103.7070885,1.4403259],[103.7070778,1.4401543]]}},{"type":"Feature","id":"way/639083083-0-0-0","properties":{"highway":"service"},"geometry":{"type":"LineString","coordinates":[[103.7063034,1.4394251],[103.7065923,1.4394143]]}},{"type":"Feature","id":"way/639083083-0-1-0","properties":{"highway":"service"},"geometry":{"type":"LineString","coordinates":[[103.7065923,1.4394143],[103.7068686,1.4394089]]}},{"type":"Feature","id":"way/639083083-0-2-0","properties":{"highway":"service"},"geometry":{"type":"LineString","coordinates":[[103.7068686,1.4394089],[103.7069383,1.4393741]]}},{"type":"Feature","id":"way/639083083-0-3-0","properties":{"highway":"service"},"geometry":{"type":"LineString","coordinates":[[103.7069383,1.4393741],[103.7069812,1.4392749]]}},{"type":"Feature","id":"way/639083083-0-4-0","properties":{"highway":"service"},"geometry":{"type":"LineString","coordinates":[[103.7069812,1.4392749],[103.7070242,1.4391167]]}},{"type":"Feature","id":"way/639083086-0-0-0","properties":{"highway":"service"},"geometry":{"type":"LineString","coordinates":[[103.7061185,1.4374703],[103.705785,1.4374569]]}},{"type":"Feature","id":"way/639083086-0-1-0","properties":{"highway":"service"},"geometry":{"type":"LineString","coordinates":[[103.705785,1.4374569],[103.7054202,1.4374059]]}},{"type":"Feature","id":"way/639083087-0-0-0","properties":{"highway":"service"},"geometry":{"type":"LineString","coordinates":[[103.7056829,1.439368],[103.705675,1.4387842]]}},{"type":"Feature","id":"way/639083087-0-1-0","properties":{"highway":"service"},"geometry":{"type":"LineString","coordinates":[[103.705675,1.4387842],[103.7057286,1.4387305]]}},{"type":"Feature","id":"way/639083087-0-2-0","properties":{"highway":"service"},"geometry":{"type":"LineString","coordinates":[[103.7057286,1.4387305],[103.7059727,1.4387305]]}},{"type":"Feature","id":"way/639083087-0-3-0","properties":{"highway":"service"},"geometry":{"type":"LineString","coordinates":[[103.7059727,1.4387305],[103.7061533,1.4387566]]}},{"type":"Feature","id":"way/643236816-0-0-0","properties":{"bicycle":"yes","highway":"service","surface":"asphalt"},"geometry":{"type":"LineString","coordinates":[[103.7067598,1.4379914],[103.7064449,1.4381024]]}},{"type":"Feature","id":"way/643236816-0-1-0","properties":{"bicycle":"yes","highway":"service","surface":"asphalt"},"geometry":{"type":"LineString","coordinates":[[103.7064449,1.4381024],[103.7063735,1.4381684]]}},{"type":"Feature","id":"way/643243193-0-0-0","properties":{"highway":"service","service":"driveway"},"geometry":{"type":"LineString","coordinates":[[103.7063735,1.4381684],[103.7062946,1.438203]]}},{"type":"Feature","id":"way/643243193-0-1-0","properties":{"highway":"service","service":"driveway"},"geometry":{"type":"LineString","coordinates":[[103.7062946,1.438203],[103.7062321,1.4383064]]}},{"type":"Feature","id":"way/643243193-0-2-0","properties":{"highway":"service","service":"driveway"},"geometry":{"type":"LineString","coordinates":[[103.7062321,1.4383064],[103.7061888,1.4384387]]}},{"type":"Feature","id":"way/643243193-0-3-0","properties":{"highway":"service","service":"driveway"},"geometry":{"type":"LineString","coordinates":[[103.7061888,1.4384387],[103.7061533,1.4387566]]}},{"type":"Feature","id":"way/643243957-0-0-0","properties":{"bicycle":"yes","highway":"service","surface":"asphalt"},"geometry":{"type":"LineString","coordinates":[[103.7061221,1.4379118],[103.7059798,1.4379056]]}},{"type":"Feature","id":"way/643243957-0-1-0","properties":{"bicycle":"yes","highway":"service","surface":"asphalt"},"geometry":{"type":"LineString","coordinates":[[103.7059798,1.4379056],[103.7054818,1.4381292]]}},{"type":"Feature","id":"way/643245295-0-0-0","properties":{"bicycle":"yes","highway":"service"},"geometry":{"type":"LineString","coordinates":[[103.7061221,1.4379118],[103.7061185,1.4374703]]}},{"type":"Feature","id":"way/643246214-0-0-0","properties":{"highway":"service","service":"driveway"},"geometry":{"type":"LineString","coordinates":[[103.7056829,1.439368],[103.7052029,1.4393419]]}},{"type":"Feature","id":"way/643246214-0-1-0","properties":{"highway":"service","service":"driveway"},"geometry":{"type":"LineString","coordinates":[[103.7052029,1.4393419],[103.7045512,1.4393365]]}},{"type":"Feature","id":"way/643246654-0-0-0","properties":{"bicycle":"yes","highway":"service","surface":"asphalt"},"geometry":{"type":"LineString","coordinates":[[103.7062957,1.4396451],[103.7062612,1.4406361]]}},{"type":"Feature","id":"way/643246655-0-0-0","properties":{"bicycle":"yes","highway":"service","surface":"asphalt"},"geometry":{"type":"LineString","coordinates":[[103.7063034,1.4394251],[103.7062957,1.4396451]]}},{"type":"Feature","id":"way/643248437-0-0-0","properties":{"highway":"service"},"geometry":{"type":"LineString","coordinates":[[103.7062512,1.4410877],[103.7065038,1.4410848]]}},{"type":"Feature","id":"way/643248437-0-1-0","properties":{"highway":"service"},"geometry":{"type":"LineString","coordinates":[[103.7065038,1.4410848],[103.7067398,1.4411196]]}},{"type":"Feature","id":"way/643248437-0-2-0","properties":{"highway":"service"},"geometry":{"type":"LineString","coordinates":[[103.7067398,1.4411196],[103.7069008,1.4411089]]}}]}