{"type":"FeatureCollection","features":[{"type":"Feature","id":"way/537648865-0","properties":{"building":"storage_tank","man_made":"storage_tank"},"geometry":{"type":"Polygon","coordinates":[[[103.7011673,1.2762127],[103.7012248,1.2761252],[103.7012548,1.276025],[103.7012548,1.2759203],[103.7012248,1.2758201],[103.7011672,1.2757327],[103.701087,1.2756654],[103.7009909,1.275624],[103.7008869,1.2756119],[103.7007838,1.2756301],[103.700678,1.2756861],[103.7005963,1.2757737],[103.7005478,1.2758831],[103.7005377,1.2760024],[103.7005672,1.2761184],[103.700633,1.2762184],[103.7007279,1.2762914],[103.7008415,1.2763294],[103.7009613,1.2763281],[103.701074,1.2762877],[103.7011673,1.2762127]]]}},{"type":"Feature","id":"way/537648866-0","properties":{"building":"storage_tank","man_made":"storage_tank"},"geometry":{"type":"Polygon","coordinates":[[[103.7024499,1.2765032],[103.702481,1.2763976],[103.7024755,1.2762876],[103.7024339,1.2761856],[103.702361,1.2761031],[103.7022649,1.2760493],[103.7021564,1.2760303],[103.7020513,1.276047],[103.7019571,1.2760964],[103.7018836,1.2761733],[103.7018385,1.2762696],[103.7018266,1.2763753],[103.7018491,1.2764792],[103.7019036,1.2765706],[103.7019844,1.2766397],[103.7020831,1.2766794],[103.7021893,1.2766855],[103.7022953,1.2766557],[103.7023856,1.2765926],[103.7024499,1.2765032]]]}},{"type":"Feature","id":"way/537648867-0","properties":{"building":"storage_tank","man_made":"storage_tank"},"geometry":{"type":"Polygon","coordinates":[[[103.7028494,1.2752642],[103.7028806,1.2751586],[103.7028751,1.2750486],[103.7028335,1.2749466],[103.7027606,1.2748641],[103.7026644,1.2748103],[103.702556,1.2747913],[103.7024509,1.274808],[103.7023567,1.2748574],[103.7022832,1.2749343],[103.7022381,1.2750306],[103.7022262,1.2751363],[103.7022486,1.2752402],[103.7023031,1.2753315],[103.7023839,1.2754007],[103.7024826,1.2754404],[103.7025888,1.2754465],[103.7026949,1.2754167],[103.7027851,1.2753536],[103.7028494,1.2752642]]]}},{"type":"Feature","id":"way/537648875-0","properties":{"building":"storage_tank","man_made":"storage_tank"},"geometry":{"type":"Polygon","coordinates":[[[103.7000331,1.275409],[103.7000643,1.2753034],[103.7000587,1.2751934],[103.7000172,1.2750914],[103.6999442,1.2750089],[103.6998481,1.2749551],[103.6997396,1.2749361],[103.6996346,1.2749528],[103.6995404,1.2750022],[103.6994669,1.2750791],[103.6994218,1.2751754],[103.6994098,1.2752811],[103.6994323,1.275385],[103.6994868,1.2754764],[103.6995676,1.2755455],[103.6996663,1.2755852],[103.6997725,1.2755913],[103.6998786,1.2755615],[103.6999688,1.2754984],[103.7000331,1.275409]]]}},{"type":"Feature","id":"way/537648876-0","properties":{"building":"storage_tank","man_made":"storage_tank"},"geometry":{"type":"Polygon","coordinates":[[[103.6985579,1.2759131],[103.698589,1.2758075],[103.6985835,1.2756975],[103.698542,1.2755955],[103.698469,1.275513],[103.6983729,1.2754593],[103.6982644,1.2754403],[103.6981594,1.2754569],[103.6980651,1.2755063],[103.6979916,1.2755832],[103.6979466,1.2756795],[103.6979346,1.2757852],[103.6979571,1.2758892],[103.6980116,1.2759805],[103.6980924,1.2760496],[103.6981911,1.2760893],[103.6982973,1.2760954],[103.6984033,1.2760656],[103.6984936,1.2760025],[103.6985579,1.2759131]]]}},{"type":"Feature","id":"way/547790392-0","properties":{"building":"yes","office":"yes"},"geometry":{"type":"Polygon","coordinates":[[[103.7017495,1.2788883],[103.7018257,1.2783404],[103.7016033,1.2783095],[103.7015271,1.2788574],[103.7017495,1.2788883]]]}},{"type":"Feature","id":"way/548086061-0","properties":{"building":"industrial"},"geometry":{"type":"Polygon","coordinates":[[[103.7017101,1.2790794],[103.7017242,1.2789838],[103.7015059,1.2789517],[103.7014918,1.2790472],[103.7017101,1.2790794]]]}},{"type":"Feature","id":"way/548086062-0","properties":{"building":"industrial"},"geometry":{"type":"Polygon","coordinates":[[[103.7016514,1.2792019],[103.701664,1.2790957],[103.7015506,1.2790822],[103.701538,1.2791884],[103.7016514,1.2792019]]]}},{"type":"Feature","id":"way/548086063-0","properties":{"building":"industrial"},"geometry":{"type":"Polygon","coordinates":[[[103.7016701,1.2794018],[103.7016862,1.2792972],[103.7014255,1.279257],[103.7014093,1.2793616],[103.7016701,1.2794018]]]}},{"type":"Feature","id":"way/548088143-0","properties":{"building":"industrial"},"geometry":{"type":"Polygon","coordinates":[[[103.7000453,1.2763945],[103.6997656,1.2762743],[103.6997304,1.2763563],[103.70001,1.2764765],[103.7000453,1.2763945]]]}},{"type":"Feature","id":"way/548088144-0","properties":{"building":"industrial"},"geometry":{"type":"Polygon","coordinates":[[[103.7019819,1.2770308],[103.7011399,1.2768612],[103.7011216,1.2769519],[103.7019636,1.2771215],[103.7019819,1.2770308]]]}}]}