{"type":"FeatureCollection","features":[{"type":"Feature","id":"way/1384505869-0","properties":{"building":"yes","clearanceGeometry":{"type":"Polygon","coordinates":[[[103.6994745,1.2630699],[103.699289,1.2628264],[103.6991913,1.2629008],[103.6993768,1.2631443],[103.6994745,1.2630699]]]},"clearanceHeight":1.7,"clearancePrepared":true},"geometry":{"type":"Polygon","coordinates":[[[103.6993768,1.2631443],[103.6994745,1.2630699],[103.699289,1.2628264],[103.6991913,1.2629008],[103.6993768,1.2631443]]]}},{"type":"Feature","id":"way/1384505870-0","properties":{"building":"yes","clearanceGeometry":{"type":"Polygon","coordinates":[[[103.699626,1.2632997],[103.6995722,1.2632314],[103.69952,1.2632725],[103.6995738,1.2633408],[103.699626,1.2632997]]]},"clearanceHeight":1.7,"clearancePrepared":true},"geometry":{"type":"Polygon","coordinates":[[[103.6995738,1.2633408],[103.699626,1.2632997],[103.6995722,1.2632314],[103.69952,1.2632725],[103.6995738,1.2633408]]]}},{"type":"Feature","id":"way/1384505871-0","properties":{"building":"yes","clearanceGeometry":{"type":"Polygon","coordinates":[[[103.6998272,1.262128],[103.6997627,1.2620397],[103.6996707,1.2621069],[103.6997352,1.2621952],[103.6998272,1.262128]]]},"clearanceHeight":1.7,"clearancePrepared":true},"geometry":{"type":"Polygon","coordinates":[[[103.6997352,1.2621952],[103.6998272,1.262128],[103.6997627,1.2620397],[103.6996707,1.2621069],[103.6997352,1.2621952]]]}},{"type":"Feature","id":"way/1384505872-0","properties":{"building":"yes","clearanceGeometry":{"type":"Polygon","coordinates":[[[103.6999393,1.262029],[103.6999116,1.2619922],[103.6999385,1.261972],[103.6998916,1.2619094],[103.699801,1.2619774],[103.6998756,1.2620768],[103.6999393,1.262029]]]},"clearanceHeight":1.7,"clearancePrepared":true},"geometry":{"type":"Polygon","coordinates":[[[103.6998756,1.2620768],[103.6999393,1.262029],[103.6999116,1.2619922],[103.6999385,1.261972],[103.6998916,1.2619094],[103.699801,1.2619774],[103.6998756,1.2620768]]]}},{"type":"Feature","id":"way/1384505873-0","properties":{"building":"yes","clearanceGeometry":{"type":"Polygon","coordinates":[[[103.7004649,1.2624869],[103.70036,1.262346],[103.7002622,1.2624187],[103.700367,1.2625597],[103.7004649,1.2624869]]]},"clearanceHeight":1.7,"clearancePrepared":true},"geometry":{"type":"Polygon","coordinates":[[[103.700367,1.2625597],[103.7004649,1.2624869],[103.70036,1.262346],[103.7002622,1.2624187],[103.700367,1.2625597]]]}},{"type":"Feature","id":"way/1384505874-0","properties":{"building":"yes","clearanceGeometry":{"type":"Polygon","coordinates":[[[103.7007026,1.2624862],[103.7006294,1.262388],[103.7005881,1.2624187],[103.7005793,1.262407],[103.7005314,1.2624426],[103.7005502,1.2624677],[103.7004008,1.262579],[103.700464,1.2626639],[103.7007026,1.2624862]]]},"clearanceHeight":1.7,"clearancePrepared":true},"geometry":{"type":"Polygon","coordinates":[[[103.700464,1.2626639],[103.7007026,1.2624862],[103.7006294,1.262388],[103.7005881,1.2624187],[103.7005793,1.262407],[103.7005314,1.2624426],[103.7005502,1.2624677],[103.7004008,1.262579],[103.700464,1.2626639]]]}},{"type":"Feature","id":"way/1384505883-0","properties":{"building":"yes","clearanceGeometry":{"type":"Polygon","coordinates":[[[103.7001135,1.2620579],[103.7000337,1.2621183],[103.7001865,1.2623202],[103.7002663,1.2622599],[103.7001135,1.2620579]]]},"clearanceHeight":1.7,"clearancePrepared":true},"geometry":{"type":"Polygon","coordinates":[[[103.7002663,1.2622599],[103.7001135,1.2620579],[103.7000337,1.2621183],[103.7001865,1.2623202],[103.7002663,1.2622599]]]}},{"type":"Feature","id":"way/1384505884-0","properties":{"building":"yes","clearanceGeometry":{"type":"Polygon","coordinates":[[[103.7000172,1.2620702],[103.6999058,1.2621554],[103.6999228,1.2621775],[103.7000341,1.2620923],[103.7000172,1.2620702]]]},"clearanceHeight":1.7,"clearancePrepared":true},"geometry":{"type":"Polygon","coordinates":[[[103.7000341,1.2620923],[103.7000172,1.2620702],[103.6999058,1.2621554],[103.6999228,1.2621775],[103.7000341,1.2620923]]]}},{"type":"Feature","id":"way/1384505893-0","properties":{"building":"yes","clearanceGeometry":{"type":"Polygon","coordinates":[[[103.6993415,1.2623361],[103.69925857623544,1.2623998030244323],[103.69929545271745,1.2624456551030168],[103.69937927126922,1.2623851363846026],[103.6993415,1.2623361]]]},"clearanceHeight":1.7,"clearancePrepared":true},"geometry":{"type":"Polygon","coordinates":[[[103.6992964,1.2624649],[103.6993871,1.2623953],[103.6993415,1.2623361],[103.6992509,1.2624057],[103.6992964,1.2624649]]]}},{"type":"Feature","id":"way/1384505895-0","properties":{"building":"yes","clearanceGeometry":{"type":"Polygon","coordinates":[[[103.7008686,1.2625478],[103.7008364,1.2625153],[103.7007876,1.2625637],[103.7008199,1.2625962],[103.7008686,1.2625478]]]},"clearanceHeight":1.7,"clearancePrepared":true},"geometry":{"type":"Polygon","coordinates":[[[103.7008199,1.2625962],[103.7008686,1.2625478],[103.7008364,1.2625153],[103.7007876,1.2625637],[103.7008199,1.2625962]]]}},{"type":"Feature","id":"way/597602946-0-0-0","properties":{"highway":"service","startNodeId":"5689599203","endNodeId":"5689599202"},"geometry":{"type":"LineString","coordinates":[[103.7016249,1.2630277],[103.7017883,1.2628373]]}},{"type":"Feature","id":"way/645176155-0-0-0","properties":{"highway":"service","startNodeId":"6065497290","endNodeId":"6065497289"},"geometry":{"type":"LineString","coordinates":[[103.6987576,1.262781],[103.6982244,1.2632044]]}},{"type":"Feature","id":"way/646941194-0-0-0","properties":{"highway":"service","startNodeId":"5689599202","endNodeId":"5689599201"},"geometry":{"type":"LineString","coordinates":[[103.7017883,1.2628373],[103.7018548,1.2627868]]}},{"type":"Feature","id":"way/1384505894-0-0-0","properties":{"highway":"service","startNodeId":"12818602109","endNodeId":"12818602110"},"geometry":{"type":"LineString","coordinates":[[103.6991107,1.2625243],[103.699235,1.262435]]}},{"type":"Feature","id":"way/1384505894-0-1-0","properties":{"highway":"service","startNodeId":"12818602110","endNodeId":"12818602111"},"geometry":{"type":"LineString","coordinates":[[103.699235,1.262435],[103.699288,1.2625009]]}},{"type":"Feature","id":"way/1384505894-0-2-0","properties":{"highway":"service","startNodeId":"12818602111","endNodeId":"12818602112"},"geometry":{"type":"LineString","coordinates":[[103.699288,1.2625009],[103.6996186,1.2622622]]}}]}