{"type":"FeatureCollection","features":[{"type":"Feature","id":"node/5216975537","properties":{"highway":"crossing"},"geometry":{"type":"Point","coordinates":[103.6973664,1.3851448]}},{"type":"Feature","id":"node/7819149841","properties":{"highway":"crossing"},"geometry":{"type":"Point","coordinates":[103.6975793,1.3847754]}},{"type":"Feature","id":"node/12959430526","properties":{"highway":"crossing"},"geometry":{"type":"Point","coordinates":[103.6975579,1.3848799]}},{"type":"Feature","id":"node/12959430745","properties":{"highway":"crossing"},"geometry":{"type":"Point","coordinates":[103.697416,1.3849063]}},{"type":"Feature","id":"way/446634755-0-0-0","properties":{"bicycle":"yes","highway":"service","lanes":"2","lanes:backward":"1","lanes:forward":"1","sidewalk":"both","turn:lanes:backward":"through","turn:lanes:forward":"through","startNodeId":"4438783740","endNodeId":"4438783741"},"geometry":{"type":"LineString","coordinates":[[103.6938412,1.3837623],[103.6938709,1.3837748]]}},{"type":"Feature","id":"way/446634755-0-1-0","properties":{"bicycle":"yes","highway":"service","lanes":"2","lanes:backward":"1","lanes:forward":"1","sidewalk":"both","turn:lanes:backward":"through","turn:lanes:forward":"through","startNodeId":"4438783741","endNodeId":"4438783742"},"geometry":{"type":"LineString","coordinates":[[103.6938709,1.3837748],[103.6938868,1.3837943]]}},{"type":"Feature","id":"way/446634755-0-2-0","properties":{"bicycle":"yes","highway":"service","lanes":"2","lanes:backward":"1","lanes:forward":"1","sidewalk":"both","turn:lanes:backward":"through","turn:lanes:forward":"through","startNodeId":"4438783742","endNodeId":"4438783743"},"geometry":{"type":"LineString","coordinates":[[103.6938868,1.3837943],[103.6938923,1.3838324]]}},{"type":"Feature","id":"way/446634755-0-3-0","properties":{"bicycle":"yes","highway":"service","lanes":"2","lanes:backward":"1","lanes:forward":"1","sidewalk":"both","turn:lanes:backward":"through","turn:lanes:forward":"through","startNodeId":"4438783743","endNodeId":"8417080162"},"geometry":{"type":"LineString","coordinates":[[103.6938923,1.3838324],[103.693891,1.3841239]]}},{"type":"Feature","id":"way/446634755-0-4-0","properties":{"bicycle":"yes","highway":"service","lanes":"2","lanes:backward":"1","lanes:forward":"1","sidewalk":"both","turn:lanes:backward":"through","turn:lanes:forward":"through","startNodeId":"8417080162","endNodeId":"4438783749"},"geometry":{"type":"LineString","coordinates":[[103.693891,1.3841239],[103.6938875,1.3849478]]}},{"type":"Feature","id":"way/643469837-0-0-0","properties":{"bicycle":"yes","highway":"service","lanes":"2","lanes:backward":"1","lanes:forward":"1","sidewalk":"left","turn:lanes:backward":"through","turn:lanes:forward":"through","startNodeId":"4438783749","endNodeId":"8417080167"},"geometry":{"type":"LineString","coordinates":[[103.6938875,1.3849478],[103.6938876,1.3853172]]}},{"type":"Feature","id":"way/643469837-0-1-0","properties":{"bicycle":"yes","highway":"service","lanes":"2","lanes:backward":"1","lanes:forward":"1","sidewalk":"left","turn:lanes:backward":"through","turn:lanes:forward":"through","startNodeId":"8417080167","endNodeId":"4438789740"},"geometry":{"type":"LineString","coordinates":[[103.6938876,1.3853172],[103.6938878,1.3861935]]}},{"type":"Feature","id":"way/644373528-0-0-0","properties":{"bicycle":"yes","highway":"service","lanes":"2","lanes:backward":"1","lanes:forward":"1","sidewalk":"left","turn:lanes:backward":"through","turn:lanes:forward":"through","startNodeId":"4438789740","endNodeId":"8417080172"},"geometry":{"type":"LineString","coordinates":[[103.6938878,1.3861935],[103.6938963,1.386741]]}},{"type":"Feature","id":"way/644373528-0-1-0","properties":{"bicycle":"yes","highway":"service","lanes":"2","lanes:backward":"1","lanes:forward":"1","sidewalk":"left","turn:lanes:backward":"through","turn:lanes:forward":"through","startNodeId":"8417080172","endNodeId":"5112321341"},"geometry":{"type":"LineString","coordinates":[[103.6938963,1.386741],[103.6939104,1.3876446]]}},{"type":"Feature","id":"way/837763066-0-0-0","properties":{"bicycle":"yes","highway":"service","lanes":"2","lanes:backward":"1","lanes:forward":"1","name":"Cemetery North Street 1","sidewalk":"both","turn:lanes:backward":"through","turn:lanes:forward":"through","startNodeId":"7819274192","endNodeId":"4438783740"},"geometry":{"type":"LineString","coordinates":[[103.6938289,1.3829167],[103.6938412,1.3837623]]}}]}