{"type":"FeatureCollection","features":[{"type":"Feature","id":"node/6572285657","properties":{"highway":"crossing"},"geometry":{"type":"Point","coordinates":[103.6859614,1.3558823]}},{"type":"Feature","id":"node/6572285664","properties":{"highway":"crossing"},"geometry":{"type":"Point","coordinates":[103.6862102,1.3559031]}},{"type":"Feature","id":"way/188324777-0-2-0","properties":{"highway":"unclassified","lanes":"2","lanes:backward":"1","lanes:forward":"1","maxspeed":"40","name":"Nanyang Avenue","name:zh":"\u5357\u6d0b\u9053","startNodeId":"3726031882","endNodeId":"246167347"},"geometry":{"type":"LineString","coordinates":[[103.6893277,1.3561764],[103.6889928,1.3559487]]}},{"type":"Feature","id":"way/190535814-0-0-0","properties":{"highway":"residential","lanes":"2","lanes:backward":"1","lanes:forward":"1","maxspeed":"40","name":"Nanyang Crescent","name:zh":"\u5357\u6d0b\u5f2f","startNodeId":"246167933","endNodeId":"4084443740"},"geometry":{"type":"LineString","coordinates":[[103.6867853,1.3559676],[103.6869223,1.3559375]]}},{"type":"Feature","id":"way/190535814-0-1-0","properties":{"highway":"residential","lanes":"2","lanes:backward":"1","lanes:forward":"1","maxspeed":"40","name":"Nanyang Crescent","name:zh":"\u5357\u6d0b\u5f2f","startNodeId":"4084443740","endNodeId":"3726031879"},"geometry":{"type":"LineString","coordinates":[[103.6869223,1.3559375],[103.6870423,1.3558966]]}},{"type":"Feature","id":"way/190535814-0-2-0","properties":{"highway":"residential","lanes":"2","lanes:backward":"1","lanes:forward":"1","maxspeed":"40","name":"Nanyang Crescent","name:zh":"\u5357\u6d0b\u5f2f","startNodeId":"3726031879","endNodeId":"13717624152"},"geometry":{"type":"LineString","coordinates":[[103.6870423,1.3558966],[103.6871076,1.3558721]]}},{"type":"Feature","id":"way/414389350-0-0-0","properties":{"highway":"unclassified","lanes":"2","lanes:backward":"1","lanes:forward":"1","maxspeed":"50","name":"Lorong Danau","startNodeId":"4371078145","endNodeId":"4155420646"},"geometry":{"type":"LineString","coordinates":[[103.686383,1.3586634],[103.686107,1.358762]]}},{"type":"Feature","id":"way/414389350-0-1-0","properties":{"highway":"unclassified","lanes":"2","lanes:backward":"1","lanes:forward":"1","maxspeed":"50","name":"Lorong Danau","startNodeId":"4155420646","endNodeId":"4408967336"},"geometry":{"type":"LineString","coordinates":[[103.686107,1.358762],[103.6860037,1.3587848]]}},{"type":"Feature","id":"way/414389350-0-2-0","properties":{"highway":"unclassified","lanes":"2","lanes:backward":"1","lanes:forward":"1","maxspeed":"50","name":"Lorong Danau","startNodeId":"4408967336","endNodeId":"4438439153"},"geometry":{"type":"LineString","coordinates":[[103.6860037,1.3587848],[103.6855356,1.3588485]]}},{"type":"Feature","id":"way/414389350-0-3-0","properties":{"highway":"unclassified","lanes":"2","lanes:backward":"1","lanes:forward":"1","maxspeed":"50","name":"Lorong Danau","startNodeId":"4438439153","endNodeId":"4155420647"},"geometry":{"type":"LineString","coordinates":[[103.6855356,1.3588485],[103.685186,1.358906]]}},{"type":"Feature","id":"way/414389350-0-4-0","properties":{"highway":"unclassified","lanes":"2","lanes:backward":"1","lanes:forward":"1","maxspeed":"50","name":"Lorong Danau","startNodeId":"4155420647","endNodeId":"4155420661"},"geometry":{"type":"LineString","coordinates":[[103.685186,1.358906],[103.685094,1.358942]]}},{"type":"Feature","id":"way/414389350-0-5-0","properties":{"highway":"unclassified","lanes":"2","lanes:backward":"1","lanes:forward":"1","maxspeed":"50","name":"Lorong Danau","startNodeId":"4155420661","endNodeId":"4155420662"},"geometry":{"type":"LineString","coordinates":[[103.685094,1.358942],[103.684891,1.359056]]}},{"type":"Feature","id":"way/414389350-0-6-0","properties":{"highway":"unclassified","lanes":"2","lanes:backward":"1","lanes:forward":"1","maxspeed":"50","name":"Lorong Danau","startNodeId":"4155420662","endNodeId":"4155420663"},"geometry":{"type":"LineString","coordinates":[[103.684891,1.359056],[103.6847,1.35922]]}},{"type":"Feature","id":"way/439478398-0-0-0","properties":{"highway":"unclassified","lanes":"2","lanes:backward":"1","lanes:forward":"1","maxspeed":"50","name":"Lorong Danau","startNodeId":"4155420658","endNodeId":"5200293425"},"geometry":{"type":"LineString","coordinates":[[103.6880132,1.3584606],[103.6879092,1.3584977]]}},{"type":"Feature","id":"way/439478398-0-1-0","properties":{"highway":"unclassified","lanes":"2","lanes:backward":"1","lanes:forward":"1","maxspeed":"50","name":"Lorong Danau","startNodeId":"5200293425","endNodeId":"4155420643"},"geometry":{"type":"LineString","coordinates":[[103.6879092,1.3584977],[103.6878016,1.358526]]}},{"type":"Feature","id":"way/439478398-0-2-0","properties":{"highway":"unclassified","lanes":"2","lanes:backward":"1","lanes:forward":"1","maxspeed":"50","name":"Lorong Danau","startNodeId":"4155420643","endNodeId":"5200293426"},"geometry":{"type":"LineString","coordinates":[[103.6878016,1.358526],[103.687676,1.3585459]]}},{"type":"Feature","id":"way/439478398-0-3-0","properties":{"highway":"unclassified","lanes":"2","lanes:backward":"1","lanes:forward":"1","maxspeed":"50","name":"Lorong Danau","startNodeId":"5200293426","endNodeId":"4155420644"},"geometry":{"type":"LineString","coordinates":[[103.687676,1.3585459],[103.687545,1.358557]]}},{"type":"Feature","id":"way/439478398-0-4-0","properties":{"highway":"unclassified","lanes":"2","lanes:backward":"1","lanes:forward":"1","maxspeed":"50","name":"Lorong Danau","startNodeId":"4155420644","endNodeId":"4407618999"},"geometry":{"type":"LineString","coordinates":[[103.687545,1.358557],[103.6871579,1.3585559]]}},{"type":"Feature","id":"way/439478400-0-0-0","properties":{"bridge":"yes","highway":"unclassified","lanes":"2","lanes:backward":"1","lanes:forward":"1","layer":"1","maxspeed":"50","name":"Lorong Danau","startNodeId":"4155420660","endNodeId":"4371078145"},"geometry":{"type":"LineString","coordinates":[[103.6864688,1.3586257],[103.686383,1.3586634]]}},{"type":"Feature","id":"way/443125081-0-0-0","properties":{"bridge":"yes","highway":"unclassified","lanes":"2","lanes:backward":"1","lanes:forward":"1","layer":"1","maxspeed":"50","name":"Lorong Danau","startNodeId":"4407618999","endNodeId":"4407618998"},"geometry":{"type":"LineString","coordinates":[[103.6871579,1.3585559],[103.6870305,1.3585556]]}},{"type":"Feature","id":"way/443125082-0-0-0","properties":{"highway":"unclassified","lanes":"2","lanes:backward":"1","lanes:forward":"1","maxspeed":"50","name":"Lorong Danau","startNodeId":"4407618998","endNodeId":"4155420659"},"geometry":{"type":"LineString","coordinates":[[103.6870305,1.3585556],[103.68681,1.358555]]}},{"type":"Feature","id":"way/443125082-0-1-0","properties":{"highway":"unclassified","lanes":"2","lanes:backward":"1","lanes:forward":"1","maxspeed":"50","name":"Lorong Danau","startNodeId":"4155420659","endNodeId":"4155420645"},"geometry":{"type":"LineString","coordinates":[[103.68681,1.358555],[103.686677,1.358573]]}},{"type":"Feature","id":"way/443125082-0-2-0","properties":{"highway":"unclassified","lanes":"2","lanes:backward":"1","lanes:forward":"1","maxspeed":"50","name":"Lorong Danau","startNodeId":"4155420645","endNodeId":"4155420660"},"geometry":{"type":"LineString","coordinates":[[103.686677,1.358573],[103.6864688,1.3586257]]}},{"type":"Feature","id":"way/644264826-0-4-0","properties":{"highway":"service","lanes":"2","lanes:backward":"1","lanes:forward":"1","startNodeId":"13717624128","endNodeId":"6059652635"},"geometry":{"type":"LineString","coordinates":[[103.6876436,1.355753],[103.6874601,1.3564783]]}},{"type":"Feature","id":"way/644264826-0-5-0","properties":{"highway":"service","lanes":"2","lanes:backward":"1","lanes:forward":"1","startNodeId":"6059652635","endNodeId":"6059652634"},"geometry":{"type":"LineString","coordinates":[[103.6874601,1.3564783],[103.6874574,1.356556]]}},{"type":"Feature","id":"way/644264826-0-6-0","properties":{"highway":"service","lanes":"2","lanes:backward":"1","lanes:forward":"1","startNodeId":"6059652634","endNodeId":"6059652633"},"geometry":{"type":"LineString","coordinates":[[103.6874574,1.356556],[103.6874762,1.3566311]]}},{"type":"Feature","id":"way/644264826-0-7-0","properties":{"highway":"service","lanes":"2","lanes:backward":"1","lanes:forward":"1","startNodeId":"6059652633","endNodeId":"6059652632"},"geometry":{"type":"LineString","coordinates":[[103.6874762,1.3566311],[103.6875164,1.3566955]]}},{"type":"Feature","id":"way/644264826-0-8-0","properties":{"highway":"service","lanes":"2","lanes:backward":"1","lanes:forward":"1","startNodeId":"6059652632","endNodeId":"6059652631"},"geometry":{"type":"LineString","coordinates":[[103.6875164,1.3566955],[103.6876532,1.3567142]]}},{"type":"Feature","id":"way/644264826-0-9-0","properties":{"highway":"service","lanes":"2","lanes:backward":"1","lanes:forward":"1","startNodeId":"6059652631","endNodeId":"6059652630"},"geometry":{"type":"LineString","coordinates":[[103.6876532,1.3567142],[103.6877498,1.356725]]}},{"type":"Feature","id":"way/652542661-0-1-0","properties":{"highway":"unclassified","lanes":"2","maxspeed":"50","name":"Lorong Danau","startNodeId":"4155420656","endNodeId":"5200293423"},"geometry":{"type":"LineString","coordinates":[[103.6890792,1.3577762],[103.6889411,1.3579307]]}},{"type":"Feature","id":"way/652542661-0-2-0","properties":{"highway":"unclassified","lanes":"2","maxspeed":"50","name":"Lorong Danau","startNodeId":"5200293423","endNodeId":"4155420642"},"geometry":{"type":"LineString","coordinates":[[103.6889411,1.3579307],[103.6887488,1.3580716]]}},{"type":"Feature","id":"way/699869388-0-0-0","properties":{"highway":"residential","lanes":"2","lanes:backward":"1","lanes:forward":"1","maxspeed":"40","name":"Nanyang Crescent","name:zh":"\u5357\u6d0b\u5f2f","turn:lanes:backward":"left;through","startNodeId":"246167937","endNodeId":"13717624167"},"geometry":{"type":"LineString","coordinates":[[103.6862078,1.3559571],[103.6863392,1.3559733]]}},{"type":"Feature","id":"way/699869388-0-1-0","properties":{"highway":"residential","lanes":"2","lanes:backward":"1","lanes:forward":"1","maxspeed":"40","name":"Nanyang Crescent","name:zh":"\u5357\u6d0b\u5f2f","turn:lanes:backward":"left;through","startNodeId":"13717624167","endNodeId":"13717624168"},"geometry":{"type":"LineString","coordinates":[[103.6863392,1.3559733],[103.6864441,1.3559817]]}},{"type":"Feature","id":"way/699869388-0-2-0","properties":{"highway":"residential","lanes":"2","lanes:backward":"1","lanes:forward":"1","maxspeed":"40","name":"Nanyang Crescent","name:zh":"\u5357\u6d0b\u5f2f","turn:lanes:backward":"left;through","startNodeId":"13717624168","endNodeId":"3726031881"},"geometry":{"type":"LineString","coordinates":[[103.6864441,1.3559817],[103.6865066,1.3559864]]}},{"type":"Feature","id":"way/699869389-0-3-0","properties":{"highway":"residential","lanes":"2","lanes:backward":"1","lanes:forward":"1","maxspeed":"40","name":"Nanyang Crescent","name:zh":"\u5357\u6d0b\u5f2f","startNodeId":"4084443739","endNodeId":"13717624191"},"geometry":{"type":"LineString","coordinates":[[103.6856914,1.3558557],[103.6857674,1.3558826]]}},{"type":"Feature","id":"way/699869389-0-4-0","properties":{"highway":"residential","lanes":"2","lanes:backward":"1","lanes:forward":"1","maxspeed":"40","name":"Nanyang Crescent","name:zh":"\u5357\u6d0b\u5f2f","startNodeId":"13717624191","endNodeId":"3726031880"},"geometry":{"type":"LineString","coordinates":[[103.6857674,1.3558826],[103.685836,1.3559037]]}},{"type":"Feature","id":"way/699869389-0-5-0","properties":{"highway":"residential","lanes":"2","lanes:backward":"1","lanes:forward":"1","maxspeed":"40","name":"Nanyang Crescent","name:zh":"\u5357\u6d0b\u5f2f","startNodeId":"3726031880","endNodeId":"6572285656"},"geometry":{"type":"LineString","coordinates":[[103.685836,1.3559037],[103.6859476,1.3559323]]}},{"type":"Feature","id":"way/700119429-0-0-0","properties":{"highway":"residential","lanes":"2","lanes:backward":"1","lanes:forward":"1","maxspeed":"40","name":"Nanyang Crescent","name:zh":"\u5357\u6d0b\u5f2f","turn:lanes:forward":"through;right","startNodeId":"6572285656","endNodeId":"246167937"},"geometry":{"type":"LineString","coordinates":[[103.6859476,1.3559323],[103.6862078,1.3559571]]}},{"type":"Feature","id":"way/712183688-0-0-0","properties":{"highway":"unclassified","lanes":"2","lanes:backward":"1","lanes:forward":"1","maxspeed":"50","name":"Lorong Danau","turn:lanes:backward":"through","turn:lanes:forward":"through","startNodeId":"5200293424","endNodeId":"4155420658"},"geometry":{"type":"LineString","coordinates":[[103.6882431,1.3583469],[103.6880132,1.3584606]]}},{"type":"Feature","id":"way/712183689-0-0-0","properties":{"highway":"unclassified","lanes":"2","lanes:backward":"1","lanes:forward":"1","maxspeed":"50","name":"Lorong Danau","startNodeId":"4155420642","endNodeId":"4155420657"},"geometry":{"type":"LineString","coordinates":[[103.6887488,1.3580716],[103.6884546,1.3582302]]}},{"type":"Feature","id":"way/712183689-0-1-0","properties":{"highway":"unclassified","lanes":"2","lanes:backward":"1","lanes:forward":"1","maxspeed":"50","name":"Lorong Danau","startNodeId":"4155420657","endNodeId":"5200293424"},"geometry":{"type":"LineString","coordinates":[[103.6884546,1.3582302],[103.6882431,1.3583469]]}},{"type":"Feature","id":"way/723389607-0-0-0","properties":{"highway":"residential","lanes":"2","lanes:backward":"1","lanes:forward":"1","maxspeed":"40","name":"Nanyang Crescent","name:zh":"\u5357\u6d0b\u5f2f","startNodeId":"3726031881","endNodeId":"13717624169"},"geometry":{"type":"LineString","coordinates":[[103.6865066,1.3559864],[103.6865964,1.3559847]]}},{"type":"Feature","id":"way/723389607-0-1-0","properties":{"highway":"residential","lanes":"2","lanes:backward":"1","lanes:forward":"1","maxspeed":"40","name":"Nanyang Crescent","name:zh":"\u5357\u6d0b\u5f2f","startNodeId":"13717624169","endNodeId":"4084443742"},"geometry":{"type":"LineString","coordinates":[[103.6865964,1.3559847],[103.6866892,1.3559773]]}},{"type":"Feature","id":"way/723389607-0-2-0","properties":{"highway":"residential","lanes":"2","lanes:backward":"1","lanes:forward":"1","maxspeed":"40","name":"Nanyang Crescent","name:zh":"\u5357\u6d0b\u5f2f","startNodeId":"4084443742","endNodeId":"13717733847"},"geometry":{"type":"LineString","coordinates":[[103.6866892,1.3559773],[103.686734,1.3559728]]}},{"type":"Feature","id":"way/723389607-0-3-0","properties":{"highway":"residential","lanes":"2","lanes:backward":"1","lanes:forward":"1","maxspeed":"40","name":"Nanyang Crescent","name:zh":"\u5357\u6d0b\u5f2f","startNodeId":"13717733847","endNodeId":"246167933"},"geometry":{"type":"LineString","coordinates":[[103.686734,1.3559728],[103.6867853,1.3559676]]}},{"type":"Feature","id":"way/754476132-0-0-0","properties":{"highway":"service","lanes":"1","maxspeed":"40","oneway":"yes","turn:lanes:forward":"through","startNodeId":"246167937","endNodeId":"13717733853"},"geometry":{"type":"LineString","coordinates":[[103.6862078,1.3559571],[103.6862091,1.3559277]]}},{"type":"Feature","id":"way/754476132-0-1-0","properties":{"highway":"service","lanes":"1","maxspeed":"40","oneway":"yes","turn:lanes:forward":"through","startNodeId":"13717733853","endNodeId":"6572285664"},"geometry":{"type":"LineString","coordinates":[[103.6862091,1.3559277],[103.6862102,1.3559031]]}},{"type":"Feature","id":"way/754476132-0-2-0","properties":{"highway":"service","lanes":"1","maxspeed":"40","oneway":"yes","turn:lanes:forward":"through","startNodeId":"6572285664","endNodeId":"6572285663"},"geometry":{"type":"LineString","coordinates":[[103.6862102,1.3559031],[103.6862048,1.3558615]]}},{"type":"Feature","id":"way/754476133-0-1-0","properties":{"highway":"service","lanes":"1","maxspeed":"40","oneway":"yes","sidewalk":"left","turn:lanes:forward":"left;right","startNodeId":"6572285658","endNodeId":"6572285657"},"geometry":{"type":"LineString","coordinates":[[103.6859695,1.3558555],[103.6859614,1.3558823]]}},{"type":"Feature","id":"way/754476133-0-2-0","properties":{"highway":"service","lanes":"1","maxspeed":"40","oneway":"yes","sidewalk":"left","turn:lanes:forward":"left;right","startNodeId":"6572285657","endNodeId":"6572285656"},"geometry":{"type":"LineString","coordinates":[[103.6859614,1.3558823],[103.6859476,1.3559323]]}}]}