{"type":"FeatureCollection","features":[{"type":"Feature","id":"way/454839043-0","properties":{"building":"yes","clearanceGeometry":{"type":"Polygon","coordinates":[[[103.6858606,1.4235722],[103.6855857,1.4235963],[103.6855978,1.4237348],[103.6858728,1.4237107],[103.6858606,1.4235722]]]},"clearanceHeight":1.7,"clearancePrepared":true},"geometry":{"type":"Polygon","coordinates":[[[103.6858728,1.4237107],[103.6858606,1.4235722],[103.6855857,1.4235963],[103.6855978,1.4237348],[103.6858728,1.4237107]]]}},{"type":"Feature","id":"way/830987468-0","properties":{"building":"yes","clearanceGeometry":{"type":"Polygon","coordinates":[[[103.6862743,1.4255975],[103.6862165,1.4255646],[103.6861681,1.4256498],[103.6862259,1.4256826],[103.6862743,1.4255975]]]},"clearanceHeight":1.7,"clearancePrepared":true},"geometry":{"type":"Polygon","coordinates":[[[103.6862259,1.4256826],[103.6862743,1.4255975],[103.6862165,1.4255646],[103.6861681,1.4256498],[103.6862259,1.4256826]]]}}]}