{"type":"FeatureCollection","features":[{"type":"Feature","id":"node/8414145974","properties":{"highway":"crossing"},"geometry":{"type":"Point","coordinates":[103.6875457,1.3741628]}},{"type":"Feature","id":"node/8417176076","properties":{"highway":"crossing"},"geometry":{"type":"Point","coordinates":[103.6874296,1.3741514]}},{"type":"Feature","id":"way/252828176-0-0-0","properties":{"bicycle":"yes","highway":"service","lanes":"2","lanes:backward":"1","lanes:forward":"1","name":"Chinese Cemetery Path 4","surface":"asphalt","startNodeId":"4408974276","endNodeId":"2588503158"},"geometry":{"type":"LineString","coordinates":[[103.6874736,1.3741484],[103.6874181,1.3743825]]}},{"type":"Feature","id":"way/252828176-0-1-0","properties":{"bicycle":"yes","highway":"service","lanes":"2","lanes:backward":"1","lanes:forward":"1","name":"Chinese Cemetery Path 4","surface":"asphalt","startNodeId":"2588503158","endNodeId":"2588503199"},"geometry":{"type":"LineString","coordinates":[[103.6874181,1.3743825],[103.6874413,1.3748193]]}},{"type":"Feature","id":"way/252828176-0-2-0","properties":{"bicycle":"yes","highway":"service","lanes":"2","lanes:backward":"1","lanes:forward":"1","name":"Chinese Cemetery Path 4","surface":"asphalt","startNodeId":"2588503199","endNodeId":"8417176064"},"geometry":{"type":"LineString","coordinates":[[103.6874413,1.3748193],[103.6877047,1.3755476]]}},{"type":"Feature","id":"way/252828176-0-3-0","properties":{"bicycle":"yes","highway":"service","lanes":"2","lanes:backward":"1","lanes:forward":"1","name":"Chinese Cemetery Path 4","surface":"asphalt","startNodeId":"8417176064","endNodeId":"2588503233"},"geometry":{"type":"LineString","coordinates":[[103.6877047,1.3755476],[103.687741,1.375648]]}},{"type":"Feature","id":"way/252828176-0-4-0","properties":{"bicycle":"yes","highway":"service","lanes":"2","lanes:backward":"1","lanes:forward":"1","name":"Chinese Cemetery Path 4","surface":"asphalt","startNodeId":"2588503233","endNodeId":"2588503180"},"geometry":{"type":"LineString","coordinates":[[103.687741,1.375648],[103.6878794,1.3760128]]}},{"type":"Feature","id":"way/252828176-0-5-0","properties":{"bicycle":"yes","highway":"service","lanes":"2","lanes:backward":"1","lanes:forward":"1","name":"Chinese Cemetery Path 4","surface":"asphalt","startNodeId":"2588503180","endNodeId":"4443296597"},"geometry":{"type":"LineString","coordinates":[[103.6878794,1.3760128],[103.688141,1.3773356]]}},{"type":"Feature","id":"way/443283846-0-0-0","properties":{"bicycle":"yes","highway":"service","name":"Cemetery Central Street 12","startNodeId":"9430750187","endNodeId":"2588503213"},"geometry":{"type":"LineString","coordinates":[[103.6877039,1.3741617],[103.68773,1.3741645]]}},{"type":"Feature","id":"way/443283846-0-1-0","properties":{"bicycle":"yes","highway":"service","name":"Cemetery Central Street 12","startNodeId":"2588503213","endNodeId":"4408974278"},"geometry":{"type":"LineString","coordinates":[[103.68773,1.3741645],[103.6877613,1.3741693]]}},{"type":"Feature","id":"way/443283846-0-2-0","properties":{"bicycle":"yes","highway":"service","name":"Cemetery Central Street 12","startNodeId":"4408974278","endNodeId":"7888591241"},"geometry":{"type":"LineString","coordinates":[[103.6877613,1.3741693],[103.6885363,1.3743181]]}},{"type":"Feature","id":"way/443283846-0-3-0","properties":{"bicycle":"yes","highway":"service","name":"Cemetery Central Street 12","startNodeId":"7888591241","endNodeId":"7888591240"},"geometry":{"type":"LineString","coordinates":[[103.6885363,1.3743181],[103.6889523,1.3743987]]}},{"type":"Feature","id":"way/443283846-0-4-0","properties":{"bicycle":"yes","highway":"service","name":"Cemetery Central Street 12","startNodeId":"7888591240","endNodeId":"5215085577"},"geometry":{"type":"LineString","coordinates":[[103.6889523,1.3743987],[103.6891267,1.374459]]}},{"type":"Feature","id":"way/443283850-0-0-0","properties":{"highway":"service","lanes":"1","startNodeId":"4492215949","endNodeId":"8417176076"},"geometry":{"type":"LineString","coordinates":[[103.6873576,1.3741562],[103.6874296,1.3741514]]}},{"type":"Feature","id":"way/443283850-0-1-0","properties":{"highway":"service","lanes":"1","startNodeId":"8417176076","endNodeId":"4408974276"},"geometry":{"type":"LineString","coordinates":[[103.6874296,1.3741514],[103.6874736,1.3741484]]}},{"type":"Feature","id":"way/447143885-0-0-0","properties":{"bicycle":"yes","highway":"service","startNodeId":"4443296597","endNodeId":"8417176065"},"geometry":{"type":"LineString","coordinates":[[103.688141,1.3773356],[103.6882531,1.3773137]]}},{"type":"Feature","id":"way/447143885-0-1-0","properties":{"bicycle":"yes","highway":"service","startNodeId":"8417176065","endNodeId":"way/447143885-0:1:1"},"geometry":{"type":"LineString","coordinates":[[103.6882531,1.3773137],[103.6892429,1.3771203]]}},{"type":"Feature","id":"way/644351047-0-0-0","properties":{"bicycle":"yes","highway":"service","surface":"unpaved","startNodeId":"4408974289","endNodeId":"4438830576"},"geometry":{"type":"LineString","coordinates":[[103.6884934,1.3749731],[103.6885578,1.3750111]]}},{"type":"Feature","id":"way/644351047-0-1-0","properties":{"bicycle":"yes","highway":"service","surface":"unpaved","startNodeId":"4438830576","endNodeId":"4438830577"},"geometry":{"type":"LineString","coordinates":[[103.6885578,1.3750111],[103.6886263,1.3750814]]}},{"type":"Feature","id":"way/644351047-0-2-0","properties":{"bicycle":"yes","highway":"service","surface":"unpaved","startNodeId":"4438830577","endNodeId":"4438830578"},"geometry":{"type":"LineString","coordinates":[[103.6886263,1.3750814],[103.6886443,1.3751384]]}},{"type":"Feature","id":"way/644351047-0-3-0","properties":{"bicycle":"yes","highway":"service","surface":"unpaved","startNodeId":"4438830578","endNodeId":"4438830579"},"geometry":{"type":"LineString","coordinates":[[103.6886443,1.3751384],[103.689854,1.3751941]]}},{"type":"Feature","id":"way/644375533-0-0-0","properties":{"bicycle":"yes","highway":"service","lanes":"1","startNodeId":"4408974276","endNodeId":"8414145974"},"geometry":{"type":"LineString","coordinates":[[103.6874736,1.3741484],[103.6875457,1.3741628]]}},{"type":"Feature","id":"way/644375533-0-1-0","properties":{"bicycle":"yes","highway":"service","lanes":"1","startNodeId":"8414145974","endNodeId":"4408974277"},"geometry":{"type":"LineString","coordinates":[[103.6875457,1.3741628],[103.6876103,1.3741562]]}},{"type":"Feature","id":"way/644375534-0-0-0","properties":{"bicycle":"yes","highway":"service","name":"Chinese Cemetery Path 4","surface":"asphalt","startNodeId":"4443296597","endNodeId":"2588503203"},"geometry":{"type":"LineString","coordinates":[[103.688141,1.3773356],[103.6884347,1.3788203]]}},{"type":"Feature","id":"way/644827530-0-0-0","properties":{"highway":"service","lanes":"2","lanes:backward":"1","lanes:forward":"1","startNodeId":"4492215949","endNodeId":"6490077857"},"geometry":{"type":"LineString","coordinates":[[103.6873576,1.3741562],[103.687328,1.3745865]]}},{"type":"Feature","id":"way/673030528-0-0-0","properties":{"bicycle":"yes","highway":"service","lanes":"2","lanes:backward":"1","lanes:forward":"1","name":"Chinese Cemetery Path 4","surface":"asphalt","turn:lanes:backward":"through","turn:lanes:forward":"left;through","startNodeId":"2588503176","endNodeId":"4408974276"},"geometry":{"type":"LineString","coordinates":[[103.6875191,1.3739934],[103.6874736,1.3741484]]}},{"type":"Feature","id":"way/691602812-0-0-0","properties":{"highway":"service","startNodeId":"6490077848","endNodeId":"6490077847"},"geometry":{"type":"LineString","coordinates":[[103.6874601,1.3755085],[103.6874802,1.3751425]]}},{"type":"Feature","id":"way/691602812-0-1-0","properties":{"highway":"service","startNodeId":"6490077847","endNodeId":"6490077846"},"geometry":{"type":"LineString","coordinates":[[103.6874802,1.3751425],[103.6874709,1.3751076]]}},{"type":"Feature","id":"way/691602812-0-2-0","properties":{"highway":"service","startNodeId":"6490077846","endNodeId":"6490077845"},"geometry":{"type":"LineString","coordinates":[[103.6874709,1.3751076],[103.6874574,1.3750701]]}},{"type":"Feature","id":"way/691602812-0-3-0","properties":{"highway":"service","startNodeId":"6490077845","endNodeId":"6490077844"},"geometry":{"type":"LineString","coordinates":[[103.6874574,1.3750701],[103.687436,1.3750231]]}},{"type":"Feature","id":"way/691602812-0-4-0","properties":{"highway":"service","startNodeId":"6490077844","endNodeId":"6490077843"},"geometry":{"type":"LineString","coordinates":[[103.687436,1.3750231],[103.6874011,1.3750071]]}},{"type":"Feature","id":"way/691602812-0-5-0","properties":{"highway":"service","startNodeId":"6490077843","endNodeId":"6490077842"},"geometry":{"type":"LineString","coordinates":[[103.6874011,1.3750071],[103.6872995,1.3750019]]}},{"type":"Feature","id":"way/691602813-0-0-0","properties":{"highway":"service","startNodeId":"6490077842","endNodeId":"4492215950"},"geometry":{"type":"LineString","coordinates":[[103.6872995,1.3750019],[103.6872623,1.3755434]]}},{"type":"Feature","id":"way/691602813-0-1-0","properties":{"highway":"service","startNodeId":"4492215950","endNodeId":"6490077841"},"geometry":{"type":"LineString","coordinates":[[103.6872623,1.3755434],[103.6872549,1.3755769]]}},{"type":"Feature","id":"way/691602813-0-2-0","properties":{"highway":"service","startNodeId":"6490077841","endNodeId":"6490077840"},"geometry":{"type":"LineString","coordinates":[[103.6872549,1.3755769],[103.6872295,1.375609]]}},{"type":"Feature","id":"way/691602813-0-3-0","properties":{"highway":"service","startNodeId":"6490077840","endNodeId":"6490077839"},"geometry":{"type":"LineString","coordinates":[[103.6872295,1.375609],[103.6871758,1.3756251]]}},{"type":"Feature","id":"way/691602813-0-4-0","properties":{"highway":"service","startNodeId":"6490077839","endNodeId":"6490077838"},"geometry":{"type":"LineString","coordinates":[[103.6871758,1.3756251],[103.6870618,1.3756184]]}},{"type":"Feature","id":"way/691602813-0-5-0","properties":{"highway":"service","startNodeId":"6490077838","endNodeId":"6490077837"},"geometry":{"type":"LineString","coordinates":[[103.6870618,1.3756184],[103.6869961,1.3756117]]}},{"type":"Feature","id":"way/691602813-0-6-0","properties":{"highway":"service","startNodeId":"6490077837","endNodeId":"6490077836"},"geometry":{"type":"LineString","coordinates":[[103.6869961,1.3756117],[103.6868191,1.3755809]]}},{"type":"Feature","id":"way/691602813-0-7-0","properties":{"highway":"service","startNodeId":"6490077836","endNodeId":"6490077835"},"geometry":{"type":"LineString","coordinates":[[103.6868191,1.3755809],[103.6866528,1.3755353]]}},{"type":"Feature","id":"way/691602813-0-8-0","properties":{"highway":"service","startNodeId":"6490077835","endNodeId":"6490077834"},"geometry":{"type":"LineString","coordinates":[[103.6866528,1.3755353],[103.6864597,1.3754642]]}},{"type":"Feature","id":"way/691602813-0-9-0","properties":{"highway":"service","startNodeId":"6490077834","endNodeId":"6639610965"},"geometry":{"type":"LineString","coordinates":[[103.6864597,1.3754642],[103.6863027,1.3753503]]}},{"type":"Feature","id":"way/691602813-0-10-0","properties":{"highway":"service","startNodeId":"6639610965","endNodeId":"6639610964"},"geometry":{"type":"LineString","coordinates":[[103.6863027,1.3753503],[103.6860533,1.375109]]}},{"type":"Feature","id":"way/691602813-0-11-0","properties":{"highway":"service","startNodeId":"6639610964","endNodeId":"6639610963"},"geometry":{"type":"LineString","coordinates":[[103.6860533,1.375109],[103.6859044,1.3748368]]}},{"type":"Feature","id":"way/691602813-0-12-0","properties":{"highway":"service","startNodeId":"6639610963","endNodeId":"6639610962"},"geometry":{"type":"LineString","coordinates":[[103.6859044,1.3748368],[103.6858642,1.3747108]]}},{"type":"Feature","id":"way/691602813-0-13-0","properties":{"highway":"service","startNodeId":"6639610962","endNodeId":"6639610961"},"geometry":{"type":"LineString","coordinates":[[103.6858642,1.3747108],[103.6858374,1.3745445]]}},{"type":"Feature","id":"way/691602813-0-14-0","properties":{"highway":"service","startNodeId":"6639610961","endNodeId":"6639610960"},"geometry":{"type":"LineString","coordinates":[[103.6858374,1.3745445],[103.685828,1.3743635]]}},{"type":"Feature","id":"way/691602813-0-15-0","properties":{"highway":"service","startNodeId":"6639610960","endNodeId":"6639610959"},"geometry":{"type":"LineString","coordinates":[[103.685828,1.3743635],[103.6858414,1.3741758]]}},{"type":"Feature","id":"way/691602813-0-16-0","properties":{"highway":"service","startNodeId":"6639610959","endNodeId":"6639610958"},"geometry":{"type":"LineString","coordinates":[[103.6858414,1.3741758],[103.6859138,1.3739204]]}},{"type":"Feature","id":"way/691602814-0-0-0","properties":{"highway":"service","oneway":"yes","startNodeId":"4492215949","endNodeId":"6490077849"},"geometry":{"type":"LineString","coordinates":[[103.6873576,1.3741562],[103.6872603,1.3741557]]}},{"type":"Feature","id":"way/691602814-0-1-0","properties":{"highway":"service","oneway":"yes","startNodeId":"6490077849","endNodeId":"6490077850"},"geometry":{"type":"LineString","coordinates":[[103.6872603,1.3741557],[103.6872429,1.3741651]]}},{"type":"Feature","id":"way/691602814-0-2-0","properties":{"highway":"service","oneway":"yes","startNodeId":"6490077850","endNodeId":"6490077851"},"geometry":{"type":"LineString","coordinates":[[103.6872429,1.3741651],[103.6872295,1.3741745]]}},{"type":"Feature","id":"way/691602814-0-3-0","properties":{"highway":"service","oneway":"yes","startNodeId":"6490077851","endNodeId":"6490077852"},"geometry":{"type":"LineString","coordinates":[[103.6872295,1.3741745],[103.6872187,1.3741906]]}},{"type":"Feature","id":"way/691602814-0-4-0","properties":{"highway":"service","oneway":"yes","startNodeId":"6490077852","endNodeId":"6490077853"},"geometry":{"type":"LineString","coordinates":[[103.6872187,1.3741906],[103.6872026,1.3745378]]}},{"type":"Feature","id":"way/691602814-0-5-0","properties":{"highway":"service","oneway":"yes","startNodeId":"6490077853","endNodeId":"6490077854"},"geometry":{"type":"LineString","coordinates":[[103.6872026,1.3745378],[103.6872093,1.3745539]]}},{"type":"Feature","id":"way/691602814-0-6-0","properties":{"highway":"service","oneway":"yes","startNodeId":"6490077854","endNodeId":"6490077855"},"geometry":{"type":"LineString","coordinates":[[103.6872093,1.3745539],[103.6872241,1.3745673]]}},{"type":"Feature","id":"way/691602814-0-7-0","properties":{"highway":"service","oneway":"yes","startNodeId":"6490077855","endNodeId":"6490077856"},"geometry":{"type":"LineString","coordinates":[[103.6872241,1.3745673],[103.6872509,1.374578]]}},{"type":"Feature","id":"way/691602814-0-8-0","properties":{"highway":"service","oneway":"yes","startNodeId":"6490077856","endNodeId":"6490077857"},"geometry":{"type":"LineString","coordinates":[[103.6872509,1.374578],[103.687328,1.3745865]]}},{"type":"Feature","id":"way/696946190-0-0-0","properties":{"highway":"service","lanes":"1","oneway":"yes","turn:lanes":"through","startNodeId":"4492215949","endNodeId":"6490077858"},"geometry":{"type":"LineString","coordinates":[[103.6873576,1.3741562],[103.687381,1.3738137]]}},{"type":"Feature","id":"way/730980048-0-0-0","properties":{"highway":"service","startNodeId":"6490077857","endNodeId":"6490077842"},"geometry":{"type":"LineString","coordinates":[[103.687328,1.3745865],[103.6872995,1.3750019]]}},{"type":"Feature","id":"way/753788787-0-0-0","properties":{"bicycle":"yes","highway":"service","surface":"unpaved","startNodeId":"4408974289","endNodeId":"7042675858"},"geometry":{"type":"LineString","coordinates":[[103.6884934,1.3749731],[103.6884252,1.3749992]]}},{"type":"Feature","id":"way/753788787-0-1-0","properties":{"bicycle":"yes","highway":"service","surface":"unpaved","startNodeId":"7042675858","endNodeId":"7042675859"},"geometry":{"type":"LineString","coordinates":[[103.6884252,1.3749992],[103.6883699,1.3750932]]}},{"type":"Feature","id":"way/753788787-0-2-0","properties":{"bicycle":"yes","highway":"service","surface":"unpaved","startNodeId":"7042675859","endNodeId":"7042675860"},"geometry":{"type":"LineString","coordinates":[[103.6883699,1.3750932],[103.688384,1.3752013]]}},{"type":"Feature","id":"way/753788787-0-3-0","properties":{"bicycle":"yes","highway":"service","surface":"unpaved","startNodeId":"7042675860","endNodeId":"7042675861"},"geometry":{"type":"LineString","coordinates":[[103.688384,1.3752013],[103.6884665,1.375249]]}},{"type":"Feature","id":"way/753788787-0-4-0","properties":{"bicycle":"yes","highway":"service","surface":"unpaved","startNodeId":"7042675861","endNodeId":"7042675862"},"geometry":{"type":"LineString","coordinates":[[103.6884665,1.375249],[103.6885669,1.3752258]]}},{"type":"Feature","id":"way/753788787-0-5-0","properties":{"bicycle":"yes","highway":"service","surface":"unpaved","startNodeId":"7042675862","endNodeId":"7042675863"},"geometry":{"type":"LineString","coordinates":[[103.6885669,1.3752258],[103.6886313,1.3751563]]}},{"type":"Feature","id":"way/753788787-0-6-0","properties":{"bicycle":"yes","highway":"service","surface":"unpaved","startNodeId":"7042675863","endNodeId":"4438830578"},"geometry":{"type":"LineString","coordinates":[[103.6886313,1.3751563],[103.6886443,1.3751384]]}},{"type":"Feature","id":"way/845538517-0-0-0","properties":{"bicycle":"yes","highway":"service","lanes":"2","lanes:backward":"1","lanes:forward":"1","turn:lanes:backward":"through","turn:lanes:forward":"through","startNodeId":"5215085577","endNodeId":"5215085573"},"geometry":{"type":"LineString","coordinates":[[103.6891267,1.374459],[103.6891837,1.3742799]]}},{"type":"Feature","id":"way/845538517-0-1-0","properties":{"bicycle":"yes","highway":"service","lanes":"2","lanes:backward":"1","lanes:forward":"1","turn:lanes:backward":"through","turn:lanes:forward":"through","startNodeId":"5215085573","endNodeId":"4438763371"},"geometry":{"type":"LineString","coordinates":[[103.6891837,1.3742799],[103.6893292,1.373823]]}},{"type":"Feature","id":"way/845538519-0-0-0","properties":{"bicycle":"yes","highway":"service","surface":"unpaved","startNodeId":"4408974289","endNodeId":"7888591241"},"geometry":{"type":"LineString","coordinates":[[103.6884934,1.3749731],[103.6885363,1.3743181]]}},{"type":"Feature","id":"way/1022550858-0-0-0","properties":{"bicycle":"yes","bridge":"yes","highway":"service","layer":"1","name":"Cemetery Central Street 12","startNodeId":"4408974277","endNodeId":"9430750187"},"geometry":{"type":"LineString","coordinates":[[103.6876103,1.3741562],[103.6877039,1.3741617]]}},{"type":"Feature","id":"way/1378942394-0-1-1","properties":{"highway":"primary","lanes":"2","name":"Lim Chu Kang Road","name:ta":"\u0bb2\u0bbf\u0bae\u0bcd \u0b9a\u0bc1 \u0b95\u0bbe\u0b99\u0bcd \u0bb0\u0bcb\u0b9f\u0bcd\u0b9f\u0bc8","name:zh":"\u6797\u539d\u6e2f\u8def","oneway":"yes","startNodeId":"way/1378942394-0:1:1","endNodeId":"12768893355"},"geometry":{"type":"LineString","coordinates":[[103.6848241,1.3788715],[103.6850466,1.3775196]]}},{"type":"Feature","id":"way/1378942394-0-2-0","properties":{"highway":"primary","lanes":"2","name":"Lim Chu Kang Road","name:ta":"\u0bb2\u0bbf\u0bae\u0bcd \u0b9a\u0bc1 \u0b95\u0bbe\u0b99\u0bcd \u0bb0\u0bcb\u0b9f\u0bcd\u0b9f\u0bc8","name:zh":"\u6797\u539d\u6e2f\u8def","oneway":"yes","startNodeId":"12768893355","endNodeId":"12768893358"},"geometry":{"type":"LineString","coordinates":[[103.6850466,1.3775196],[103.6851253,1.3770347]]}},{"type":"Feature","id":"way/1378942394-0-3-0","properties":{"highway":"primary","lanes":"2","name":"Lim Chu Kang Road","name:ta":"\u0bb2\u0bbf\u0bae\u0bcd \u0b9a\u0bc1 \u0b95\u0bbe\u0b99\u0bcd \u0bb0\u0bcb\u0b9f\u0bcd\u0b9f\u0bc8","name:zh":"\u6797\u539d\u6e2f\u8def","oneway":"yes","startNodeId":"12768893358","endNodeId":"12768893357"},"geometry":{"type":"LineString","coordinates":[[103.6851253,1.3770347],[103.6852828,1.3760607]]}},{"type":"Feature","id":"way/1389720790-0-3-0","properties":{"highway":"primary","lanes":"2","name":"Lim Chu Kang Road","name:ta":"\u0bb2\u0bbf\u0bae\u0bcd \u0b9a\u0bc1 \u0b95\u0bbe\u0b99\u0bcd \u0bb0\u0bcb\u0b9f\u0bcd\u0b9f\u0bc8","name:zh":"\u6797\u539d\u6e2f\u8def","oneway":"yes","startNodeId":"9806604996","endNodeId":"12768893363"},"geometry":{"type":"LineString","coordinates":[[103.6853237,1.3736379],[103.6853384,1.3744128]]}},{"type":"Feature","id":"way/1389720790-0-4-0","properties":{"highway":"primary","lanes":"2","name":"Lim Chu Kang Road","name:ta":"\u0bb2\u0bbf\u0bae\u0bcd \u0b9a\u0bc1 \u0b95\u0bbe\u0b99\u0bcd \u0bb0\u0bcb\u0b9f\u0bcd\u0b9f\u0bc8","name:zh":"\u6797\u539d\u6e2f\u8def","oneway":"yes","startNodeId":"12768893363","endNodeId":"12768893360"},"geometry":{"type":"LineString","coordinates":[[103.6853384,1.3744128],[103.6853174,1.374735]]}},{"type":"Feature","id":"way/1389720790-0-5-0","properties":{"highway":"primary","lanes":"2","name":"Lim Chu Kang Road","name:ta":"\u0bb2\u0bbf\u0bae\u0bcd \u0b9a\u0bc1 \u0b95\u0bbe\u0b99\u0bcd \u0bb0\u0bcb\u0b9f\u0bcd\u0b9f\u0bc8","name:zh":"\u6797\u539d\u6e2f\u8def","oneway":"yes","startNodeId":"12768893360","endNodeId":"9806604997"},"geometry":{"type":"LineString","coordinates":[[103.6853174,1.374735],[103.6852509,1.3753884]]}},{"type":"Feature","id":"way/1389720790-0-6-0","properties":{"highway":"primary","lanes":"2","name":"Lim Chu Kang Road","name:ta":"\u0bb2\u0bbf\u0bae\u0bcd \u0b9a\u0bc1 \u0b95\u0bbe\u0b99\u0bcd \u0bb0\u0bcb\u0b9f\u0bcd\u0b9f\u0bc8","name:zh":"\u6797\u539d\u6e2f\u8def","oneway":"yes","startNodeId":"9806604997","endNodeId":"12863996437"},"geometry":{"type":"LineString","coordinates":[[103.6852509,1.3753884],[103.6851938,1.3758238]]}},{"type":"Feature","id":"way/1389720790-0-7-0","properties":{"highway":"primary","lanes":"2","name":"Lim Chu Kang Road","name:ta":"\u0bb2\u0bbf\u0bae\u0bcd \u0b9a\u0bc1 \u0b95\u0bbe\u0b99\u0bcd \u0bb0\u0bcb\u0b9f\u0bcd\u0b9f\u0bc8","name:zh":"\u6797\u539d\u6e2f\u8def","oneway":"yes","startNodeId":"12863996437","endNodeId":"12768893356"},"geometry":{"type":"LineString","coordinates":[[103.6851938,1.3758238],[103.6851758,1.3759622]]}},{"type":"Feature","id":"way/1389720791-0-0-0","properties":{"bridge":"yes","highway":"primary","lanes":"2","layer":"1","name":"Lim Chu Kang Road","name:ta":"\u0bb2\u0bbf\u0bae\u0bcd \u0b9a\u0bc1 \u0b95\u0bbe\u0b99\u0bcd \u0bb0\u0bcb\u0b9f\u0bcd\u0b9f\u0bc8","name:zh":"\u6797\u539d\u6e2f\u8def","oneway":"yes","startNodeId":"12768893356","endNodeId":"12863996430"},"geometry":{"type":"LineString","coordinates":[[103.6851758,1.3759622],[103.6851307,1.3762846]]}},{"type":"Feature","id":"way/1389720796-0-0-0","properties":{"highway":"primary","lanes":"2","name":"Lim Chu Kang Road","name:ta":"\u0bb2\u0bbf\u0bae\u0bcd \u0b9a\u0bc1 \u0b95\u0bbe\u0b99\u0bcd \u0bb0\u0bcb\u0b9f\u0bcd\u0b9f\u0bc8","name:zh":"\u6797\u539d\u6e2f\u8def","oneway":"yes","startNodeId":"12863996430","endNodeId":"12768893359"},"geometry":{"type":"LineString","coordinates":[[103.6851307,1.3762846],[103.685076,1.3766695]]}},{"type":"Feature","id":"way/1389720796-0-1-0","properties":{"highway":"primary","lanes":"2","name":"Lim Chu Kang Road","name:ta":"\u0bb2\u0bbf\u0bae\u0bcd \u0b9a\u0bc1 \u0b95\u0bbe\u0b99\u0bcd \u0bb0\u0bcb\u0b9f\u0bcd\u0b9f\u0bc8","name:zh":"\u6797\u539d\u6e2f\u8def","oneway":"yes","startNodeId":"12768893359","endNodeId":"9806604998"},"geometry":{"type":"LineString","coordinates":[[103.685076,1.3766695],[103.6849632,1.3774947]]}},{"type":"Feature","id":"way/1389720796-0-2-0","properties":{"highway":"primary","lanes":"2","name":"Lim Chu Kang Road","name:ta":"\u0bb2\u0bbf\u0bae\u0bcd \u0b9a\u0bc1 \u0b95\u0bbe\u0b99\u0bcd \u0bb0\u0bcb\u0b9f\u0bcd\u0b9f\u0bc8","name:zh":"\u6797\u539d\u6e2f\u8def","oneway":"yes","startNodeId":"9806604998","endNodeId":"way/1389720796-0:2:1"},"geometry":{"type":"LineString","coordinates":[[103.6849632,1.3774947],[103.6847403,1.3788548]]}},{"type":"Feature","id":"way/1389720800-0-0-0","properties":{"highway":"primary","lanes":"2","name":"Lim Chu Kang Road","name:ta":"\u0bb2\u0bbf\u0bae\u0bcd \u0b9a\u0bc1 \u0b95\u0bbe\u0b99\u0bcd \u0bb0\u0bcb\u0b9f\u0bcd\u0b9f\u0bc8","name:zh":"\u6797\u539d\u6e2f\u8def","oneway":"yes","startNodeId":"12863996436","endNodeId":"9806650154"},"geometry":{"type":"LineString","coordinates":[[103.6853303,1.3756767],[103.6853648,1.3753982]]}},{"type":"Feature","id":"way/1389720800-0-1-0","properties":{"highway":"primary","lanes":"2","name":"Lim Chu Kang Road","name:ta":"\u0bb2\u0bbf\u0bae\u0bcd \u0b9a\u0bc1 \u0b95\u0bbe\u0b99\u0bcd \u0bb0\u0bcb\u0b9f\u0bcd\u0b9f\u0bc8","name:zh":"\u6797\u539d\u6e2f\u8def","oneway":"yes","startNodeId":"9806650154","endNodeId":"12768893361"},"geometry":{"type":"LineString","coordinates":[[103.6853648,1.3753982],[103.6854161,1.3747424]]}},{"type":"Feature","id":"way/1389720800-0-2-0","properties":{"highway":"primary","lanes":"2","name":"Lim Chu Kang Road","name:ta":"\u0bb2\u0bbf\u0bae\u0bcd \u0b9a\u0bc1 \u0b95\u0bbe\u0b99\u0bcd \u0bb0\u0bcb\u0b9f\u0bcd\u0b9f\u0bc8","name:zh":"\u6797\u539d\u6e2f\u8def","oneway":"yes","startNodeId":"12768893361","endNodeId":"12768893362"},"geometry":{"type":"LineString","coordinates":[[103.6854161,1.3747424],[103.6854245,1.3744086]]}},{"type":"Feature","id":"way/1389720800-0-3-0","properties":{"highway":"primary","lanes":"2","name":"Lim Chu Kang Road","name:ta":"\u0bb2\u0bbf\u0bae\u0bcd \u0b9a\u0bc1 \u0b95\u0bbe\u0b99\u0bcd \u0bb0\u0bcb\u0b9f\u0bcd\u0b9f\u0bc8","name:zh":"\u6797\u539d\u6e2f\u8def","oneway":"yes","startNodeId":"12768893362","endNodeId":"9806650155"},"geometry":{"type":"LineString","coordinates":[[103.6854245,1.3744086],[103.6854068,1.3736442]]}},{"type":"Feature","id":"way/1389720801-0-0-0","properties":{"bridge":"yes","highway":"primary","lanes":"2","layer":"1","name":"Lim Chu Kang Road","name:ta":"\u0bb2\u0bbf\u0bae\u0bcd \u0b9a\u0bc1 \u0b95\u0bbe\u0b99\u0bcd \u0bb0\u0bcb\u0b9f\u0bcd\u0b9f\u0bc8","name:zh":"\u6797\u539d\u6e2f\u8def","oneway":"yes","startNodeId":"12768893357","endNodeId":"12863996436"},"geometry":{"type":"LineString","coordinates":[[103.6852828,1.3760607],[103.6853303,1.3756767]]}}]}