{"type":"FeatureCollection","features":[{"type":"Feature","id":"way/621391810-0","properties":{"building":"storage_tank","man_made":"storage_tank"},"geometry":{"type":"Polygon","coordinates":[[[103.6868915,1.289435],[103.6868893,1.2894617],[103.6868909,1.2894883],[103.6868963,1.2895145],[103.6869054,1.2895396],[103.6869179,1.2895632],[103.6869337,1.2895847],[103.6869524,1.2896038],[103.6869736,1.2896201],[103.6869969,1.2896331],[103.6870218,1.2896427],[103.6870479,1.2896487],[103.6870745,1.2896509],[103.6871012,1.2896493],[103.6871274,1.2896439],[103.6871525,1.2896348],[103.6871761,1.2896223],[103.6871976,1.2896065],[103.6872167,1.2895878],[103.687233,1.2895666],[103.687246,1.2895433],[103.6872557,1.2895184],[103.6872616,1.2894924],[103.6872638,1.2894658],[103.6872622,1.2894391],[103.6872568,1.2894129],[103.6872478,1.2893878],[103.6872352,1.2893642],[103.6872194,1.2893427],[103.6872007,1.2893236],[103.6871795,1.2893073],[103.6871562,1.2892943],[103.6871313,1.2892847],[103.6871052,1.2892787],[103.6870786,1.2892765],[103.6870519,1.2892781],[103.6870258,1.2892835],[103.6870006,1.2892926],[103.6869771,1.2893051],[103.6869555,1.2893209],[103.6869364,1.2893396],[103.6869201,1.2893608],[103.6869071,1.2893841],[103.6868975,1.289409],[103.6868915,1.289435]]]}},{"type":"Feature","id":"way/621391811-0","properties":{"building":"storage_tank","man_made":"storage_tank"},"geometry":{"type":"Polygon","coordinates":[[[103.6878008,1.2898708],[103.6877986,1.2898974],[103.6878002,1.2899241],[103.6878056,1.2899502],[103.6878147,1.2899754],[103.6878272,1.2899989],[103.687843,1.2900205],[103.6878617,1.2900396],[103.6878829,1.2900558],[103.6879062,1.2900689],[103.6879311,1.2900785],[103.6879572,1.2900845],[103.6879838,1.2900867],[103.6880105,1.290085],[103.6880366,1.2900797],[103.6880618,1.2900706],[103.6880853,1.290058],[103.6881069,1.2900423],[103.688126,1.2900236],[103.6881423,1.2900024],[103.6881553,1.2899791],[103.6881649,1.2899542],[103.6881709,1.2899281],[103.6881731,1.2899015],[103.6881715,1.2898748],[103.6881661,1.2898487],[103.688157,1.2898235],[103.6881445,1.2898],[103.6881287,1.2897784],[103.68811,1.2897593],[103.6880888,1.2897431],[103.6880655,1.28973],[103.6880406,1.2897204],[103.6880145,1.2897144],[103.6879879,1.2897122],[103.6879612,1.2897139],[103.687935,1.2897193],[103.6879099,1.2897283],[103.6878863,1.2897409],[103.6878648,1.2897566],[103.6878457,1.2897753],[103.6878294,1.2897965],[103.6878164,1.2898198],[103.6878067,1.2898447],[103.6878008,1.2898708]]]}},{"type":"Feature","id":"way/621391812-0","properties":{"building":"storage_tank","man_made":"storage_tank"},"geometry":{"type":"Polygon","coordinates":[[[103.6888455,1.2898963],[103.6888433,1.2899229],[103.6888449,1.2899495],[103.6888503,1.2899757],[103.6888594,1.2900008],[103.6888719,1.2900244],[103.6888877,1.290046],[103.6889064,1.2900651],[103.6889276,1.2900813],[103.6889509,1.2900944],[103.6889758,1.290104],[103.6890019,1.2901099],[103.6890285,1.2901121],[103.6890552,1.2901105],[103.6890813,1.2901051],[103.6891065,1.2900961],[103.6891301,1.2900835],[103.6891516,1.2900678],[103.6891707,1.2900491],[103.689187,1.2900279],[103.6892,1.2900046],[103.6892096,1.2899796],[103.6892156,1.2899536],[103.6892178,1.289927],[103.6892162,1.2899003],[103.6892108,1.2898742],[103.6892017,1.289849],[103.6891892,1.2898254],[103.6891734,1.2898039],[103.6891547,1.2897848],[103.6891335,1.2897685],[103.6891102,1.2897555],[103.6890853,1.2897459],[103.6890592,1.2897399],[103.6890326,1.2897377],[103.6890059,1.2897393],[103.6889798,1.2897447],[103.6889546,1.2897538],[103.688931,1.2897663],[103.6889095,1.2897821],[103.6888904,1.2898008],[103.6888741,1.289822],[103.6888611,1.2898453],[103.6888515,1.2898702],[103.6888455,1.2898963]]]}},{"type":"Feature","id":"way/621391813-0","properties":{"building":"storage_tank","man_made":"storage_tank"},"geometry":{"type":"Polygon","coordinates":[[[103.6886121,1.2892192],[103.68861,1.2892458],[103.6886116,1.2892725],[103.688617,1.2892986],[103.688626,1.2893237],[103.6886386,1.2893473],[103.6886543,1.2893689],[103.688673,1.289388],[103.6886942,1.2894042],[103.6887176,1.2894173],[103.6887425,1.2894269],[103.6887685,1.2894329],[103.6887952,1.289435],[103.6888218,1.2894334],[103.688848,1.289428],[103.6888731,1.289419],[103.6888967,1.2894064],[103.6889183,1.2893907],[103.6889374,1.289372],[103.6889536,1.2893508],[103.6889667,1.2893275],[103.6889763,1.2893025],[103.6889823,1.2892765],[103.6889845,1.2892499],[103.6889828,1.2892232],[103.6889775,1.2891971],[103.6889684,1.2891719],[103.6889558,1.2891484],[103.6889401,1.2891268],[103.6889214,1.2891077],[103.6889002,1.2890915],[103.6888769,1.2890784],[103.6888519,1.2890688],[103.6888259,1.2890628],[103.6887993,1.2890606],[103.6887726,1.2890622],[103.6887464,1.2890676],[103.6887213,1.2890767],[103.6886977,1.2890892],[103.6886761,1.289105],[103.688657,1.2891237],[103.6886408,1.2891449],[103.6886277,1.2891682],[103.6886181,1.2891931],[103.6886121,1.2892192]]]}},{"type":"Feature","id":"way/621391814-0","properties":{"building":"storage_tank","man_made":"storage_tank"},"geometry":{"type":"Polygon","coordinates":[[[103.6878397,1.2890623],[103.6878375,1.2890889],[103.6878391,1.2891156],[103.6878445,1.2891417],[103.6878535,1.2891669],[103.6878661,1.2891905],[103.6878819,1.289212],[103.6879006,1.2892311],[103.6879218,1.2892474],[103.6879451,1.2892604],[103.68797,1.28927],[103.687996,1.289276],[103.6880227,1.2892782],[103.6880493,1.2892766],[103.6880755,1.2892712],[103.6881007,1.2892621],[103.6881242,1.2892496],[103.6881458,1.2892338],[103.6881649,1.2892151],[103.6881811,1.2891939],[103.6881942,1.2891706],[103.6882038,1.2891457],[103.6882098,1.2891196],[103.688212,1.289093],[103.6882104,1.2890664],[103.688205,1.2890402],[103.6881959,1.2890151],[103.6881834,1.2889915],[103.6881676,1.2889699],[103.6881489,1.2889508],[103.6881277,1.2889346],[103.6881044,1.2889215],[103.6880795,1.2889119],[103.6880534,1.288906],[103.6880268,1.2889038],[103.6880001,1.2889054],[103.6879739,1.2889108],[103.6879488,1.2889198],[103.6879252,1.2889324],[103.6879037,1.2889481],[103.6878846,1.2889668],[103.6878683,1.288988],[103.6878552,1.2890113],[103.6878456,1.2890363],[103.6878397,1.2890623]]]}},{"type":"Feature","id":"way/621391815-0","properties":{"building":"storage_tank","man_made":"storage_tank"},"geometry":{"type":"Polygon","coordinates":[[[103.6871812,1.2888009],[103.687179,1.2888275],[103.6871806,1.2888541],[103.687186,1.2888803],[103.6871951,1.2889054],[103.6872076,1.288929],[103.6872234,1.2889506],[103.6872421,1.2889697],[103.6872633,1.2889859],[103.6872866,1.288999],[103.6873115,1.2890086],[103.6873376,1.2890145],[103.6873642,1.2890167],[103.6873909,1.2890151],[103.687417,1.2890097],[103.6874422,1.2890007],[103.6874658,1.2889881],[103.6874873,1.2889723],[103.6875064,1.2889537],[103.6875227,1.2889325],[103.6875357,1.2889092],[103.6875453,1.2888842],[103.6875513,1.2888582],[103.6875535,1.2888316],[103.6875519,1.2888049],[103.6875465,1.2887787],[103.6875374,1.2887536],[103.6875249,1.28873],[103.6875091,1.2887085],[103.6874904,1.2886894],[103.6874692,1.2886731],[103.6874459,1.2886601],[103.687421,1.2886505],[103.6873949,1.2886445],[103.6873683,1.2886423],[103.6873416,1.2886439],[103.6873155,1.2886493],[103.6872903,1.2886584],[103.6872667,1.2886709],[103.6872452,1.2886867],[103.6872261,1.2887054],[103.6872098,1.2887266],[103.6871968,1.2887499],[103.6871872,1.2887748],[103.6871812,1.2888009]]]}},{"type":"Feature","id":"way/621391816-0","properties":{"building":"storage_tank","man_made":"storage_tank"},"geometry":{"type":"Polygon","coordinates":[[[103.6866434,1.2884643],[103.6866412,1.2884909],[103.6866428,1.2885176],[103.6866482,1.2885438],[103.6866573,1.2885689],[103.6866698,1.2885925],[103.6866856,1.288614],[103.6867043,1.2886331],[103.6867255,1.2886494],[103.6867488,1.2886624],[103.6867737,1.288672],[103.6867998,1.288678],[103.6868264,1.2886802],[103.6868531,1.2886786],[103.6868793,1.2886732],[103.6869044,1.2886641],[103.686928,1.2886516],[103.6869495,1.2886358],[103.6869686,1.2886171],[103.6869849,1.2885959],[103.6869979,1.2885726],[103.6870076,1.2885477],[103.6870135,1.2885217],[103.6870157,1.288495],[103.6870141,1.2884684],[103.6870087,1.2884422],[103.6869996,1.2884171],[103.6869871,1.2883935],[103.6869713,1.2883719],[103.6869526,1.2883529],[103.6869314,1.2883366],[103.6869081,1.2883236],[103.6868832,1.2883139],[103.6868571,1.288308],[103.6868305,1.2883058],[103.6868038,1.2883074],[103.6867777,1.2883128],[103.6867525,1.2883218],[103.686729,1.2883344],[103.6867074,1.2883502],[103.6866883,1.2883688],[103.686672,1.2883901],[103.686659,1.2884134],[103.6866494,1.2884383],[103.6866434,1.2884643]]]}},{"type":"Feature","id":"way/621391817-0","properties":{"building":"storage_tank","man_made":"storage_tank"},"geometry":{"type":"Polygon","coordinates":[[[103.6865345,1.289017],[103.6865323,1.2890436],[103.6865339,1.2890703],[103.6865393,1.2890964],[103.6865484,1.2891216],[103.6865609,1.2891451],[103.6865767,1.2891667],[103.6865954,1.2891858],[103.6866166,1.289202],[103.6866399,1.2892151],[103.6866648,1.2892247],[103.6866909,1.2892307],[103.6867175,1.2892329],[103.6867442,1.2892312],[103.6867703,1.2892258],[103.6867955,1.2892168],[103.6868191,1.2892042],[103.6868406,1.2891885],[103.6868597,1.2891698],[103.686876,1.2891486],[103.686889,1.2891253],[103.6868986,1.2891004],[103.6869046,1.2890743],[103.6869068,1.2890477],[103.6869052,1.289021],[103.6868998,1.2889949],[103.6868907,1.2889697],[103.6868782,1.2889462],[103.6868624,1.2889246],[103.6868437,1.2889055],[103.6868225,1.2888893],[103.6867992,1.2888762],[103.6867743,1.2888666],[103.6867482,1.2888606],[103.6867216,1.2888584],[103.6866949,1.2888601],[103.6866688,1.2888654],[103.6866436,1.2888745],[103.68662,1.2888871],[103.6865985,1.2889028],[103.6865794,1.2889215],[103.6865631,1.2889427],[103.6865501,1.288966],[103.6865405,1.2889909],[103.6865345,1.289017]]]}},{"type":"Feature","id":"way/621391818-0","properties":{"building":"storage_tank","man_made":"storage_tank"},"geometry":{"type":"Polygon","coordinates":[[[103.6856878,1.2886986],[103.685687,1.2887206],[103.6856898,1.2887425],[103.685696,1.2887636],[103.6857056,1.2887835],[103.6857182,1.2888016],[103.6857336,1.2888174],[103.6857513,1.2888306],[103.6857708,1.2888407],[103.6857918,1.2888476],[103.6858136,1.288851],[103.6858356,1.2888509],[103.6858574,1.2888473],[103.6858783,1.2888402],[103.6858978,1.2888299],[103.6859153,1.2888165],[103.6859305,1.2888006],[103.685943,1.2887823],[103.6859523,1.2887624],[103.6859584,1.2887412],[103.6859609,1.2887193],[103.6859599,1.2886972],[103.6859554,1.2886756],[103.6859475,1.2886551],[103.6859364,1.288636],[103.6859223,1.288619],[103.6859057,1.2886045],[103.685887,1.2885928],[103.6858667,1.2885842],[103.6858453,1.2885791],[103.6858233,1.2885774],[103.6858013,1.2885793],[103.6857799,1.2885846],[103.6857597,1.2885934],[103.6857411,1.2886053],[103.6857246,1.28862],[103.6857108,1.2886371],[103.6856998,1.2886563],[103.6856921,1.2886769],[103.6856878,1.2886986]]]}},{"type":"Feature","id":"way/621391819-0","properties":{"building":"storage_tank","man_made":"storage_tank"},"geometry":{"type":"Polygon","coordinates":[[[103.6858938,1.2890568],[103.685893,1.2890789],[103.6858958,1.2891008],[103.6859021,1.2891219],[103.6859116,1.2891418],[103.6859242,1.2891599],[103.6859396,1.2891757],[103.6859573,1.2891889],[103.6859769,1.289199],[103.6859978,1.2892059],[103.6860196,1.2892093],[103.6860417,1.2892092],[103.6860634,1.2892056],[103.6860843,1.2891985],[103.6861038,1.2891881],[103.6861214,1.2891748],[103.6861366,1.2891588],[103.686149,1.2891406],[103.6861584,1.2891207],[103.6861644,1.2890994],[103.6861669,1.2890775],[103.686166,1.2890555],[103.6861614,1.2890339],[103.6861535,1.2890133],[103.6861424,1.2889943],[103.6861284,1.2889773],[103.6861118,1.2889627],[103.6860931,1.288951],[103.6860727,1.2889425],[103.6860513,1.2889373],[103.6860293,1.2889357],[103.6860073,1.2889375],[103.6859859,1.2889429],[103.6859657,1.2889517],[103.6859471,1.2889636],[103.6859307,1.2889783],[103.6859168,1.2889954],[103.6859059,1.2890146],[103.6858981,1.2890352],[103.6858938,1.2890568]]]}}]}