{"type":"FeatureCollection","features":[{"type":"Feature","id":"way/1152693975-0","properties":{"building":"yes"},"geometry":{"type":"Polygon","coordinates":[[[103.686849,1.3816749],[103.6868074,1.3815967],[103.6867393,1.3816329],[103.6867808,1.3817111],[103.686849,1.3816749]]]}},{"type":"Feature","id":"way/1152693976-0","properties":{"building":"yes"},"geometry":{"type":"Polygon","coordinates":[[[103.6876435,1.3817809],[103.687602,1.3817026],[103.6875338,1.3817388],[103.6875754,1.3818171],[103.6876435,1.3817809]]]}},{"type":"Feature","id":"way/1152693977-0","properties":{"building":"yes"},"geometry":{"type":"Polygon","coordinates":[[[103.6884891,1.3793788],[103.6884937,1.3794672],[103.6885708,1.3794632],[103.6885662,1.3793747],[103.6884891,1.3793788]]]}},{"type":"Feature","id":"way/446634746-0-0-0","properties":{"bicycle":"yes","highway":"service","name":"Chinese Cemetery Path 36"},"geometry":{"type":"LineString","coordinates":[[103.6881546,1.3811316],[103.6881726,1.3795775]]}},{"type":"Feature","id":"way/446634746-0-1-0","properties":{"bicycle":"yes","highway":"service","name":"Chinese Cemetery Path 36"},"geometry":{"type":"LineString","coordinates":[[103.6881726,1.3795775],[103.6881562,1.3795246]]}},{"type":"Feature","id":"way/446634746-0-2-0","properties":{"bicycle":"yes","highway":"service","name":"Chinese Cemetery Path 36"},"geometry":{"type":"LineString","coordinates":[[103.6881562,1.3795246],[103.6881243,1.3794765]]}},{"type":"Feature","id":"way/446640253-0-0-0","properties":{"bicycle":"yes","highway":"service","lanes":"1","name":"Chinese Cemetery Path 19","oneway":"yes","sidewalk":"both","turn:lanes":"through"},"geometry":{"type":"LineString","coordinates":[[103.6881546,1.3811316],[103.6874923,1.3811234]]}},{"type":"Feature","id":"way/636468040-0-0-0","properties":{"bicycle":"yes","highway":"service","lanes":"2","lanes:backward":"1","lanes:forward":"1","name":"Cemetery Central Street 31","sidewalk":"right"},"geometry":{"type":"LineString","coordinates":[[103.6862189,1.3811144],[103.6862195,1.3811838]]}},{"type":"Feature","id":"way/636468040-0-1-0","properties":{"bicycle":"yes","highway":"service","lanes":"2","lanes:backward":"1","lanes:forward":"1","name":"Cemetery Central Street 31","sidewalk":"right"},"geometry":{"type":"LineString","coordinates":[[103.6862195,1.3811838],[103.6862201,1.3812131]]}},{"type":"Feature","id":"way/636468040-0-2-0","properties":{"bicycle":"yes","highway":"service","lanes":"2","lanes:backward":"1","lanes:forward":"1","name":"Cemetery Central Street 31","sidewalk":"right"},"geometry":{"type":"LineString","coordinates":[[103.6862201,1.3812131],[103.6862243,1.3817854]]}},{"type":"Feature","id":"way/636468040-0-3-0","properties":{"bicycle":"yes","highway":"service","lanes":"2","lanes:backward":"1","lanes:forward":"1","name":"Cemetery Central Street 31","sidewalk":"right"},"geometry":{"type":"LineString","coordinates":[[103.6862243,1.3817854],[103.6862259,1.3819814]]}},{"type":"Feature","id":"way/636468040-0-4-0","properties":{"bicycle":"yes","highway":"service","lanes":"2","lanes:backward":"1","lanes:forward":"1","name":"Cemetery Central Street 31","sidewalk":"right"},"geometry":{"type":"LineString","coordinates":[[103.6862259,1.3819814],[103.6862267,1.3825081]]}},{"type":"Feature","id":"way/640259512-0-0-0","properties":{"bicycle":"yes","highway":"service","name":"Chinese Cemetery Path 17"},"geometry":{"type":"LineString","coordinates":[[103.6893859,1.3798529],[103.6890573,1.3798519]]}},{"type":"Feature","id":"way/643458453-0-0-0","properties":{"bicycle":"yes","highway":"service","name":"Chinese Cemetery Path 36","sidewalk":"right"},"geometry":{"type":"LineString","coordinates":[[103.6881406,1.3824765],[103.6881544,1.3816222]]}},{"type":"Feature","id":"way/643458453-0-1-0","properties":{"bicycle":"yes","highway":"service","name":"Chinese Cemetery Path 36","sidewalk":"right"},"geometry":{"type":"LineString","coordinates":[[103.6881544,1.3816222],[103.6881546,1.3811316]]}},{"type":"Feature","id":"way/643458454-0-0-0","properties":{"bicycle":"yes","highway":"service","lanes":"2","lanes:backward":"1","lanes:forward":"1","name":"Cemetery Central Street 34","sidewalk":"left","surface":"asphalt"},"geometry":{"type":"LineString","coordinates":[[103.6881406,1.3824765],[103.6880382,1.382475]]}},{"type":"Feature","id":"way/643458454-0-1-0","properties":{"bicycle":"yes","highway":"service","lanes":"2","lanes:backward":"1","lanes:forward":"1","name":"Cemetery Central Street 34","sidewalk":"left","surface":"asphalt"},"geometry":{"type":"LineString","coordinates":[[103.6880382,1.382475],[103.6872058,1.3824643]]}},{"type":"Feature","id":"way/643458455-0-0-0","properties":{"bicycle":"yes","highway":"service","name":"Cemetery Central Street 29","surface":"asphalt"},"geometry":{"type":"LineString","coordinates":[[103.6881243,1.3794765],[103.6879331,1.3796354]]}},{"type":"Feature","id":"way/643458455-0-1-0","properties":{"bicycle":"yes","highway":"service","name":"Cemetery Central Street 29","surface":"asphalt"},"geometry":{"type":"LineString","coordinates":[[103.6879331,1.3796354],[103.6872089,1.3802897]]}},{"type":"Feature","id":"way/643458455-0-2-0","properties":{"bicycle":"yes","highway":"service","name":"Cemetery Central Street 29","surface":"asphalt"},"geometry":{"type":"LineString","coordinates":[[103.6872089,1.3802897],[103.6872077,1.3811227]]}},{"type":"Feature","id":"way/643458456-0-0-0","properties":{"bicycle":"yes","highway":"service","name":"Cemetery Central Street 29","surface":"asphalt"},"geometry":{"type":"LineString","coordinates":[[103.6884347,1.3788203],[103.6884695,1.379126]]}},{"type":"Feature","id":"way/643458456-0-1-0","properties":{"bicycle":"yes","highway":"service","name":"Cemetery Central Street 29","surface":"asphalt"},"geometry":{"type":"LineString","coordinates":[[103.6884695,1.379126],[103.6884159,1.3792734]]}},{"type":"Feature","id":"way/643458456-0-2-0","properties":{"bicycle":"yes","highway":"service","name":"Cemetery Central Street 29","surface":"asphalt"},"geometry":{"type":"LineString","coordinates":[[103.6884159,1.3792734],[103.6881243,1.3794765]]}},{"type":"Feature","id":"way/643464222-0-0-0","properties":{"bicycle":"yes","highway":"service","lanes":"2","lanes:backward":"1","lanes:forward":"1","name":"Chinese Cemetery Path 21","surface":"asphalt"},"geometry":{"type":"LineString","coordinates":[[103.6891751,1.382483],[103.6881406,1.3824765]]}},{"type":"Feature","id":"way/643464223-0-0-0","properties":{"bicycle":"yes","highway":"service","lanes":"2","lanes:backward":"1","lanes:forward":"1","name":"Cemetery Central Street 29","sidewalk":"both","surface":"asphalt"},"geometry":{"type":"LineString","coordinates":[[103.6872077,1.3811227],[103.687207,1.381602]]}},{"type":"Feature","id":"way/643464223-0-1-0","properties":{"bicycle":"yes","highway":"service","lanes":"2","lanes:backward":"1","lanes:forward":"1","name":"Cemetery Central Street 29","sidewalk":"both","surface":"asphalt"},"geometry":{"type":"LineString","coordinates":[[103.687207,1.381602],[103.6872064,1.382023]]}},{"type":"Feature","id":"way/643464223-0-2-0","properties":{"bicycle":"yes","highway":"service","lanes":"2","lanes:backward":"1","lanes:forward":"1","name":"Cemetery Central Street 29","sidewalk":"both","surface":"asphalt"},"geometry":{"type":"LineString","coordinates":[[103.6872064,1.382023],[103.6872058,1.3824643]]}},{"type":"Feature","id":"way/643464868-0-0-0","properties":{"bicycle":"yes","highway":"service"},"geometry":{"type":"LineString","coordinates":[[103.6891751,1.382483],[103.6891734,1.3826008]]}},{"type":"Feature","id":"way/643464869-0-0-0","properties":{"bicycle":"yes","highway":"service","name":"Chinese Cemetery Path 34"},"geometry":{"type":"LineString","coordinates":[[103.6890308,1.3811347],[103.6891751,1.382483]]}},{"type":"Feature","id":"way/643464871-0-0-0","properties":{"bicycle":"yes","highway":"service","name":"Chinese Cemetery Path 34"},"geometry":{"type":"LineString","coordinates":[[103.6890573,1.3798519],[103.6890578,1.3803269]]}},{"type":"Feature","id":"way/643464871-0-1-0","properties":{"bicycle":"yes","highway":"service","name":"Chinese Cemetery Path 34"},"geometry":{"type":"LineString","coordinates":[[103.6890578,1.3803269],[103.6890308,1.3811347]]}},{"type":"Feature","id":"way/643466746-0-0-0","properties":{"bicycle":"yes","highway":"service","name":"Muslim Cemetery Path 15","sidewalk":"left"},"geometry":{"type":"LineString","coordinates":[[103.6891734,1.3826008],[103.6891732,1.3829302]]}},{"type":"Feature","id":"way/644351971-0-0-0","properties":{"bicycle":"yes","highway":"service","name":"Chinese Cemetery Path 11","surface":"asphalt"},"geometry":{"type":"LineString","coordinates":[[103.6884347,1.3788203],[103.6892562,1.3786552]]}},{"type":"Feature","id":"way/644376929-0-0-0","properties":{"bicycle":"yes","highway":"service","name":"Chinese Cemetery Path 19"},"geometry":{"type":"LineString","coordinates":[[103.6881546,1.3811316],[103.6890308,1.3811347]]}},{"type":"Feature","id":"way/644385444-0-0-0","properties":{"bicycle":"yes","highway":"service","lanes":"2","lanes:backward":"1","lanes:forward":"1","maxspeed":"40","name":"Cemetery North Street 2","sidewalk":"left","surface":"asphalt","turn:lanes:backward":"right","turn:lanes:forward":"through"},"geometry":{"type":"LineString","coordinates":[[103.6853412,1.3825806],[103.6860229,1.3825887]]}},{"type":"Feature","id":"way/664028614-0-0-0","properties":{"bicycle":"yes","highway":"service","lanes":"2","lanes:backward":"1","lanes:forward":"1","maxspeed":"40","name":"Cemetery Central Street 33","surface":"asphalt","turn:lanes:backward":"left","turn:lanes:forward":"through"},"geometry":{"type":"LineString","coordinates":[[103.6862187,1.3809595],[103.6861765,1.380828]]}},{"type":"Feature","id":"way/664028614-0-1-0","properties":{"bicycle":"yes","highway":"service","lanes":"2","lanes:backward":"1","lanes:forward":"1","maxspeed":"40","name":"Cemetery Central Street 33","surface":"asphalt","turn:lanes:backward":"left","turn:lanes:forward":"through"},"geometry":{"type":"LineString","coordinates":[[103.6861765,1.380828],[103.6860749,1.3806119]]}},{"type":"Feature","id":"way/664028614-0-2-0","properties":{"bicycle":"yes","highway":"service","lanes":"2","lanes:backward":"1","lanes:forward":"1","maxspeed":"40","name":"Cemetery Central Street 33","surface":"asphalt","turn:lanes:backward":"left","turn:lanes:forward":"through"},"geometry":{"type":"LineString","coordinates":[[103.6860749,1.3806119],[103.6859974,1.3805666]]}},{"type":"Feature","id":"way/664028614-0-3-0","properties":{"bicycle":"yes","highway":"service","lanes":"2","lanes:backward":"1","lanes:forward":"1","maxspeed":"40","name":"Cemetery Central Street 33","surface":"asphalt","turn:lanes:backward":"left","turn:lanes:forward":"through"},"geometry":{"type":"LineString","coordinates":[[103.6859974,1.3805666],[103.6858934,1.380564]]}},{"type":"Feature","id":"way/664028614-0-4-0","properties":{"bicycle":"yes","highway":"service","lanes":"2","lanes:backward":"1","lanes:forward":"1","maxspeed":"40","name":"Cemetery Central Street 33","surface":"asphalt","turn:lanes:backward":"left","turn:lanes:forward":"through"},"geometry":{"type":"LineString","coordinates":[[103.6858934,1.380564],[103.6854007,1.3807629]]}},{"type":"Feature","id":"way/664028614-0-5-0","properties":{"bicycle":"yes","highway":"service","lanes":"2","lanes:backward":"1","lanes:forward":"1","maxspeed":"40","name":"Cemetery Central Street 33","surface":"asphalt","turn:lanes:backward":"left","turn:lanes:forward":"through"},"geometry":{"type":"LineString","coordinates":[[103.6854007,1.3807629],[103.6853548,1.3807907]]}},{"type":"Feature","id":"way/664028614-0-6-0","properties":{"bicycle":"yes","highway":"service","lanes":"2","lanes:backward":"1","lanes:forward":"1","maxspeed":"40","name":"Cemetery Central Street 33","surface":"asphalt","turn:lanes:backward":"left","turn:lanes:forward":"through"},"geometry":{"type":"LineString","coordinates":[[103.6853548,1.3807907],[103.68533,1.3808692]]}},{"type":"Feature","id":"way/664028614-0-7-0","properties":{"bicycle":"yes","highway":"service","lanes":"2","lanes:backward":"1","lanes:forward":"1","maxspeed":"40","name":"Cemetery Central Street 33","surface":"asphalt","turn:lanes:backward":"left","turn:lanes:forward":"through"},"geometry":{"type":"LineString","coordinates":[[103.68533,1.3808692],[103.6853346,1.3815886]]}},{"type":"Feature","id":"way/664028614-0-8-0","properties":{"bicycle":"yes","highway":"service","lanes":"2","lanes:backward":"1","lanes:forward":"1","maxspeed":"40","name":"Cemetery Central Street 33","surface":"asphalt","turn:lanes:backward":"left","turn:lanes:forward":"through"},"geometry":{"type":"LineString","coordinates":[[103.6853346,1.3815886],[103.6853376,1.3821638]]}},{"type":"Feature","id":"way/664028614-0-9-0","properties":{"bicycle":"yes","highway":"service","lanes":"2","lanes:backward":"1","lanes:forward":"1","maxspeed":"40","name":"Cemetery Central Street 33","surface":"asphalt","turn:lanes:backward":"left","turn:lanes:forward":"through"},"geometry":{"type":"LineString","coordinates":[[103.6853376,1.3821638],[103.6853404,1.3824847]]}},{"type":"Feature","id":"way/683922895-0-0-0","properties":{"bicycle":"yes","highway":"service","lanes":"2","lanes:backward":"1","lanes:forward":"1","maxspeed":"40","name":"Cemetery North Street 2","sidewalk":"left","surface":"asphalt","turn:lanes:backward":"through;right","turn:lanes:forward":"through"},"geometry":{"type":"LineString","coordinates":[[103.6860229,1.3825887],[103.6864422,1.3825821]]}},{"type":"Feature","id":"way/683922895-0-1-0","properties":{"bicycle":"yes","highway":"service","lanes":"2","lanes:backward":"1","lanes:forward":"1","maxspeed":"40","name":"Cemetery North Street 2","sidewalk":"left","surface":"asphalt","turn:lanes:backward":"through;right","turn:lanes:forward":"through"},"geometry":{"type":"LineString","coordinates":[[103.6864422,1.3825821],[103.686697,1.3825794]]}},{"type":"Feature","id":"way/683922896-0-0-0","properties":{"bicycle":"yes","highway":"service","lanes":"2","lanes:backward":"1","lanes:forward":"1","maxspeed":"40","name":"Cemetery North Street 2","sidewalk":"left","surface":"asphalt","turn:lanes:backward":"through","turn:lanes:forward":"left;through"},"geometry":{"type":"LineString","coordinates":[[103.686697,1.3825794],[103.6871222,1.3825794]]}},{"type":"Feature","id":"way/683922897-0-0-0","properties":{"bicycle":"yes","highway":"service","maxspeed":"40","name":"Cemetery North Street 2","surface":"asphalt"},"geometry":{"type":"LineString","coordinates":[[103.6872043,1.3825742],[103.6875552,1.3825817]]}},{"type":"Feature","id":"way/683922897-0-1-0","properties":{"bicycle":"yes","highway":"service","maxspeed":"40","name":"Cemetery North Street 2","surface":"asphalt"},"geometry":{"type":"LineString","coordinates":[[103.6875552,1.3825817],[103.6881305,1.3825941]]}},{"type":"Feature","id":"way/690160575-0-0-0","properties":{"bicycle":"yes","highway":"service","maxspeed":"40","name":"Cemetery North Street 2","sidewalk":"left","surface":"asphalt"},"geometry":{"type":"LineString","coordinates":[[103.6881305,1.3825941],[103.6886137,1.3825972]]}},{"type":"Feature","id":"way/690160575-0-1-0","properties":{"bicycle":"yes","highway":"service","maxspeed":"40","name":"Cemetery North Street 2","sidewalk":"left","surface":"asphalt"},"geometry":{"type":"LineString","coordinates":[[103.6886137,1.3825972],[103.6891734,1.3826008]]}},{"type":"Feature","id":"way/690160580-0-0-0","properties":{"bicycle":"yes","highway":"service","lanes":"2","lanes:backward":"1","lanes:forward":"1","maxspeed":"40","name":"Cemetery North Street 2","sidewalk":"left","surface":"asphalt","turn:lanes:backward":"through","turn:lanes:forward":"left;through;right"},"geometry":{"type":"LineString","coordinates":[[103.6871222,1.3825794],[103.6872043,1.3825742]]}},{"type":"Feature","id":"way/730967408-0-2-0","properties":{"bicycle":"yes","highway":"service","name":"Cemetery North Street 15","surface":"asphalt"},"geometry":{"type":"LineString","coordinates":[[103.6872067,1.3828824],[103.6872043,1.3825742]]}},{"type":"Feature","id":"way/734918478-0-0-0","properties":{"bicycle":"yes","highway":"service","lanes":"1","name":"Chinese Cemetery Path 19","oneway":"yes","sidewalk":"both","turn:lanes":"left;right"},"geometry":{"type":"LineString","coordinates":[[103.6874923,1.3811234],[103.6874293,1.3811225]]}},{"type":"Feature","id":"way/734918478-0-1-0","properties":{"bicycle":"yes","highway":"service","lanes":"1","name":"Chinese Cemetery Path 19","oneway":"yes","sidewalk":"both","turn:lanes":"left;right"},"geometry":{"type":"LineString","coordinates":[[103.6874293,1.3811225],[103.6872077,1.3811227]]}},{"type":"Feature","id":"way/735274964-0-0-0","properties":{"bicycle":"yes","highway":"service","lanes":"2","lanes:backward":"1","lanes:forward":"1","name":"Cemetery Central Street 34","sidewalk":"left","surface":"asphalt","turn:lanes:backward":"through;right"},"geometry":{"type":"LineString","coordinates":[[103.6872058,1.3824643],[103.6870416,1.3824495]]}},{"type":"Feature","id":"way/735274965-0-0-0","properties":{"bicycle":"yes","highway":"service","lanes":"2","lanes:backward":"1","lanes:forward":"1","name":"Cemetery Central Street 34","sidewalk":"left","surface":"asphalt"},"geometry":{"type":"LineString","coordinates":[[103.6870416,1.3824495],[103.6862267,1.3825081]]}},{"type":"Feature","id":"way/735274966-0-0-0","properties":{"bicycle":"yes","highway":"service","lanes":"2","lanes:backward":"1","lanes:forward":"1","name":"Cemetery Central Street 32","sidewalk":"right","turn:lanes:forward":"right"},"geometry":{"type":"LineString","coordinates":[[103.6864877,1.3811194],[103.6862189,1.3811144]]}},{"type":"Feature","id":"way/735274967-0-0-0","properties":{"bicycle":"yes","highway":"service","lanes":"2","lanes:backward":"1","lanes:forward":"1","name":"Cemetery Central Street 32","sidewalk":"right"},"geometry":{"type":"LineString","coordinates":[[103.6868928,1.3811207],[103.6864877,1.3811194]]}},{"type":"Feature","id":"way/735274968-0-0-0","properties":{"bicycle":"yes","highway":"service","lanes":"2","lanes:backward":"1","lanes:forward":"1","name":"Cemetery Central Street 32","sidewalk":"right","turn:lanes:backward":"left;right"},"geometry":{"type":"LineString","coordinates":[[103.6872077,1.3811227],[103.6868928,1.3811207]]}},{"type":"Feature","id":"way/845538514-0-0-0","properties":{"bicycle":"yes","highway":"service","lanes":"2","lanes:backward":"1","lanes:forward":"1","maxspeed":"40","name":"Cemetery North Street 16","surface":"asphalt","turn:lanes:backward":"left","turn:lanes:forward":"through"},"geometry":{"type":"LineString","coordinates":[[103.6853404,1.3824847],[103.6853412,1.3825806]]}},{"type":"Feature","id":"way/906403718-0-0-0","properties":{"bicycle":"yes","highway":"service","lanes":"2","lanes:backward":"1","lanes:forward":"1","name":"Cemetery Central Street 34","surface":"asphalt"},"geometry":{"type":"LineString","coordinates":[[103.6862267,1.3825081],[103.6853404,1.3824847]]}},{"type":"Feature","id":"way/906403802-0-0-0","properties":{"bicycle":"yes","highway":"service","lanes":"2","lanes:backward":"1","lanes:forward":"1","name":"Cemetery Central Street 31"},"geometry":{"type":"LineString","coordinates":[[103.6862187,1.3809595],[103.6862189,1.3811144]]}},{"type":"Feature","id":"way/1258945219-0-0-0","properties":{"highway":"tertiary","name":"Cemetery North Street 2","oneway":"yes"},"geometry":{"type":"LineString","coordinates":[[103.6846413,1.3825641],[103.6853412,1.3825806]]}},{"type":"Feature","id":"way/1258945220-0-0-0","properties":{"highway":"tertiary","name":"Cemetery Central Street 34","oneway":"yes"},"geometry":{"type":"LineString","coordinates":[[103.6853404,1.3824847],[103.6847431,1.3824658]]}}]}