{"type":"FeatureCollection","features":[{"type":"Feature","id":"way/49989555-0","properties":{"building":"yes","name":"Electromagnetic Effects Research Lab","short_name":"EMERL","clearanceGeometry":{"type":"Polygon","coordinates":[[[103.6790997,1.3520236],[103.6793351,1.3518079],[103.6792982,1.3517676],[103.6792157,1.3518433],[103.6788944,1.3514928],[103.6787415,1.3516328],[103.6790997,1.3520236]]]},"clearanceHeight":1.7,"clearancePrepared":true},"geometry":{"type":"Polygon","coordinates":[[[103.6787415,1.3516328],[103.6790997,1.3520236],[103.6793351,1.3518079],[103.6792982,1.3517676],[103.6792157,1.3518433],[103.6788944,1.3514928],[103.6787415,1.3516328]]]}},{"type":"Feature","id":"way/536528533-0","properties":{"building":"yes","name":"Blk 57","clearanceGeometry":{"type":"Polygon","coordinates":[[[103.6802393,1.3512763],[103.6802149,1.351249],[103.6801351,1.3511594],[103.6800682,1.3512202],[103.6804096,1.3516001],[103.680476,1.351542],[103.6802393,1.3512763]]]},"clearanceHeight":1.7,"clearancePrepared":true},"geometry":{"type":"Polygon","coordinates":[[[103.680476,1.351542],[103.6802393,1.3512763],[103.6802149,1.351249],[103.6801351,1.3511594],[103.6800682,1.3512202],[103.6804096,1.3516001],[103.680476,1.351542]]]}},{"type":"Feature","id":"way/115102801-0-1-0","properties":{"highway":"service","service":"driveway","startNodeId":"1301738704","endNodeId":"1301738692"},"geometry":{"type":"LineString","coordinates":[[103.6789017,1.3513426],[103.6792209,1.3517202]]}},{"type":"Feature","id":"way/699869394-0-0-0","properties":{"highway":"residential","lanes":"2","lanes:backward":"1","lanes:forward":"1","maxspeed":"40","name":"Nanyang Crescent","name:zh":"\u5357\u6d0b\u5f2f","turn:lanes:forward":"through;right","startNodeId":"13717733802","endNodeId":"5204545591"},"geometry":{"type":"LineString","coordinates":[[103.6801792,1.3515804],[103.6803413,1.351764]]}},{"type":"Feature","id":"way/1498112775-0-0-0","properties":{"highway":"residential","lanes":"2","lanes:backward":"1","lanes:forward":"1","maxspeed":"40","name":"Nanyang Crescent","name:zh":"\u5357\u6d0b\u5f2f","turn:lanes:forward":"through;right","startNodeId":"6572285669","endNodeId":"13717733802"},"geometry":{"type":"LineString","coordinates":[[103.680097,1.3514874],[103.6801792,1.3515804]]}}]}