{"type":"FeatureCollection","features":[{"type":"Feature","id":"way/1052009272-0","properties":{"building":"yes","clearanceGeometry":{"type":"Polygon","coordinates":[[[103.6781932,1.2555356],[103.6781113,1.2554778],[103.6780469,1.2555689],[103.6781288,1.2556268],[103.6781932,1.2555356]]]},"clearanceHeight":1.7,"clearancePrepared":true},"geometry":{"type":"Polygon","coordinates":[[[103.6781288,1.2556268],[103.6781932,1.2555356],[103.6781113,1.2554778],[103.6780469,1.2555689],[103.6781288,1.2556268]]]}},{"type":"Feature","id":"way/1052009273-0","properties":{"building":"yes","clearanceGeometry":{"type":"Polygon","coordinates":[[[103.6783947,1.2557487],[103.6782427,1.2556359],[103.6782732,1.255595],[103.6782198,1.2555553],[103.6781418,1.2556603],[103.6783472,1.2558127],[103.6783947,1.2557487]]]},"clearanceHeight":1.7,"clearancePrepared":true},"geometry":{"type":"Polygon","coordinates":[[[103.6783472,1.2558127],[103.6783947,1.2557487],[103.6782427,1.2556359],[103.6782732,1.255595],[103.6782198,1.2555553],[103.6781418,1.2556603],[103.6783472,1.2558127]]]}},{"type":"Feature","id":"way/1052009274-0","properties":{"building":"yes","clearanceGeometry":{"type":"Polygon","coordinates":[[[103.6784449,1.2560044],[103.6782437,1.2558555],[103.678173,1.2559511],[103.6783741,1.2560999],[103.6784449,1.2560044]]]},"clearanceHeight":1.7,"clearancePrepared":true},"geometry":{"type":"Polygon","coordinates":[[[103.6783741,1.2560999],[103.6784449,1.2560044],[103.6782437,1.2558555],[103.678173,1.2559511],[103.6783741,1.2560999]]]}},{"type":"Feature","id":"way/1052009275-0","properties":{"building":"yes","clearanceGeometry":{"type":"Polygon","coordinates":[[[103.6790247,1.2557924],[103.6789552,1.2558883],[103.6789177,1.2558612],[103.6787525,1.2560892],[103.6789212,1.2562113],[103.6791558,1.2558874],[103.6790247,1.2557924]]]},"clearanceHeight":1.7,"clearancePrepared":true},"geometry":{"type":"Polygon","coordinates":[[[103.6791558,1.2558874],[103.6790247,1.2557924],[103.6789552,1.2558883],[103.6789177,1.2558612],[103.6787525,1.2560892],[103.6789212,1.2562113],[103.6791558,1.2558874]]]}}]}