{"type":"FeatureCollection","features":[{"type":"Feature","id":"way/591618766-0","properties":{"building":"yes","clearanceGeometry":{"type":"Polygon","coordinates":[[[103.6789669,1.2665073],[103.6790579,1.2664325],[103.6789226,1.266268],[103.6788316,1.2663428],[103.6789669,1.2665073]]]},"clearanceHeight":1.7,"clearancePrepared":true},"geometry":{"type":"Polygon","coordinates":[[[103.6788316,1.2663428],[103.6789669,1.2665073],[103.6790579,1.2664325],[103.6789226,1.266268],[103.6788316,1.2663428]]]}},{"type":"Feature","id":"way/591618767-0","properties":{"building":"yes","clearanceGeometry":{"type":"Polygon","coordinates":[[[103.6795899,1.2662322],[103.6797146,1.2663768],[103.6798008323704,1.2663023753815565],[103.67967507134226,1.2661587794757077],[103.6795899,1.2662322]]]},"clearanceHeight":1.7,"clearancePrepared":true},"geometry":{"type":"Polygon","coordinates":[[[103.679811,1.2662936],[103.6796863,1.2661491],[103.6795899,1.2662322],[103.6797146,1.2663768],[103.679811,1.2662936]]]}},{"type":"Feature","id":"way/591762054-0","properties":{"building":"yes","clearanceGeometry":{"type":"Polygon","coordinates":[[[103.679458,1.2668964],[103.6794922,1.2668584],[103.6795365,1.2668091],[103.6794236,1.2667076],[103.6793451,1.266795],[103.679458,1.2668964]]]},"clearanceHeight":1.7,"clearancePrepared":true},"geometry":{"type":"Polygon","coordinates":[[[103.6793451,1.266795],[103.679458,1.2668964],[103.6794922,1.2668584],[103.6795365,1.2668091],[103.6794236,1.2667076],[103.6793451,1.266795]]]}},{"type":"Feature","id":"way/591762055-0","properties":{"building":"yes","clearanceGeometry":{"type":"Polygon","coordinates":[[[103.6796837,1.2668492],[103.6795823,1.2667581],[103.6795365,1.2668091],[103.6794922,1.2668584],[103.6795936,1.2669495],[103.6796837,1.2668492]]]},"clearanceHeight":1.7,"clearancePrepared":true},"geometry":{"type":"Polygon","coordinates":[[[103.6795936,1.2669495],[103.6796837,1.2668492],[103.6795823,1.2667581],[103.6795365,1.2668091],[103.6794922,1.2668584],[103.6795936,1.2669495]]]}},{"type":"Feature","id":"way/645176149-0-0-0","properties":{"highway":"service","startNodeId":"6065496068","endNodeId":"6065496067"},"geometry":{"type":"LineString","coordinates":[[103.6792311,1.2663448],[103.6797712,1.2668259]]}},{"type":"Feature","id":"way/645176149-0-1-0","properties":{"highway":"service","startNodeId":"6065496067","endNodeId":"6065496066"},"geometry":{"type":"LineString","coordinates":[[103.6797712,1.2668259],[103.6798319,1.2669401]]}},{"type":"Feature","id":"way/645176149-0-2-0","properties":{"highway":"service","startNodeId":"6065496066","endNodeId":"6065496065"},"geometry":{"type":"LineString","coordinates":[[103.6798319,1.2669401],[103.6799473,1.2670259]]}},{"type":"Feature","id":"way/645176149-0-3-0","properties":{"highway":"service","startNodeId":"6065496065","endNodeId":"6065496064"},"geometry":{"type":"LineString","coordinates":[[103.6799473,1.2670259],[103.680017,1.2670769]]}},{"type":"Feature","id":"way/645176149-0-4-0","properties":{"highway":"service","startNodeId":"6065496064","endNodeId":"6065496075"},"geometry":{"type":"LineString","coordinates":[[103.680017,1.2670769],[103.6800492,1.2670983]]}},{"type":"Feature","id":"way/645176150-0-0-0","properties":{"highway":"service","startNodeId":"6065496070","endNodeId":"6065496067"},"geometry":{"type":"LineString","coordinates":[[103.6800774,1.2665568],[103.6797712,1.2668259]]}},{"type":"Feature","id":"way/645176150-0-1-0","properties":{"highway":"service","startNodeId":"6065496067","endNodeId":"6065496069"},"geometry":{"type":"LineString","coordinates":[[103.6797712,1.2668259],[103.6796066,1.2670071]]}},{"type":"Feature","id":"way/645176151-0-0-0","properties":{"highway":"service","startNodeId":"6065496076","endNodeId":"6065496075"},"geometry":{"type":"LineString","coordinates":[[103.6802959,1.2668064],[103.6800492,1.2670983]]}},{"type":"Feature","id":"way/645176151-0-1-0","properties":{"highway":"service","startNodeId":"6065496075","endNodeId":"6065496074"},"geometry":{"type":"LineString","coordinates":[[103.6800492,1.2670983],[103.6800814,1.2671439]]}},{"type":"Feature","id":"way/645176151-0-2-0","properties":{"highway":"service","startNodeId":"6065496074","endNodeId":"6065496073"},"geometry":{"type":"LineString","coordinates":[[103.6800814,1.2671439],[103.680135,1.2672083]]}},{"type":"Feature","id":"way/645176151-0-3-0","properties":{"highway":"service","startNodeId":"6065496073","endNodeId":"6065496072"},"geometry":{"type":"LineString","coordinates":[[103.680135,1.2672083],[103.6801699,1.2672565]]}},{"type":"Feature","id":"way/645176151-0-4-0","properties":{"highway":"service","startNodeId":"6065496072","endNodeId":"6065496071"},"geometry":{"type":"LineString","coordinates":[[103.6801699,1.2672565],[103.6802262,1.2673638]]}},{"type":"Feature","id":"way/645176152-0-0-0","properties":{"highway":"service","startNodeId":"6065496068","endNodeId":"6065496080"},"geometry":{"type":"LineString","coordinates":[[103.6792311,1.2663448],[103.6790943,1.2665003]]}},{"type":"Feature","id":"way/645176152-0-1-0","properties":{"highway":"service","startNodeId":"6065496080","endNodeId":"6065496079"},"geometry":{"type":"LineString","coordinates":[[103.6790943,1.2665003],[103.6789763,1.266554]]}},{"type":"Feature","id":"way/645176152-0-2-0","properties":{"highway":"service","startNodeId":"6065496079","endNodeId":"6065496078"},"geometry":{"type":"LineString","coordinates":[[103.6789763,1.266554],[103.6788315,1.2665111]]}},{"type":"Feature","id":"way/645176152-0-3-0","properties":{"highway":"service","startNodeId":"6065496078","endNodeId":"6065496077"},"geometry":{"type":"LineString","coordinates":[[103.6788315,1.2665111],[103.6787832,1.2664467]]}},{"type":"Feature","id":"way/645176152-0-4-0","properties":{"highway":"service","startNodeId":"6065496077","endNodeId":"5227038474"},"geometry":{"type":"LineString","coordinates":[[103.6787832,1.2664467],[103.6787049,1.2662364]]}},{"type":"Feature","id":"way/727627479-0-0-0","properties":{"highway":"service","startNodeId":"6065496070","endNodeId":"6065496083"},"geometry":{"type":"LineString","coordinates":[[103.6800774,1.2665568],[103.6796522,1.2660713]]}},{"type":"Feature","id":"way/727627479-0-1-0","properties":{"highway":"service","startNodeId":"6065496083","endNodeId":"6065496082"},"geometry":{"type":"LineString","coordinates":[[103.6796522,1.2660713],[103.6795503,1.2660874]]}},{"type":"Feature","id":"way/727627479-0-2-0","properties":{"highway":"service","startNodeId":"6065496082","endNodeId":"6065496081"},"geometry":{"type":"LineString","coordinates":[[103.6795503,1.2660874],[103.6793518,1.2662161]]}},{"type":"Feature","id":"way/727627479-0-3-0","properties":{"highway":"service","startNodeId":"6065496081","endNodeId":"6065496068"},"geometry":{"type":"LineString","coordinates":[[103.6793518,1.2662161],[103.6792311,1.2663448]]}},{"type":"Feature","id":"way/727627480-0-0-0","properties":{"highway":"service","startNodeId":"6065496076","endNodeId":"6065496070"},"geometry":{"type":"LineString","coordinates":[[103.6802959,1.2668064],[103.6800774,1.2665568]]}}]}