{"type":"FeatureCollection","features":[{"type":"Feature","id":"way/544845794-0-1-0","properties":{"highway":"service","startNodeId":"5216603334","endNodeId":"5216603333"},"geometry":{"type":"LineString","coordinates":[[103.6753258,1.3008991],[103.6753204,1.3009326]]}},{"type":"Feature","id":"way/544845794-0-2-0","properties":{"highway":"service","startNodeId":"5216603333","endNodeId":"5216603332"},"geometry":{"type":"LineString","coordinates":[[103.6753204,1.3009326],[103.6753272,1.3009674]]}},{"type":"Feature","id":"way/544845794-0-3-0","properties":{"highway":"service","startNodeId":"5216603332","endNodeId":"5216603331"},"geometry":{"type":"LineString","coordinates":[[103.6753272,1.3009674],[103.6753647,1.3010197]]}},{"type":"Feature","id":"way/544845794-0-4-0","properties":{"highway":"service","startNodeId":"5216603331","endNodeId":"5266698008"},"geometry":{"type":"LineString","coordinates":[[103.6753647,1.3010197],[103.6759078,1.3014896]]}},{"type":"Feature","id":"way/544886682-0-0-0","properties":{"highway":"service","startNodeId":"5266773103","endNodeId":"5266773102"},"geometry":{"type":"LineString","coordinates":[[103.6743817,1.3013788],[103.6746489,1.3015281]]}},{"type":"Feature","id":"way/544886682-0-1-0","properties":{"highway":"service","startNodeId":"5266773102","endNodeId":"way/544886682-0:1:1"},"geometry":{"type":"LineString","coordinates":[[103.6746489,1.3015281],[103.6752527,1.3020706]]}}]}