{"type":"FeatureCollection","features":[{"type":"Feature","id":"way/1052009269-0","properties":{"building":"yes","name":"Banyan Fire Station","clearanceGeometry":{"type":"Polygon","coordinates":[[[103.6743998,1.2539151],[103.6743229,1.253879],[103.674212,1.2541149],[103.6742889,1.254151],[103.6743998,1.2539151]]]},"clearanceHeight":1.7,"clearancePrepared":true},"geometry":{"type":"Polygon","coordinates":[[[103.6742889,1.254151],[103.6743998,1.2539151],[103.6743229,1.253879],[103.674212,1.2541149],[103.6742889,1.254151]]]}},{"type":"Feature","id":"way/1052009270-0","properties":{"building":"fire_station","name":"Banyan Fire Station","clearanceGeometry":{"type":"Polygon","coordinates":[[[103.6742917,1.2541718],[103.6742065,1.2541318],[103.674072,1.2544181],[103.6739048,1.2543395],[103.6741554,1.2538061],[103.6740709,1.2537665],[103.6737841,1.2543768],[103.6741211,1.2545351],[103.6742917,1.2541718]]]},"clearanceHeight":1.7,"clearancePrepared":true},"geometry":{"type":"Polygon","coordinates":[[[103.6741211,1.2545351],[103.6742917,1.2541718],[103.6742065,1.2541318],[103.674072,1.2544181],[103.6739048,1.2543395],[103.6741554,1.2538061],[103.6740709,1.2537665],[103.6737841,1.2543768],[103.6741211,1.2545351]]]}},{"type":"Feature","id":"way/1156764462-0","properties":{"building":"commercial","clearanceGeometry":{"type":"Polygon","coordinates":[[[103.6718945,1.2560478],[103.6718256,1.2560023],[103.6717767,1.2560762],[103.6718455,1.2561218],[103.6718945,1.2560478]]]},"clearanceHeight":1.7,"clearancePrepared":true},"geometry":{"type":"Polygon","coordinates":[[[103.6718455,1.2561218],[103.6718945,1.2560478],[103.6718256,1.2560023],[103.6717767,1.2560762],[103.6718455,1.2561218]]]}},{"type":"Feature","id":"way/1156764464-0","properties":{"building":"commercial","clearanceGeometry":{"type":"Polygon","coordinates":[[[103.67188233049885,1.2556412848931826],[103.67166228909231,1.2554799551870244],[103.6716518,1.2554795],[103.671403,1.2558253],[103.6716332,1.2559888],[103.67188233049885,1.2556412848931826]]]},"clearanceHeight":1.7,"clearancePrepared":true},"geometry":{"type":"Polygon","coordinates":[[[103.6716332,1.2559888],[103.6718887,1.2556324],[103.6717048,1.2554818],[103.6716518,1.2554795],[103.671403,1.2558253],[103.6716332,1.2559888]]]}},{"type":"Feature","id":"way/1156764465-0","properties":{"building":"commercial","clearanceGeometry":{"type":"Polygon","coordinates":[[[103.67159910238036,1.255433628026007],[103.6714287232348,1.2553087096394213],[103.6711859,1.2556382],[103.671356,1.2557634],[103.67159910238036,1.255433628026007]]]},"clearanceHeight":1.7,"clearancePrepared":true},"geometry":{"type":"Polygon","coordinates":[[[103.671356,1.2557634],[103.6716062,1.255424],[103.6714361,1.2552987],[103.6711859,1.2556382],[103.671356,1.2557634]]]}},{"type":"Feature","id":"way/1156764463-0-0-0","properties":{"highway":"service","startNodeId":"10757187223","endNodeId":"10757187222"},"geometry":{"type":"LineString","coordinates":[[103.6719675,1.2556536],[103.6717008,1.2560436]]}},{"type":"Feature","id":"way/1156764467-0-0-0","properties":{"highway":"service","startNodeId":"10757187239","endNodeId":"10757187238"},"geometry":{"type":"LineString","coordinates":[[103.6726211,1.2561402],[103.6725668,1.2560929]]}},{"type":"Feature","id":"way/1156764467-0-1-0","properties":{"highway":"service","startNodeId":"10757187238","endNodeId":"10757187223"},"geometry":{"type":"LineString","coordinates":[[103.6725668,1.2560929],[103.6719675,1.2556536]]}},{"type":"Feature","id":"way/1156764467-0-2-0","properties":{"highway":"service","startNodeId":"10757187223","endNodeId":"10757187237"},"geometry":{"type":"LineString","coordinates":[[103.6719675,1.2556536],[103.6708023,1.2547993]]}}]}