{"type":"FeatureCollection","features":[{"type":"Feature","id":"relation/7784901-0","properties":{"addr:housenumber":"20","addr:street":"Gul Way","building":"yes","type":"multipolygon","clearanceGeometry":{"type":"MultiPolygon","coordinates":[[[[103.6683855,1.3127587],[103.66838563352307,1.3127564968692913],[103.66832771764865,1.312752213894071],[103.66765681969781,1.3127026140455658],[103.66710172239108,1.3126616203856316],[103.6670254,1.3136289],[103.6683089,1.31373],[103.6683285,1.3134816],[103.6683988,1.3134865],[103.6683991,1.3134907],[103.6684103,1.3135301],[103.6684294,1.3135663],[103.6684556,1.3135978],[103.6684878,1.3136231],[103.6685246,1.3136411],[103.6685643,1.3136512],[103.6686053,1.3136527],[103.6686456,1.3136457],[103.6686836,1.3136305],[103.6687177,1.3136077],[103.6687462,1.3135783],[103.668768,1.3135436],[103.6687793,1.3135129],[103.668796,1.313514],[103.6687777,1.3137672],[103.6701069,1.3138632],[103.6701667,1.3130365],[103.67033907173719,1.313049128885161],[103.67035069993862,1.3129014488723898],[103.66947294823484,1.3128372161439854],[103.6694759,1.3127969],[103.66947284685563,1.3128372085970799],[103.66929588203807,1.3128238112606085],[103.66890309258139,1.3127947638271256],[103.6688483,1.3127908],[103.6688483,1.3127915],[103.6683855,1.3127587]],[[103.6685847,1.3129441],[103.6686107,1.3129366],[103.6686377,1.3129385],[103.6686625,1.3129495],[103.668682,1.3129683],[103.6686939,1.3129926],[103.6686968,1.3130196],[103.668678,1.3133895],[103.6686714,1.3134158],[103.6686563,1.3134383],[103.6686344,1.3134542],[103.6686084,1.3134617],[103.6685814,1.3134598],[103.6685566,1.3134488],[103.6685371,1.3134301],[103.6685252,1.3134057],[103.6685224,1.3133788],[103.6685411,1.3130087],[103.6685477,1.3129825],[103.6685628,1.31296],[103.6685847,1.3129441]]],[[[103.6694783,1.3127362],[103.6704986,1.3128106],[103.6705405,1.3122369],[103.6693541,1.3121504],[103.6693122,1.312724],[103.6693298,1.3127253],[103.66931959197169,1.3127445267717686],[103.66947749810554,1.3127564812474382],[103.6694783,1.3127362]]]]},"clearanceHeight":1.7,"clearancePrepared":true},"geometry":{"type":"Polygon","coordinates":[[[103.6688483,1.3127915],[103.6683855,1.3127587],[103.6683857,1.3127554],[103.6671023,1.3126543],[103.6670254,1.3136289],[103.6683089,1.31373],[103.6683285,1.3134816],[103.6683988,1.3134865],[103.6683991,1.3134907],[103.6684103,1.3135301],[103.6684294,1.3135663],[103.6684556,1.3135978],[103.6684878,1.3136231],[103.6685246,1.3136411],[103.6685643,1.3136512],[103.6686053,1.3136527],[103.6686456,1.3136457],[103.6686836,1.3136305],[103.6687177,1.3136077],[103.6687462,1.3135783],[103.668768,1.3135436],[103.6687793,1.3135129],[103.668796,1.313514],[103.6687777,1.3137672],[103.6701069,1.3138632],[103.6701667,1.3130365],[103.6703728,1.3130516],[103.6703841,1.3128968],[103.6701748,1.3128814],[103.6701744,1.3128866],[103.6695379,1.3128406],[103.6694749,1.3128361],[103.6694759,1.3127969],[103.6694783,1.3127362],[103.6704986,1.3128106],[103.6705405,1.3122369],[103.6693541,1.3121504],[103.6693122,1.312724],[103.6693298,1.3127253],[103.6692989,1.3127835],[103.6692782,1.3128219],[103.6688483,1.3127908],[103.6688483,1.3127915]],[[103.6685628,1.31296],[103.6685847,1.3129441],[103.6686107,1.3129366],[103.6686377,1.3129385],[103.6686625,1.3129495],[103.668682,1.3129683],[103.6686939,1.3129926],[103.6686968,1.3130196],[103.668678,1.3133895],[103.6686714,1.3134158],[103.6686563,1.3134383],[103.6686344,1.3134542],[103.6686084,1.3134617],[103.6685814,1.3134598],[103.6685566,1.3134488],[103.6685371,1.3134301],[103.6685252,1.3134057],[103.6685224,1.3133788],[103.6685411,1.3130087],[103.6685477,1.3129825],[103.6685628,1.31296]]]}},{"type":"Feature","id":"way/118579432-0","properties":{"addr:city":"Singapore","addr:country":"SG","addr:housenumber":"34","addr:street":"Gul Avenue","building":"yes","clearanceGeometry":{"type":"Polygon","coordinates":[[[103.6681274,1.3150921],[103.66791338954955,1.3150788894783678],[103.66790822878484,1.3151502164677433],[103.66789619846904,1.3151493464681105],[103.6678674,1.3156155],[103.6680942,1.3156295],[103.6681274,1.3150921]]]},"clearanceHeight":1.7,"clearancePrepared":true},"geometry":{"type":"Polygon","coordinates":[[[103.6680942,1.3156295],[103.6681274,1.3150921],[103.6679006,1.3150781],[103.6678674,1.3156155],[103.6680942,1.3156295]]]}},{"type":"Feature","id":"way/118579437-0","properties":{"addr:city":"Singapore","addr:country":"SG","addr:housenumber":"36","addr:street":"Gul Avenue","building":"yes","clearanceGeometry":{"type":"Polygon","coordinates":[[[103.6674717,1.3150184],[103.667441,1.315591],[103.6676439,1.3155981],[103.6676716,1.3150281],[103.6674717,1.3150184]]]},"clearanceHeight":1.7,"clearancePrepared":true},"geometry":{"type":"Polygon","coordinates":[[[103.6676716,1.3150281],[103.6674717,1.3150184],[103.667441,1.315591],[103.6676439,1.3155981],[103.6676716,1.3150281]]]}},{"type":"Feature","id":"way/118579438-0","properties":{"addr:city":"Singapore","addr:country":"SG","addr:housenumber":"32","addr:street":"Gul Avenue","building":"yes","clearanceGeometry":{"type":"Polygon","coordinates":[[[103.6681274,1.3150921],[103.6680942,1.3156295],[103.6682859,1.3156395],[103.668318,1.315106],[103.6681274,1.3150921]]]},"clearanceHeight":1.7,"clearancePrepared":true},"geometry":{"type":"Polygon","coordinates":[[[103.668318,1.315106],[103.6681274,1.3150921],[103.6680942,1.3156295],[103.6682859,1.3156395],[103.668318,1.315106]]]}},{"type":"Feature","id":"way/118579469-0","properties":{"addr:city":"Singapore","addr:country":"SG","addr:housenumber":"38","addr:street":"Gul Avenue","building":"yes","clearanceGeometry":{"type":"Polygon","coordinates":[[[103.667441,1.315591],[103.6674717,1.3150184],[103.66727885832107,1.3150085461033207],[103.66724190208332,1.3155735947052873],[103.66733165398348,1.315579050514287],[103.66733135545478,1.3155839590555636],[103.6673495,1.3155849],[103.667441,1.315591]]]},"clearanceHeight":1.7,"clearancePrepared":true},"geometry":{"type":"Polygon","coordinates":[[[103.6673495,1.3155849],[103.667441,1.315591],[103.6674717,1.3150184],[103.6672623,1.3150077],[103.6672338,1.3155789],[103.6673495,1.3155849]]]}},{"type":"Feature","id":"way/118579473-0","properties":{"addr:city":"Singapore","addr:country":"SG","addr:housenumber":"26","addr:street":"Gul Avenue","building":"yes","clearanceGeometry":{"type":"Polygon","coordinates":[[[103.6694084,1.315157],[103.66921035373507,1.3151451519014663],[103.6691771057437,1.3157133625188309],[103.669374,1.3157247],[103.6694084,1.315157]]]},"clearanceHeight":1.7,"clearancePrepared":true},"geometry":{"type":"Polygon","coordinates":[[[103.669374,1.3157247],[103.6694084,1.315157],[103.6692028,1.3151447],[103.6691656,1.3157127],[103.669374,1.3157247]]]}},{"type":"Feature","id":"way/118607681-0","properties":{"addr:city":"Singapore","addr:country":"SG","addr:housenumber":"26","addr:street":"Gul Way","building":"yes","clearanceGeometry":{"type":"Polygon","coordinates":[[[103.6705309,1.3117127],[103.6705841,1.3106731],[103.6702415,1.3106556],[103.6701883,1.3116952],[103.6705309,1.3117127]]]},"clearanceHeight":1.7,"clearancePrepared":true},"geometry":{"type":"Polygon","coordinates":[[[103.6701883,1.3116952],[103.6705309,1.3117127],[103.6705841,1.3106731],[103.6702415,1.3106556],[103.6701883,1.3116952]]]}},{"type":"Feature","id":"way/118607691-0","properties":{"addr:housenumber":"11","addr:street":"Gul Circle","building":"yes","clearanceGeometry":{"type":"Polygon","coordinates":[[[103.66821714615466,1.3104955666459142],[103.66812887987241,1.311588295910299],[103.6683951,1.3116086],[103.6684102,1.31141],[103.6700373,1.311534],[103.6701055,1.3106395],[103.66821714615466,1.3104955666459142]]]},"clearanceHeight":1.7,"clearancePrepared":true},"geometry":{"type":"Polygon","coordinates":[[[103.6701055,1.3106395],[103.6682084,1.3104949],[103.668125,1.311588],[103.6683951,1.3116086],[103.6684102,1.31141],[103.6700373,1.311534],[103.6701055,1.3106395]]]}},{"type":"Feature","id":"way/118607693-0","properties":{"addr:housenumber":"1","addr:street":"Gul Crescent","building":"yes","clearanceGeometry":{"type":"Polygon","coordinates":[[[103.6671876,1.3119275],[103.6679176,1.3117226],[103.6678487,1.3114773],[103.6676708,1.3115273],[103.6676324,1.3113903],[103.66709361561222,1.311541464103724],[103.66713940187164,1.311730800605505],[103.66713283775523,1.3117323871745061],[103.6671876,1.3119275]]]},"clearanceHeight":1.7,"clearancePrepared":true},"geometry":{"type":"Polygon","coordinates":[[[103.6670803,1.3115452],[103.6671876,1.3119275],[103.6679176,1.3117226],[103.6678487,1.3114773],[103.6676708,1.3115273],[103.6676324,1.3113903],[103.6670803,1.3115452]]]}},{"type":"Feature","id":"way/118607712-0","properties":{"building":"yes","clearanceGeometry":{"type":"Polygon","coordinates":[[[103.6679574,1.3112762],[103.66798,1.3111357],[103.6676031,1.3110752],[103.6675805,1.3112157],[103.6679574,1.3112762]]]},"clearanceHeight":1.7,"clearancePrepared":true},"geometry":{"type":"Polygon","coordinates":[[[103.6675805,1.3112157],[103.6679574,1.3112762],[103.66798,1.3111357],[103.6676031,1.3110752],[103.6675805,1.3112157]]]}},{"type":"Feature","id":"way/118607723-0","properties":{"building":"yes","clearanceGeometry":{"type":"Polygon","coordinates":[[[103.6673401,1.3112067],[103.6672841,1.3110248],[103.66699044004982,1.311115095979291],[103.66700228392294,1.3111640350193943],[103.6670746,1.311399],[103.667166,1.3113709],[103.6671348,1.3112698],[103.6673401,1.3112067]]]},"clearanceHeight":1.7,"clearancePrepared":true},"geometry":{"type":"Polygon","coordinates":[[[103.6671348,1.3112698],[103.6673401,1.3112067],[103.6672841,1.3110248],[103.6669875,1.311116],[103.6670746,1.311399],[103.667166,1.3113709],[103.6671348,1.3112698]]]}},{"type":"Feature","id":"way/118608627-0","properties":{"addr:city":"Singapore","addr:country":"SG","addr:housenumber":"27","addr:street":"Gul Avenue","building":"yes","clearanceGeometry":{"type":"Polygon","coordinates":[[[103.6692253,1.3139485],[103.6689866,1.3139317],[103.66897005218415,1.3141667317270498],[103.66897575051675,1.3141670987204532],[103.6689449370832,1.3146453008504295],[103.6691751,1.3146615],[103.6692253,1.3139485]]]},"clearanceHeight":1.7,"clearancePrepared":true},"geometry":{"type":"Polygon","coordinates":[[[103.6691751,1.3146615],[103.6692253,1.3139485],[103.6689866,1.3139317],[103.6689364,1.3146447],[103.6691751,1.3146615]]]}},{"type":"Feature","id":"way/118608628-0","properties":{"addr:city":"Singapore","addr:country":"SG","addr:housenumber":"21","addr:street":"Gul Avenue","building":"yes","clearanceGeometry":{"type":"Polygon","coordinates":[[[103.6703969,1.3139899],[103.6701023,1.3139722],[103.6700856,1.3142491],[103.6701436,1.3142526],[103.67011879468458,1.31466370153166],[103.67032625570353,1.31467786998736],[103.6703258070325,1.3146844363352967],[103.670355,1.3146862],[103.6703969,1.3139899]]]},"clearanceHeight":1.7,"clearancePrepared":true},"geometry":{"type":"Polygon","coordinates":[[[103.670355,1.3146862],[103.6703969,1.3139899],[103.6701023,1.3139722],[103.6700856,1.3142491],[103.6701436,1.3142526],[103.6701183,1.3146719],[103.670355,1.3146862]]]}},{"type":"Feature","id":"way/118608629-0","properties":{"addr:city":"Singapore","addr:country":"SG","addr:housenumber":"25","addr:street":"Gul Avenue","building":"yes","clearanceGeometry":{"type":"Polygon","coordinates":[[[103.6696217,1.3139167],[103.6693343,1.3138974],[103.6693163,1.3141669],[103.6693614,1.3141699],[103.66935751617974,1.3142278090993187],[103.66936199213282,1.3142281851468887],[103.66933972245666,1.314493119646403],[103.6693324,1.3146023],[103.6695747,1.3146185],[103.6696217,1.3139167]]]},"clearanceHeight":1.7,"clearancePrepared":true},"geometry":{"type":"Polygon","coordinates":[[[103.6695747,1.3146185],[103.6696217,1.3139167],[103.6693343,1.3138974],[103.6693163,1.3141669],[103.6693614,1.3141699],[103.6693324,1.3146023],[103.6695747,1.3146185]]]}},{"type":"Feature","id":"way/118608630-0","properties":{"addr:city":"Singapore","addr:country":"SG","addr:housenumber":"33","addr:street":"Gul Avenue","building":"yes","clearanceGeometry":{"type":"Polygon","coordinates":[[[103.6680805,1.3140875],[103.6678531,1.3140742],[103.6678288,1.3144902],[103.6680562,1.3145035],[103.6680805,1.3140875]]]},"clearanceHeight":1.7,"clearancePrepared":true},"geometry":{"type":"Polygon","coordinates":[[[103.6680562,1.3145035],[103.6680805,1.3140875],[103.6678531,1.3140742],[103.6678288,1.3144902],[103.6680562,1.3145035]]]}},{"type":"Feature","id":"way/118608631-0","properties":{"addr:city":"Singapore","addr:country":"SG","addr:housenumber":"29","addr:street":"Gul Avenue","building":"yes","clearanceGeometry":{"type":"Polygon","coordinates":[[[103.668798,1.3145856],[103.6688459,1.3139001],[103.6682772,1.3138604],[103.6682667,1.314011],[103.6686323,1.3140366],[103.6686259,1.3141283],[103.6685949,1.3145714],[103.668798,1.3145856]]]},"clearanceHeight":1.7,"clearancePrepared":true},"geometry":{"type":"Polygon","coordinates":[[[103.6685949,1.3145714],[103.668798,1.3145856],[103.6688459,1.3139001],[103.6682772,1.3138604],[103.6682667,1.314011],[103.6686323,1.3140366],[103.6686259,1.3141283],[103.6685949,1.3145714]]]}},{"type":"Feature","id":"way/118608633-0","properties":{"building":"yes","clearanceGeometry":{"type":"Polygon","coordinates":[[[103.6680743,1.3138589],[103.6677631,1.3138391],[103.6677534,1.3139916],[103.6680646,1.3140114],[103.6680743,1.3138589]]]},"clearanceHeight":1.7,"clearancePrepared":true},"geometry":{"type":"Polygon","coordinates":[[[103.6680646,1.3140114],[103.6680743,1.3138589],[103.6677631,1.3138391],[103.6677534,1.3139916],[103.6680646,1.3140114]]]}},{"type":"Feature","id":"way/118608635-0","properties":{"addr:city":"Singapore","addr:country":"SG","addr:housenumber":"31","addr:street":"Gul Avenue","building":"yes","clearanceGeometry":{"type":"Polygon","coordinates":[[[103.668427,1.3141587],[103.6681895,1.3141371],[103.6681521,1.3145485],[103.6683896,1.3145701],[103.668427,1.3141587]]]},"clearanceHeight":1.7,"clearancePrepared":true},"geometry":{"type":"Polygon","coordinates":[[[103.6683896,1.3145701],[103.668427,1.3141587],[103.6681895,1.3141371],[103.6681521,1.3145485],[103.6683896,1.3145701]]]}},{"type":"Feature","id":"way/118608636-0","properties":{"addr:city":"Singapore","addr:country":"SG","addr:housenumber":"37","addr:street":"Gul Avenue","building":"yes","clearanceGeometry":{"type":"Polygon","coordinates":[[[103.6672656,1.3139527],[103.6670343,1.3139367],[103.6670201,1.3141429],[103.6670367,1.314144],[103.6670215,1.3143648],[103.6669989,1.3143633],[103.6669918,1.3144673],[103.6672289,1.3144836],[103.6672656,1.3139527]]]},"clearanceHeight":1.7,"clearancePrepared":true},"geometry":{"type":"Polygon","coordinates":[[[103.6672289,1.3144836],[103.6672656,1.3139527],[103.6670343,1.3139367],[103.6670201,1.3141429],[103.6670367,1.314144],[103.6670215,1.3143648],[103.6669989,1.3143633],[103.6669918,1.3144673],[103.6672289,1.3144836]]]}},{"type":"Feature","id":"way/118608638-0","properties":{"addr:city":"Singapore","addr:country":"SG","addr:housenumber":"35","addr:street":"Gul Avenue","building":"yes","clearanceGeometry":{"type":"Polygon","coordinates":[[[103.6676957,1.3140416],[103.6674424,1.3140218],[103.66740933238165,1.3144443631937432],[103.66763245929316,1.3144601771955813],[103.6676315898412,1.3144724385268691],[103.6676618,1.3144748],[103.6676957,1.3140416]]]},"clearanceHeight":1.7,"clearancePrepared":true},"geometry":{"type":"Polygon","coordinates":[[[103.6676618,1.3144748],[103.6676957,1.3140416],[103.6674424,1.3140218],[103.6674085,1.314455],[103.6676618,1.3144748]]]}},{"type":"Feature","id":"way/118608640-0","properties":{"addr:city":"Singapore","addr:country":"SG","addr:housenumber":"23","addr:street":"Gul Avenue","building":"yes","clearanceGeometry":{"type":"Polygon","coordinates":[[[103.6699964,1.3140011],[103.669739,1.3139836],[103.6696841,1.31479],[103.6699415,1.3148075],[103.6699964,1.3140011]]]},"clearanceHeight":1.7,"clearancePrepared":true},"geometry":{"type":"Polygon","coordinates":[[[103.6699415,1.3148075],[103.6699964,1.3140011],[103.669739,1.3139836],[103.6696841,1.31479],[103.6699415,1.3148075]]]}},{"type":"Feature","id":"way/118611471-0","properties":{"addr:city":"Singapore","addr:country":"SG","addr:housenumber":"17","addr:street":"Gul Avenue","building":"yes","clearanceGeometry":{"type":"Polygon","coordinates":[[[103.6712626,1.3141947],[103.6711307,1.3141875],[103.6711353,1.3141028],[103.6709502,1.3140927],[103.6709171,1.3146973],[103.6712342,1.3147146],[103.6712626,1.3141947]]]},"clearanceHeight":1.7,"clearancePrepared":true},"geometry":{"type":"Polygon","coordinates":[[[103.6712342,1.3147146],[103.6712626,1.3141947],[103.6711307,1.3141875],[103.6711353,1.3141028],[103.6709502,1.3140927],[103.6709171,1.3146973],[103.6712342,1.3147146]]]}},{"type":"Feature","id":"way/118611479-0","properties":{"addr:housenumber":"19","addr:street":"Gul Way","building":"yes","clearanceGeometry":{"type":"Polygon","coordinates":[[[103.6710382,1.3122629],[103.6710344,1.3123303],[103.6709814,1.3123274],[103.67098119198366,1.3123311626701686],[103.67099046930178,1.312331688620911],[103.67096206930178,1.312832388620911],[103.67095350892009,1.312831903314808],[103.67095348303887,1.3128323714631196],[103.67096203123644,1.3128329823837934],[103.67096154603323,1.3128397680934076],[103.6709946,1.3128416],[103.6709669,1.31334],[103.67092594347523,1.3133376803384202],[103.67090763123645,1.3135937823837933],[103.67089622101915,1.313592966920933],[103.6708954,1.3136078],[103.6711934,1.3136243],[103.6712681,1.3122756],[103.6710382,1.3122629]]]},"clearanceHeight":1.7,"clearancePrepared":true},"geometry":{"type":"Polygon","coordinates":[[[103.6712681,1.3122756],[103.6710382,1.3122629],[103.6710344,1.3123303],[103.6709814,1.3123274],[103.6709531,1.3128393],[103.6709946,1.3128416],[103.6709669,1.31334],[103.6709104,1.3133368],[103.6708954,1.3136078],[103.6711934,1.3136243],[103.6712681,1.3122756]]]}},{"type":"Feature","id":"way/453471016-0","properties":{"building":"yes","clearanceGeometry":{"type":"Polygon","coordinates":[[[103.6677265,1.3137862],[103.6673833,1.3137628],[103.6673715,1.3139361],[103.6677147,1.3139594],[103.6677265,1.3137862]]]},"clearanceHeight":1.7,"clearancePrepared":true},"geometry":{"type":"Polygon","coordinates":[[[103.6677147,1.3139594],[103.6677265,1.3137862],[103.6673833,1.3137628],[103.6673715,1.3139361],[103.6677147,1.3139594]]]}},{"type":"Feature","id":"way/454841376-0","properties":{"building":"yes","clearanceGeometry":{"type":"Polygon","coordinates":[[[103.6704414,1.3137056],[103.670273,1.3136921],[103.6702616,1.3138348],[103.6704299,1.3138483],[103.6704414,1.3137056]]]},"clearanceHeight":1.7,"clearancePrepared":true},"geometry":{"type":"Polygon","coordinates":[[[103.6704299,1.3138483],[103.6704414,1.3137056],[103.670273,1.3136921],[103.6702616,1.3138348],[103.6704299,1.3138483]]]}},{"type":"Feature","id":"node/8383145208","properties":{"highway":"crossing"},"geometry":{"type":"Point","coordinates":[103.666982,1.3120937]}},{"type":"Feature","id":"node/8395602255","properties":{"highway":"crossing"},"geometry":{"type":"Point","coordinates":[103.6668756,1.3117609]}},{"type":"Feature","id":"node/8395602267","properties":{"highway":"crossing"},"geometry":{"type":"Point","coordinates":[103.6668188,1.3117217]}},{"type":"Feature","id":"node/8395602274","properties":{"highway":"crossing"},"geometry":{"type":"Point","coordinates":[103.6668797,1.3115354]}},{"type":"Feature","id":"node/14072045753","properties":{"crossing":"traffic_signals","crossing:markings":"dots","highway":"crossing"},"geometry":{"type":"Point","coordinates":[103.6707599,1.3121654]}},{"type":"Feature","id":"node/14072045754","properties":{"crossing":"traffic_signals","crossing:markings":"dots","highway":"crossing"},"geometry":{"type":"Point","coordinates":[103.6706632,1.3120273]}},{"type":"Feature","id":"node/14072045755","properties":{"crossing":"traffic_signals","crossing:markings":"dots","highway":"crossing"},"geometry":{"type":"Point","coordinates":[103.670874,1.3120433]}},{"type":"Feature","id":"node/14072045756","properties":{"crossing":"traffic_signals","crossing:markings":"dots","highway":"crossing"},"geometry":{"type":"Point","coordinates":[103.6707739,1.3119004]}},{"type":"Feature","id":"way/32630704-0-1-0","properties":{"highway":"residential","lanes":"4","lanes:backward":"2","lanes:forward":"2","lit":"yes","maxspeed":"50","name":"Gul Way","sidewalk":"left","surface":"asphalt","turn:lanes:backward":"left;through|through;right","turn:lanes:forward":"left;through|through;right","startNodeId":"8650938192","endNodeId":"5557905550"},"geometry":{"type":"LineString","coordinates":[[103.670519,1.3158775],[103.6705873,1.3149706]]}},{"type":"Feature","id":"way/175959481-0-0-0","properties":{"highway":"residential","lanes":"4","lanes:backward":"2","lanes:forward":"2","maxspeed":"50","name":"Gul Circle","parking:condition:both:vehicles":"hgv_articulated","parking:lane:both":"parallel","sidewalk":"left","surface":"asphalt","startNodeId":"4488112808","endNodeId":"1865254910"},"geometry":{"type":"LineString","coordinates":[[103.6701017,1.3119816],[103.6689727,1.3119002]]}},{"type":"Feature","id":"way/175959481-0-1-0","properties":{"highway":"residential","lanes":"4","lanes:backward":"2","lanes:forward":"2","maxspeed":"50","name":"Gul Circle","parking:condition:both:vehicles":"hgv_articulated","parking:lane:both":"parallel","sidewalk":"left","surface":"asphalt","startNodeId":"1865254910","endNodeId":"366908563"},"geometry":{"type":"LineString","coordinates":[[103.6689727,1.3119002],[103.6681606,1.3119334]]}},{"type":"Feature","id":"way/175959481-0-2-0","properties":{"highway":"residential","lanes":"4","lanes:backward":"2","lanes:forward":"2","maxspeed":"50","name":"Gul Circle","parking:condition:both:vehicles":"hgv_articulated","parking:lane:both":"parallel","sidewalk":"left","surface":"asphalt","startNodeId":"366908563","endNodeId":"6215276385"},"geometry":{"type":"LineString","coordinates":[[103.6681606,1.3119334],[103.6674871,1.3120488]]}},{"type":"Feature","id":"way/175959481-0-3-0","properties":{"highway":"residential","lanes":"4","lanes:backward":"2","lanes:forward":"2","maxspeed":"50","name":"Gul Circle","parking:condition:both:vehicles":"hgv_articulated","parking:lane:both":"parallel","sidewalk":"left","surface":"asphalt","startNodeId":"6215276385","endNodeId":"8395602271"},"geometry":{"type":"LineString","coordinates":[[103.6674871,1.3120488],[103.6671899,1.3121345]]}},{"type":"Feature","id":"way/175959481-0-4-0","properties":{"highway":"residential","lanes":"4","lanes:backward":"2","lanes:forward":"2","maxspeed":"50","name":"Gul Circle","parking:condition:both:vehicles":"hgv_articulated","parking:lane:both":"parallel","sidewalk":"left","surface":"asphalt","startNodeId":"8395602271","endNodeId":"5558246616"},"geometry":{"type":"LineString","coordinates":[[103.6671899,1.3121345],[103.6670115,1.3121859]]}},{"type":"Feature","id":"way/175959485-0-0-0","properties":{"highway":"residential","lanes":"4","lanes:backward":"2","lanes:forward":"2","lit":"yes","maxspeed":"50","name":"Gul Way","sidewalk":"left","surface":"asphalt","startNodeId":"4604832592","endNodeId":"5266732525"},"geometry":{"type":"LineString","coordinates":[[103.6707272,1.3128888],[103.6707318,1.3128173]]}},{"type":"Feature","id":"way/465524987-0-0-0","properties":{"highway":"service","surface":"asphalt","startNodeId":"4604832592","endNodeId":"5558270728"},"geometry":{"type":"LineString","coordinates":[[103.6707272,1.3128888],[103.6707113,1.3128873]]}},{"type":"Feature","id":"way/465525023-0-0-0","properties":{"highway":"service","noname":"yes","surface":"asphalt","startNodeId":"4488112806","endNodeId":"4488112805"},"geometry":{"type":"LineString","coordinates":[[103.6680848,1.3116318],[103.6681814,1.3104359]]}},{"type":"Feature","id":"way/465525024-0-0-0","properties":{"highway":"service","noname":"yes","surface":"asphalt","startNodeId":"4488112807","endNodeId":"way/465525024-0:0:1"},"geometry":{"type":"LineString","coordinates":[[103.6701126,1.3117632],[103.6690987,1.3116975]]}},{"type":"Feature","id":"way/465525024-0-0-1","properties":{"highway":"service","noname":"yes","surface":"asphalt","startNodeId":"way/465525024-0:0:1","endNodeId":"4488112806"},"geometry":{"type":"LineString","coordinates":[[103.6690987,1.3116975],[103.6680848,1.3116318]]}},{"type":"Feature","id":"way/539043434-0-0-0","properties":{"highway":"service","lanes":"2","startNodeId":"5216602372","endNodeId":"4488112807"},"geometry":{"type":"LineString","coordinates":[[103.670199,1.3105902],[103.6701126,1.3117632]]}},{"type":"Feature","id":"way/539055341-0-1-0","properties":{"highway":"service","startNodeId":"5216671951","endNodeId":"5216671950"},"geometry":{"type":"LineString","coordinates":[[103.6711576,1.3115908],[103.6711096,1.3115686]]}},{"type":"Feature","id":"way/539055341-0-2-0","properties":{"highway":"service","startNodeId":"5216671950","endNodeId":"5216671949"},"geometry":{"type":"LineString","coordinates":[[103.6711096,1.3115686],[103.6710794,1.3115234]]}},{"type":"Feature","id":"way/539055341-0-3-0","properties":{"highway":"service","startNodeId":"5216671949","endNodeId":"5216671948"},"geometry":{"type":"LineString","coordinates":[[103.6710794,1.3115234],[103.6710752,1.3114831]]}},{"type":"Feature","id":"way/539055341-0-4-0","properties":{"highway":"service","startNodeId":"5216671948","endNodeId":"5216671947"},"geometry":{"type":"LineString","coordinates":[[103.6710752,1.3114831],[103.6711069,1.3107958]]}},{"type":"Feature","id":"way/539055342-0-0-0","properties":{"highway":"service","startNodeId":"5216671954","endNodeId":"5216671953"},"geometry":{"type":"LineString","coordinates":[[103.6669493,1.311117],[103.6670402,1.3114926]]}},{"type":"Feature","id":"way/539055343-0-0-0","properties":{"highway":"service","startNodeId":"5558247469","endNodeId":"5216671956"},"geometry":{"type":"LineString","coordinates":[[103.6668105,1.3115539],[103.6668233,1.3115504]]}},{"type":"Feature","id":"way/539055349-0-0-0","properties":{"highway":"service","startNodeId":"5216671971","endNodeId":"5216671970"},"geometry":{"type":"LineString","coordinates":[[103.6702457,1.3119953],[103.6702605,1.3117806]]}},{"type":"Feature","id":"way/539055349-0-1-0","properties":{"highway":"service","startNodeId":"5216671970","endNodeId":"5216671969"},"geometry":{"type":"LineString","coordinates":[[103.6702605,1.3117806],[103.6705392,1.3117992]]}},{"type":"Feature","id":"way/539057910-0-0-0","properties":{"highway":"service","service":"parking_aisle","startNodeId":"5216690168","endNodeId":"5216690167"},"geometry":{"type":"LineString","coordinates":[[103.6692859,1.3146507],[103.6695644,1.3146646]]}},{"type":"Feature","id":"way/539057911-0-0-0","properties":{"highway":"service","startNodeId":"5216690170","endNodeId":"5216690168"},"geometry":{"type":"LineString","coordinates":[[103.6693217,1.3142248],[103.6692859,1.3146507]]}},{"type":"Feature","id":"way/539057912-0-0-0","properties":{"highway":"service","startNodeId":"5216690172","endNodeId":"5216690171"},"geometry":{"type":"LineString","coordinates":[[103.6689354,1.3141645],[103.6688913,1.3148489]]}},{"type":"Feature","id":"way/539057913-0-0-0","properties":{"highway":"service","startNodeId":"5216690174","endNodeId":"5216690173"},"geometry":{"type":"LineString","coordinates":[[103.6685345,1.3141953],[103.6684991,1.3148228]]}},{"type":"Feature","id":"way/539057914-0-0-0","properties":{"highway":"service","startNodeId":"5216690176","endNodeId":"5266556200"},"geometry":{"type":"LineString","coordinates":[[103.6677714,1.3140344],[103.6677354,1.3145268]]}},{"type":"Feature","id":"way/539057915-0-0-0","properties":{"highway":"service","startNodeId":"5266556202","endNodeId":"5216690177"},"geometry":{"type":"LineString","coordinates":[[103.667346,1.3144804],[103.6673303,1.314745]]}},{"type":"Feature","id":"way/539057926-0-0-0","properties":{"highway":"service","startNodeId":"5216690204","endNodeId":"5216690203"},"geometry":{"type":"LineString","coordinates":[[103.6708389,1.3138858],[103.670762,1.3147906]]}},{"type":"Feature","id":"way/539057927-0-0-0","properties":{"highway":"service","startNodeId":"5216690206","endNodeId":"5216690204"},"geometry":{"type":"LineString","coordinates":[[103.6706541,1.3138725],[103.6708389,1.3138858]]}},{"type":"Feature","id":"way/544863927-0-0-0","properties":{"highway":"service","startNodeId":"5557905556","endNodeId":"5266556132"},"geometry":{"type":"LineString","coordinates":[[103.6672553,1.3147492],[103.6672011,1.3155779]]}},{"type":"Feature","id":"way/544863930-0-0-0","properties":{"highway":"service","startNodeId":"5266556135","endNodeId":"5266556134"},"geometry":{"type":"LineString","coordinates":[[103.6698401,1.3151267],[103.6702175,1.315154]]}},{"type":"Feature","id":"way/544863935-0-0-0","properties":{"highway":"service","startNodeId":"5266556177","endNodeId":"5266556176"},"geometry":{"type":"LineString","coordinates":[[103.6712769,1.3136602],[103.6712932,1.3136672]]}},{"type":"Feature","id":"way/544863939-0-2-0","properties":{"highway":"service","startNodeId":"5266556179","endNodeId":"5266556178"},"geometry":{"type":"LineString","coordinates":[[103.6712643,1.3136304],[103.6712675,1.3136485]]}},{"type":"Feature","id":"way/544863939-0-3-0","properties":{"highway":"service","startNodeId":"5266556178","endNodeId":"5266556177"},"geometry":{"type":"LineString","coordinates":[[103.6712675,1.3136485],[103.6712769,1.3136602]]}},{"type":"Feature","id":"way/544863940-0-4-0","properties":{"highway":"service","startNodeId":"5266556182","endNodeId":"5557905552"},"geometry":{"type":"LineString","coordinates":[[103.6696576,1.3158379],[103.6697066,1.3149124]]}},{"type":"Feature","id":"way/544863941-0-0-0","properties":{"highway":"service","startNodeId":"5266556188","endNodeId":"5557905554"},"geometry":{"type":"LineString","coordinates":[[103.6683445,1.3156144],[103.6683891,1.3148247]]}},{"type":"Feature","id":"way/544863942-0-0-0","properties":{"highway":"service","startNodeId":"5266556190","endNodeId":"5557905553"},"geometry":{"type":"LineString","coordinates":[[103.6691311,1.3158074],[103.6691855,1.3148777]]}},{"type":"Feature","id":"way/544863943-0-0-0","properties":{"highway":"service","startNodeId":"5266556192","endNodeId":"5266556191"},"geometry":{"type":"LineString","coordinates":[[103.6700614,1.3147003],[103.6703235,1.3147182]]}},{"type":"Feature","id":"way/544863944-0-0-0","properties":{"highway":"service","startNodeId":"5266556194","endNodeId":"5266556192"},"geometry":{"type":"LineString","coordinates":[[103.6700496,1.314926],[103.6700614,1.3147003]]}},{"type":"Feature","id":"way/544863947-0-0-0","properties":{"highway":"service","startNodeId":"5266556200","endNodeId":"5266556199"},"geometry":{"type":"LineString","coordinates":[[103.6677354,1.3145268],[103.6680242,1.3145437]]}},{"type":"Feature","id":"way/544863948-0-0-0","properties":{"highway":"service","startNodeId":"5266556202","endNodeId":"5266556201"},"geometry":{"type":"LineString","coordinates":[[103.667346,1.3144804],[103.6676296,1.3145005]]}},{"type":"Feature","id":"way/544863950-0-0-0","properties":{"highway":"service","startNodeId":"5266556206","endNodeId":"5266556205"},"geometry":{"type":"LineString","coordinates":[[103.6670186,1.3138914],[103.6670263,1.3138868]]}},{"type":"Feature","id":"way/544863950-0-1-0","properties":{"highway":"service","startNodeId":"5266556205","endNodeId":"5266556204"},"geometry":{"type":"LineString","coordinates":[[103.6670263,1.3138868],[103.6670371,1.3138845]]}},{"type":"Feature","id":"way/544863950-0-2-0","properties":{"highway":"service","startNodeId":"5266556204","endNodeId":"5266556203"},"geometry":{"type":"LineString","coordinates":[[103.6670371,1.3138845],[103.6672813,1.3138999]]}},{"type":"Feature","id":"way/544882720-0-0-0","properties":{"highway":"service","startNodeId":"5266732527","endNodeId":"5266732524"},"geometry":{"type":"LineString","coordinates":[[103.6708673,1.3135909],[103.6709217,1.3128301]]}},{"type":"Feature","id":"way/545121153-0-2-0","properties":{"highway":"service","startNodeId":"8395602267","endNodeId":"5558246618"},"geometry":{"type":"LineString","coordinates":[[103.6668188,1.3117217],[103.6668602,1.3117128]]}},{"type":"Feature","id":"way/580546069-0-0-0","properties":{"highway":"residential","lanes":"4","lanes:backward":"2","lanes:forward":"2","lit":"yes","maxspeed":"50","name":"Gul Way","surface":"asphalt","turn:lanes:backward":"left;through|right","turn:lanes:forward":"none|none","startNodeId":"5558270725","endNodeId":"14072045756"},"geometry":{"type":"LineString","coordinates":[[103.6707656,1.3120345],[103.6707739,1.3119004]]}},{"type":"Feature","id":"way/580546069-0-1-0","properties":{"highway":"residential","lanes":"4","lanes:backward":"2","lanes:forward":"2","lit":"yes","maxspeed":"50","name":"Gul Way","surface":"asphalt","turn:lanes:backward":"left;through|right","turn:lanes:forward":"none|none","startNodeId":"14072045756","endNodeId":"366908447"},"geometry":{"type":"LineString","coordinates":[[103.6707739,1.3119004],[103.6708001,1.3114775]]}},{"type":"Feature","id":"way/632691066-0-0-0","properties":{"highway":"service","lanes":"2","lanes:backward":"1","lanes:forward":"1","surface":"asphalt","startNodeId":"4488112808","endNodeId":"4488112807"},"geometry":{"type":"LineString","coordinates":[[103.6701017,1.3119816],[103.6701126,1.3117632]]}},{"type":"Feature","id":"way/632695627-0-0-0","properties":{"highway":"residential","lanes":"4","lanes:backward":"2","lanes:forward":"2","lit":"yes","maxspeed":"50","name":"Gul Way","surface":"asphalt","startNodeId":"366908447","endNodeId":"4488112804"},"geometry":{"type":"LineString","coordinates":[[103.6708001,1.3114775],[103.6708636,1.3106619]]}},{"type":"Feature","id":"way/633607556-0-0-0","properties":{"highway":"residential","lanes":"4","lanes:backward":"2","lanes:forward":"2","lit":"yes","maxspeed":"50","name":"Gul Way","sidewalk":"left","surface":"asphalt","turn:lanes:backward":"left;through|through;right","startNodeId":"5557905550","endNodeId":"5216690206"},"geometry":{"type":"LineString","coordinates":[[103.6705873,1.3149706],[103.6706541,1.3138725]]}},{"type":"Feature","id":"way/634500177-0-0-0","properties":{"highway":"residential","lanes":"3","lanes:backward":"1","lanes:forward":"2","maxspeed":"50","name":"Gul Circle","sidewalk":"both","surface":"asphalt","turn:lanes:backward":"left;through;right","startNodeId":"5558270725","endNodeId":"14072045754"},"geometry":{"type":"LineString","coordinates":[[103.6707656,1.3120345],[103.6706632,1.3120273]]}},{"type":"Feature","id":"way/634500177-0-1-0","properties":{"highway":"residential","lanes":"3","lanes:backward":"1","lanes:forward":"2","maxspeed":"50","name":"Gul Circle","sidewalk":"both","surface":"asphalt","turn:lanes:backward":"left;through;right","startNodeId":"14072045754","endNodeId":"6381144282"},"geometry":{"type":"LineString","coordinates":[[103.6706632,1.3120273],[103.6704174,1.3120099]]}},{"type":"Feature","id":"way/645283178-0-0-0","properties":{"highway":"service","startNodeId":"5216671953","endNodeId":"5216671952"},"geometry":{"type":"LineString","coordinates":[[103.6670402,1.3114926],[103.6671001,1.3117403]]}},{"type":"Feature","id":"way/645283179-0-0-0","properties":{"highway":"service","startNodeId":"5216671956","endNodeId":"8395602274"},"geometry":{"type":"LineString","coordinates":[[103.6668233,1.3115504],[103.6668797,1.3115354]]}},{"type":"Feature","id":"way/645283179-0-1-0","properties":{"highway":"service","startNodeId":"8395602274","endNodeId":"5216671953"},"geometry":{"type":"LineString","coordinates":[[103.6668797,1.3115354],[103.6670402,1.3114926]]}},{"type":"Feature","id":"way/645283180-0-0-0","properties":{"highway":"service","startNodeId":"5216671953","endNodeId":"5216671955"},"geometry":{"type":"LineString","coordinates":[[103.6670402,1.3114926],[103.6677901,1.3113033]]}},{"type":"Feature","id":"way/645283433-0-0-0","properties":{"highway":"residential","lanes":"2","lanes:backward":"1","lanes:forward":"1","lit":"yes","maxspeed":"50","name":"Gul Crescent","surface":"asphalt","startNodeId":"5558246618","endNodeId":"8395602255"},"geometry":{"type":"LineString","coordinates":[[103.6668602,1.3117128],[103.6668756,1.3117609]]}},{"type":"Feature","id":"way/645283433-0-1-0","properties":{"highway":"residential","lanes":"2","lanes:backward":"1","lanes:forward":"1","lit":"yes","maxspeed":"50","name":"Gul Crescent","surface":"asphalt","startNodeId":"8395602255","endNodeId":"8383145208"},"geometry":{"type":"LineString","coordinates":[[103.6668756,1.3117609],[103.666982,1.3120937]]}},{"type":"Feature","id":"way/645283433-0-2-0","properties":{"highway":"residential","lanes":"2","lanes:backward":"1","lanes:forward":"1","lit":"yes","maxspeed":"50","name":"Gul Crescent","surface":"asphalt","startNodeId":"8383145208","endNodeId":"5558246616"},"geometry":{"type":"LineString","coordinates":[[103.666982,1.3120937],[103.6670115,1.3121859]]}},{"type":"Feature","id":"way/645283434-0-0-0","properties":{"highway":"residential","lanes":"2","lanes:backward":"1","lanes:forward":"1","lit":"yes","maxspeed":"50","name":"Gul Crescent","surface":"asphalt","startNodeId":"5558247469","endNodeId":"5558246618"},"geometry":{"type":"LineString","coordinates":[[103.6668105,1.3115539],[103.6668602,1.3117128]]}},{"type":"Feature","id":"way/645296627-0-0-0","properties":{"highway":"residential","lanes":"4","maxspeed":"50","name":"Gul Avenue","sidewalk":"right","surface":"asphalt","startNodeId":"5557905551","endNodeId":"5557905572"},"geometry":{"type":"LineString","coordinates":[[103.6698591,1.3149225],[103.6700491,1.3149349]]}},{"type":"Feature","id":"way/645296633-0-0-0","properties":{"highway":"residential","lanes":"4","maxspeed":"50","name":"Gul Avenue","parking:condition:both:vehicles":"motorcar","parking:lane:both":"parallel","sidewalk":"right","surface":"asphalt","startNodeId":"5557905571","endNodeId":"5557905552"},"geometry":{"type":"LineString","coordinates":[[103.6692705,1.3148834],[103.6697066,1.3149124]]}},{"type":"Feature","id":"way/645296643-0-0-0","properties":{"highway":"service","startNodeId":"5216690168","endNodeId":"5216690169"},"geometry":{"type":"LineString","coordinates":[[103.6692859,1.3146507],[103.6692712,1.3148742]]}},{"type":"Feature","id":"way/645296645-0-0-0","properties":{"highway":"service","startNodeId":"5216690169","endNodeId":"5557905571"},"geometry":{"type":"LineString","coordinates":[[103.6692712,1.3148742],[103.6692705,1.3148834]]}},{"type":"Feature","id":"way/645297019-0-0-0","properties":{"highway":"residential","lanes":"4","maxspeed":"50","name":"Gul Avenue","sidewalk":"right","surface":"asphalt","startNodeId":"5557905553","endNodeId":"5557905571"},"geometry":{"type":"LineString","coordinates":[[103.6691855,1.3148777],[103.6692705,1.3148834]]}},{"type":"Feature","id":"way/645297020-0-0-0","properties":{"highway":"residential","lanes":"4","maxspeed":"50","name":"Gul Avenue","parking:condition:right:vehicles":"motorcar","parking:lane:right":"parallel","sidewalk":"right","surface":"asphalt","startNodeId":"5557905570","endNodeId":"8650970390"},"geometry":{"type":"LineString","coordinates":[[103.6688908,1.3148587],[103.6689947,1.3148654]]}},{"type":"Feature","id":"way/645297020-0-1-0","properties":{"highway":"residential","lanes":"4","maxspeed":"50","name":"Gul Avenue","parking:condition:right:vehicles":"motorcar","parking:lane:right":"parallel","sidewalk":"right","surface":"asphalt","startNodeId":"8650970390","endNodeId":"5557905553"},"geometry":{"type":"LineString","coordinates":[[103.6689947,1.3148654],[103.6691855,1.3148777]]}},{"type":"Feature","id":"way/645297023-0-0-0","properties":{"highway":"service","startNodeId":"5216690171","endNodeId":"5557905570"},"geometry":{"type":"LineString","coordinates":[[103.6688913,1.3148489],[103.6688908,1.3148587]]}},{"type":"Feature","id":"way/645297252-0-0-0","properties":{"highway":"residential","lanes":"4","maxspeed":"50","name":"Gul Avenue","parking:condition:right:vehicles":"motorcar","parking:lane:right":"parallel","sidewalk":"right","surface":"asphalt","startNodeId":"5557905569","endNodeId":"5557905570"},"geometry":{"type":"LineString","coordinates":[[103.6684984,1.3148318],[103.6688908,1.3148587]]}},{"type":"Feature","id":"way/645297256-0-0-0","properties":{"highway":"service","startNodeId":"5216690173","endNodeId":"5557905569"},"geometry":{"type":"LineString","coordinates":[[103.6684991,1.3148228],[103.6684984,1.3148318]]}},{"type":"Feature","id":"way/645298251-0-0-0","properties":{"highway":"residential","lanes":"4","maxspeed":"50","name":"Gul Avenue","parking:condition:right:vehicles":"motorcar","parking:lane:right":"parallel","sidewalk":"right","surface":"asphalt","startNodeId":"5557905555","endNodeId":"8650970414"},"geometry":{"type":"LineString","coordinates":[[103.6677505,1.3147821],[103.6678936,1.3147921]]}},{"type":"Feature","id":"way/645298251-0-1-0","properties":{"highway":"residential","lanes":"4","maxspeed":"50","name":"Gul Avenue","parking:condition:right:vehicles":"motorcar","parking:lane:right":"parallel","sidewalk":"right","surface":"asphalt","startNodeId":"8650970414","endNodeId":"5557905568"},"geometry":{"type":"LineString","coordinates":[[103.6678936,1.3147921],[103.6680971,1.3148053]]}},{"type":"Feature","id":"way/645298252-0-0-0","properties":{"highway":"residential","lanes":"4","maxspeed":"50","name":"Gul Avenue","sidewalk":"right","surface":"asphalt","startNodeId":"5557905567","endNodeId":"5557905555"},"geometry":{"type":"LineString","coordinates":[[103.6677211,1.3147806],[103.6677505,1.3147821]]}},{"type":"Feature","id":"way/645298255-0-0-0","properties":{"highway":"service","startNodeId":"5266556200","endNodeId":"5216690175"},"geometry":{"type":"LineString","coordinates":[[103.6677354,1.3145268],[103.6677216,1.3147711]]}},{"type":"Feature","id":"way/645298256-0-0-0","properties":{"highway":"service","startNodeId":"5216690175","endNodeId":"5557905567"},"geometry":{"type":"LineString","coordinates":[[103.6677216,1.3147711],[103.6677211,1.3147806]]}},{"type":"Feature","id":"way/645298575-0-0-0","properties":{"highway":"residential","lanes":"4","maxspeed":"50","name":"Gul Avenue","parking:condition:both:vehicles":"motorcar","parking:lane:both":"parallel","sidewalk":"right","surface":"asphalt","startNodeId":"5557905566","endNodeId":"5557905567"},"geometry":{"type":"LineString","coordinates":[[103.6673298,1.314754],[103.6677211,1.3147806]]}},{"type":"Feature","id":"way/645298576-0-0-0","properties":{"highway":"service","startNodeId":"5216690177","endNodeId":"5557905566"},"geometry":{"type":"LineString","coordinates":[[103.6673303,1.314745],[103.6673298,1.314754]]}},{"type":"Feature","id":"way/645298577-0-0-0","properties":{"highway":"service","startNodeId":"5216690178","endNodeId":"5266556202"},"geometry":{"type":"LineString","coordinates":[[103.6673811,1.3140103],[103.667346,1.3144804]]}},{"type":"Feature","id":"way/645299118-0-0-0","properties":{"highway":"service","startNodeId":"5557905555","endNodeId":"5216690179"},"geometry":{"type":"LineString","coordinates":[[103.6677505,1.3147821],[103.6676855,1.3157359]]}},{"type":"Feature","id":"way/645303290-0-0-0","properties":{"highway":"service","startNodeId":"5216690204","endNodeId":"5216690205"},"geometry":{"type":"LineString","coordinates":[[103.6708389,1.3138858],[103.6714044,1.3139312]]}},{"type":"Feature","id":"way/645304903-0-0-0","properties":{"highway":"residential","lanes":"2","lit":"yes","maxspeed":"50","name":"Gul Avenue","sidewalk":"right","surface":"asphalt","startNodeId":"5557905550","endNodeId":"6215299208"},"geometry":{"type":"LineString","coordinates":[[103.6705873,1.3149706],[103.6712354,1.3150199]]}},{"type":"Feature","id":"way/646298431-0-0-0","properties":{"highway":"residential","lanes":"4","lanes:backward":"2","lanes:forward":"2","lit":"yes","maxspeed":"50","name":"Gul Way","sidewalk":"left","surface":"asphalt","startNodeId":"5216690206","endNodeId":"4604832592"},"geometry":{"type":"LineString","coordinates":[[103.6706541,1.3138725],[103.6707272,1.3128888]]}},{"type":"Feature","id":"way/646298433-0-0-0","properties":{"highway":"service","surface":"asphalt","startNodeId":"5558270728","endNodeId":"8563953453"},"geometry":{"type":"LineString","coordinates":[[103.6707113,1.3128873],[103.6703942,1.3128641]]}},{"type":"Feature","id":"way/646298433-0-1-0","properties":{"highway":"service","surface":"asphalt","startNodeId":"8563953453","endNodeId":"6608922528"},"geometry":{"type":"LineString","coordinates":[[103.6703942,1.3128641],[103.6694759,1.3127969]]}},{"type":"Feature","id":"way/646325524-0-0-0","properties":{"highway":"residential","lanes":"2","lanes:backward":"1","lanes:forward":"1","lit":"yes","maxspeed":"50","name":"Gul Circle","surface":"asphalt","turn:lanes:backward":"left;through;right","startNodeId":"5558270725","endNodeId":"14072045755"},"geometry":{"type":"LineString","coordinates":[[103.6707656,1.3120345],[103.670874,1.3120433]]}},{"type":"Feature","id":"way/646325524-0-1-0","properties":{"highway":"residential","lanes":"2","lanes:backward":"1","lanes:forward":"1","lit":"yes","maxspeed":"50","name":"Gul Circle","surface":"asphalt","turn:lanes:backward":"left;through;right","startNodeId":"14072045755","endNodeId":"5557169687"},"geometry":{"type":"LineString","coordinates":[[103.670874,1.3120433],[103.6713809,1.3120842]]}},{"type":"Feature","id":"way/646340954-0-0-0","properties":{"highway":"residential","lanes":"4","maxspeed":"50","name":"Gul Circle","sidewalk":"both","surface":"asphalt","startNodeId":"5216671971","endNodeId":"4488112808"},"geometry":{"type":"LineString","coordinates":[[103.6702457,1.3119953],[103.6701017,1.3119816]]}},{"type":"Feature","id":"way/646362686-0-0-0","properties":{"highway":"residential","lanes":"4","maxspeed":"50","name":"Gul Avenue","parking:condition:left:vehicles":"motorcar,motorcycle","parking:condition:right:vehicles":"motorcar","parking:lane:both":"parallel","sidewalk":"right","surface":"asphalt","startNodeId":"5557905565","endNodeId":"5557905556"},"geometry":{"type":"LineString","coordinates":[[103.6669561,1.3147292],[103.6672553,1.3147492]]}},{"type":"Feature","id":"way/646449004-0-0-0","properties":{"highway":"residential","lanes":"4","maxspeed":"50","name":"Gul Avenue","parking:condition:right:vehicles":"motorcar","parking:lane:right":"parallel","sidewalk":"right","surface":"asphalt","startNodeId":"5557905552","endNodeId":"5557905551"},"geometry":{"type":"LineString","coordinates":[[103.6697066,1.3149124],[103.6698591,1.3149225]]}},{"type":"Feature","id":"way/646449005-0-0-0","properties":{"highway":"service","startNodeId":"5557905551","endNodeId":"5266556135"},"geometry":{"type":"LineString","coordinates":[[103.6698591,1.3149225],[103.6698401,1.3151267]]}},{"type":"Feature","id":"way/646449263-0-0-0","properties":{"highway":"residential","lanes":"4","maxspeed":"50","name":"Gul Avenue","sidewalk":"right","surface":"asphalt","startNodeId":"5557905572","endNodeId":"5557905550"},"geometry":{"type":"LineString","coordinates":[[103.6700491,1.3149349],[103.6705873,1.3149706]]}},{"type":"Feature","id":"way/646449265-0-0-0","properties":{"highway":"service","startNodeId":"5557905572","endNodeId":"5266556194"},"geometry":{"type":"LineString","coordinates":[[103.6700491,1.3149349],[103.6700496,1.314926]]}},{"type":"Feature","id":"way/646450912-0-0-0","properties":{"highway":"residential","lanes":"4","lanes:backward":"2","lanes:forward":"2","maxspeed":"50","name":"Gul Avenue","sidewalk":"right","surface":"asphalt","startNodeId":"5557905554","endNodeId":"5557905569"},"geometry":{"type":"LineString","coordinates":[[103.6683891,1.3148247],[103.6684984,1.3148318]]}},{"type":"Feature","id":"way/646452227-0-0-0","properties":{"highway":"residential","lanes":"4","lanes:backward":"2","lanes:forward":"2","maxspeed":"50","name":"Gul Avenue","sidewalk":"right","surface":"asphalt","startNodeId":"5557905556","endNodeId":"5557905566"},"geometry":{"type":"LineString","coordinates":[[103.6672553,1.3147492],[103.6673298,1.314754]]}},{"type":"Feature","id":"way/646456656-0-0-0","properties":{"highway":"service","startNodeId":"5557905565","endNodeId":"5266556208"},"geometry":{"type":"LineString","coordinates":[[103.6669561,1.3147292],[103.6669569,1.3147202]]}},{"type":"Feature","id":"way/646462113-0-0-0","properties":{"highway":"residential","lanes":"4","lanes:backward":"2","lanes:forward":"2","maxspeed":"50","name":"Gul Avenue","parking:condition:right:vehicles":"motorcar","parking:lane:right":"parallel","sidewalk":"right","surface":"asphalt","startNodeId":"5557905568","endNodeId":"5557905554"},"geometry":{"type":"LineString","coordinates":[[103.6680971,1.3148053],[103.6683891,1.3148247]]}},{"type":"Feature","id":"way/646465430-0-0-0","properties":{"highway":"residential","lanes":"2","lanes:backward":"1","lanes:forward":"1","lit":"yes","maxspeed":"50","name":"Gul Crescent","surface":"asphalt","startNodeId":"5558246619","endNodeId":"5558247469"},"geometry":{"type":"LineString","coordinates":[[103.6667944,1.3114975],[103.6668105,1.3115539]]}},{"type":"Feature","id":"way/646697478-0-0-0","properties":{"highway":"residential","lanes":"4","lanes:backward":"2","lanes:forward":"2","lit":"yes","maxspeed":"50","name":"Gul Way","sidewalk":"left","surface":"asphalt","startNodeId":"5266732525","endNodeId":"14072045753"},"geometry":{"type":"LineString","coordinates":[[103.6707318,1.3128173],[103.6707599,1.3121654]]}},{"type":"Feature","id":"way/646697478-0-1-0","properties":{"highway":"residential","lanes":"4","lanes:backward":"2","lanes:forward":"2","lit":"yes","maxspeed":"50","name":"Gul Way","sidewalk":"left","surface":"asphalt","startNodeId":"14072045753","endNodeId":"5558270725"},"geometry":{"type":"LineString","coordinates":[[103.6707599,1.3121654],[103.6707656,1.3120345]]}},{"type":"Feature","id":"way/646697535-0-0-0","properties":{"highway":"service","startNodeId":"5266732525","endNodeId":"5266732524"},"geometry":{"type":"LineString","coordinates":[[103.6707318,1.3128173],[103.6709217,1.3128301]]}},{"type":"Feature","id":"way/646827184-0-0-0","properties":{"highway":"service","startNodeId":"5266556192","endNodeId":"5266556193"},"geometry":{"type":"LineString","coordinates":[[103.6700614,1.3147003],[103.6700901,1.3142905]]}},{"type":"Feature","id":"way/646833560-0-0-0","properties":{"highway":"service","startNodeId":"5266732524","endNodeId":"5266732526"},"geometry":{"type":"LineString","coordinates":[[103.6709217,1.3128301],[103.6709501,1.3123294]]}},{"type":"Feature","id":"way/681408310-0-0-0","properties":{"highway":"residential","lanes":"4","lanes:backward":"2","lanes:forward":"2","maxspeed":"50","name":"Gul Circle","sidewalk":"both","surface":"asphalt","startNodeId":"6381144282","endNodeId":"5216671971"},"geometry":{"type":"LineString","coordinates":[[103.6704174,1.3120099],[103.6702457,1.3119953]]}},{"type":"Feature","id":"way/703800874-0-0-0","properties":{"highway":"service","surface":"asphalt","startNodeId":"6608922527","endNodeId":"8563953462"},"geometry":{"type":"LineString","coordinates":[[103.6692989,1.3127835],[103.6683307,1.3127119]]}},{"type":"Feature","id":"way/703800874-0-1-0","properties":{"highway":"service","surface":"asphalt","startNodeId":"8563953462","endNodeId":"8563953464"},"geometry":{"type":"LineString","coordinates":[[103.6683307,1.3127119],[103.6676598,1.3126623]]}},{"type":"Feature","id":"way/703800874-0-2-0","properties":{"highway":"service","surface":"asphalt","startNodeId":"8563953464","endNodeId":"4604832591"},"geometry":{"type":"LineString","coordinates":[[103.6676598,1.3126623],[103.6670166,1.3126148]]}},{"type":"Feature","id":"way/703800875-0-0-0","properties":{"covered":"yes","highway":"service","surface":"asphalt","startNodeId":"6608922528","endNodeId":"6608922527"},"geometry":{"type":"LineString","coordinates":[[103.6694759,1.3127969],[103.6692989,1.3127835]]}},{"type":"Feature","id":"way/922482563-0-0-0","properties":{"highway":"service","startNodeId":"8563953453","endNodeId":"8563953452"},"geometry":{"type":"LineString","coordinates":[[103.6703942,1.3128641],[103.6703315,1.3136604]]}},{"type":"Feature","id":"way/922482564-0-0-0","properties":{"highway":"service","startNodeId":"8563953458","endNodeId":"8563953457"},"geometry":{"type":"LineString","coordinates":[[103.6676718,1.3123007],[103.6681335,1.3122311]]}},{"type":"Feature","id":"way/922482564-0-1-0","properties":{"highway":"service","startNodeId":"8563953457","endNodeId":"8563953456"},"geometry":{"type":"LineString","coordinates":[[103.6681335,1.3122311],[103.6686189,1.3122057]]}},{"type":"Feature","id":"way/922482564-0-2-0","properties":{"highway":"service","startNodeId":"8563953456","endNodeId":"8563953455"},"geometry":{"type":"LineString","coordinates":[[103.6686189,1.3122057],[103.6689086,1.3122177]]}},{"type":"Feature","id":"way/922482564-0-3-0","properties":{"highway":"service","startNodeId":"8563953455","endNodeId":"8563953454"},"geometry":{"type":"LineString","coordinates":[[103.6689086,1.3122177],[103.6691259,1.312262]]}},{"type":"Feature","id":"way/922482565-0-0-0","properties":{"highway":"service","startNodeId":"8563953461","endNodeId":"8563953459"},"geometry":{"type":"LineString","coordinates":[[103.6683333,1.3125207],[103.6678022,1.3124698]]}},{"type":"Feature","id":"way/922482566-0-0-0","properties":{"highway":"service","startNodeId":"8563953462","endNodeId":"8563953461"},"geometry":{"type":"LineString","coordinates":[[103.6683307,1.3127119],[103.6683333,1.3125207]]}},{"type":"Feature","id":"way/922482566-0-1-0","properties":{"highway":"service","startNodeId":"8563953461","endNodeId":"8563953460"},"geometry":{"type":"LineString","coordinates":[[103.6683333,1.3125207],[103.6691447,1.312577]]}},{"type":"Feature","id":"way/922482567-0-0-0","properties":{"highway":"service","startNodeId":"8563953464","endNodeId":"8563953458"},"geometry":{"type":"LineString","coordinates":[[103.6676598,1.3126623],[103.6676718,1.3123007]]}},{"type":"Feature","id":"way/922482567-0-1-0","properties":{"highway":"service","startNodeId":"8563953458","endNodeId":"8563953463"},"geometry":{"type":"LineString","coordinates":[[103.6676718,1.3123007],[103.6676748,1.312211]]}},{"type":"Feature","id":"way/933282621-0-0-0","properties":{"highway":"service","startNodeId":"8650970390","endNodeId":"8650970389"},"geometry":{"type":"LineString","coordinates":[[103.6689947,1.3148654],[103.6689676,1.3154181]]}},{"type":"Feature","id":"way/933282630-0-0-0","properties":{"highway":"service","startNodeId":"8650970414","endNodeId":"8650970413"},"geometry":{"type":"LineString","coordinates":[[103.6678936,1.3147921],[103.6678679,1.3151473]]}}]}