{"type":"FeatureCollection","features":[{"type":"Feature","id":"way/117942388-0","properties":{"addr:city":"Singapore","addr:country":"SG","addr:housenumber":"1","addr:street":"Gul Street 1","building":"yes","clearanceGeometry":{"type":"Polygon","coordinates":[[[103.669362,1.3196765],[103.6693806,1.3194021],[103.66924108034819,1.319392669728907],[103.66921417195617,1.3193923070821143],[103.66888300773823,1.3193717211982956],[103.66887591881829,1.3194653510913772],[103.66885477705058,1.3194637512065621],[103.6688428,1.3196414],[103.669362,1.3196765]]]},"clearanceHeight":1.7,"clearancePrepared":true},"geometry":{"type":"Polygon","coordinates":[[[103.6688428,1.3196414],[103.669362,1.3196765],[103.6693806,1.3194021],[103.6688613,1.319367],[103.6688428,1.3196414]]]}},{"type":"Feature","id":"way/117942389-0","properties":{"addr:city":"Singapore","addr:country":"SG","addr:housenumber":"132","addr:street":"Gul Circle","building":"yes","clearanceGeometry":{"type":"Polygon","coordinates":[[[103.6675766,1.3193264],[103.6676741,1.3193329],[103.6676878,1.3191281],[103.667422,1.3191124],[103.6673953,1.3194826],[103.6674557608281,1.3194881158495326],[103.66748087259856,1.3194805162347916],[103.66756612251112,1.319484205687729],[103.6675766,1.3193264]]]},"clearanceHeight":1.7,"clearancePrepared":true},"geometry":{"type":"Polygon","coordinates":[[[103.6675652,1.3194981],[103.6675766,1.3193264],[103.6676741,1.3193329],[103.6676878,1.3191281],[103.667422,1.3191124],[103.6673953,1.3194826],[103.6675652,1.3194981]]]}},{"type":"Feature","id":"way/117942390-0","properties":{"addr:city":"Singapore","addr:country":"SG","addr:housenumber":"2","addr:street":"Gul Street 1","building":"yes","clearanceGeometry":{"type":"Polygon","coordinates":[[[103.6685105,1.3186178],[103.6680684,1.318589],[103.6680463,1.3189273],[103.66848411833483,1.3189559201082932],[103.66848288843224,1.3189405463258717],[103.66849631221498,1.3186605645716631],[103.66850767160969,1.318661108926705],[103.6685105,1.3186178]]]},"clearanceHeight":1.7,"clearancePrepared":true},"geometry":{"type":"Polygon","coordinates":[[[103.6684884,1.3189562],[103.6685105,1.3186178],[103.6680684,1.318589],[103.6680463,1.3189273],[103.6684884,1.3189562]]]}},{"type":"Feature","id":"way/117942391-0","properties":{"addr:city":"Singapore","addr:country":"SG","addr:housenumber":"5","addr:street":"Gul Street 1","building":"yes","clearanceGeometry":{"type":"Polygon","coordinates":[[[103.6695204,1.3181074],[103.6689311,1.3180665],[103.66892248751387,1.318190869337997],[103.6689348240287,1.3181917814739936],[103.668918224145,1.3184161799017304],[103.66888892426121,1.3188126783293608],[103.66887947601894,1.3188119804870073],[103.6688764,1.3188564],[103.6694656,1.3188973],[103.6695204,1.3181074]]]},"clearanceHeight":1.7,"clearancePrepared":true},"geometry":{"type":"Polygon","coordinates":[[[103.6694656,1.3188973],[103.6695204,1.3181074],[103.6689311,1.3180665],[103.6688764,1.3188564],[103.6694656,1.3188973]]]}},{"type":"Feature","id":"way/117942392-0","properties":{"addr:city":"Singapore","addr:country":"SG","addr:housenumber":"2","addr:street":"Gul Street 2","building":"yes","clearanceGeometry":{"type":"Polygon","coordinates":[[[103.6677656,1.3189989],[103.6679187,1.3190086],[103.6679399,1.318674],[103.6677868,1.3186643],[103.6677656,1.3189989]]]},"clearanceHeight":1.7,"clearancePrepared":true},"geometry":{"type":"Polygon","coordinates":[[[103.6677868,1.3186643],[103.6677656,1.3189989],[103.6679187,1.3190086],[103.6679399,1.318674],[103.6677868,1.3186643]]]}},{"type":"Feature","id":"way/117942393-0","properties":{"addr:city":"Singapore","addr:country":"SG","addr:housenumber":"12","addr:street":"Gul Street 2","building":"yes","clearanceGeometry":{"type":"Polygon","coordinates":[[[103.6671187,1.3186105],[103.6669468,1.3185963],[103.6669202,1.3189417],[103.6670918,1.3189544],[103.6671187,1.3186105]]]},"clearanceHeight":1.7,"clearancePrepared":true},"geometry":{"type":"Polygon","coordinates":[[[103.6670918,1.3189544],[103.6671187,1.3186105],[103.6669468,1.3185963],[103.6669202,1.3189417],[103.6670918,1.3189544]]]}},{"type":"Feature","id":"way/117942394-0","properties":{"addr:city":"Singapore","addr:country":"SG","addr:housenumber":"130","addr:street":"Gul Circle","building":"yes","clearanceGeometry":{"type":"Polygon","coordinates":[[[103.667422,1.3191124],[103.6672539,1.3191058],[103.6672327,1.3194705],[103.6673953,1.3194826],[103.667422,1.3191124]]]},"clearanceHeight":1.7,"clearancePrepared":true},"geometry":{"type":"Polygon","coordinates":[[[103.6673953,1.3194826],[103.667422,1.3191124],[103.6672539,1.3191058],[103.6672327,1.3194705],[103.6673953,1.3194826]]]}},{"type":"Feature","id":"way/117942395-0","properties":{"addr:city":"Singapore","addr:country":"SG","addr:housenumber":"9","addr:street":"Gul Street 1","building":"yes","clearanceGeometry":{"type":"Polygon","coordinates":[[[103.6695293,1.3177186],[103.6690011,1.3176791],[103.6689791,1.3179739],[103.6695072,1.3180134],[103.6695293,1.3177186]]]},"clearanceHeight":1.7,"clearancePrepared":true},"geometry":{"type":"Polygon","coordinates":[[[103.6695072,1.3180134],[103.6695293,1.3177186],[103.6690011,1.3176791],[103.6689791,1.3179739],[103.6695072,1.3180134]]]}},{"type":"Feature","id":"way/117942396-0","properties":{"addr:city":"Singapore","addr:country":"SG","addr:housenumber":"24","addr:street":"Gul Drive","building":"yes","clearanceGeometry":{"type":"Polygon","coordinates":[[[103.6702067,1.3174792],[103.6697741,1.3174443],[103.6697446,1.3178099],[103.6701772,1.3178447],[103.6702067,1.3174792]]]},"clearanceHeight":1.7,"clearancePrepared":true},"geometry":{"type":"Polygon","coordinates":[[[103.6701772,1.3178447],[103.6702067,1.3174792],[103.6697741,1.3174443],[103.6697446,1.3178099],[103.6701772,1.3178447]]]}},{"type":"Feature","id":"way/117942397-0","properties":{"addr:housenumber":"142","addr:street":"Gul Way","building":"yes","name":"Wilson Cables Private Limited","source":"Kaart Ground Survey 2017","clearanceGeometry":{"type":"Polygon","coordinates":[[[103.67006179947892,1.3190578194900644],[103.66965636300863,1.3190243538301138],[103.66961503038117,1.3196118857184993],[103.6700315,1.3196338],[103.67006179947892,1.3190578194900644]]]},"clearanceHeight":1.7,"clearancePrepared":true},"geometry":{"type":"Polygon","coordinates":[[[103.6700315,1.3196338],[103.6700628,1.3190388],[103.669639,1.3190165],[103.6696077,1.3196115],[103.6700315,1.3196338]]]}},{"type":"Feature","id":"way/117942399-0","properties":{"addr:city":"Singapore","addr:country":"SG","addr:housenumber":"128","addr:street":"Gul Circle","building":"yes","clearanceGeometry":{"type":"Polygon","coordinates":[[[103.6672539,1.3191058],[103.6670715,1.3191011],[103.6670539,1.3194576],[103.6672327,1.3194705],[103.6672539,1.3191058]]]},"clearanceHeight":1.7,"clearancePrepared":true},"geometry":{"type":"Polygon","coordinates":[[[103.6672327,1.3194705],[103.6672539,1.3191058],[103.6670715,1.3191011],[103.6670539,1.3194576],[103.6672327,1.3194705]]]}},{"type":"Feature","id":"way/117942400-0","properties":{"building":"yes","clearanceGeometry":{"type":"Polygon","coordinates":[[[103.6701125,1.318553],[103.6696973,1.3185263],[103.6696725,1.3189131],[103.6700877,1.3189398],[103.6701125,1.318553]]]},"clearanceHeight":1.7,"clearancePrepared":true},"geometry":{"type":"Polygon","coordinates":[[[103.6700877,1.3189398],[103.6701125,1.318553],[103.6696973,1.3185263],[103.6696725,1.3189131],[103.6700877,1.3189398]]]}},{"type":"Feature","id":"way/117942401-0","properties":{"addr:city":"Singapore","addr:country":"SG","addr:housenumber":"134","addr:street":"Gul Circle","building":"yes","source":"Kaart Ground Survey 2017","clearanceGeometry":{"type":"Polygon","coordinates":[[[103.6680419,1.3191731],[103.6678838,1.3191618],[103.6678595,1.3194996],[103.6680177,1.3195109],[103.6680419,1.3191731]]]},"clearanceHeight":1.7,"clearancePrepared":true},"geometry":{"type":"Polygon","coordinates":[[[103.6680177,1.3195109],[103.6680419,1.3191731],[103.6678838,1.3191618],[103.6678595,1.3194996],[103.6680177,1.3195109]]]}},{"type":"Feature","id":"way/117942402-0","properties":{"addr:city":"Singapore","addr:country":"SG","addr:housenumber":"11","addr:street":"Gul Street 1","building":"yes","clearanceGeometry":{"type":"Polygon","coordinates":[[[103.66949,1.3173669],[103.6690201,1.3173234],[103.6689964,1.3175791],[103.6694664,1.3176226],[103.66949,1.3173669]]]},"clearanceHeight":1.7,"clearancePrepared":true},"geometry":{"type":"Polygon","coordinates":[[[103.6694664,1.3176226],[103.66949,1.3173669],[103.6690201,1.3173234],[103.6689964,1.3175791],[103.6694664,1.3176226]]]}},{"type":"Feature","id":"way/117942403-0","properties":{"addr:city":"Singapore","addr:country":"SG","addr:housenumber":"136","addr:street":"Gul Circle","building":"yes","source":"Kaart Ground Survey 2017","clearanceGeometry":{"type":"Polygon","coordinates":[[[103.6681827,1.3195228],[103.6682102,1.319185],[103.6680419,1.3191731],[103.6680177,1.3195109],[103.6681827,1.3195228]]]},"clearanceHeight":1.7,"clearancePrepared":true},"geometry":{"type":"Polygon","coordinates":[[[103.6680177,1.3195109],[103.6681827,1.3195228],[103.6682102,1.319185],[103.6680419,1.3191731],[103.6680177,1.3195109]]]}},{"type":"Feature","id":"way/117942404-0","properties":{"addr:city":"Singapore","addr:country":"SG","addr:housenumber":"126","addr:street":"Gul Circle","building":"yes","name":"Anchor Marine Supplies","source":"Kaart Ground Survey 2017","clearanceGeometry":{"type":"Polygon","coordinates":[[[103.6670715,1.3191011],[103.6668975,1.3190925],[103.6668799,1.3194489],[103.6670539,1.3194576],[103.6670715,1.3191011]]]},"clearanceHeight":1.7,"clearancePrepared":true},"geometry":{"type":"Polygon","coordinates":[[[103.6670539,1.3194576],[103.6670715,1.3191011],[103.6668975,1.3190925],[103.6668799,1.3194489],[103.6670539,1.3194576]]]}},{"type":"Feature","id":"way/117942405-0","properties":{"addr:city":"Singapore","addr:country":"SG","addr:housenumber":"6","addr:street":"Gul Street 2","building":"yes","clearanceGeometry":{"type":"Polygon","coordinates":[[[103.6674904,1.3186401],[103.667462,1.3189822],[103.6676082,1.3189909],[103.6676343,1.3186532],[103.6674904,1.3186401]]]},"clearanceHeight":1.7,"clearancePrepared":true},"geometry":{"type":"Polygon","coordinates":[[[103.6676343,1.3186532],[103.6674904,1.3186401],[103.667462,1.3189822],[103.6676082,1.3189909],[103.6676343,1.3186532]]]}},{"type":"Feature","id":"way/117942406-0","properties":{"building":"yes","clearanceGeometry":{"type":"Polygon","coordinates":[[[103.6701203,1.3179738],[103.66971424471224,1.3179471205550992],[103.66969059527146,1.318231647597897],[103.66968607088549,1.3182312717268725],[103.6696838,1.3182658],[103.6700993,1.3182931],[103.6701203,1.3179738]]]},"clearanceHeight":1.7,"clearancePrepared":true},"geometry":{"type":"Polygon","coordinates":[[[103.6700993,1.3182931],[103.6701203,1.3179738],[103.6697048,1.3179465],[103.6696838,1.3182658],[103.6700993,1.3182931]]]}},{"type":"Feature","id":"way/117942407-0","properties":{"addr:city":"Singapore","addr:country":"SG","addr:street":"Gul Street 2","building":"yes","clearanceGeometry":{"type":"Polygon","coordinates":[[[103.6673074,1.3186252],[103.6672806,1.3189691],[103.667462,1.3189822],[103.6674904,1.3186401],[103.6673074,1.3186252]]]},"clearanceHeight":1.7,"clearancePrepared":true},"geometry":{"type":"Polygon","coordinates":[[[103.6674904,1.3186401],[103.6673074,1.3186252],[103.6672806,1.3189691],[103.667462,1.3189822],[103.6674904,1.3186401]]]}},{"type":"Feature","id":"way/117942408-0","properties":{"addr:city":"Singapore","addr:country":"SG","addr:housenumber":"138","addr:street":"Gul Circle","building":"yes","source":"Kaart Ground Survey 2017","clearanceGeometry":{"type":"Polygon","coordinates":[[[103.6683774,1.3191961],[103.6682102,1.319185],[103.6681827,1.3195228],[103.668352,1.3195392],[103.6683774,1.3191961]]]},"clearanceHeight":1.7,"clearancePrepared":true},"geometry":{"type":"Polygon","coordinates":[[[103.668352,1.3195392],[103.6683774,1.3191961],[103.6682102,1.319185],[103.6681827,1.3195228],[103.668352,1.3195392]]]}},{"type":"Feature","id":"way/117942409-0","properties":{"addr:city":"Singapore","addr:country":"SG","addr:housenumber":"140","addr:street":"Gul Circle","building":"yes","name":"Mech-Tech Systems","source":"Kaart Ground Survey 2017","clearanceGeometry":{"type":"Polygon","coordinates":[[[103.6685421,1.3192082],[103.6683774,1.3191961],[103.668352,1.3195392],[103.6685151,1.3195514],[103.6685421,1.3192082]]]},"clearanceHeight":1.7,"clearancePrepared":true},"geometry":{"type":"Polygon","coordinates":[[[103.6685151,1.3195514],[103.6685421,1.3192082],[103.6683774,1.3191961],[103.668352,1.3195392],[103.6685151,1.3195514]]]}},{"type":"Feature","id":"way/117942410-0","properties":{"addr:city":"Singapore","addr:country":"SG","addr:housenumber":"3","addr:street":"Gul Street 1","building":"yes","clearanceGeometry":{"type":"Polygon","coordinates":[[[103.6690783,1.319155],[103.6692937,1.3191718],[103.6693123,1.318933],[103.6689248,1.3189028],[103.6689027,1.3191861],[103.6690749,1.3191995],[103.6690783,1.319155]]]},"clearanceHeight":1.7,"clearancePrepared":true},"geometry":{"type":"Polygon","coordinates":[[[103.6690749,1.3191995],[103.6690783,1.319155],[103.6692937,1.3191718],[103.6693123,1.318933],[103.6689248,1.3189028],[103.6689027,1.3191861],[103.6690749,1.3191995]]]}},{"type":"Feature","id":"way/117942411-0","properties":{"addr:city":"Singapore","addr:country":"SG","addr:housenumber":"10","addr:street":"Gul Street 2","building":"yes","clearanceGeometry":{"type":"Polygon","coordinates":[[[103.6671187,1.3186105],[103.6670918,1.3189544],[103.6672806,1.3189691],[103.6673074,1.3186252],[103.6671187,1.3186105]]]},"clearanceHeight":1.7,"clearancePrepared":true},"geometry":{"type":"Polygon","coordinates":[[[103.6673074,1.3186252],[103.6671187,1.3186105],[103.6670918,1.3189544],[103.6672806,1.3189691],[103.6673074,1.3186252]]]}},{"type":"Feature","id":"way/117942412-0","properties":{"addr:city":"Singapore","addr:country":"SG","addr:housenumber":"4","addr:street":"Gul Street 2","building":"yes","clearanceGeometry":{"type":"Polygon","coordinates":[[[103.6676343,1.3186532],[103.6676082,1.3189909],[103.6677656,1.3189989],[103.6677868,1.3186643],[103.6676343,1.3186532]]]},"clearanceHeight":1.7,"clearancePrepared":true},"geometry":{"type":"Polygon","coordinates":[[[103.6677868,1.3186643],[103.6676343,1.3186532],[103.6676082,1.3189909],[103.6677656,1.3189989],[103.6677868,1.3186643]]]}},{"type":"Feature","id":"way/117942995-0","properties":{"addr:city":"Singapore","addr:country":"SG","addr:housenumber":"3","addr:street":"Gul Street 2","building":"yes","clearanceGeometry":{"type":"Polygon","coordinates":[[[103.6678259,1.3178236],[103.6676643,1.3178136],[103.6676404,1.3181681],[103.667805,1.3181815],[103.6678259,1.3178236]]]},"clearanceHeight":1.7,"clearancePrepared":true},"geometry":{"type":"Polygon","coordinates":[[[103.667805,1.3181815],[103.6678259,1.3178236],[103.6676643,1.3178136],[103.6676404,1.3181681],[103.667805,1.3181815]]]}},{"type":"Feature","id":"way/117942997-0","properties":{"addr:city":"Singapore","addr:country":"SG","addr:housenumber":"7","addr:street":"Gul Street 2","building":"yes","clearanceGeometry":{"type":"Polygon","coordinates":[[[103.6675098,1.3178027],[103.6673319,1.3177876],[103.6673021,1.3181361],[103.6674801,1.3181513],[103.6675098,1.3178027]]]},"clearanceHeight":1.7,"clearancePrepared":true},"geometry":{"type":"Polygon","coordinates":[[[103.6674801,1.3181513],[103.6675098,1.3178027],[103.6673319,1.3177876],[103.6673021,1.3181361],[103.6674801,1.3181513]]]}},{"type":"Feature","id":"way/117942999-0","properties":{"addr:city":"Singapore","addr:country":"SG","addr:housenumber":"32","addr:street":"Gul Drive","building":"yes","clearanceGeometry":{"type":"Polygon","coordinates":[[[103.6681897,1.3173461],[103.6680177,1.3173371],[103.66800009621856,1.317675877120104],[103.66817180781354,1.317688469405863],[103.6681897,1.3173461]]]},"clearanceHeight":1.7,"clearancePrepared":true},"geometry":{"type":"Polygon","coordinates":[[[103.6681712,1.3177001],[103.6681897,1.3173461],[103.6680177,1.3173371],[103.6679993,1.3176912],[103.6681712,1.3177001]]]}},{"type":"Feature","id":"way/117943000-0","properties":{"addr:city":"Singapore","addr:country":"SG","addr:housenumber":"5","addr:street":"Gul Street 2","building":"yes","clearanceGeometry":{"type":"Polygon","coordinates":[[[103.6676643,1.3178136],[103.6675098,1.3178027],[103.6674801,1.3181513],[103.6676404,1.3181681],[103.6676643,1.3178136]]]},"clearanceHeight":1.7,"clearancePrepared":true},"geometry":{"type":"Polygon","coordinates":[[[103.6676404,1.3181681],[103.6676643,1.3178136],[103.6675098,1.3178027],[103.6674801,1.3181513],[103.6676404,1.3181681]]]}},{"type":"Feature","id":"way/117943002-0","properties":{"addr:city":"Singapore","addr:country":"SG","addr:housenumber":"34","addr:street":"Gul Drive","building":"yes","clearanceGeometry":{"type":"Polygon","coordinates":[[[103.6676749,1.3176454],[103.6676948,1.3173226],[103.6675401,1.3173131],[103.6675202,1.3176359],[103.6676749,1.3176454]]]},"clearanceHeight":1.7,"clearancePrepared":true},"geometry":{"type":"Polygon","coordinates":[[[103.6675202,1.3176359],[103.6676749,1.3176454],[103.6676948,1.3173226],[103.6675401,1.3173131],[103.6675202,1.3176359]]]}},{"type":"Feature","id":"way/117943003-0","properties":{"addr:city":"Singapore","addr:country":"SG","addr:housenumber":"4","addr:street":"Gul Street 1","building":"yes","clearanceGeometry":{"type":"Polygon","coordinates":[[[103.6685786,1.317983],[103.6681614,1.3179523],[103.6681436,1.3181941],[103.6680577,1.3181877],[103.6680456,1.318353],[103.6685487,1.31839],[103.6685786,1.317983]]]},"clearanceHeight":1.7,"clearancePrepared":true},"geometry":{"type":"Polygon","coordinates":[[[103.6685487,1.31839],[103.6685786,1.317983],[103.6681614,1.3179523],[103.6681436,1.3181941],[103.6680577,1.3181877],[103.6680456,1.318353],[103.6685487,1.31839]]]}},{"type":"Feature","id":"way/117943004-0","properties":{"addr:city":"Singapore","addr:country":"SG","addr:housenumber":"9","addr:street":"Gul Street 2","building":"yes","clearanceGeometry":{"type":"Polygon","coordinates":[[[103.6673319,1.3177876],[103.6671852,1.3177777],[103.6671557,1.3181209],[103.6673021,1.3181361],[103.6673319,1.3177876]]]},"clearanceHeight":1.7,"clearancePrepared":true},"geometry":{"type":"Polygon","coordinates":[[[103.6673021,1.3181361],[103.6673319,1.3177876],[103.6671852,1.3177777],[103.6671557,1.3181209],[103.6673021,1.3181361]]]}},{"type":"Feature","id":"way/117943006-0","properties":{"addr:city":"Singapore","addr:country":"SG","addr:housenumber":"28","addr:street":"Gul Drive","building":"yes","clearanceGeometry":{"type":"Polygon","coordinates":[[[103.6685246,1.3173635],[103.6683581,1.3173549],[103.66834012037104,1.3177008124268519],[103.66850634022407,1.3177130019816012],[103.6685246,1.3173635]]]},"clearanceHeight":1.7,"clearancePrepared":true},"geometry":{"type":"Polygon","coordinates":[[[103.6685061,1.3177176],[103.6685246,1.3173635],[103.6683581,1.3173549],[103.6683397,1.3177089],[103.6685061,1.3177176]]]}},{"type":"Feature","id":"way/117943007-0","properties":{"addr:city":"Singapore","addr:country":"SG","addr:housenumber":"40","addr:street":"Gul Drive","building":"yes","clearanceGeometry":{"type":"Polygon","coordinates":[[[103.6672112,1.3172929],[103.6670363,1.3172821],[103.66701657286355,1.3176020959621677],[103.6671913144482,1.3176153657068062],[103.6672112,1.3172929]]]},"clearanceHeight":1.7,"clearancePrepared":true},"geometry":{"type":"Polygon","coordinates":[[[103.6671913,1.3176156],[103.6672112,1.3172929],[103.6670363,1.3172821],[103.6670164,1.3176049],[103.6671913,1.3176156]]]}},{"type":"Feature","id":"way/117943008-0","properties":{"addr:city":"Singapore","addr:country":"SG","addr:housenumber":"30","addr:street":"Gul Drive","building":"yes","clearanceGeometry":{"type":"Polygon","coordinates":[[[103.6683581,1.3173549],[103.6681897,1.3173461],[103.66817180781354,1.317688469405863],[103.66834012037104,1.3177008124268519],[103.6683581,1.3173549]]]},"clearanceHeight":1.7,"clearancePrepared":true},"geometry":{"type":"Polygon","coordinates":[[[103.6683397,1.3177089],[103.6683581,1.3173549],[103.6681897,1.3173461],[103.6681712,1.3177001],[103.6683397,1.3177089]]]}},{"type":"Feature","id":"way/117943010-0","properties":{"addr:city":"Singapore","addr:country":"SG","addr:housenumber":"36","addr:street":"Gul Drive","building":"yes","clearanceGeometry":{"type":"Polygon","coordinates":[[[103.6675401,1.3173131],[103.6673735,1.3173028],[103.6673537,1.3176256],[103.6675202,1.3176359],[103.6675401,1.3173131]]]},"clearanceHeight":1.7,"clearancePrepared":true},"geometry":{"type":"Polygon","coordinates":[[[103.6675202,1.3176359],[103.6675401,1.3173131],[103.6673735,1.3173028],[103.6673537,1.3176256],[103.6675202,1.3176359]]]}},{"type":"Feature","id":"way/117943013-0","properties":{"addr:city":"Singapore","addr:country":"SG","addr:housenumber":"11","addr:street":"Gul Street 2","building":"yes","clearanceGeometry":{"type":"Polygon","coordinates":[[[103.6671852,1.3177777],[103.6670125,1.3177636],[103.6669809,1.3181052],[103.6671557,1.3181209],[103.6671852,1.3177777]]]},"clearanceHeight":1.7,"clearancePrepared":true},"geometry":{"type":"Polygon","coordinates":[[[103.6671557,1.3181209],[103.6671852,1.3177777],[103.6670125,1.3177636],[103.6669809,1.3181052],[103.6671557,1.3181209]]]}},{"type":"Feature","id":"way/117943014-0","properties":{"addr:city":"Singapore","addr:country":"SG","addr:housenumber":"38","addr:street":"Gul Drive","building":"yes","clearanceGeometry":{"type":"Polygon","coordinates":[[[103.6673735,1.3173028],[103.6672112,1.3172929],[103.6671913144482,1.3176153657068062],[103.66720768878493,1.3176166091616337],[103.6673537,1.3176256],[103.6673735,1.3173028]]]},"clearanceHeight":1.7,"clearancePrepared":true},"geometry":{"type":"Polygon","coordinates":[[[103.6673537,1.3176256],[103.6673735,1.3173028],[103.6672112,1.3172929],[103.6671913,1.3176156],[103.6673537,1.3176256]]]}},{"type":"Feature","id":"way/117943015-0","properties":{"addr:city":"Singapore","addr:country":"SG","addr:housenumber":"26","addr:street":"Gul Drive","building":"yes","clearanceGeometry":{"type":"Polygon","coordinates":[[[103.6686831,1.3173718],[103.6685246,1.3173635],[103.66850634022407,1.3177130019816012],[103.6686647665121,1.3177246200036155],[103.6686831,1.3173718]]]},"clearanceHeight":1.7,"clearancePrepared":true},"geometry":{"type":"Polygon","coordinates":[[[103.6686647,1.3177259],[103.6686831,1.3173718],[103.6685246,1.3173635],[103.6685061,1.3177176],[103.6686647,1.3177259]]]}},{"type":"Feature","id":"way/117943017-0","properties":{"addr:city":"Singapore","addr:country":"SG","addr:housenumber":"1","addr:street":"Gul Street 2","building":"yes","clearanceGeometry":{"type":"Polygon","coordinates":[[[103.668002,1.3178339],[103.6678259,1.3178236],[103.667805,1.3181815],[103.667981,1.3181918],[103.668002,1.3178339]]]},"clearanceHeight":1.7,"clearancePrepared":true},"geometry":{"type":"Polygon","coordinates":[[[103.667981,1.3181918],[103.668002,1.3178339],[103.6678259,1.3178236],[103.667805,1.3181815],[103.667981,1.3181918]]]}},{"type":"Feature","id":"way/118579433-0","properties":{"addr:city":"Singapore","addr:country":"SG","addr:housenumber":"31","addr:street":"Gul Drive","building":"yes","clearanceGeometry":{"type":"Polygon","coordinates":[[[103.6693487,1.3161345],[103.6692887,1.316916],[103.669528,1.3169344],[103.6695881,1.3161529],[103.6693487,1.3161345]]]},"clearanceHeight":1.7,"clearancePrepared":true},"geometry":{"type":"Polygon","coordinates":[[[103.6695881,1.3161529],[103.6693487,1.3161345],[103.6692887,1.316916],[103.669528,1.3169344],[103.6695881,1.3161529]]]}},{"type":"Feature","id":"way/118579434-0","properties":{"building":"yes","clearanceGeometry":{"type":"Polygon","coordinates":[[[103.6682492,1.3162689],[103.6683333,1.3162743],[103.6683485,1.3160382],[103.6680621,1.3160197],[103.6680469,1.3162558],[103.6682492,1.3162689]]]},"clearanceHeight":1.7,"clearancePrepared":true},"geometry":{"type":"Polygon","coordinates":[[[103.6680469,1.3162558],[103.6682492,1.3162689],[103.6683333,1.3162743],[103.6683485,1.3160382],[103.6680621,1.3160197],[103.6680469,1.3162558]]]}},{"type":"Feature","id":"way/118579439-0","properties":{"building":"yes","clearanceGeometry":{"type":"Polygon","coordinates":[[[103.6674188,1.3159257],[103.667441,1.315591],[103.6673495,1.3155849],[103.6673403,1.3157234],[103.6671338,1.3157097],[103.6671208,1.3159059],[103.6674188,1.3159257]]]},"clearanceHeight":1.7,"clearancePrepared":true},"geometry":{"type":"Polygon","coordinates":[[[103.6671208,1.3159059],[103.6674188,1.3159257],[103.667441,1.315591],[103.6673495,1.3155849],[103.6673403,1.3157234],[103.6671338,1.3157097],[103.6671208,1.3159059]]]}},{"type":"Feature","id":"way/118579440-0","properties":{"building":"yes","clearanceGeometry":{"type":"Polygon","coordinates":[[[103.6680261,1.3157307],[103.6677798,1.3157071],[103.6677579,1.3159353],[103.6680042,1.315959],[103.6680261,1.3157307]]]},"clearanceHeight":1.7,"clearancePrepared":true},"geometry":{"type":"Polygon","coordinates":[[[103.6680042,1.315959],[103.6680261,1.3157307],[103.6677798,1.3157071],[103.6677579,1.3159353],[103.6680042,1.315959]]]}},{"type":"Feature","id":"way/118579441-0","properties":{"addr:city":"Singapore","addr:country":"SG","addr:housenumber":"22","addr:street":"Gul Avenue","building":"yes","clearanceGeometry":{"type":"Polygon","coordinates":[[[103.6703304,1.3152147],[103.6699189,1.3151874],[103.6699154,1.3152391],[103.66987247589127,1.3152362264194988],[103.66981295352481,1.3160341241799316],[103.66981402516942,1.3160391386678678],[103.66982961757068,1.3160446296796116],[103.67022910307918,1.3160651707729418],[103.67024813541343,1.3160594794318299],[103.67025080776824,1.3160577800882658],[103.67025160156463,1.3160554098793122],[103.67027251872766,1.3156469332050424],[103.67030170659686,1.315648427099053],[103.6703304,1.3152147]]]},"clearanceHeight":1.7,"clearancePrepared":true},"geometry":{"type":"Polygon","coordinates":[[[103.6702726,1.3160884],[103.6703304,1.3152147],[103.6699189,1.3151874],[103.6699154,1.3152391],[103.6698437,1.3152343],[103.6697893,1.3160564],[103.6702726,1.3160884]]]}},{"type":"Feature","id":"way/118579442-0","properties":{"addr:city":"Singapore","addr:country":"SG","addr:housenumber":"39","addr:street":"Gul Drive","building":"yes","clearanceGeometry":{"type":"Polygon","coordinates":[[[103.6680469,1.3162558],[103.6680093,1.3168386],[103.66819736739691,1.3168506853987134],[103.6682392932327,1.3163238937110475],[103.66824561894019,1.3163243969031257],[103.6682492,1.3162689],[103.6680469,1.3162558]]]},"clearanceHeight":1.7,"clearancePrepared":true},"geometry":{"type":"Polygon","coordinates":[[[103.6682492,1.3162689],[103.6680469,1.3162558],[103.6680093,1.3168386],[103.6682116,1.3168516],[103.6682492,1.3162689]]]}},{"type":"Feature","id":"way/118579443-0","properties":{"addr:city":"Singapore","addr:country":"SG","addr:housenumber":"47","addr:street":"Gul Drive","building":"yes","clearanceGeometry":{"type":"Polygon","coordinates":[[[103.6669351,1.316049],[103.6667482,1.3160373],[103.6667031,1.3167561],[103.6668899,1.3167678],[103.6669351,1.316049]]]},"clearanceHeight":1.7,"clearancePrepared":true},"geometry":{"type":"Polygon","coordinates":[[[103.6668899,1.3167678],[103.6669351,1.316049],[103.6667482,1.3160373],[103.6667031,1.3167561],[103.6668899,1.3167678]]]}},{"type":"Feature","id":"way/118579444-0","properties":{"building":"yes","clearanceGeometry":{"type":"Polygon","coordinates":[[[103.6689805,1.3160383],[103.6690012,1.3156997],[103.6689173,1.3156906],[103.668737,1.315681],[103.6685296,1.3156699],[103.6684603,1.3156667],[103.6684396,1.3160053],[103.6689805,1.3160383]]]},"clearanceHeight":1.7,"clearancePrepared":true},"geometry":{"type":"Polygon","coordinates":[[[103.6684396,1.3160053],[103.6689805,1.3160383],[103.6690012,1.3156997],[103.6689173,1.3156906],[103.668737,1.315681],[103.6685296,1.3156699],[103.6684603,1.3156667],[103.6684396,1.3160053]]]}},{"type":"Feature","id":"way/118579446-0","properties":{"addr:city":"Singapore","addr:country":"SG","addr:housenumber":"33","addr:street":"Gul Drive","building":"yes","clearanceGeometry":{"type":"Polygon","coordinates":[[[103.6693487,1.3161345],[103.6691537,1.3161198],[103.6690934,1.3169008],[103.6692887,1.316916],[103.6693487,1.3161345]]]},"clearanceHeight":1.7,"clearancePrepared":true},"geometry":{"type":"Polygon","coordinates":[[[103.6692887,1.316916],[103.6693487,1.3161345],[103.6691537,1.3161198],[103.6690934,1.3169008],[103.6692887,1.316916]]]}},{"type":"Feature","id":"way/118579447-0","properties":{"addr:city":"Singapore","addr:country":"SG","addr:housenumber":"24","addr:street":"Gul Avenue","building":"yes","clearanceGeometry":{"type":"Polygon","coordinates":[[[103.6695983,1.3151685],[103.6694084,1.315157],[103.669374,1.3157247],[103.6695639,1.3157362],[103.6695983,1.3151685]]]},"clearanceHeight":1.7,"clearancePrepared":true},"geometry":{"type":"Polygon","coordinates":[[[103.6695639,1.3157362],[103.6695983,1.3151685],[103.6694084,1.315157],[103.669374,1.3157247],[103.6695639,1.3157362]]]}},{"type":"Feature","id":"way/118579452-0","properties":{"building":"yes","clearanceGeometry":{"type":"Polygon","coordinates":[[[103.6683371,1.3157461],[103.6682036,1.3157394],[103.6681994,1.315823],[103.6681162,1.3158188],[103.6681087,1.3159687],[103.6683254,1.3159795],[103.6683371,1.3157461]]]},"clearanceHeight":1.7,"clearancePrepared":true},"geometry":{"type":"Polygon","coordinates":[[[103.6683254,1.3159795],[103.6683371,1.3157461],[103.6682036,1.3157394],[103.6681994,1.315823],[103.6681162,1.3158188],[103.6681087,1.3159687],[103.6683254,1.3159795]]]}},{"type":"Feature","id":"way/118579457-0","properties":{"addr:city":"Singapore","addr:country":"SG","addr:housenumber":"45","addr:street":"Gul Drive","building":"yes","clearanceGeometry":{"type":"Polygon","coordinates":[[[103.6673591,1.3167893],[103.6673842,1.3162523],[103.66719558460171,1.3162437184463345],[103.66715605977292,1.3167795532970843],[103.6673591,1.3167893]]]},"clearanceHeight":1.7,"clearancePrepared":true},"geometry":{"type":"Polygon","coordinates":[[[103.6671732,1.3162427],[103.6671487,1.3167792],[103.6673591,1.3167893],[103.6673842,1.3162523],[103.6671732,1.3162427]]]}},{"type":"Feature","id":"way/118579459-0","properties":{"addr:city":"Singapore","addr:country":"SG","addr:housenumber":"37","addr:street":"Gul Drive","building":"yes","clearanceGeometry":{"type":"Polygon","coordinates":[[[103.668428,1.3160581],[103.6683989,1.3166996],[103.6684499,1.3167019],[103.6684428,1.3168585],[103.6686604,1.3168644],[103.6686948,1.3160727],[103.668428,1.3160581]]]},"clearanceHeight":1.7,"clearancePrepared":true},"geometry":{"type":"Polygon","coordinates":[[[103.6686948,1.3160727],[103.668428,1.3160581],[103.6683989,1.3166996],[103.6684499,1.3167019],[103.6684428,1.3168585],[103.6686604,1.3168644],[103.6686948,1.3160727]]]}},{"type":"Feature","id":"way/118579464-0","properties":{"addr:city":"Singapore","addr:country":"SG","addr:housenumber":"35","addr:street":"Gul Drive","building":"yes","clearanceGeometry":{"type":"Polygon","coordinates":[[[103.6689854,1.3163436],[103.6689966,1.3160858],[103.6686948,1.3160727],[103.6686604,1.3168644],[103.66885689488598,1.3168728965482506],[103.66886764021741,1.3167341229287775],[103.6688848,1.3163393],[103.6689854,1.3163436]]]},"clearanceHeight":1.7,"clearancePrepared":true},"geometry":{"type":"Polygon","coordinates":[[[103.6688848,1.3163393],[103.6689854,1.3163436],[103.6689966,1.3160858],[103.6686948,1.3160727],[103.6686604,1.3168644],[103.6688616,1.3168731],[103.6688848,1.3163393]]]}},{"type":"Feature","id":"way/118579465-0","properties":{"addr:city":"Singapore","addr:country":"SG","addr:housenumber":"43","addr:street":"Gul Drive","building":"yes","clearanceGeometry":{"type":"Polygon","coordinates":[[[103.6676787,1.3162522],[103.6676908,1.315995],[103.6672077,1.3159725],[103.6671989,1.3161612],[103.667388,1.3161701],[103.6673842,1.3162523],[103.6673591,1.3167893],[103.6675347,1.3167975],[103.6675605,1.3162467],[103.6676787,1.3162522]]]},"clearanceHeight":1.7,"clearancePrepared":true},"geometry":{"type":"Polygon","coordinates":[[[103.6675605,1.3162467],[103.6676787,1.3162522],[103.6676908,1.315995],[103.6672077,1.3159725],[103.6671989,1.3161612],[103.667388,1.3161701],[103.6673842,1.3162523],[103.6673591,1.3167893],[103.6675347,1.3167975],[103.6675605,1.3162467]]]}},{"type":"Feature","id":"way/118579467-0","properties":{"addr:city":"Singapore","addr:country":"SG","addr:housenumber":"29","addr:street":"Gul Drive","building":"yes","clearanceGeometry":{"type":"Polygon","coordinates":[[[103.6702404,1.3162413],[103.6697522,1.3161876],[103.6697254,1.3164611],[103.6697898,1.3164611],[103.66978594945415,1.3165324997126444],[103.66980856900103,1.3165345499049539],[103.6697699629405,1.316960272463137],[103.6701706,1.3169814],[103.6702404,1.3162413]]]},"clearanceHeight":1.7,"clearancePrepared":true},"geometry":{"type":"Polygon","coordinates":[[[103.6701706,1.3169814],[103.6702404,1.3162413],[103.6697522,1.3161876],[103.6697254,1.3164611],[103.6697898,1.3164611],[103.6697629,1.3169599],[103.6701706,1.3169814]]]}},{"type":"Feature","id":"way/118579468-0","properties":{"addr:city":"Singapore","addr:country":"SG","addr:housenumber":"30","addr:street":"Gul Avenue","building":"yes","clearanceGeometry":{"type":"Polygon","coordinates":[[[103.668737,1.315681],[103.6687603,1.3152468],[103.6685596,1.3152364],[103.6685296,1.3156699],[103.668737,1.315681]]]},"clearanceHeight":1.7,"clearancePrepared":true},"geometry":{"type":"Polygon","coordinates":[[[103.6685296,1.3156699],[103.668737,1.315681],[103.6687603,1.3152468],[103.6685596,1.3152364],[103.6685296,1.3156699]]]}},{"type":"Feature","id":"way/118579470-0","properties":{"building":"yes","clearanceGeometry":{"type":"Polygon","coordinates":[[[103.6677017,1.3159352],[103.6677117,1.3158075],[103.6674584,1.3157878],[103.6674484,1.3159155],[103.6677017,1.3159352]]]},"clearanceHeight":1.7,"clearancePrepared":true},"geometry":{"type":"Polygon","coordinates":[[[103.6674484,1.3159155],[103.6677017,1.3159352],[103.6677117,1.3158075],[103.6674584,1.3157878],[103.6674484,1.3159155]]]}},{"type":"Feature","id":"way/118579471-0","properties":{"addr:city":"Singapore","addr:country":"SG","addr:housenumber":"41","addr:street":"Gul Drive","building":"yes","clearanceGeometry":{"type":"Polygon","coordinates":[[[103.6680469,1.3162558],[103.66784401856813,1.3162427709172189],[103.667840394324,1.3162472301927384],[103.66782678947114,1.3162745075842883],[103.6677913,1.3168245],[103.6680093,1.3168386],[103.6680469,1.3162558]]]},"clearanceHeight":1.7,"clearancePrepared":true},"geometry":{"type":"Polygon","coordinates":[[[103.6680093,1.3168386],[103.6680469,1.3162558],[103.6678289,1.3162418],[103.6677913,1.3168245],[103.6680093,1.3168386]]]}},{"type":"Feature","id":"way/118579472-0","properties":{"addr:city":"Singapore","addr:country":"SG","addr:housenumber":"28","addr:street":"Gul Avenue","building":"yes","clearanceGeometry":{"type":"Polygon","coordinates":[[[103.668737,1.315681],[103.6689173,1.3156906],[103.66893195681938,1.3154163532202339],[103.66892721433724,1.3154161208034938],[103.66893505523903,1.3152562069135323],[103.6687603,1.3152468],[103.668737,1.315681]]]},"clearanceHeight":1.7,"clearancePrepared":true},"geometry":{"type":"Polygon","coordinates":[[[103.6687603,1.3152468],[103.668737,1.315681],[103.6689173,1.3156906],[103.6689405,1.3152565],[103.6687603,1.3152468]]]}},{"type":"Feature","id":"way/118611422-0","properties":{"addr:city":"Singapore","addr:country":"SG","addr:housenumber":"20","addr:street":"Gul Drive","building":"yes","clearanceGeometry":{"type":"Polygon","coordinates":[[[103.6712792,1.3177327],[103.6709756,1.3177134],[103.6709329,1.3183837],[103.6712365,1.318403],[103.6712792,1.3177327]]]},"clearanceHeight":1.7,"clearancePrepared":true},"geometry":{"type":"Polygon","coordinates":[[[103.6712365,1.318403],[103.6712792,1.3177327],[103.6709756,1.3177134],[103.6709329,1.3183837],[103.6712365,1.318403]]]}},{"type":"Feature","id":"way/118611423-0","properties":{"addr:city":"Singapore","addr:country":"SG","addr:housenumber":"25","addr:street":"Gul Drive","building":"yes","clearanceGeometry":{"type":"Polygon","coordinates":[[[103.671315,1.3163413],[103.6710773,1.3163266],[103.6710366,1.3169842],[103.6712743,1.3169989],[103.671315,1.3163413]]]},"clearanceHeight":1.7,"clearancePrepared":true},"geometry":{"type":"Polygon","coordinates":[[[103.6712743,1.3169989],[103.671315,1.3163413],[103.6710773,1.3163266],[103.6710366,1.3169842],[103.6712743,1.3169989]]]}},{"type":"Feature","id":"way/118611458-0","properties":{"addr:housenumber":"144","addr:street":"Gul Circle","building":"warehouse","name":"Kawarin","clearanceGeometry":{"type":"Polygon","coordinates":[[[103.6709112,1.3191133],[103.6711314,1.3191268],[103.6711651,1.3185764],[103.6704697,1.3185339],[103.6704061,1.3195719],[103.6708813,1.319601],[103.6709112,1.3191133]]]},"clearanceHeight":1.7,"clearancePrepared":true},"geometry":{"type":"Polygon","coordinates":[[[103.6708813,1.319601],[103.6709112,1.3191133],[103.6711314,1.3191268],[103.6711651,1.3185764],[103.6704697,1.3185339],[103.6704061,1.3195719],[103.6708813,1.319601]]]}},{"type":"Feature","id":"way/118611465-0","properties":{"building":"yes","clearanceGeometry":{"type":"Polygon","coordinates":[[[103.6711774,1.3159304],[103.6709227,1.3159089],[103.6709068,1.3160974],[103.6711615,1.3161189],[103.6711774,1.3159304]]]},"clearanceHeight":1.7,"clearancePrepared":true},"geometry":{"type":"Polygon","coordinates":[[[103.6711615,1.3161189],[103.6711774,1.3159304],[103.6709227,1.3159089],[103.6709068,1.3160974],[103.6711615,1.3161189]]]}},{"type":"Feature","id":"way/118611495-0","properties":{"addr:city":"Singapore","addr:country":"SG","addr:housenumber":"27","addr:street":"Gul Drive","building":"yes","clearanceGeometry":{"type":"Polygon","coordinates":[[[103.6710185,1.3162634],[103.6707843,1.3162428],[103.670743,1.3167123],[103.6706552,1.3167046],[103.670622,1.3170817],[103.670944,1.31711],[103.6710185,1.3162634]]]},"clearanceHeight":1.7,"clearancePrepared":true},"geometry":{"type":"Polygon","coordinates":[[[103.670944,1.31711],[103.6710185,1.3162634],[103.6707843,1.3162428],[103.670743,1.3167123],[103.6706552,1.3167046],[103.670622,1.3170817],[103.670944,1.31711]]]}},{"type":"Feature","id":"way/1408936545-0","properties":{"building":"yes","clearanceGeometry":{"type":"Polygon","coordinates":[[[103.6668393,1.3174765],[103.6668428,1.3174207],[103.6667961,1.3174178],[103.6667925,1.3174735],[103.6668393,1.3174765]]]},"clearanceHeight":1.7,"clearancePrepared":true},"geometry":{"type":"Polygon","coordinates":[[[103.6667925,1.3174735],[103.6668393,1.3174765],[103.6668428,1.3174207],[103.6667961,1.3174178],[103.6667925,1.3174735]]]}},{"type":"Feature","id":"node/7146603284","properties":{"highway":"crossing"},"geometry":{"type":"Point","coordinates":[103.668623,1.3197472]}},{"type":"Feature","id":"node/8382667379","properties":{"highway":"crossing"},"geometry":{"type":"Point","coordinates":[103.6669545,1.3170148]}},{"type":"Feature","id":"node/8385781377","properties":{"highway":"crossing"},"geometry":{"type":"Point","coordinates":[103.6703538,1.3199163]}},{"type":"Feature","id":"node/8385781381","properties":{"highway":"crossing"},"geometry":{"type":"Point","coordinates":[103.6701853,1.3199041]}},{"type":"Feature","id":"way/32630704-0-0-0","properties":{"highway":"residential","lanes":"4","lanes:backward":"2","lanes:forward":"2","lit":"yes","maxspeed":"50","name":"Gul Way","sidewalk":"left","surface":"asphalt","turn:lanes:backward":"left;through|through;right","turn:lanes:forward":"left;through|through;right","startNodeId":"366908437","endNodeId":"8650938192"},"geometry":{"type":"LineString","coordinates":[[103.6704168,1.3172333],[103.670519,1.3158775]]}},{"type":"Feature","id":"way/32630717-0-0-0","properties":{"highway":"residential","lanes":"2","lanes:backward":"1","lanes:forward":"1","maxspeed":"50","name":"Gul Street 3","sidewalk":"both","surface":"asphalt","startNodeId":"5254866847","endNodeId":"6031087594"},"geometry":{"type":"LineString","coordinates":[[103.6668092,1.3189961],[103.6668386,1.3186594]]}},{"type":"Feature","id":"way/32630719-0-0-0","properties":{"highway":"residential","lanes":"2","lanes:backward":"1","lanes:forward":"1","maxspeed":"50","name":"Gul Street 2","surface":"asphalt","turn:lanes:backward":"left;right","startNodeId":"366908662","endNodeId":"7152934417"},"geometry":{"type":"LineString","coordinates":[[103.6668525,1.3183083],[103.6672826,1.318348]]}},{"type":"Feature","id":"way/465657494-0-0-0","properties":{"highway":"service","lanes":"2","lanes:backward":"1","lanes:forward":"1","surface":"asphalt","turn:lanes:backward":"through","turn:lanes:forward":"through","startNodeId":"4605891325","endNodeId":"5557172148"},"geometry":{"type":"LineString","coordinates":[[103.6695529,1.3198609],[103.6695521,1.3198721]]}},{"type":"Feature","id":"way/480885658-0-0-0","properties":{"highway":"residential","lanes":"4","lanes:backward":"2","lanes:forward":"2","maxspeed":"50","name":"Gul Circle","parking:condition:right:vehicles":"motorcar","parking:lane:right":"marked","surface":"asphalt","turn:lanes:backward":"through|through;right","startNodeId":"5558294263","endNodeId":"4605891323"},"geometry":{"type":"LineString","coordinates":[[103.6686197,1.3198015],[103.6681782,1.319765]]}},{"type":"Feature","id":"way/538808426-0-0-0","properties":{"highway":"service","lanes":"2","service":"parking_aisle","startNodeId":"5214750343","endNodeId":"5214750342"},"geometry":{"type":"LineString","coordinates":[[103.66957,1.3196758],[103.6699874,1.319701]]}},{"type":"Feature","id":"way/538808427-0-0-0","properties":{"highway":"service","lanes":"2","lanes:backward":"1","lanes:forward":"1","startNodeId":"4605891325","endNodeId":"5214750343"},"geometry":{"type":"LineString","coordinates":[[103.6695529,1.3198609],[103.66957,1.3196758]]}},{"type":"Feature","id":"way/538808428-0-0-0","properties":{"highway":"service","startNodeId":"5254866861","endNodeId":"5214750345"},"geometry":{"type":"LineString","coordinates":[[103.6688477,1.3192378],[103.6693021,1.3192788]]}},{"type":"Feature","id":"way/538808428-0-1-0","properties":{"highway":"service","startNodeId":"5214750345","endNodeId":"5254866865"},"geometry":{"type":"LineString","coordinates":[[103.6693021,1.3192788],[103.6693217,1.3192764]]}},{"type":"Feature","id":"way/538808428-0-2-0","properties":{"highway":"service","startNodeId":"5254866865","endNodeId":"5254866864"},"geometry":{"type":"LineString","coordinates":[[103.6693217,1.3192764],[103.6693356,1.3192672]]}},{"type":"Feature","id":"way/538808428-0-3-0","properties":{"highway":"service","startNodeId":"5254866864","endNodeId":"5254866863"},"geometry":{"type":"LineString","coordinates":[[103.6693356,1.3192672],[103.6693402,1.3192541]]}},{"type":"Feature","id":"way/538808428-0-4-0","properties":{"highway":"service","startNodeId":"5254866863","endNodeId":"5254866862"},"geometry":{"type":"LineString","coordinates":[[103.6693402,1.3192541],[103.6693564,1.3189376]]}},{"type":"Feature","id":"way/538808429-0-0-0","properties":{"highway":"service","startNodeId":"5214750348","endNodeId":"5214750349"},"geometry":{"type":"LineString","coordinates":[[103.6688486,1.3188097],[103.6688779,1.3184132]]}},{"type":"Feature","id":"way/539057917-0-0-0","properties":{"highway":"service","startNodeId":"5216690182","endNodeId":"5557297018"},"geometry":{"type":"LineString","coordinates":[[103.6697383,1.3171783],[103.6697375,1.3171878]]}},{"type":"Feature","id":"way/539057918-0-0-0","properties":{"highway":"service","startNodeId":"5216690184","endNodeId":"5216690183"},"geometry":{"type":"LineString","coordinates":[[103.6697683,1.3165309],[103.6697098,1.317176]]}},{"type":"Feature","id":"way/539057919-0-0-0","properties":{"highway":"service","startNodeId":"5216690186","endNodeId":"5216690185"},"geometry":{"type":"LineString","coordinates":[[103.6690668,1.3164705],[103.6690275,1.3171196]]}},{"type":"Feature","id":"way/539057920-0-0-0","properties":{"highway":"service","startNodeId":"5216690188","endNodeId":"5216690187"},"geometry":{"type":"LineString","coordinates":[[103.6689368,1.3163647],[103.6688793,1.3171073]]}},{"type":"Feature","id":"way/539057921-0-0-0","properties":{"highway":"service","startNodeId":"5216690190","endNodeId":"5216690189"},"geometry":{"type":"LineString","coordinates":[[103.6676252,1.3163526],[103.667576,1.3170211]]}},{"type":"Feature","id":"way/539057922-0-0-0","properties":{"highway":"service","service":"parking_aisle","startNodeId":"5216690192","endNodeId":"5216690191"},"geometry":{"type":"LineString","coordinates":[[103.6677387,1.3168727],[103.6680792,1.3168929]]}},{"type":"Feature","id":"way/539057923-0-0-0","properties":{"highway":"service","startNodeId":"5216690195","endNodeId":"5216690194"},"geometry":{"type":"LineString","coordinates":[[103.6682796,1.3163271],[103.668221,1.3170634]]}},{"type":"Feature","id":"way/539057924-0-0-0","properties":{"highway":"service","startNodeId":"5216690200","endNodeId":"5216690199"},"geometry":{"type":"LineString","coordinates":[[103.6679108,1.3160965],[103.6678062,1.3162252]]}},{"type":"Feature","id":"way/539057924-0-1-0","properties":{"highway":"service","startNodeId":"5216690199","endNodeId":"5216690198"},"geometry":{"type":"LineString","coordinates":[[103.6678062,1.3162252],[103.6677861,1.3162655]]}},{"type":"Feature","id":"way/539057924-0-2-0","properties":{"highway":"service","startNodeId":"5216690198","endNodeId":"5216690197"},"geometry":{"type":"LineString","coordinates":[[103.6677861,1.3162655],[103.6677727,1.3163365]]}},{"type":"Feature","id":"way/539057924-0-3-0","properties":{"highway":"service","startNodeId":"5216690197","endNodeId":"5216690192"},"geometry":{"type":"LineString","coordinates":[[103.6677727,1.3163365],[103.6677387,1.3168727]]}},{"type":"Feature","id":"way/539057925-0-0-0","properties":{"highway":"service","startNodeId":"5216690202","endNodeId":"5216690201"},"geometry":{"type":"LineString","coordinates":[[103.6671571,1.3162158],[103.6671,1.3169899]]}},{"type":"Feature","id":"way/543586412-0-0-0","properties":{"highway":"service","startNodeId":"5254866838","endNodeId":"5254866837"},"geometry":{"type":"LineString","coordinates":[[103.6688356,1.3194623],[103.6688457,1.3193289]]}},{"type":"Feature","id":"way/543586413-0-0-0","properties":{"highway":"service","startNodeId":"5254866840","endNodeId":"5254866837"},"geometry":{"type":"LineString","coordinates":[[103.6686607,1.3193144],[103.6688457,1.3193289]]}},{"type":"Feature","id":"way/543586414-0-0-0","properties":{"highway":"service","startNodeId":"5558294267","endNodeId":"5254866845"},"geometry":{"type":"LineString","coordinates":[[103.6686713,1.3189732],[103.6685396,1.3189653]]}},{"type":"Feature","id":"way/543586414-0-1-0","properties":{"highway":"service","startNodeId":"5254866845","endNodeId":"5254866844"},"geometry":{"type":"LineString","coordinates":[[103.6685396,1.3189653],[103.6685295,1.3189592]]}},{"type":"Feature","id":"way/543586414-0-2-0","properties":{"highway":"service","startNodeId":"5254866844","endNodeId":"5254866843"},"geometry":{"type":"LineString","coordinates":[[103.6685295,1.3189592],[103.6685242,1.3189499]]}},{"type":"Feature","id":"way/543586414-0-3-0","properties":{"highway":"service","startNodeId":"5254866843","endNodeId":"5254866842"},"geometry":{"type":"LineString","coordinates":[[103.6685242,1.3189499],[103.6685234,1.3189399]]}},{"type":"Feature","id":"way/543586414-0-4-0","properties":{"highway":"service","startNodeId":"5254866842","endNodeId":"5254866841"},"geometry":{"type":"LineString","coordinates":[[103.6685234,1.3189399],[103.6685367,1.3186625]]}},{"type":"Feature","id":"way/543586416-0-0-0","properties":{"highway":"service","lanes":"2","lanes:backward":"1","lanes:forward":"1","startNodeId":"5254866858","endNodeId":"7146695855"},"geometry":{"type":"LineString","coordinates":[[103.667462,1.3197124],[103.6674675,1.319622]]}},{"type":"Feature","id":"way/543586416-0-1-0","properties":{"highway":"service","lanes":"2","lanes:backward":"1","lanes:forward":"1","startNodeId":"7146695855","endNodeId":"5254866857"},"geometry":{"type":"LineString","coordinates":[[103.6674675,1.319622],[103.6674726,1.3195389]]}},{"type":"Feature","id":"way/543586416-0-2-0","properties":{"highway":"service","lanes":"2","lanes:backward":"1","lanes:forward":"1","startNodeId":"5254866857","endNodeId":"5254866856"},"geometry":{"type":"LineString","coordinates":[[103.6674726,1.3195389],[103.6674732,1.31953]]}},{"type":"Feature","id":"way/543586416-0-3-0","properties":{"highway":"service","lanes":"2","lanes:backward":"1","lanes:forward":"1","startNodeId":"5254866856","endNodeId":"5254866855"},"geometry":{"type":"LineString","coordinates":[[103.6674732,1.31953],[103.6674784,1.3195235]]}},{"type":"Feature","id":"way/543586416-0-4-0","properties":{"highway":"service","lanes":"2","lanes:backward":"1","lanes:forward":"1","startNodeId":"5254866855","endNodeId":"5254866854"},"geometry":{"type":"LineString","coordinates":[[103.6674784,1.3195235],[103.667486,1.3195212]]}},{"type":"Feature","id":"way/543586416-0-5-0","properties":{"highway":"service","lanes":"2","lanes:backward":"1","lanes:forward":"1","startNodeId":"5254866854","endNodeId":"5254866853"},"geometry":{"type":"LineString","coordinates":[[103.667486,1.3195212],[103.6675946,1.3195259]]}},{"type":"Feature","id":"way/543586416-0-6-0","properties":{"highway":"service","lanes":"2","lanes:backward":"1","lanes:forward":"1","startNodeId":"5254866853","endNodeId":"5254866852"},"geometry":{"type":"LineString","coordinates":[[103.6675946,1.3195259],[103.6676051,1.3195241]]}},{"type":"Feature","id":"way/543586416-0-7-0","properties":{"highway":"service","lanes":"2","lanes:backward":"1","lanes:forward":"1","startNodeId":"5254866852","endNodeId":"5254866851"},"geometry":{"type":"LineString","coordinates":[[103.6676051,1.3195241],[103.6676121,1.3195171]]}},{"type":"Feature","id":"way/543586416-0-8-0","properties":{"highway":"service","lanes":"2","lanes:backward":"1","lanes:forward":"1","startNodeId":"5254866851","endNodeId":"5254866850"},"geometry":{"type":"LineString","coordinates":[[103.6676121,1.3195171],[103.6676156,1.3195066]]}},{"type":"Feature","id":"way/543586416-0-9-0","properties":{"highway":"service","lanes":"2","lanes:backward":"1","lanes:forward":"1","startNodeId":"5254866850","endNodeId":"5254866849"},"geometry":{"type":"LineString","coordinates":[[103.6676156,1.3195066],[103.6676215,1.3193806]]}},{"type":"Feature","id":"way/543586417-0-0-0","properties":{"highway":"service","startNodeId":"5214750348","endNodeId":"5214750347"},"geometry":{"type":"LineString","coordinates":[[103.6688486,1.3188097],[103.6686937,1.3187983]]}},{"type":"Feature","id":"way/543586418-0-0-0","properties":{"highway":"service","startNodeId":"5558294265","endNodeId":"5214750350"},"geometry":{"type":"LineString","coordinates":[[103.6687142,1.3183966],[103.6687256,1.3183975]]}},{"type":"Feature","id":"way/543586419-0-0-0","properties":{"highway":"service","startNodeId":"5254866861","endNodeId":"5254866860"},"geometry":{"type":"LineString","coordinates":[[103.6688477,1.3192378],[103.668865,1.3189923]]}},{"type":"Feature","id":"way/543718742-0-0-0","properties":{"highway":"service","startNodeId":"5256094048","endNodeId":"5256094047"},"geometry":{"type":"LineString","coordinates":[[103.6712395,1.3187258],[103.6711718,1.3196992]]}},{"type":"Feature","id":"way/543718742-0-1-0","properties":{"highway":"service","startNodeId":"5256094047","endNodeId":"5256094046"},"geometry":{"type":"LineString","coordinates":[[103.6711718,1.3196992],[103.6711764,1.3197286]]}},{"type":"Feature","id":"way/543718742-0-2-0","properties":{"highway":"service","startNodeId":"5256094046","endNodeId":"5256094045"},"geometry":{"type":"LineString","coordinates":[[103.6711764,1.3197286],[103.6711885,1.3197541]]}},{"type":"Feature","id":"way/543718742-0-3-0","properties":{"highway":"service","startNodeId":"5256094045","endNodeId":"5256094044"},"geometry":{"type":"LineString","coordinates":[[103.6711885,1.3197541],[103.6712126,1.3197729]]}},{"type":"Feature","id":"way/543718743-0-0-0","properties":{"highway":"service","lanes":"2","lanes:backward":"1","lanes:forward":"1","startNodeId":"5256094062","endNodeId":"5256094061"},"geometry":{"type":"LineString","coordinates":[[103.6705172,1.3196414],[103.6708572,1.3196629]]}},{"type":"Feature","id":"way/543718743-0-1-0","properties":{"highway":"service","lanes":"2","lanes:backward":"1","lanes:forward":"1","startNodeId":"5256094061","endNodeId":"5256094060"},"geometry":{"type":"LineString","coordinates":[[103.6708572,1.3196629],[103.6708733,1.319671]]}},{"type":"Feature","id":"way/543718743-0-2-0","properties":{"highway":"service","lanes":"2","lanes:backward":"1","lanes:forward":"1","startNodeId":"5256094060","endNodeId":"5256094059"},"geometry":{"type":"LineString","coordinates":[[103.6708733,1.319671],[103.6708868,1.319687]]}},{"type":"Feature","id":"way/543718743-0-3-0","properties":{"highway":"service","lanes":"2","lanes:backward":"1","lanes:forward":"1","startNodeId":"5256094059","endNodeId":"5256094058"},"geometry":{"type":"LineString","coordinates":[[103.6708868,1.319687],[103.6708881,1.3197072]]}},{"type":"Feature","id":"way/543718743-0-4-0","properties":{"highway":"service","lanes":"2","lanes:backward":"1","lanes:forward":"1","startNodeId":"5256094058","endNodeId":"5256094057"},"geometry":{"type":"LineString","coordinates":[[103.6708881,1.3197072],[103.6708792,1.3199552]]}},{"type":"Feature","id":"way/544863927-0-1-0","properties":{"highway":"service","startNodeId":"5266556132","endNodeId":"5266556131"},"geometry":{"type":"LineString","coordinates":[[103.6672011,1.3155779],[103.6672018,1.3155964]]}},{"type":"Feature","id":"way/544863927-0-2-0","properties":{"highway":"service","startNodeId":"5266556131","endNodeId":"5266556130"},"geometry":{"type":"LineString","coordinates":[[103.6672018,1.3155964],[103.6672045,1.3156053]]}},{"type":"Feature","id":"way/544863927-0-3-0","properties":{"highway":"service","startNodeId":"5266556130","endNodeId":"5266556129"},"geometry":{"type":"LineString","coordinates":[[103.6672045,1.3156053],[103.6672124,1.3156123]]}},{"type":"Feature","id":"way/544863927-0-4-0","properties":{"highway":"service","startNodeId":"5266556129","endNodeId":"5266556128"},"geometry":{"type":"LineString","coordinates":[[103.6672124,1.3156123],[103.6673292,1.3156194]]}},{"type":"Feature","id":"way/544863928-0-0-0","properties":{"highway":"service","startNodeId":"5266556139","endNodeId":"5266556138"},"geometry":{"type":"LineString","coordinates":[[103.6702651,1.3160966],[103.6702846,1.3160842]]}},{"type":"Feature","id":"way/544863928-0-1-0","properties":{"highway":"service","startNodeId":"5266556138","endNodeId":"5266556137"},"geometry":{"type":"LineString","coordinates":[[103.6702846,1.3160842],[103.6702917,1.316063]]}},{"type":"Feature","id":"way/544863928-0-2-0","properties":{"highway":"service","startNodeId":"5266556137","endNodeId":"5266556136"},"geometry":{"type":"LineString","coordinates":[[103.6702917,1.316063],[103.6703129,1.315649]]}},{"type":"Feature","id":"way/544863931-0-0-0","properties":{"highway":"service","startNodeId":"5266556143","endNodeId":"5266556142"},"geometry":{"type":"LineString","coordinates":[[103.6697775,1.3160617],[103.6697916,1.3160741]]}},{"type":"Feature","id":"way/544863931-0-1-0","properties":{"highway":"service","startNodeId":"5266556142","endNodeId":"5266556141"},"geometry":{"type":"LineString","coordinates":[[103.6697916,1.3160741],[103.6698217,1.3160847]]}},{"type":"Feature","id":"way/544863931-0-2-0","properties":{"highway":"service","startNodeId":"5266556141","endNodeId":"5266556140"},"geometry":{"type":"LineString","coordinates":[[103.6698217,1.3160847],[103.670234,1.3161059]]}},{"type":"Feature","id":"way/544863931-0-3-0","properties":{"highway":"service","startNodeId":"5266556140","endNodeId":"5266556139"},"geometry":{"type":"LineString","coordinates":[[103.670234,1.3161059],[103.6702651,1.3160966]]}},{"type":"Feature","id":"way/544863940-0-0-0","properties":{"highway":"service","startNodeId":"5266556186","endNodeId":"5266556185"},"geometry":{"type":"LineString","coordinates":[[103.6694604,1.3158785],[103.6696068,1.3158846]]}},{"type":"Feature","id":"way/544863940-0-1-0","properties":{"highway":"service","startNodeId":"5266556185","endNodeId":"5266556184"},"geometry":{"type":"LineString","coordinates":[[103.6696068,1.3158846],[103.6696271,1.3158785]]}},{"type":"Feature","id":"way/544863940-0-2-0","properties":{"highway":"service","startNodeId":"5266556184","endNodeId":"5266556183"},"geometry":{"type":"LineString","coordinates":[[103.6696271,1.3158785],[103.6696454,1.3158603]]}},{"type":"Feature","id":"way/544863940-0-3-0","properties":{"highway":"service","startNodeId":"5266556183","endNodeId":"5266556182"},"geometry":{"type":"LineString","coordinates":[[103.6696454,1.3158603],[103.6696576,1.3158379]]}},{"type":"Feature","id":"way/544866309-0-0-0","properties":{"highway":"service","lanes":"2","lanes:backward":"1","lanes:forward":"1","startNodeId":"5266576461","endNodeId":"5266576460"},"geometry":{"type":"LineString","coordinates":[[103.6703263,1.3185533],[103.6705561,1.3184341]]}},{"type":"Feature","id":"way/544866309-0-1-0","properties":{"highway":"service","lanes":"2","lanes:backward":"1","lanes:forward":"1","startNodeId":"5266576460","endNodeId":"5266576459"},"geometry":{"type":"LineString","coordinates":[[103.6705561,1.3184341],[103.670572,1.3184147]]}},{"type":"Feature","id":"way/544866309-0-2-0","properties":{"highway":"service","lanes":"2","lanes:backward":"1","lanes:forward":"1","startNodeId":"5266576459","endNodeId":"5266576458"},"geometry":{"type":"LineString","coordinates":[[103.670572,1.3184147],[103.6705773,1.3183917]]}},{"type":"Feature","id":"way/544866309-0-3-0","properties":{"highway":"service","lanes":"2","lanes:backward":"1","lanes:forward":"1","startNodeId":"5266576458","endNodeId":"5266576457"},"geometry":{"type":"LineString","coordinates":[[103.6705773,1.3183917],[103.6706357,1.3175407]]}},{"type":"Feature","id":"way/580700290-0-0-0","properties":{"highway":"residential","lanes":"4","lanes:backward":"2","lanes:forward":"2","maxspeed":"50","name":"Gul Way","sidewalk":"left","surface":"asphalt","turn:lanes:backward":"left;through|through;right","turn:lanes:forward":"none|none","startNodeId":"366908434","endNodeId":"5266576461"},"geometry":{"type":"LineString","coordinates":[[103.6702338,1.3199074],[103.6703263,1.3185533]]}},{"type":"Feature","id":"way/580705155-0-0-0","properties":{"highway":"residential","lanes":"2","lanes:backward":"1","lanes:forward":"1","maxspeed":"50","name":"Gul Street 1","sidewalk":"both","surface":"asphalt","startNodeId":"5558294266","endNodeId":"5558294267"},"geometry":{"type":"LineString","coordinates":[[103.6686822,1.3187976],[103.6686713,1.3189732]]}},{"type":"Feature","id":"way/580886461-0-0-0","properties":{"highway":"residential","lanes":"4","lanes:backward":"2","lanes:forward":"2","maxspeed":"50","name":"Gul Drive","sidewalk":"right","surface":"asphalt","startNodeId":"5216690185","endNodeId":"5216690187"},"geometry":{"type":"LineString","coordinates":[[103.6690275,1.3171196],[103.6688793,1.3171073]]}},{"type":"Feature","id":"way/597189723-0-0-0","properties":{"highway":"service","startNodeId":"5686918207","endNodeId":"5686918206"},"geometry":{"type":"LineString","coordinates":[[103.6669424,1.3169763],[103.6669754,1.3166281]]}},{"type":"Feature","id":"way/597189723-0-1-0","properties":{"highway":"service","startNodeId":"5686918206","endNodeId":"5686918205"},"geometry":{"type":"LineString","coordinates":[[103.6669754,1.3166281],[103.6670244,1.3161059]]}},{"type":"Feature","id":"way/597189725-0-0-0","properties":{"highway":"residential","lanes":"2","lanes:backward":"1","lanes:forward":"1","maxspeed":"50","oneway":"yes","startNodeId":"5686918215","endNodeId":"5686918216"},"geometry":{"type":"LineString","coordinates":[[103.6668974,1.3176471],[103.667648,1.3177041]]}},{"type":"Feature","id":"way/597189725-0-1-0","properties":{"highway":"residential","lanes":"2","lanes:backward":"1","lanes:forward":"1","maxspeed":"50","oneway":"yes","startNodeId":"5686918216","endNodeId":"5686918217"},"geometry":{"type":"LineString","coordinates":[[103.667648,1.3177041],[103.6687689,1.3177863]]}},{"type":"Feature","id":"way/633601346-0-0-0","properties":{"highway":"residential","lanes":"4","lanes:backward":"2","lanes:forward":"2","maxspeed":"50","name":"Gul Way","sidewalk":"left","surface":"asphalt","startNodeId":"5266576461","endNodeId":"6375908766"},"geometry":{"type":"LineString","coordinates":[[103.6703263,1.3185533],[103.6703986,1.3175365]]}},{"type":"Feature","id":"way/633601347-0-1-0","properties":{"highway":"residential","lanes":"3","lanes:backward":"1","lanes:forward":"2","maxspeed":"50","name":"Gul Circle","sidewalk":"both","surface":"asphalt","turn:lanes:backward":"through","turn:lanes:forward":"left;through|through;right","startNodeId":"8385781377","endNodeId":"366908434"},"geometry":{"type":"LineString","coordinates":[[103.6703538,1.3199163],[103.6702338,1.3199074]]}},{"type":"Feature","id":"way/639559726-0-0-0","properties":{"highway":"service","lanes":"2","lanes:backward":"1","lanes:forward":"1","noname":"yes","surface":"asphalt","turn:lanes:backward":"through","turn:lanes:forward":"left;through","startNodeId":"5557172145","endNodeId":"7146695859"},"geometry":{"type":"LineString","coordinates":[[103.6681775,1.3197761],[103.6681737,1.3198409]]}},{"type":"Feature","id":"way/639559727-0-0-0","properties":{"highway":"service","lanes":"2","lanes:backward":"1","lanes:forward":"1","noname":"yes","surface":"asphalt","startNodeId":"4605891323","endNodeId":"5557172145"},"geometry":{"type":"LineString","coordinates":[[103.6681782,1.319765],[103.6681775,1.3197761]]}},{"type":"Feature","id":"way/639565797-0-0-0","properties":{"highway":"residential","lanes":"2","lanes:backward":"1","lanes:forward":"1","maxspeed":"50","name":"Gul Street 3","sidewalk":"both","surface":"asphalt","turn:lanes:forward":"left;right","startNodeId":"5557297016","endNodeId":"366908661"},"geometry":{"type":"LineString","coordinates":[[103.6669565,1.3169869],[103.6669573,1.3169774]]}},{"type":"Feature","id":"way/639565798-0-0-0","properties":{"highway":"residential","lanes":"2","lanes:backward":"1","lanes:forward":"1","maxspeed":"50","name":"Gul Street 3","parking:condition:left:vehicles":"motorcar","parking:lane:left":"parallel","sidewalk":"both","surface":"asphalt","startNodeId":"5686918215","endNodeId":"6031255770"},"geometry":{"type":"LineString","coordinates":[[103.6668974,1.3176471],[103.6669023,1.317578]]}},{"type":"Feature","id":"way/639755181-0-0-0","properties":{"highway":"residential","lanes":"4","lit":"yes","maxspeed":"50","name":"Gul Drive","surface":"asphalt","startNodeId":"5216690201","endNodeId":"366908661"},"geometry":{"type":"LineString","coordinates":[[103.6671,1.3169899],[103.6669573,1.3169774]]}},{"type":"Feature","id":"way/639755183-0-0-0","properties":{"highway":"residential","lanes":"4","lanes:backward":"2","lanes:forward":"2","maxspeed":"50","name":"Gul Drive","surface":"asphalt","startNodeId":"366908661","endNodeId":"5686918207"},"geometry":{"type":"LineString","coordinates":[[103.6669573,1.3169774],[103.6669424,1.3169763]]}},{"type":"Feature","id":"way/639755185-0-0-0","properties":{"highway":"residential","lanes":"4","maxspeed":"50","name":"Gul Drive","parking:condition:left:vehicles":"motorcar","parking:lane:left":"parallel","surface":"asphalt","startNodeId":"5558294259","endNodeId":"6217655192"},"geometry":{"type":"LineString","coordinates":[[103.6688301,1.3171031],[103.6685626,1.3170873]]}},{"type":"Feature","id":"way/639755187-0-0-0","properties":{"highway":"residential","lanes":"4","lanes:backward":"2","lanes:forward":"2","maxspeed":"50","name":"Gul Circle","surface":"asphalt","startNodeId":"4605891323","endNodeId":"6217759686"},"geometry":{"type":"LineString","coordinates":[[103.6681782,1.319765],[103.6677258,1.3197326]]}},{"type":"Feature","id":"way/639755189-0-0-0","properties":{"highway":"residential","lanes":"4","lanes:backward":"2","lanes:forward":"2","maxspeed":"50","name":"Gul Circle","parking:condition:right:vehicles":"hgv_articulated","parking:lane:right":"parallel","surface":"asphalt","turn:lanes:backward":"through|through;right","turn:lanes:forward":"left;through|through","startNodeId":"5254866858","endNodeId":"366908659"},"geometry":{"type":"LineString","coordinates":[[103.667462,1.3197124],[103.6667722,1.3196608]]}},{"type":"Feature","id":"way/639856231-0-0-0","properties":{"highway":"residential","lanes":"4","lanes:backward":"2","lanes:forward":"2","maxspeed":"50","name":"Gul Circle","sidewalk":"both","surface":"asphalt","turn:lanes:backward":"left;through|through;right","startNodeId":"366908434","endNodeId":"8385781381"},"geometry":{"type":"LineString","coordinates":[[103.6702338,1.3199074],[103.6701853,1.3199041]]}},{"type":"Feature","id":"way/639856231-0-1-0","properties":{"highway":"residential","lanes":"4","lanes:backward":"2","lanes:forward":"2","maxspeed":"50","name":"Gul Circle","sidewalk":"both","surface":"asphalt","turn:lanes:backward":"left;through|through;right","startNodeId":"8385781381","endNodeId":"4605891325"},"geometry":{"type":"LineString","coordinates":[[103.6701853,1.3199041],[103.6695529,1.3198609]]}},{"type":"Feature","id":"way/640178082-0-0-0","properties":{"highway":"residential","lanes":"2","lanes:backward":"1","lanes:forward":"1","maxspeed":"50","name":"Gul Street 3","sidewalk":"both","surface":"asphalt","startNodeId":"5268869823","endNodeId":"6217895832"},"geometry":{"type":"LineString","coordinates":[[103.6668784,1.317987],[103.6668889,1.3178087]]}},{"type":"Feature","id":"way/640178083-0-0-0","properties":{"highway":"residential","lanes":"2","lanes:backward":"1","lanes:forward":"1","maxspeed":"50","name":"Gul Street 3","sidewalk":"both","surface":"asphalt","startNodeId":"366908662","endNodeId":"6217895834"},"geometry":{"type":"LineString","coordinates":[[103.6668525,1.3183083],[103.6668608,1.3181948]]}},{"type":"Feature","id":"way/640181994-0-0-0","properties":{"highway":"residential","lanes":"2","lanes:backward":"1","lanes:forward":"1","maxspeed":"50","name":"Gul Street 3","parking:condition:left:vehicles":"motorcar","parking:lane:left":"parallel","sidewalk":"both","surface":"asphalt","startNodeId":"6031087594","endNodeId":"6217895835"},"geometry":{"type":"LineString","coordinates":[[103.6668386,1.3186594],[103.6668427,1.318542]]}},{"type":"Feature","id":"way/640181995-0-0-0","properties":{"highway":"residential","lanes":"2","lanes:backward":"1","lanes:forward":"1","maxspeed":"50","name":"Gul Street 3","sidewalk":"both","surface":"asphalt","startNodeId":"6031087595","endNodeId":"5254866847"},"geometry":{"type":"LineString","coordinates":[[103.6668038,1.3190629],[103.6668092,1.3189961]]}},{"type":"Feature","id":"way/640205426-0-0-0","properties":{"highway":"residential","lanes":"2","lanes:backward":"1","lanes:forward":"1","maxspeed":"50","name":"Gul Street 3","parking:condition:left:vehicles":"motorcar","parking:lane:left":"parallel","sidewalk":"both","surface":"asphalt","startNodeId":"6031255770","endNodeId":"6217895831"},"geometry":{"type":"LineString","coordinates":[[103.6669023,1.317578],[103.6669372,1.3172616]]}},{"type":"Feature","id":"way/640205427-0-0-0","properties":{"highway":"residential","lanes":"2","lanes:backward":"1","lanes:forward":"1","maxspeed":"50","name":"Gul Street 3","sidewalk":"both","surface":"asphalt","startNodeId":"6031255771","endNodeId":"5686918215"},"geometry":{"type":"LineString","coordinates":[[103.6668923,1.3177228],[103.6668974,1.3176471]]}},{"type":"Feature","id":"way/641089617-0-0-0","properties":{"highway":"service","lanes":"2","lanes:backward":"1","lanes:forward":"1","startNodeId":"5214750343","endNodeId":"6045409486"},"geometry":{"type":"LineString","coordinates":[[103.66957,1.3196758],[103.6696189,1.3189807]]}},{"type":"Feature","id":"way/642053342-0-0-0","properties":{"highway":"service","lanes":"2","startNodeId":"6045409486","endNodeId":"6045409485"},"geometry":{"type":"LineString","coordinates":[[103.6696189,1.3189807],[103.6701035,1.3190207]]}},{"type":"Feature","id":"way/643256876-0-0-0","properties":{"highway":"residential","lanes":"4","lanes:backward":"2","lanes:forward":"2","maxspeed":"50","name":"Gul Circle","surface":"asphalt","turn:lanes:forward":"left;through|through","startNodeId":"4605891325","endNodeId":"7146667287"},"geometry":{"type":"LineString","coordinates":[[103.6695529,1.3198609],[103.6691094,1.3198323]]}},{"type":"Feature","id":"way/643256876-0-1-0","properties":{"highway":"residential","lanes":"4","lanes:backward":"2","lanes:forward":"2","maxspeed":"50","name":"Gul Circle","surface":"asphalt","turn:lanes:forward":"left;through|through","startNodeId":"7146667287","endNodeId":"5558294263"},"geometry":{"type":"LineString","coordinates":[[103.6691094,1.3198323],[103.6686197,1.3198015]]}},{"type":"Feature","id":"way/645299282-0-0-0","properties":{"highway":"residential","lanes":"4","maxspeed":"50","name":"Gul Drive","sidewalk":"right","surface":"asphalt","startNodeId":"366908437","endNodeId":"5216690182"},"geometry":{"type":"LineString","coordinates":[[103.6704168,1.3172333],[103.6697383,1.3171783]]}},{"type":"Feature","id":"way/645299283-0-0-0","properties":{"highway":"service","startNodeId":"5557297018","endNodeId":"8382667381"},"geometry":{"type":"LineString","coordinates":[[103.6697375,1.3171878],[103.6697341,1.3172201]]}},{"type":"Feature","id":"way/645299283-0-1-0","properties":{"highway":"service","startNodeId":"8382667381","endNodeId":"5216690181"},"geometry":{"type":"LineString","coordinates":[[103.6697341,1.3172201],[103.6696503,1.3182283]]}},{"type":"Feature","id":"way/645299494-0-0-0","properties":{"highway":"residential","lanes":"4","maxspeed":"50","name":"Gul Drive","sidewalk":"right","surface":"asphalt","startNodeId":"5216690182","endNodeId":"5216690183"},"geometry":{"type":"LineString","coordinates":[[103.6697383,1.3171783],[103.6697098,1.317176]]}},{"type":"Feature","id":"way/645299757-0-0-0","properties":{"highway":"residential","lanes":"4","maxspeed":"50","name":"Gul Drive","parking:condition:right:vehicles":"hgv_articulated","parking:lane:right":"parallel","sidewalk":"right","surface":"asphalt","startNodeId":"5216690183","endNodeId":"6217658111"},"geometry":{"type":"LineString","coordinates":[[103.6697098,1.317176],[103.6693498,1.317145]]}},{"type":"Feature","id":"way/645300231-0-0-0","properties":{"highway":"residential","lanes":"4","maxspeed":"50","name":"Gul Drive","sidewalk":"right","surface":"asphalt","startNodeId":"5216690187","endNodeId":"5558294259"},"geometry":{"type":"LineString","coordinates":[[103.6688793,1.3171073],[103.6688301,1.3171031]]}},{"type":"Feature","id":"way/645300726-0-0-0","properties":{"highway":"residential","lanes":"4","lit":"yes","maxspeed":"50","name":"Gul Drive","parking:condition:left:vehicles":"motorcar","parking:lane:left":"parallel","surface":"asphalt","startNodeId":"5216690189","endNodeId":"5216690201"},"geometry":{"type":"LineString","coordinates":[[103.667576,1.3170211],[103.6671,1.3169899]]}},{"type":"Feature","id":"way/645300727-0-0-0","properties":{"highway":"residential","lanes":"4","maxspeed":"50","name":"Gul Drive","surface":"asphalt","startNodeId":"5216690196","endNodeId":"5216690189"},"geometry":{"type":"LineString","coordinates":[[103.6677289,1.3170312],[103.667576,1.3170211]]}},{"type":"Feature","id":"way/645300918-0-0-0","properties":{"highway":"service","startNodeId":"5216690192","endNodeId":"5216690196"},"geometry":{"type":"LineString","coordinates":[[103.6677387,1.3168727],[103.6677289,1.3170312]]}},{"type":"Feature","id":"way/645301415-0-0-0","properties":{"highway":"residential","lanes":"4","maxspeed":"50","name":"Gul Drive","parking:condition:both:vehicles":"motorcar","parking:lane:both":"parallel","surface":"asphalt","startNodeId":"5216690194","endNodeId":"5216690196"},"geometry":{"type":"LineString","coordinates":[[103.668221,1.3170634],[103.6677289,1.3170312]]}},{"type":"Feature","id":"way/646449007-0-0-0","properties":{"highway":"service","startNodeId":"5266556135","endNodeId":"5266556144"},"geometry":{"type":"LineString","coordinates":[[103.6698401,1.3151267],[103.6697722,1.3160369]]}},{"type":"Feature","id":"way/646449007-0-1-0","properties":{"highway":"service","startNodeId":"5266556144","endNodeId":"5266556143"},"geometry":{"type":"LineString","coordinates":[[103.6697722,1.3160369],[103.6697775,1.3160617]]}},{"type":"Feature","id":"way/646474483-0-0-0","properties":{"highway":"service","startNodeId":"5558294262","endNodeId":"way/646474483-0:0:1"},"geometry":{"type":"LineString","coordinates":[[103.6686627,1.3191119],[103.667736,1.319054]]}},{"type":"Feature","id":"way/646474483-0-0-1","properties":{"highway":"service","startNodeId":"way/646474483-0:0:1","endNodeId":"5254866847"},"geometry":{"type":"LineString","coordinates":[[103.667736,1.319054],[103.6668092,1.3189961]]}},{"type":"Feature","id":"way/646474776-0-0-0","properties":{"highway":"service","startNodeId":"5214750350","endNodeId":"5214750349"},"geometry":{"type":"LineString","coordinates":[[103.6687256,1.3183975],[103.6688779,1.3184132]]}},{"type":"Feature","id":"way/646475100-0-0-0","properties":{"highway":"service","startNodeId":"5214750347","endNodeId":"5558294266"},"geometry":{"type":"LineString","coordinates":[[103.6686937,1.3187983],[103.6686822,1.3187976]]}},{"type":"Feature","id":"way/646475790-0-0-0","properties":{"highway":"residential","lanes":"2","lanes:backward":"1","lanes:forward":"1","maxspeed":"50","name":"Gul Street 1","sidewalk":"both","surface":"asphalt","startNodeId":"5558294261","endNodeId":"5558294266"},"geometry":{"type":"LineString","coordinates":[[103.6687065,1.3184685],[103.6686822,1.3187976]]}},{"type":"Feature","id":"way/646475794-0-0-0","properties":{"highway":"residential","lanes":"2","lanes:backward":"1","lanes:forward":"1","maxspeed":"50","name":"Gul Street 1","sidewalk":"both","surface":"asphalt","startNodeId":"5558294265","endNodeId":"5558294261"},"geometry":{"type":"LineString","coordinates":[[103.6687142,1.3183966],[103.6687065,1.3184685]]}},{"type":"Feature","id":"way/646475797-0-0-0","properties":{"highway":"residential","lanes":"2","lanes:backward":"1","lanes:forward":"1","maxspeed":"50","name":"Gul Street 1","sidewalk":"both","surface":"asphalt","startNodeId":"5558294268","endNodeId":"5558294269"},"geometry":{"type":"LineString","coordinates":[[103.6686575,1.3192206],[103.6686493,1.3193136]]}},{"type":"Feature","id":"way/646475801-0-0-0","properties":{"highway":"residential","lanes":"2","lanes:backward":"1","lanes:forward":"1","maxspeed":"50","name":"Gul Street 1","sidewalk":"both","surface":"asphalt","startNodeId":"5558294259","endNodeId":"8382667374"},"geometry":{"type":"LineString","coordinates":[[103.6688301,1.3171031],[103.6688258,1.317144]]}},{"type":"Feature","id":"way/646475801-0-1-0","properties":{"highway":"residential","lanes":"2","lanes:backward":"1","lanes:forward":"1","maxspeed":"50","name":"Gul Street 1","sidewalk":"both","surface":"asphalt","startNodeId":"8382667374","endNodeId":"6217897903"},"geometry":{"type":"LineString","coordinates":[[103.6688258,1.317144],[103.668804,1.3173515]]}},{"type":"Feature","id":"way/646477586-0-0-0","properties":{"highway":"residential","lanes":"2","lanes:backward":"1","lanes:forward":"1","maxspeed":"50","name":"Gul Street 1","sidewalk":"both","surface":"asphalt","startNodeId":"5558294267","endNodeId":"5558294262"},"geometry":{"type":"LineString","coordinates":[[103.6686713,1.3189732],[103.6686627,1.3191119]]}},{"type":"Feature","id":"way/646478885-0-0-0","properties":{"highway":"residential","lanes":"2","lanes:backward":"1","lanes:forward":"1","maxspeed":"50","name":"Gul Street 1","sidewalk":"both","surface":"asphalt","startNodeId":"5558294262","endNodeId":"5558294268"},"geometry":{"type":"LineString","coordinates":[[103.6686627,1.3191119],[103.6686575,1.3192206]]}},{"type":"Feature","id":"way/646478887-0-0-0","properties":{"highway":"service","startNodeId":"5558294268","endNodeId":"5214750346"},"geometry":{"type":"LineString","coordinates":[[103.6686575,1.3192206],[103.668669,1.3192213]]}},{"type":"Feature","id":"way/646479122-0-0-0","properties":{"highway":"residential","lanes":"2","lanes:backward":"1","lanes:forward":"1","maxspeed":"50","name":"Gul Street 1","sidewalk":"both","surface":"asphalt","startNodeId":"5558294269","endNodeId":"7146603284"},"geometry":{"type":"LineString","coordinates":[[103.6686493,1.3193136],[103.668623,1.3197472]]}},{"type":"Feature","id":"way/646479122-0-1-0","properties":{"highway":"residential","lanes":"2","lanes:backward":"1","lanes:forward":"1","maxspeed":"50","name":"Gul Street 1","sidewalk":"both","surface":"asphalt","startNodeId":"7146603284","endNodeId":"5558294263"},"geometry":{"type":"LineString","coordinates":[[103.668623,1.3197472],[103.6686197,1.3198015]]}},{"type":"Feature","id":"way/646479123-0-0-0","properties":{"highway":"service","startNodeId":"5558294269","endNodeId":"5254866840"},"geometry":{"type":"LineString","coordinates":[[103.6686493,1.3193136],[103.6686607,1.3193144]]}},{"type":"Feature","id":"way/646691261-0-0-0","properties":{"highway":"service","startNodeId":"5214750349","endNodeId":"5254866859"},"geometry":{"type":"LineString","coordinates":[[103.6688779,1.3184132],[103.6688945,1.3181888]]}},{"type":"Feature","id":"way/646691262-0-0-0","properties":{"highway":"service","startNodeId":"5214750346","endNodeId":"5254866861"},"geometry":{"type":"LineString","coordinates":[[103.668669,1.3192213],[103.6688477,1.3192378]]}},{"type":"Feature","id":"way/646691263-0-0-0","properties":{"highway":"service","lanes":"2","startNodeId":"6045409486","endNodeId":"5254866866"},"geometry":{"type":"LineString","coordinates":[[103.6696189,1.3189807],[103.6696391,1.3186943]]}},{"type":"Feature","id":"way/646729215-0-0-0","properties":{"highway":"residential","lanes":"2","lanes:backward":"1","lanes:forward":"1","maxspeed":"50","name":"Gul Street 1","sidewalk":"both","surface":"asphalt","startNodeId":"5686918217","endNodeId":"5558294265"},"geometry":{"type":"LineString","coordinates":[[103.6687689,1.3177863],[103.6687142,1.3183966]]}},{"type":"Feature","id":"way/646806057-0-0-0","properties":{"highway":"service","startNodeId":"5254866837","endNodeId":"9285425951"},"geometry":{"type":"LineString","coordinates":[[103.6688457,1.3193289],[103.6692157,1.3193519]]}},{"type":"Feature","id":"way/646806057-0-1-0","properties":{"highway":"service","startNodeId":"9285425951","endNodeId":"5254866839"},"geometry":{"type":"LineString","coordinates":[[103.6692157,1.3193519],[103.6693641,1.3193539]]}},{"type":"Feature","id":"way/664299623-0-0-0","properties":{"highway":"residential","lanes":"4","lanes:backward":"2","lanes:forward":"2","maxspeed":"50","name":"Gul Drive","surface":"asphalt","startNodeId":"6217655192","endNodeId":"5216690194"},"geometry":{"type":"LineString","coordinates":[[103.6685626,1.3170873],[103.668221,1.3170634]]}},{"type":"Feature","id":"way/664300132-0-0-0","properties":{"highway":"residential","lanes":"4","lanes:backward":"2","lanes:forward":"2","maxspeed":"50","name":"Gul Drive","parking:condition:left:vehicles":"motorcar","parking:condition:right:vehicles":"hgv_articulated","parking:lane:left":"parallel","parking:lane:right":"parallel","sidewalk":"right","surface":"asphalt","startNodeId":"6217658111","endNodeId":"5216690185"},"geometry":{"type":"LineString","coordinates":[[103.6693498,1.317145],[103.6690275,1.3171196]]}},{"type":"Feature","id":"way/664300322-0-0-0","properties":{"highway":"residential","lanes":"2","lanes:backward":"1","lanes:forward":"1","maxspeed":"50","name":"Gul Drive","sidewalk":"right","surface":"asphalt","turn:lanes:forward":"left;through;right","startNodeId":"6217660863","endNodeId":"366908437"},"geometry":{"type":"LineString","coordinates":[[103.6709511,1.3172777],[103.6704168,1.3172333]]}},{"type":"Feature","id":"way/664300323-0-0-0","properties":{"highway":"residential","lanes":"2","maxspeed":"50","name":"Gul Drive","parking:condition:left:vehicles":"hgv_articulated","parking:lane:left":"parallel","sidewalk":"right","surface":"asphalt","startNodeId":"6217660864","endNodeId":"6217660863"},"geometry":{"type":"LineString","coordinates":[[103.6711711,1.3172938],[103.6709511,1.3172777]]}},{"type":"Feature","id":"way/664309858-0-0-0","properties":{"highway":"residential","lanes":"4","lanes:backward":"2","lanes:forward":"2","maxspeed":"50","name":"Gul Circle","parking:condition:right:vehicles":"motorcar","parking:lane:right":"parallel","surface":"asphalt","startNodeId":"6217759686","endNodeId":"5254866858"},"geometry":{"type":"LineString","coordinates":[[103.6677258,1.3197326],[103.667462,1.3197124]]}},{"type":"Feature","id":"way/664324701-0-0-0","properties":{"highway":"residential","lanes":"2","lanes:backward":"1","lanes:forward":"1","maxspeed":"50","name":"Gul Street 3","sidewalk":"both","surface":"asphalt","turn:lanes:forward":"left;right","startNodeId":"6217895831","endNodeId":"8382667379"},"geometry":{"type":"LineString","coordinates":[[103.6669372,1.3172616],[103.6669545,1.3170148]]}},{"type":"Feature","id":"way/664324701-0-1-0","properties":{"highway":"residential","lanes":"2","lanes:backward":"1","lanes:forward":"1","maxspeed":"50","name":"Gul Street 3","sidewalk":"both","surface":"asphalt","turn:lanes:forward":"left;right","startNodeId":"8382667379","endNodeId":"5557297016"},"geometry":{"type":"LineString","coordinates":[[103.6669545,1.3170148],[103.6669565,1.3169869]]}},{"type":"Feature","id":"way/664324702-0-0-0","properties":{"highway":"residential","lanes":"2","lanes:backward":"1","lanes:forward":"1","maxspeed":"50","name":"Gul Street 3","parking:condition:left:vehicles":"motorcar","parking:lane:left":"parallel","sidewalk":"both","surface":"asphalt","startNodeId":"6217895832","endNodeId":"6031255771"},"geometry":{"type":"LineString","coordinates":[[103.6668889,1.3178087],[103.6668923,1.3177228]]}},{"type":"Feature","id":"way/664324703-0-0-0","properties":{"highway":"residential","lanes":"2","lanes:backward":"1","lanes:forward":"1","maxspeed":"50","name":"Gul Street 3","parking:condition:left:vehicles":"motorcar","parking:lane:left":"parallel","sidewalk":"both","surface":"asphalt","startNodeId":"6217895834","endNodeId":"6217895833"},"geometry":{"type":"LineString","coordinates":[[103.6668608,1.3181948],[103.6668641,1.3180862]]}},{"type":"Feature","id":"way/664324704-0-0-0","properties":{"highway":"residential","lanes":"2","lanes:backward":"1","lanes:forward":"1","maxspeed":"50","name":"Gul Street 3","sidewalk":"both","surface":"asphalt","startNodeId":"6217895833","endNodeId":"5268869823"},"geometry":{"type":"LineString","coordinates":[[103.6668641,1.3180862],[103.6668784,1.317987]]}},{"type":"Feature","id":"way/664324705-0-0-0","properties":{"highway":"residential","lanes":"2","lanes:backward":"1","lanes:forward":"1","maxspeed":"50","name":"Gul Street 3","sidewalk":"both","surface":"asphalt","startNodeId":"6217895835","endNodeId":"366908662"},"geometry":{"type":"LineString","coordinates":[[103.6668427,1.318542],[103.6668525,1.3183083]]}},{"type":"Feature","id":"way/664325103-0-0-0","properties":{"highway":"residential","lanes":"2","maxspeed":"50","name":"Gul Street 1","sidewalk":"both","surface":"asphalt","startNodeId":"6217897904","endNodeId":"6217897905"},"geometry":{"type":"LineString","coordinates":[[103.6687933,1.3174788],[103.6687759,1.317692]]}},{"type":"Feature","id":"way/664325104-0-0-0","properties":{"highway":"residential","lanes":"2","maxspeed":"50","name":"Gul Street 1","parking:condition:right:vehicles":"motorcar","parking:lane:right":"parallel","sidewalk":"both","surface":"asphalt","startNodeId":"6217897903","endNodeId":"6217897904"},"geometry":{"type":"LineString","coordinates":[[103.668804,1.3173515],[103.6687933,1.3174788]]}},{"type":"Feature","id":"way/664325105-0-0-0","properties":{"highway":"residential","lanes":"2","lanes:backward":"1","lanes:forward":"1","maxspeed":"50","name":"Gul Street 1","parking:condition:right:vehicles":"motorcar","parking:lane:right":"parallel","sidewalk":"both","surface":"asphalt","startNodeId":"6217897905","endNodeId":"5686918217"},"geometry":{"type":"LineString","coordinates":[[103.6687759,1.317692],[103.6687689,1.3177863]]}},{"type":"Feature","id":"way/664325106-0-0-0","properties":{"highway":"residential","lanes":"2","lanes:backward":"1","lanes:forward":"1","maxspeed":"50","name":"Gul Street 2","sidewalk":"both","surface":"asphalt","turn:lanes:forward":"left;right","startNodeId":"6217897906","endNodeId":"5558294261"},"geometry":{"type":"LineString","coordinates":[[103.6684942,1.3184481],[103.6687065,1.3184685]]}},{"type":"Feature","id":"way/664325107-0-0-0","properties":{"highway":"residential","lanes":"2","lanes:backward":"1","lanes:forward":"1","maxspeed":"50","name":"Gul Street 2","parking:condition:right:vehicles":"motorcar","parking:lane:right":"parallel","sidewalk":"both","surface":"asphalt","startNodeId":"6217897907","endNodeId":"6217897906"},"geometry":{"type":"LineString","coordinates":[[103.6681201,1.31842],[103.6684942,1.3184481]]}},{"type":"Feature","id":"way/680897895-0-0-0","properties":{"highway":"residential","lanes":"4","lanes:backward":"2","lanes:forward":"2","maxspeed":"50","name":"Gul Way","sidewalk":"left","surface":"asphalt","turn:lanes:forward":"left;through|through;right","startNodeId":"6375908766","endNodeId":"8382667382"},"geometry":{"type":"LineString","coordinates":[[103.6703986,1.3175365],[103.6704147,1.3172687]]}},{"type":"Feature","id":"way/680897895-0-1-0","properties":{"highway":"residential","lanes":"4","lanes:backward":"2","lanes:forward":"2","maxspeed":"50","name":"Gul Way","sidewalk":"left","surface":"asphalt","turn:lanes:forward":"left;through|through;right","startNodeId":"8382667382","endNodeId":"366908437"},"geometry":{"type":"LineString","coordinates":[[103.6704147,1.3172687],[103.6704168,1.3172333]]}},{"type":"Feature","id":"way/765874554-0-0-0","properties":{"highway":"residential","lanes":"2","lanes:backward":"1","lanes:forward":"1","maxspeed":"50","name":"Gul Street 2","sidewalk":"left","surface":"asphalt","startNodeId":"7152934417","endNodeId":"6217897907"},"geometry":{"type":"LineString","coordinates":[[103.6672826,1.318348],[103.6681201,1.31842]]}},{"type":"Feature","id":"way/933279649-0-0-0","properties":{"highway":"service","startNodeId":"8650938192","endNodeId":"8650938191"},"geometry":{"type":"LineString","coordinates":[[103.670519,1.3158775],[103.6708733,1.3158967]]}}]}