{"type":"FeatureCollection","features":[{"type":"Feature","id":"way/637700501-0","properties":{"building":"yes"},"geometry":{"type":"Polygon","coordinates":[[[103.6671208,1.2752337],[103.6672724,1.2750179],[103.667186,1.2749573],[103.6670344,1.2751731],[103.6671208,1.2752337]]]}},{"type":"Feature","id":"way/637700502-0","properties":{"building":"yes"},"geometry":{"type":"Polygon","coordinates":[[[103.6671946,1.2775486],[103.667483,1.2771369],[103.6673811,1.2770656],[103.6670928,1.2774772],[103.6671946,1.2775486]]]}},{"type":"Feature","id":"way/637700503-0","properties":{"building":"yes"},"geometry":{"type":"Polygon","coordinates":[[[103.6667334,1.2778425],[103.6673396,1.2769683],[103.6669654,1.276709],[103.6663592,1.2775832],[103.6667334,1.2778425]]]}},{"type":"Feature","id":"way/1375817784-0","properties":{"building":"yes","generator:method":"combustion","generator:output:electricity":"101 MW","generator:source":"biomass;coal","generator:type":"steam_turbine","power":"generator"},"geometry":{"type":"Polygon","coordinates":[[[103.6669508,1.276387],[103.6672629,1.2766101],[103.6675425,1.2762191],[103.6672304,1.275996],[103.6669508,1.276387]]]}},{"type":"Feature","id":"way/1375817785-0","properties":{"building":"yes","generator:method":"combustion","generator:output:electricity":"32.5 MW","generator:source":"biomass;coal","generator:type":"steam_turbine","power":"generator"},"geometry":{"type":"Polygon","coordinates":[[[103.667326,1.2766598],[103.6676393,1.2768814],[103.667917,1.276489],[103.6676037,1.2762674],[103.667326,1.2766598]]]}},{"type":"Feature","id":"way/1375817790-0","properties":{"building":"yes"},"geometry":{"type":"Polygon","coordinates":[[[103.6674739,1.2753701],[103.667733,1.2755565],[103.6678258,1.2754276],[103.6675667,1.2752412],[103.6674739,1.2753701]]]}},{"type":"Feature","id":"way/1375817791-0","properties":{"building":"yes"},"geometry":{"type":"Polygon","coordinates":[[[103.667733,1.2755565],[103.6677157,1.2755818],[103.6678997,1.2757128],[103.6680095,1.2755587],[103.6678258,1.2754276],[103.667733,1.2755565]]]}},{"type":"Feature","id":"way/702438521-0-0-0","properties":{"highway":"service","lanes":"2","lanes:backward":"1","lanes:forward":"1","turn:lanes:backward":"left","turn:lanes:forward":"left"},"geometry":{"type":"LineString","coordinates":[[103.6675313,1.2751845],[103.6675125,1.2751671]]}},{"type":"Feature","id":"way/702438521-0-1-0","properties":{"highway":"service","lanes":"2","lanes:backward":"1","lanes:forward":"1","turn:lanes:backward":"left","turn:lanes:forward":"left"},"geometry":{"type":"LineString","coordinates":[[103.6675125,1.2751671],[103.6674159,1.2750914]]}}]}