{"type":"FeatureCollection","features":[{"type":"Feature","id":"way/453475307-0","properties":{"building":"yes"},"geometry":{"type":"Polygon","coordinates":[[[103.6631148,1.3383284],[103.6631175,1.3383016],[103.6630731,1.3382971],[103.6630704,1.3383239],[103.6631148,1.3383284]]]}},{"type":"Feature","id":"way/453475308-0","properties":{"building":"yes"},"geometry":{"type":"Polygon","coordinates":[[[103.6631201,1.3383568],[103.6631192,1.338334],[103.6630106,1.338338],[103.6630115,1.3383609],[103.6631201,1.3383568]]]}},{"type":"Feature","id":"way/453475309-0","properties":{"building":"yes"},"geometry":{"type":"Polygon","coordinates":[[[103.6632286,1.3381822],[103.6632762,1.3381795],[103.6632736,1.3381336],[103.663226,1.3381363],[103.6632286,1.3381822]]]}},{"type":"Feature","id":"way/453475316-0","properties":{"building":"yes"},"geometry":{"type":"Polygon","coordinates":[[[103.6650085,1.3394439],[103.6650521,1.3395515],[103.6652935,1.3394536],[103.6652499,1.3393461],[103.6650085,1.3394439]]]}},{"type":"Feature","id":"way/453475317-0","properties":{"building":"yes"},"geometry":{"type":"Polygon","coordinates":[[[103.6651992,1.3391711],[103.6653078,1.3394446],[103.6654108,1.3394037],[103.6653022,1.3391302],[103.6651992,1.3391711]]]}},{"type":"Feature","id":"way/453475318-0","properties":{"building":"yes"},"geometry":{"type":"Polygon","coordinates":[[[103.6653867,1.3389774],[103.6652798,1.3390187],[103.6653603,1.3392265],[103.6654672,1.3391852],[103.6653867,1.3389774]]]}},{"type":"Feature","id":"way/453475319-0","properties":{"building":"yes"},"geometry":{"type":"Polygon","coordinates":[[[103.6656494,1.338698],[103.6657038,1.3388288],[103.6659425,1.3387296],[103.6658881,1.3385988],[103.6656494,1.338698]]]}},{"type":"Feature","id":"way/453475320-0","properties":{"building":"yes"},"geometry":{"type":"Polygon","coordinates":[[[103.6653698,1.3383382],[103.6654342,1.3384911],[103.6655796,1.3384298],[103.6655153,1.338277],[103.6653698,1.3383382]]]}},{"type":"Feature","id":"way/453475321-0","properties":{"building":"yes"},"geometry":{"type":"Polygon","coordinates":[[[103.6629418,1.3379111],[103.6629471,1.3380063],[103.663045,1.3380008],[103.6630396,1.3379056],[103.6629418,1.3379111]]]}},{"type":"Feature","id":"way/453475322-0","properties":{"building":"yes"},"geometry":{"type":"Polygon","coordinates":[[[103.6630688,1.3378131],[103.6630742,1.3380035],[103.6631697,1.3380008],[103.6631643,1.3378104],[103.6630688,1.3378131]]]}},{"type":"Feature","id":"way/453475323-0","properties":{"building":"yes"},"geometry":{"type":"Polygon","coordinates":[[[103.6625259,1.3382649],[103.662414,1.3382691],[103.662418,1.3383777],[103.66253,1.3383735],[103.6625259,1.3382649]]]}},{"type":"Feature","id":"way/453475324-0","properties":{"building":"yes"},"geometry":{"type":"Polygon","coordinates":[[[103.6624777,1.3382636],[103.6624777,1.3381268],[103.6624052,1.3381268],[103.6624052,1.3382636],[103.6624777,1.3382636]]]}},{"type":"Feature","id":"way/453475325-0","properties":{"building":"yes"},"geometry":{"type":"Polygon","coordinates":[[[103.6625878,1.3383345],[103.6628708,1.3383185],[103.6628626,1.3381738],[103.6625796,1.3381898],[103.6625878,1.3383345]]]}},{"type":"Feature","id":"way/452385699-0-0-0","properties":{"highway":"service","oneway":"yes"},"geometry":{"type":"LineString","coordinates":[[103.6634258,1.3385679],[103.6634714,1.338517]]}},{"type":"Feature","id":"way/452385699-0-1-0","properties":{"highway":"service","oneway":"yes"},"geometry":{"type":"LineString","coordinates":[[103.6634714,1.338517],[103.6634795,1.3384231]]}},{"type":"Feature","id":"way/452385699-0-2-0","properties":{"highway":"service","oneway":"yes"},"geometry":{"type":"LineString","coordinates":[[103.6634795,1.3384231],[103.6635117,1.3383078]]}},{"type":"Feature","id":"way/452385699-0-3-0","properties":{"highway":"service","oneway":"yes"},"geometry":{"type":"LineString","coordinates":[[103.6635117,1.3383078],[103.6635438,1.3381925]]}},{"type":"Feature","id":"way/452385699-0-4-0","properties":{"highway":"service","oneway":"yes"},"geometry":{"type":"LineString","coordinates":[[103.6635438,1.3381925],[103.663568,1.3381255]]}},{"type":"Feature","id":"way/452385699-0-5-0","properties":{"highway":"service","oneway":"yes"},"geometry":{"type":"LineString","coordinates":[[103.663568,1.3381255],[103.6637396,1.3377863]]}},{"type":"Feature","id":"way/452385876-0-1-0","properties":{"highway":"service"},"geometry":{"type":"LineString","coordinates":[[103.664286,1.3378989],[103.6642962,1.3380507]]}},{"type":"Feature","id":"way/452385877-0-1-0","properties":{"highway":"service"},"geometry":{"type":"LineString","coordinates":[[103.6647375,1.3379077],[103.6644076,1.3380015]]}},{"type":"Feature","id":"way/452385877-0-2-0","properties":{"highway":"service"},"geometry":{"type":"LineString","coordinates":[[103.6644076,1.3380015],[103.6642962,1.3380507]]}},{"type":"Feature","id":"way/452385877-0-3-0","properties":{"highway":"service"},"geometry":{"type":"LineString","coordinates":[[103.6642962,1.3380507],[103.6641098,1.3381383]]}},{"type":"Feature","id":"way/452385877-0-4-0","properties":{"highway":"service"},"geometry":{"type":"LineString","coordinates":[[103.6641098,1.3381383],[103.6637772,1.338275]]}},{"type":"Feature","id":"way/452385877-0-5-0","properties":{"highway":"service"},"geometry":{"type":"LineString","coordinates":[[103.6637772,1.338275],[103.6636485,1.3383555]]}},{"type":"Feature","id":"way/452385877-0-6-0","properties":{"highway":"service"},"geometry":{"type":"LineString","coordinates":[[103.6636485,1.3383555],[103.6634714,1.338517]]}},{"type":"Feature","id":"way/596750174-0-2-0","properties":{"highway":"service","oneway":"yes"},"geometry":{"type":"LineString","coordinates":[[103.6635304,1.3379351],[103.6634956,1.3380102]]}},{"type":"Feature","id":"way/596750174-0-3-0","properties":{"highway":"service","oneway":"yes"},"geometry":{"type":"LineString","coordinates":[[103.6634956,1.3380102],[103.6634419,1.3381308]]}},{"type":"Feature","id":"way/596750174-0-4-0","properties":{"highway":"service","oneway":"yes"},"geometry":{"type":"LineString","coordinates":[[103.6634419,1.3381308],[103.6634044,1.338281]]}},{"type":"Feature","id":"way/596750174-0-5-0","properties":{"highway":"service","oneway":"yes"},"geometry":{"type":"LineString","coordinates":[[103.6634044,1.338281],[103.6633775,1.3384097]]}},{"type":"Feature","id":"way/596750174-0-6-0","properties":{"highway":"service","oneway":"yes"},"geometry":{"type":"LineString","coordinates":[[103.6633775,1.3384097],[103.6633775,1.3385089]]}},{"type":"Feature","id":"way/596750174-0-7-0","properties":{"highway":"service","oneway":"yes"},"geometry":{"type":"LineString","coordinates":[[103.6633775,1.3385089],[103.6634258,1.3385679]]}},{"type":"Feature","id":"way/596750179-0-0-0","properties":{"highway":"service"},"geometry":{"type":"LineString","coordinates":[[103.6633775,1.3385089],[103.6632693,1.3385446]]}},{"type":"Feature","id":"way/596750179-0-1-0","properties":{"highway":"service"},"geometry":{"type":"LineString","coordinates":[[103.6632693,1.3385446],[103.6630949,1.3385258]]}},{"type":"Feature","id":"way/596750179-0-2-0","properties":{"highway":"service"},"geometry":{"type":"LineString","coordinates":[[103.6630949,1.3385258],[103.6629984,1.3384668]]}},{"type":"Feature","id":"way/596750179-0-3-0","properties":{"highway":"service"},"geometry":{"type":"LineString","coordinates":[[103.6629984,1.3384668],[103.6629984,1.3382925]]}},{"type":"Feature","id":"way/596750179-0-4-0","properties":{"highway":"service"},"geometry":{"type":"LineString","coordinates":[[103.6629984,1.3382925],[103.6632022,1.3382711]]}},{"type":"Feature","id":"way/596750179-0-5-0","properties":{"highway":"service"},"geometry":{"type":"LineString","coordinates":[[103.6632022,1.3382711],[103.6632049,1.3380485]]}},{"type":"Feature","id":"way/596750179-0-6-0","properties":{"highway":"service"},"geometry":{"type":"LineString","coordinates":[[103.6632049,1.3380485],[103.6625665,1.3380834]]}},{"type":"Feature","id":"way/596750179-0-7-0","properties":{"highway":"service"},"geometry":{"type":"LineString","coordinates":[[103.6625665,1.3380834],[103.6625531,1.3382255]]}},{"type":"Feature","id":"way/731707639-0-0-0","properties":{"highway":"service"},"geometry":{"type":"LineString","coordinates":[[103.6634799,1.3386802],[103.6634258,1.3385679]]}}]}