{"type":"FeatureCollection","features":[{"type":"Feature","id":"way/120169532-0","properties":{"addr:city":"Singapore","addr:housenumber":"39","addr:postcode":"629105","addr:street":"Joo Koon Circle","building":"industrial"},"geometry":{"type":"Polygon","coordinates":[[[103.6659443,1.3254073],[103.6659342,1.3253922],[103.6666293,1.3249267],[103.6666365,1.3249007],[103.6666152,1.3248696],[103.6666023,1.3248785],[103.6663681,1.3245376],[103.6663873,1.3245244],[103.6663625,1.3244882],[103.6663439,1.3244844],[103.6662286,1.3245639],[103.6662406,1.3245813],[103.6656388,1.324996],[103.6656294,1.3249823],[103.6656018,1.3250012],[103.6655937,1.3249893],[103.6655324,1.3250311],[103.6655636,1.3250769],[103.6655409,1.3250923],[103.66562,1.3252088],[103.6655967,1.3252245],[103.6656796,1.325347],[103.6657056,1.3253295],[103.6657874,1.3254507],[103.6658073,1.3254373],[103.6658361,1.32548],[103.6659443,1.3254073]]]}},{"type":"Feature","id":"way/120169562-0","properties":{"addr:city":"Singapore","addr:country":"SG","addr:housenumber":"41","addr:postcode":"629065","addr:street":"Joo Koon Circle","building":"industrial"},"geometry":{"type":"Polygon","coordinates":[[[103.6671104,1.325557],[103.6668066,1.3251123],[103.6661688,1.3255477],[103.6664727,1.3259925],[103.6671104,1.325557]]]}},{"type":"Feature","id":"way/1429689750-0","properties":{"building":"roof","layer":"1"},"geometry":{"type":"Polygon","coordinates":[[[103.6660085,1.3255195],[103.6662459,1.3253563],[103.6661782,1.3252579],[103.6659408,1.3254209],[103.6660085,1.3255195]]]}},{"type":"Feature","id":"way/32877550-0-0-0","properties":{"destination":"Jalan Ahmad Ibrahim;Tuas Road;Tuas Checkpoint","destination:ref":"AYE","destination:to":"City;Tuas","highway":"motorway_link","lanes":"2","maxspeed":"50","oneway":"yes","surface":"asphalt"},"geometry":{"type":"LineString","coordinates":[[103.6660302,1.3262166],[103.6660246,1.3261511]]}},{"type":"Feature","id":"way/32877550-0-1-0","properties":{"destination":"Jalan Ahmad Ibrahim;Tuas Road;Tuas Checkpoint","destination:ref":"AYE","destination:to":"City;Tuas","highway":"motorway_link","lanes":"2","maxspeed":"50","oneway":"yes","surface":"asphalt"},"geometry":{"type":"LineString","coordinates":[[103.6660246,1.3261511],[103.6660155,1.326125]]}},{"type":"Feature","id":"way/32877550-0-2-0","properties":{"destination":"Jalan Ahmad Ibrahim;Tuas Road;Tuas Checkpoint","destination:ref":"AYE","destination:to":"City;Tuas","highway":"motorway_link","lanes":"2","maxspeed":"50","oneway":"yes","surface":"asphalt"},"geometry":{"type":"LineString","coordinates":[[103.6660155,1.326125],[103.6660052,1.3261116]]}},{"type":"Feature","id":"way/32877550-0-3-0","properties":{"destination":"Jalan Ahmad Ibrahim;Tuas Road;Tuas Checkpoint","destination:ref":"AYE","destination:to":"City;Tuas","highway":"motorway_link","lanes":"2","maxspeed":"50","oneway":"yes","surface":"asphalt"},"geometry":{"type":"LineString","coordinates":[[103.6660052,1.3261116],[103.6659938,1.3260912]]}},{"type":"Feature","id":"way/32877550-0-4-0","properties":{"destination":"Jalan Ahmad Ibrahim;Tuas Road;Tuas Checkpoint","destination:ref":"AYE","destination:to":"City;Tuas","highway":"motorway_link","lanes":"2","maxspeed":"50","oneway":"yes","surface":"asphalt"},"geometry":{"type":"LineString","coordinates":[[103.6659938,1.3260912],[103.6659818,1.3260762]]}},{"type":"Feature","id":"way/32877553-0-0-0","properties":{"highway":"motorway","lanes":"4","maxspeed":"80","name":"Pan-Island Expressway","name:en":"Pan-Island Expressway","name:ms":"Lebuhraya Rentas Pulau","name:ta":"\u0ba4\u0bc0\u0bb5\u0bc1 \u0bb5\u0bbf\u0bb0\u0bc8\u0bb5\u0bc1\u0b9a\u0bcd\u0b9a\u0bbe\u0bb2\u0bc8","name:zh":"\u6cdb\u5c9b\u9ad8\u901f\u516c\u8def","oneway":"yes","ref":"PIE","short_name:ta":"\u0baa\u0bbf\u0b90\u0b87","surface":"asphalt","wikidata":"Q1585650","wikipedia":"en:Pan Island Expressway"},"geometry":{"type":"LineString","coordinates":[[103.6665736,1.3271628],[103.6667575,1.327336]]}},{"type":"Feature","id":"way/75435068-0-0-1","properties":{"destination":"Pan-Island Expressway","destination:ref":"PIE","highway":"motorway_link","lanes":"2","maxspeed":"50","name":"Pan Island Expressway","oneway":"yes","source":"GPS & Yahoo aerial images","surface":"asphalt"},"geometry":{"type":"LineString","coordinates":[[103.664428,1.3245894],[103.664939,1.3254027]]}},{"type":"Feature","id":"way/119681286-0-1-0","properties":{"bicycle":"no","expressway":"yes","highway":"primary","lanes":"3","maxspeed":"50","name":"Tuas Road","name:en":"Tuas Road","name:zh":"\u88d5\u5eca\u8def\u4e0a\u6bb5","oneway":"yes","surface":"asphalt"},"geometry":{"type":"LineString","coordinates":[[103.6644199,1.3243207],[103.6651602,1.3254]]}},{"type":"Feature","id":"way/119681289-0-0-0","properties":{"bicycle":"no","expressway":"yes","highway":"primary","lanes":"3","maxspeed":"50","name":"Tuas Road","name:en":"Tuas Road","name:zh":"\u88d5\u5eca\u8def\u4e0a\u6bb5","oneway":"yes","surface":"asphalt"},"geometry":{"type":"LineString","coordinates":[[103.6660302,1.3262166],[103.665808,1.3259604]]}},{"type":"Feature","id":"way/428897148-0-0-0","properties":{"destination":"Pan-Island Expressway","destination:ref":"PIE","highway":"motorway_link","lanes":"2","maxspeed":"50","oneway":"yes","source":"GPS & Yahoo aerial images","surface":"asphalt"},"geometry":{"type":"LineString","coordinates":[[103.664939,1.3254027],[103.6653654,1.3259819]]}},{"type":"Feature","id":"way/428897148-0-1-0","properties":{"destination":"Pan-Island Expressway","destination:ref":"PIE","highway":"motorway_link","lanes":"2","maxspeed":"50","oneway":"yes","source":"GPS & Yahoo aerial images","surface":"asphalt"},"geometry":{"type":"LineString","coordinates":[[103.6653654,1.3259819],[103.6657034,1.3264002]]}},{"type":"Feature","id":"way/428897148-0-2-0","properties":{"destination":"Pan-Island Expressway","destination:ref":"PIE","highway":"motorway_link","lanes":"2","maxspeed":"50","oneway":"yes","source":"GPS & Yahoo aerial images","surface":"asphalt"},"geometry":{"type":"LineString","coordinates":[[103.6657034,1.3264002],[103.666032,1.3267648]]}},{"type":"Feature","id":"way/428897148-0-3-0","properties":{"destination":"Pan-Island Expressway","destination:ref":"PIE","highway":"motorway_link","lanes":"2","maxspeed":"50","oneway":"yes","source":"GPS & Yahoo aerial images","surface":"asphalt"},"geometry":{"type":"LineString","coordinates":[[103.666032,1.3267648],[103.6661647,1.3268962]]}},{"type":"Feature","id":"way/428897148-0-4-0","properties":{"destination":"Pan-Island Expressway","destination:ref":"PIE","highway":"motorway_link","lanes":"2","maxspeed":"50","oneway":"yes","source":"GPS & Yahoo aerial images","surface":"asphalt"},"geometry":{"type":"LineString","coordinates":[[103.6661647,1.3268962],[103.6662948,1.3269955]]}},{"type":"Feature","id":"way/428897148-0-5-0","properties":{"destination":"Pan-Island Expressway","destination:ref":"PIE","highway":"motorway_link","lanes":"2","maxspeed":"50","oneway":"yes","source":"GPS & Yahoo aerial images","surface":"asphalt"},"geometry":{"type":"LineString","coordinates":[[103.6662948,1.3269955],[103.6665736,1.3271628]]}},{"type":"Feature","id":"way/428897149-0-0-0","properties":{"bicycle":"no","expressway":"yes","highway":"primary","lanes":"3","maxheight":"4.5","maxspeed":"50","name":"Tuas Road","name:en":"Tuas Road","name:zh":"\u88d5\u5eca\u8def\u4e0a\u6bb5","oneway":"yes","surface":"asphalt"},"geometry":{"type":"LineString","coordinates":[[103.6651602,1.3254],[103.6656752,1.3260998]]}},{"type":"Feature","id":"way/428897149-0-1-0","properties":{"bicycle":"no","expressway":"yes","highway":"primary","lanes":"3","maxheight":"4.5","maxspeed":"50","name":"Tuas Road","name:en":"Tuas Road","name:zh":"\u88d5\u5eca\u8def\u4e0a\u6bb5","oneway":"yes","surface":"asphalt"},"geometry":{"type":"LineString","coordinates":[[103.6656752,1.3260998],[103.6661647,1.3267434]]}},{"type":"Feature","id":"way/428897149-0-2-0","properties":{"bicycle":"no","expressway":"yes","highway":"primary","lanes":"3","maxheight":"4.5","maxspeed":"50","name":"Tuas Road","name:en":"Tuas Road","name:zh":"\u88d5\u5eca\u8def\u4e0a\u6bb5","oneway":"yes","surface":"asphalt"},"geometry":{"type":"LineString","coordinates":[[103.6661647,1.3267434],[103.6665736,1.3271628]]}},{"type":"Feature","id":"way/428897150-0-0-0","properties":{"bicycle":"no","expressway":"yes","highway":"primary","lanes":"3","maxspeed":"50","name":"Tuas Road","name:en":"Tuas Road","name:zh":"\u88d5\u5eca\u8def\u4e0a\u6bb5","oneway":"yes","surface":"asphalt"},"geometry":{"type":"LineString","coordinates":[[103.6653064,1.3253028],[103.6645353,1.324267]]}},{"type":"Feature","id":"way/428897151-0-0-0","properties":{"destination":"Jalan Ahmad Ibrahim;Tuas Road;Tuas Checkpoint","destination:ref":"AYE","destination:to":"City;Tuas","highway":"motorway_link","lanes":"6","maxspeed":"50","name":"Joo Koon Circle","oneway":"yes","surface":"asphalt","turn:lanes":"left;slight_left|slight_left|slight_left|right|right|right"},"geometry":{"type":"LineString","coordinates":[[103.6655907,1.3255032],[103.6652219,1.3248999]]}},{"type":"Feature","id":"way/428897151-0-1-0","properties":{"destination":"Jalan Ahmad Ibrahim;Tuas Road;Tuas Checkpoint","destination:ref":"AYE","destination:to":"City;Tuas","highway":"motorway_link","lanes":"6","maxspeed":"50","name":"Joo Koon Circle","oneway":"yes","surface":"asphalt","turn:lanes":"left;slight_left|slight_left|slight_left|right|right|right"},"geometry":{"type":"LineString","coordinates":[[103.6652219,1.3248999],[103.6648356,1.3243153]]}},{"type":"Feature","id":"way/479568575-0-2-0","properties":{"highway":"motorway","lanes":"5","maxspeed":"80","name":"Pan-Island Expressway","name:en":"Pan-Island Expressway","name:ms":"Lebuhraya Rentas Pulau","name:ta":"\u0ba4\u0bc0\u0bb5\u0bc1 \u0bb5\u0bbf\u0bb0\u0bc8\u0bb5\u0bc1\u0b9a\u0bcd\u0b9a\u0bbe\u0bb2\u0bc8","name:zh":"\u6cdb\u5c9b\u9ad8\u901f\u516c\u8def","oneway":"yes","ref":"PIE","short_name:ta":"\u0baa\u0bbf\u0b90\u0b87","surface":"asphalt","turn:lanes":"left|left|through|through|through","wikidata":"Q1585650","wikipedia":"en:Pan Island Expressway"},"geometry":{"type":"LineString","coordinates":[[103.6668923,1.3272207],[103.6660302,1.3262166]]}},{"type":"Feature","id":"way/479568576-0-0-0","properties":{"destination":"Jalan Ahmad Ibrahim;Tuas Road;Tuas Checkpoint","destination:ref":"AYE","destination:to":"City;Tuas","highway":"motorway_link","lanes":"2","maxheight":"4.5","maxspeed":"50","oneway":"yes","surface":"asphalt"},"geometry":{"type":"LineString","coordinates":[[103.6659818,1.3260762],[103.6657926,1.3258253]]}},{"type":"Feature","id":"way/479568577-0-0-0","properties":{"bicycle":"no","expressway":"yes","highway":"primary","lanes":"3","maxheight":"4.5","maxspeed":"50","name":"Tuas Road","name:en":"Tuas Road","name:zh":"\u88d5\u5eca\u8def\u4e0a\u6bb5","oneway":"yes","surface":"asphalt"},"geometry":{"type":"LineString","coordinates":[[103.665808,1.3259604],[103.6656619,1.3257708]]}},{"type":"Feature","id":"way/479568578-0-0-0","properties":{"destination":"Jalan Ahmad Ibrahim;Tuas Road;Tuas Checkpoint","destination:ref":"AYE","destination:to":"City;Tuas","highway":"motorway_link","lanes":"2","maxspeed":"50","oneway":"yes","surface":"asphalt"},"geometry":{"type":"LineString","coordinates":[[103.6657926,1.3258253],[103.6655907,1.3255032]]}},{"type":"Feature","id":"way/479568579-0-0-0","properties":{"bicycle":"no","expressway":"yes","highway":"primary","lanes":"3","maxspeed":"50","name":"Tuas Road","name:en":"Tuas Road","name:zh":"\u88d5\u5eca\u8def\u4e0a\u6bb5","oneway":"yes","surface":"asphalt"},"geometry":{"type":"LineString","coordinates":[[103.6656619,1.3257708],[103.6653064,1.3253028]]}},{"type":"Feature","id":"way/538854952-0-0-0","properties":{"highway":"service","service":"driveway"},"geometry":{"type":"LineString","coordinates":[[103.6667446,1.3249465],[103.6658517,1.3255283]]}},{"type":"Feature","id":"way/538854952-0-1-0","properties":{"highway":"service","service":"driveway"},"geometry":{"type":"LineString","coordinates":[[103.6658517,1.3255283],[103.6658161,1.3255397]]}},{"type":"Feature","id":"way/538854952-0-2-0","properties":{"highway":"service","service":"driveway"},"geometry":{"type":"LineString","coordinates":[[103.6658161,1.3255397],[103.6657921,1.3255349]]}},{"type":"Feature","id":"way/538854952-0-3-0","properties":{"highway":"service","service":"driveway"},"geometry":{"type":"LineString","coordinates":[[103.6657921,1.3255349],[103.6657725,1.3255261]]}},{"type":"Feature","id":"way/538854952-0-4-0","properties":{"highway":"service","service":"driveway"},"geometry":{"type":"LineString","coordinates":[[103.6657725,1.3255261],[103.6654771,1.3250716]]}},{"type":"Feature","id":"way/538854952-0-5-0","properties":{"highway":"service","service":"driveway"},"geometry":{"type":"LineString","coordinates":[[103.6654771,1.3250716],[103.665475,1.3250549]]}},{"type":"Feature","id":"way/538854952-0-6-0","properties":{"highway":"service","service":"driveway"},"geometry":{"type":"LineString","coordinates":[[103.665475,1.3250549],[103.6654784,1.3250408]]}},{"type":"Feature","id":"way/538859608-0-0-0","properties":{"highway":"service","service":"driveway"},"geometry":{"type":"LineString","coordinates":[[103.6665657,1.3252123],[103.6668219,1.3250487]]}},{"type":"Feature","id":"way/538859609-0-0-0","properties":{"highway":"service","service":"driveway"},"geometry":{"type":"LineString","coordinates":[[103.6671932,1.32552],[103.6663632,1.3260958]]}},{"type":"Feature","id":"way/543726021-0-0-0","properties":{"highway":"service","service":"driveway"},"geometry":{"type":"LineString","coordinates":[[103.6663632,1.3262701],[103.6663722,1.32626]]}},{"type":"Feature","id":"way/543726023-0-0-0","properties":{"highway":"service","service":"driveway"},"geometry":{"type":"LineString","coordinates":[[103.6666458,1.3267098],[103.6663639,1.3263001]]}},{"type":"Feature","id":"way/543726023-0-1-0","properties":{"highway":"service","service":"driveway"},"geometry":{"type":"LineString","coordinates":[[103.6663639,1.3263001],[103.6663608,1.3262878]]}},{"type":"Feature","id":"way/543726023-0-2-0","properties":{"highway":"service","service":"driveway"},"geometry":{"type":"LineString","coordinates":[[103.6663608,1.3262878],[103.6663632,1.3262701]]}},{"type":"Feature","id":"way/545124906-0-0-0","properties":{"highway":"service","service":"driveway"},"geometry":{"type":"LineString","coordinates":[[103.6654566,1.3248594],[103.6654897,1.3248486]]}},{"type":"Feature","id":"way/545124906-0-1-0","properties":{"highway":"service","service":"driveway"},"geometry":{"type":"LineString","coordinates":[[103.6654897,1.3248486],[103.6655189,1.3248293]]}},{"type":"Feature","id":"way/545124906-0-2-0","properties":{"highway":"service","service":"driveway"},"geometry":{"type":"LineString","coordinates":[[103.6655189,1.3248293],[103.6665353,1.3241439]]}},{"type":"Feature","id":"way/545124909-0-13-0","properties":{"highway":"service","service":"driveway","source":"Maxar"},"geometry":{"type":"LineString","coordinates":[[103.6653088,1.3248017],[103.6653499,1.3248388]]}},{"type":"Feature","id":"way/545124909-0-14-0","properties":{"highway":"service","service":"driveway","source":"Maxar"},"geometry":{"type":"LineString","coordinates":[[103.6653499,1.3248388],[103.6653998,1.3248587]]}},{"type":"Feature","id":"way/545124909-0-15-0","properties":{"highway":"service","service":"driveway","source":"Maxar"},"geometry":{"type":"LineString","coordinates":[[103.6653998,1.3248587],[103.6654566,1.3248594]]}},{"type":"Feature","id":"way/646203543-0-2-0","properties":{"highway":"unclassified","lanes":"2","maxspeed":"50","name":"Joo Koon Circle","oneway":"yes","surface":"asphalt"},"geometry":{"type":"LineString","coordinates":[[103.6666795,1.3244092],[103.6667571,1.3245594]]}},{"type":"Feature","id":"way/646203543-0-3-0","properties":{"highway":"unclassified","lanes":"2","maxspeed":"50","name":"Joo Koon Circle","oneway":"yes","surface":"asphalt"},"geometry":{"type":"LineString","coordinates":[[103.6667571,1.3245594],[103.6668298,1.3246101]]}},{"type":"Feature","id":"way/646364857-0-0-0","properties":{"highway":"service","service":"driveway"},"geometry":{"type":"LineString","coordinates":[[103.6654784,1.3250408],[103.6654911,1.32502]]}},{"type":"Feature","id":"way/646364857-0-1-0","properties":{"highway":"service","service":"driveway"},"geometry":{"type":"LineString","coordinates":[[103.6654911,1.32502],[103.6663657,1.3244487]]}},{"type":"Feature","id":"way/646364857-0-2-0","properties":{"highway":"service","service":"driveway"},"geometry":{"type":"LineString","coordinates":[[103.6663657,1.3244487],[103.6663938,1.324442]]}},{"type":"Feature","id":"way/646364857-0-3-0","properties":{"highway":"service","service":"driveway"},"geometry":{"type":"LineString","coordinates":[[103.6663938,1.324442],[103.6664193,1.324448]]}},{"type":"Feature","id":"way/646364857-0-4-0","properties":{"highway":"service","service":"driveway"},"geometry":{"type":"LineString","coordinates":[[103.6664193,1.324448],[103.6664434,1.3244621]]}},{"type":"Feature","id":"way/646364857-0-5-0","properties":{"highway":"service","service":"driveway"},"geometry":{"type":"LineString","coordinates":[[103.6664434,1.3244621],[103.6667446,1.3249465]]}},{"type":"Feature","id":"way/1495427841-0-1-0","properties":{"highway":"unclassified","lanes":"2","maxspeed":"50","name":"Joo Koon Circle","oneway":"yes","surface":"asphalt"},"geometry":{"type":"LineString","coordinates":[[103.6668176,1.3245268],[103.6667559,1.3244218]]}}]}