{"type":"FeatureCollection","features":[{"type":"Feature","id":"way/623437519-0","properties":{"building":"yes","clearanceGeometry":{"type":"Polygon","coordinates":[[[103.665251,1.2751192],[103.6651904,1.2750786],[103.6650845,1.2752368],[103.6651451,1.2752774],[103.665251,1.2751192]]]},"clearanceHeight":1.7,"clearancePrepared":true},"geometry":{"type":"Polygon","coordinates":[[[103.6651451,1.2752774],[103.665251,1.2751192],[103.6651904,1.2750786],[103.6650845,1.2752368],[103.6651451,1.2752774]]]}},{"type":"Feature","id":"way/1375817786-0","properties":{"building":"yes","clearanceGeometry":{"type":"Polygon","coordinates":[[[103.6667599,1.2756195],[103.666278,1.2763302],[103.666603,1.2765505],[103.6672712,1.2755655],[103.6670737,1.2754316],[103.6668875,1.275706],[103.6667599,1.2756195]]]},"clearanceHeight":1.7,"clearancePrepared":true},"geometry":{"type":"Polygon","coordinates":[[[103.6668875,1.275706],[103.6667599,1.2756195],[103.666278,1.2763302],[103.666603,1.2765505],[103.6672712,1.2755655],[103.6670737,1.2754316],[103.6668875,1.275706]]]}},{"type":"Feature","id":"way/1375817787-0","properties":{"building":"yes","man_made":"silo","clearanceGeometry":{"type":"Polygon","coordinates":[[[103.6663512,1.2768021],[103.6663898,1.2768314],[103.6664359,1.2768464],[103.6664844,1.2768452],[103.6665298,1.276828],[103.6665654,1.2767985],[103.6665899,1.2767592],[103.6666008,1.2767142],[103.6665968,1.2766681],[103.6665784,1.2766256],[103.6665476,1.2765911],[103.6665074,1.2765681],[103.666462,1.276559],[103.6664139,1.2765654],[103.6663707,1.2765873],[103.6663371,1.2766222],[103.666317,1.2766664],[103.6663126,1.2767146],[103.6663244,1.2767617],[103.6663512,1.2768021]]]},"clearanceHeight":1.7,"clearancePrepared":true},"geometry":{"type":"Polygon","coordinates":[[[103.6663244,1.2767617],[103.6663512,1.2768021],[103.6663898,1.2768314],[103.6664359,1.2768464],[103.6664844,1.2768452],[103.6665298,1.276828],[103.6665654,1.2767985],[103.6665899,1.2767592],[103.6666008,1.2767142],[103.6665968,1.2766681],[103.6665784,1.2766256],[103.6665476,1.2765911],[103.6665074,1.2765681],[103.666462,1.276559],[103.6664139,1.2765654],[103.6663707,1.2765873],[103.6663371,1.2766222],[103.666317,1.2766664],[103.6663126,1.2767146],[103.6663244,1.2767617]]]}},{"type":"Feature","id":"way/1375817788-0","properties":{"building":"yes","man_made":"silo","clearanceGeometry":{"type":"Polygon","coordinates":[[[103.6661742,1.2770607],[103.6662128,1.27709],[103.666259,1.277105],[103.6663075,1.2771038],[103.6663528,1.2770866],[103.6663885,1.2770571],[103.666413,1.2770178],[103.6664238,1.2769728],[103.6664199,1.2769267],[103.6664015,1.2768842],[103.6663707,1.2768497],[103.6663305,1.2768267],[103.6662851,1.2768176],[103.666237,1.276824],[103.6661937,1.2768459],[103.6661601,1.2768808],[103.66614,1.276925],[103.6661356,1.2769732],[103.6661475,1.2770203],[103.6661742,1.2770607]]]},"clearanceHeight":1.7,"clearancePrepared":true},"geometry":{"type":"Polygon","coordinates":[[[103.6661475,1.2770203],[103.6661742,1.2770607],[103.6662128,1.27709],[103.666259,1.277105],[103.6663075,1.2771038],[103.6663528,1.2770866],[103.6663885,1.2770571],[103.666413,1.2770178],[103.6664238,1.2769728],[103.6664199,1.2769267],[103.6664015,1.2768842],[103.6663707,1.2768497],[103.6663305,1.2768267],[103.6662851,1.2768176],[103.666237,1.276824],[103.6661937,1.2768459],[103.6661601,1.2768808],[103.66614,1.276925],[103.6661356,1.2769732],[103.6661475,1.2770203]]]}},{"type":"Feature","id":"way/1375817789-0","properties":{"building":"yes","man_made":"silo","clearanceGeometry":{"type":"Polygon","coordinates":[[[103.6659951,1.2773254],[103.6660337,1.2773548],[103.6660798,1.2773697],[103.6661283,1.2773685],[103.6661737,1.2773513],[103.6662094,1.2773218],[103.6662339,1.2772825],[103.6662447,1.2772375],[103.6662407,1.2771914],[103.6662224,1.2771489],[103.6661915,1.2771144],[103.6661513,1.2770914],[103.6661059,1.2770823],[103.6660578,1.2770887],[103.6660146,1.2771106],[103.665981,1.2771455],[103.6659609,1.2771897],[103.6659565,1.277238],[103.6659683,1.277285],[103.6659951,1.2773254]]]},"clearanceHeight":1.7,"clearancePrepared":true},"geometry":{"type":"Polygon","coordinates":[[[103.6659683,1.277285],[103.6659951,1.2773254],[103.6660337,1.2773548],[103.6660798,1.2773697],[103.6661283,1.2773685],[103.6661737,1.2773513],[103.6662094,1.2773218],[103.6662339,1.2772825],[103.6662447,1.2772375],[103.6662407,1.2771914],[103.6662224,1.2771489],[103.6661915,1.2771144],[103.6661513,1.2770914],[103.6661059,1.2770823],[103.6660578,1.2770887],[103.6660146,1.2771106],[103.665981,1.2771455],[103.6659609,1.2771897],[103.6659565,1.277238],[103.6659683,1.277285]]]}}]}