{"type":"FeatureCollection","features":[{"type":"Feature","id":"way/117692943-0","properties":{"addr:housenumber":"285","building":"yes","name":"Panasonic","source":"Kaart Ground Survey 2017","clearanceGeometry":{"type":"MultiPolygon","coordinates":[[[[103.6555327,1.3297758],[103.6554732,1.3297126],[103.65551523989703,1.3296730883764984],[103.65551517864068,1.3296730229426423],[103.65544044298346,1.329593191672422],[103.6553848,1.3296455],[103.6549535,1.3291871],[103.65457219565005,1.329545622323371],[103.65513358898237,1.3301510656991826],[103.6555327,1.3297758]]],[[[103.65576734934929,1.3294359983311577],[103.65569228601782,1.329356437196882],[103.6557217,1.3293287],[103.6556922840108,1.3293564350694358],[103.65569224830841,1.329356397222275],[103.65549935176175,1.3295378027117437],[103.65549942151654,1.3295378772252957],[103.65557415072097,1.3296177016027668],[103.65576734934929,1.3294359983311577]]],[[[103.6558378,1.3293698],[103.6559028,1.3294389],[103.6562185,1.329142],[103.65561756183072,1.3285031831102938],[103.65528556425755,1.3287874021430177],[103.6557605,1.3292922],[103.65575114738499,1.3293009982074249],[103.65582621398218,1.3293805628031181],[103.6557968,1.3294083],[103.65582621968403,1.329380568847867],[103.65582627237598,1.3293806247201223],[103.6558378,1.3293698]]]]},"clearanceHeight":1.7,"clearancePrepared":true},"geometry":{"type":"Polygon","coordinates":[[[103.655131,1.3301535],[103.6555327,1.3297758],[103.6554732,1.3297126],[103.6555447,1.3296454],[103.6557968,1.3294083],[103.6558378,1.3293698],[103.6559028,1.3294389],[103.6562185,1.329142],[103.6555966,1.3284809],[103.6552786,1.32878],[103.6557605,1.3292922],[103.6557217,1.3293287],[103.6554699,1.3295655],[103.6553848,1.3296455],[103.6549535,1.3291871],[103.6545652,1.3295522],[103.655131,1.3301535]]]}},{"type":"Feature","id":"way/117692948-0","properties":{"addr:housenumber":"301","building":"yes","clearanceGeometry":{"type":"Polygon","coordinates":[[[103.6544932,1.3300855],[103.6536857,1.3292287],[103.6529803,1.3298931],[103.6540651,1.3310442],[103.65490489077048,1.3302532216357554],[103.65463214992431,1.3299547236006453],[103.6544932,1.3300855]]]},"clearanceHeight":1.7,"clearancePrepared":true},"geometry":{"type":"Polygon","coordinates":[[[103.654915,1.3302437],[103.6546377,1.3299495],[103.6544932,1.3300855],[103.6536857,1.3292287],[103.6529803,1.3298931],[103.6540651,1.3310442],[103.654915,1.3302437]]]}},{"type":"Feature","id":"way/453475334-0","properties":{"building":"yes","clearanceGeometry":{"type":"Polygon","coordinates":[[[103.656474,1.3331679],[103.6565272,1.3331594],[103.6565165,1.3330923],[103.6564633,1.3331008],[103.656474,1.3331679]]]},"clearanceHeight":1.7,"clearancePrepared":true},"geometry":{"type":"Polygon","coordinates":[[[103.6564633,1.3331008],[103.656474,1.3331679],[103.6565272,1.3331594],[103.6565165,1.3330923],[103.6564633,1.3331008]]]}},{"type":"Feature","id":"way/453475362-0","properties":{"building":"yes","clearanceGeometry":{"type":"Polygon","coordinates":[[[103.6572197,1.3296902],[103.656973,1.3299329],[103.6571246,1.3300871],[103.6573714,1.3298444],[103.6572197,1.3296902]]]},"clearanceHeight":1.7,"clearancePrepared":true},"geometry":{"type":"Polygon","coordinates":[[[103.6573714,1.3298444],[103.6572197,1.3296902],[103.656973,1.3299329],[103.6571246,1.3300871],[103.6573714,1.3298444]]]}},{"type":"Feature","id":"way/453475363-0","properties":{"building":"yes","clearanceGeometry":{"type":"Polygon","coordinates":[[[103.6568169,1.3297579],[103.6569691,1.3299101],[103.6572145,1.3296647],[103.6570623,1.3295126],[103.6568169,1.3297579]]]},"clearanceHeight":1.7,"clearancePrepared":true},"geometry":{"type":"Polygon","coordinates":[[[103.6570623,1.3295126],[103.6568169,1.3297579],[103.6569691,1.3299101],[103.6572145,1.3296647],[103.6570623,1.3295126]]]}},{"type":"Feature","id":"node/8389158874","properties":{"highway":"crossing"},"geometry":{"type":"Point","coordinates":[103.6564069,1.3292938]}},{"type":"Feature","id":"node/8389158875","properties":{"highway":"crossing"},"geometry":{"type":"Point","coordinates":[103.6551522,1.3304549]}},{"type":"Feature","id":"way/44776068-0-1-1","properties":{"highway":"motorway","lanes":"3","maxspeed":"80","name":"Ayer Rajah Expressway","name:ms":"Lebuhraya Ayer Rajah","name:ta":"\u0b86\u0baf\u0bb0\u0bcd \u0bb0\u0bbe\u0b9c\u0bbe \u0bb5\u0bbf\u0bb0\u0bb5\u0bc1\u0b9a\u0bcd\u0b9a\u0bbe\u0bb2\u0bc8","name:zh":"\u4e9a\u9038\u62c9\u60f9\u9ad8\u901f\u516c\u8def","oneway":"yes","ref":"AYE","surface":"asphalt","wikidata":"Q2657325","wikipedia":"en:Ayer Rajah Expressway","startNodeId":"way/44776068-0:1:1","endNodeId":"1343791131"},"geometry":{"type":"LineString","coordinates":[[103.6535293,1.3325044],[103.6541624,1.3319062]]}},{"type":"Feature","id":"way/44776088-0-2-0","properties":{"highway":"motorway","lanes":"3","maxspeed":"80","name":"Ayer Rajah Expressway","name:ms":"Lebuhraya Ayer Rajah","name:ta":"\u0b86\u0baf\u0bb0\u0bcd \u0bb0\u0bbe\u0b9c\u0bbe \u0bb5\u0bbf\u0bb0\u0bb5\u0bc1\u0b9a\u0bcd\u0b9a\u0bbe\u0bb2\u0bc8","name:zh":"\u4e9a\u9038\u62c9\u60f9\u9ad8\u901f\u516c\u8def","oneway":"yes","ref":"AYE","surface":"asphalt","wikidata":"Q2657325","wikipedia":"en:Ayer Rajah Expressway","startNodeId":"310241295","endNodeId":"way/44776088-0:2:1"},"geometry":{"type":"LineString","coordinates":[[103.6574869,1.3285916],[103.656769,1.3292405]]}},{"type":"Feature","id":"way/44776088-0-2-1","properties":{"highway":"motorway","lanes":"3","maxspeed":"80","name":"Ayer Rajah Expressway","name:ms":"Lebuhraya Ayer Rajah","name:ta":"\u0b86\u0baf\u0bb0\u0bcd \u0bb0\u0bbe\u0b9c\u0bbe \u0bb5\u0bbf\u0bb0\u0bb5\u0bc1\u0b9a\u0bcd\u0b9a\u0bbe\u0bb2\u0bc8","name:zh":"\u4e9a\u9038\u62c9\u60f9\u9ad8\u901f\u516c\u8def","oneway":"yes","ref":"AYE","surface":"asphalt","wikidata":"Q2657325","wikipedia":"en:Ayer Rajah Expressway","startNodeId":"way/44776088-0:2:1","endNodeId":"6095894349"},"geometry":{"type":"LineString","coordinates":[[103.656769,1.3292405],[103.656051,1.3298894]]}},{"type":"Feature","id":"way/119673755-0-0-0","properties":{"destination":"Tuas Avenue 8;Tuas West Road","highway":"motorway_link","lanes":"1","maxspeed":"50","name":"Ayer Rajah Expressway","oneway":"yes","surface":"asphalt","startNodeId":"1343791102","endNodeId":"6167630066"},"geometry":{"type":"LineString","coordinates":[[103.655171,1.330713],[103.6551134,1.3307207]]}},{"type":"Feature","id":"way/119673755-0-1-0","properties":{"destination":"Tuas Avenue 8;Tuas West Road","highway":"motorway_link","lanes":"1","maxspeed":"50","name":"Ayer Rajah Expressway","oneway":"yes","surface":"asphalt","startNodeId":"6167630066","endNodeId":"1343791085"},"geometry":{"type":"LineString","coordinates":[[103.6551134,1.3307207],[103.6550978,1.3307285]]}},{"type":"Feature","id":"way/119673755-0-2-0","properties":{"destination":"Tuas Avenue 8;Tuas West Road","highway":"motorway_link","lanes":"1","maxspeed":"50","name":"Ayer Rajah Expressway","oneway":"yes","surface":"asphalt","startNodeId":"1343791085","endNodeId":"6167630063"},"geometry":{"type":"LineString","coordinates":[[103.6550978,1.3307285],[103.6547586,1.3309989]]}},{"type":"Feature","id":"way/119673755-0-3-0","properties":{"destination":"Tuas Avenue 8;Tuas West Road","highway":"motorway_link","lanes":"1","maxspeed":"50","name":"Ayer Rajah Expressway","oneway":"yes","surface":"asphalt","startNodeId":"6167630063","endNodeId":"1343791067"},"geometry":{"type":"LineString","coordinates":[[103.6547586,1.3309989],[103.6544607,1.3312605]]}},{"type":"Feature","id":"way/119673755-0-4-0","properties":{"destination":"Tuas Avenue 8;Tuas West Road","highway":"motorway_link","lanes":"1","maxspeed":"50","name":"Ayer Rajah Expressway","oneway":"yes","surface":"asphalt","startNodeId":"1343791067","endNodeId":"1343791129"},"geometry":{"type":"LineString","coordinates":[[103.6544607,1.3312605],[103.6540042,1.3316991]]}},{"type":"Feature","id":"way/119673755-0-5-0","properties":{"destination":"Tuas Avenue 8;Tuas West Road","highway":"motorway_link","lanes":"1","maxspeed":"50","name":"Ayer Rajah Expressway","oneway":"yes","surface":"asphalt","startNodeId":"1343791129","endNodeId":"6167630064"},"geometry":{"type":"LineString","coordinates":[[103.6540042,1.3316991],[103.6539023,1.33179]]}},{"type":"Feature","id":"way/119673755-0-6-0","properties":{"destination":"Tuas Avenue 8;Tuas West Road","highway":"motorway_link","lanes":"1","maxspeed":"50","name":"Ayer Rajah Expressway","oneway":"yes","surface":"asphalt","startNodeId":"6167630064","endNodeId":"1343791133"},"geometry":{"type":"LineString","coordinates":[[103.6539023,1.33179],[103.6538077,1.3318511]]}},{"type":"Feature","id":"way/175845926-0-0-0","properties":{"highway":"motorway","lanes":"4","maxspeed":"80","name":"Ayer Rajah Expressway","name:ms":"Lebuhraya Ayer Rajah","name:ta":"\u0b86\u0baf\u0bb0\u0bcd \u0bb0\u0bbe\u0b9c\u0bbe \u0bb5\u0bbf\u0bb0\u0bb5\u0bc1\u0b9a\u0bcd\u0b9a\u0bbe\u0bb2\u0bc8","name:zh":"\u4e9a\u9038\u62c9\u60f9\u9ad8\u901f\u516c\u8def","oneway":"yes","ref":"AYE","surface":"asphalt","wikidata":"Q2657325","wikipedia":"en:Ayer Rajah Expressway","startNodeId":"1343791131","endNodeId":"way/175845926-0:0:1"},"geometry":{"type":"LineString","coordinates":[[103.6541624,1.3319062],[103.6552159,1.3309256]]}},{"type":"Feature","id":"way/175845926-0-0-1","properties":{"highway":"motorway","lanes":"4","maxspeed":"80","name":"Ayer Rajah Expressway","name:ms":"Lebuhraya Ayer Rajah","name:ta":"\u0b86\u0baf\u0bb0\u0bcd \u0bb0\u0bbe\u0b9c\u0bbe \u0bb5\u0bbf\u0bb0\u0bb5\u0bc1\u0b9a\u0bcd\u0b9a\u0bbe\u0bb2\u0bc8","name:zh":"\u4e9a\u9038\u62c9\u60f9\u9ad8\u901f\u516c\u8def","oneway":"yes","ref":"AYE","surface":"asphalt","wikidata":"Q2657325","wikipedia":"en:Ayer Rajah Expressway","startNodeId":"way/175845926-0:0:1","endNodeId":"way/175845926-0:0:2"},"geometry":{"type":"LineString","coordinates":[[103.6552159,1.3309256],[103.6562693,1.3299451]]}},{"type":"Feature","id":"way/175845926-0-0-2","properties":{"highway":"motorway","lanes":"4","maxspeed":"80","name":"Ayer Rajah Expressway","name:ms":"Lebuhraya Ayer Rajah","name:ta":"\u0b86\u0baf\u0bb0\u0bcd \u0bb0\u0bbe\u0b9c\u0bbe \u0bb5\u0bbf\u0bb0\u0bb5\u0bc1\u0b9a\u0bcd\u0b9a\u0bbe\u0bb2\u0bc8","name:zh":"\u4e9a\u9038\u62c9\u60f9\u9ad8\u901f\u516c\u8def","oneway":"yes","ref":"AYE","surface":"asphalt","wikidata":"Q2657325","wikipedia":"en:Ayer Rajah Expressway","startNodeId":"way/175845926-0:0:2","endNodeId":"way/175845926-0:0:3"},"geometry":{"type":"LineString","coordinates":[[103.6562693,1.3299451],[103.6573228,1.3289646]]}},{"type":"Feature","id":"way/381418970-0-3-0","properties":{"foot":"yes","highway":"primary","lanes":"2","maxspeed":"70","name":"Jalan Ahmad Ibrahim","name:en":"Jalan Ahmad Ibrahim","name:zh":"\u60f9\u5170\u963f\u672b\u4f9d\u5e03\u62c9\u6b23","oneway":"yes","surface":"asphalt","startNodeId":"1343791127","endNodeId":"1343791131"},"geometry":{"type":"LineString","coordinates":[[103.6532735,1.3328563],[103.6541624,1.3319062]]}},{"type":"Feature","id":"way/452390159-0-0-0","properties":{"highway":"service","lanes":"2","lanes:backward":"1","lanes:forward":"1","noname":"yes","surface":"asphalt","turn:lanes:backward":"left;right","turn:lanes:forward":"through","startNodeId":"4491954008","endNodeId":"6277717448"},"geometry":{"type":"LineString","coordinates":[[103.656322,1.3291941],[103.6561252,1.3293793]]}},{"type":"Feature","id":"way/452390160-0-0-0","properties":{"highway":"service","noname":"yes","surface":"asphalt","startNodeId":"5215159746","endNodeId":"5270279179"},"geometry":{"type":"LineString","coordinates":[[103.6550119,1.3303104],[103.6546487,1.3299129]]}},{"type":"Feature","id":"way/452390160-0-1-0","properties":{"highway":"service","noname":"yes","surface":"asphalt","startNodeId":"5270279179","endNodeId":"5270279180"},"geometry":{"type":"LineString","coordinates":[[103.6546487,1.3299129],[103.6546352,1.3299102]]}},{"type":"Feature","id":"way/452390160-0-2-0","properties":{"highway":"service","noname":"yes","surface":"asphalt","startNodeId":"5270279180","endNodeId":"5270279181"},"geometry":{"type":"LineString","coordinates":[[103.6546352,1.3299102],[103.654533,1.3298842]]}},{"type":"Feature","id":"way/452390160-0-3-0","properties":{"highway":"service","noname":"yes","surface":"asphalt","startNodeId":"5270279181","endNodeId":"5270279182"},"geometry":{"type":"LineString","coordinates":[[103.654533,1.3298842],[103.6545223,1.3298775]]}},{"type":"Feature","id":"way/452390160-0-4-0","properties":{"highway":"service","noname":"yes","surface":"asphalt","startNodeId":"5270279182","endNodeId":"5270279183"},"geometry":{"type":"LineString","coordinates":[[103.6545223,1.3298775],[103.6537588,1.3290055]]}},{"type":"Feature","id":"way/452390160-0-5-0","properties":{"highway":"service","noname":"yes","surface":"asphalt","startNodeId":"5270279183","endNodeId":"5270279184"},"geometry":{"type":"LineString","coordinates":[[103.6537588,1.3290055],[103.6537454,1.3289988]]}},{"type":"Feature","id":"way/452390160-0-6-0","properties":{"highway":"service","noname":"yes","surface":"asphalt","startNodeId":"5270279184","endNodeId":"5270279185"},"geometry":{"type":"LineString","coordinates":[[103.6537454,1.3289988],[103.6537275,1.3289991]]}},{"type":"Feature","id":"way/452390160-0-7-0","properties":{"highway":"service","noname":"yes","surface":"asphalt","startNodeId":"5270279185","endNodeId":"4491954011"},"geometry":{"type":"LineString","coordinates":[[103.6537275,1.3289991],[103.6536607,1.3290561]]}},{"type":"Feature","id":"way/465664213-0-4-1","properties":{"highway":"service","noname":"yes","surface":"asphalt","startNodeId":"way/465664213-0:4:1","endNodeId":"5270281527"},"geometry":{"type":"LineString","coordinates":[[103.6534396,1.3305257],[103.6540331,1.3311665]]}},{"type":"Feature","id":"way/465664213-0-5-0","properties":{"highway":"service","noname":"yes","surface":"asphalt","startNodeId":"5270281527","endNodeId":"5270281526"},"geometry":{"type":"LineString","coordinates":[[103.6540331,1.3311665],[103.6540586,1.3311866]]}},{"type":"Feature","id":"way/465664213-0-6-0","properties":{"highway":"service","noname":"yes","surface":"asphalt","startNodeId":"5270281526","endNodeId":"5270281525"},"geometry":{"type":"LineString","coordinates":[[103.6540586,1.3311866],[103.6540841,1.3311893]]}},{"type":"Feature","id":"way/465664213-0-7-0","properties":{"highway":"service","noname":"yes","surface":"asphalt","startNodeId":"5270281525","endNodeId":"5270281524"},"geometry":{"type":"LineString","coordinates":[[103.6540841,1.3311893],[103.6541055,1.3311839]]}},{"type":"Feature","id":"way/465664213-0-8-0","properties":{"highway":"service","noname":"yes","surface":"asphalt","startNodeId":"5270281524","endNodeId":"5215159745"},"geometry":{"type":"LineString","coordinates":[[103.6541055,1.3311839],[103.6541403,1.33116]]}},{"type":"Feature","id":"way/465664214-0-0-0","properties":{"highway":"service","noname":"yes","surface":"asphalt","startNodeId":"4491954007","endNodeId":"5215170628"},"geometry":{"type":"LineString","coordinates":[[103.6551981,1.3302801],[103.6545099,1.3295379]]}},{"type":"Feature","id":"way/465664215-0-0-0","properties":{"highway":"service","noname":"yes","surface":"asphalt","startNodeId":"4491954009","endNodeId":"8389158874"},"geometry":{"type":"LineString","coordinates":[[103.6564634,1.32936],[103.6564069,1.3292938]]}},{"type":"Feature","id":"way/465664215-0-1-0","properties":{"highway":"service","noname":"yes","surface":"asphalt","startNodeId":"8389158874","endNodeId":"4491954008"},"geometry":{"type":"LineString","coordinates":[[103.6564069,1.3292938],[103.656322,1.3291941]]}},{"type":"Feature","id":"way/538854949-0-0-0","properties":{"highway":"service","service":"parking_aisle","startNodeId":"5215159742","endNodeId":"5215159741"},"geometry":{"type":"LineString","coordinates":[[103.6540328,1.3312707],[103.6535037,1.3318119]]}},{"type":"Feature","id":"way/538854951-0-0-0","properties":{"highway":"service","service":"parking_aisle","startNodeId":"5215159746","endNodeId":"5215159745"},"geometry":{"type":"LineString","coordinates":[[103.6550119,1.3303104],[103.6541403,1.33116]]}},{"type":"Feature","id":"way/538856077-0-0-0","properties":{"highway":"service","startNodeId":"5215169618","endNodeId":"5215170626"},"geometry":{"type":"LineString","coordinates":[[103.6555447,1.3296454],[103.6556928,1.3298036]]}},{"type":"Feature","id":"way/538856078-0-0-0","properties":{"covered":"yes","highway":"service","startNodeId":"5215169619","endNodeId":"5215169618"},"geometry":{"type":"LineString","coordinates":[[103.6554699,1.3295655],[103.6555447,1.3296454]]}},{"type":"Feature","id":"way/538856079-0-0-0","properties":{"highway":"service","noname":"yes","surface":"asphalt","startNodeId":"5215169620","endNodeId":"4605939814"},"geometry":{"type":"LineString","coordinates":[[103.6557968,1.3294083],[103.6559426,1.3295629]]}},{"type":"Feature","id":"way/538856080-0-0-0","properties":{"covered":"yes","highway":"service","noname":"yes","surface":"asphalt","startNodeId":"5215170621","endNodeId":"5215169620"},"geometry":{"type":"LineString","coordinates":[[103.6557217,1.3293287],[103.6557968,1.3294083]]}},{"type":"Feature","id":"way/538856081-0-0-0","properties":{"highway":"service","startNodeId":"5215170627","endNodeId":"5215169619"},"geometry":{"type":"LineString","coordinates":[[103.6550111,1.3290754],[103.6554699,1.3295655]]}},{"type":"Feature","id":"way/538856082-0-0-0","properties":{"highway":"service","startNodeId":"5215170629","endNodeId":"5215170627"},"geometry":{"type":"LineString","coordinates":[[103.6552606,1.3288399],[103.6550111,1.3290754]]}},{"type":"Feature","id":"way/538856083-0-0-0","properties":{"highway":"service","maxspeed":"20","startNodeId":"4491954008","endNodeId":"5215170631"},"geometry":{"type":"LineString","coordinates":[[103.656322,1.3291941],[103.6562593,1.3291031]]}},{"type":"Feature","id":"way/545289620-0-0-0","properties":{"highway":"service","oneway":"yes","startNodeId":"5270281536","endNodeId":"5270281532"},"geometry":{"type":"LineString","coordinates":[[103.6541159,1.3313595],[103.654129,1.3314018]]}},{"type":"Feature","id":"way/545289620-0-1-0","properties":{"highway":"service","oneway":"yes","startNodeId":"5270281532","endNodeId":"8389176068"},"geometry":{"type":"LineString","coordinates":[[103.654129,1.3314018],[103.6541383,1.3314285]]}},{"type":"Feature","id":"way/545289620-0-2-0","properties":{"highway":"service","oneway":"yes","startNodeId":"8389176068","endNodeId":"5270281531"},"geometry":{"type":"LineString","coordinates":[[103.6541383,1.3314285],[103.6541519,1.3314677]]}},{"type":"Feature","id":"way/545289621-0-0-0","properties":{"highway":"service","oneway":"yes","startNodeId":"5270281535","endNodeId":"8389176067"},"geometry":{"type":"LineString","coordinates":[[103.6542435,1.3313733],[103.6541984,1.3313707]]}},{"type":"Feature","id":"way/545289621-0-1-0","properties":{"highway":"service","oneway":"yes","startNodeId":"8389176067","endNodeId":"5270281534"},"geometry":{"type":"LineString","coordinates":[[103.6541984,1.3313707],[103.6541685,1.331369]]}},{"type":"Feature","id":"way/545289621-0-2-0","properties":{"highway":"service","oneway":"yes","startNodeId":"5270281534","endNodeId":"5270281533"},"geometry":{"type":"LineString","coordinates":[[103.6541685,1.331369],[103.6541424,1.3313676]]}},{"type":"Feature","id":"way/545289621-0-3-0","properties":{"highway":"service","oneway":"yes","startNodeId":"5270281533","endNodeId":"5270281536"},"geometry":{"type":"LineString","coordinates":[[103.6541424,1.3313676],[103.6541159,1.3313595]]}},{"type":"Feature","id":"way/641089616-0-0-0","properties":{"highway":"service","noname":"yes","surface":"asphalt","startNodeId":"5215170629","endNodeId":"5215170621"},"geometry":{"type":"LineString","coordinates":[[103.6552606,1.3288399],[103.6557217,1.3293287]]}},{"type":"Feature","id":"way/646140627-0-0-0","properties":{"highway":"service","noname":"yes","surface":"asphalt","startNodeId":"5215170628","endNodeId":"4491954006"},"geometry":{"type":"LineString","coordinates":[[103.6545099,1.3295379],[103.6544498,1.329473]]}},{"type":"Feature","id":"way/646140628-0-0-0","properties":{"highway":"service","startNodeId":"5215170627","endNodeId":"5215170628"},"geometry":{"type":"LineString","coordinates":[[103.6550111,1.3290754],[103.6545099,1.3295379]]}},{"type":"Feature","id":"way/646141012-0-0-0","properties":{"highway":"service","lanes":"2","lanes:backward":"1","lanes:forward":"1","noname":"yes","surface":"asphalt","turn:lanes:backward":"through","turn:lanes:forward":"left;through","startNodeId":"4605939814","endNodeId":"5215170626"},"geometry":{"type":"LineString","coordinates":[[103.6559426,1.3295629],[103.6556928,1.3298036]]}},{"type":"Feature","id":"way/646141013-0-0-0","properties":{"highway":"service","lanes":"2","lanes:backward":"1","lanes:forward":"1","noname":"yes","surface":"asphalt","startNodeId":"5215170626","endNodeId":"4491954007"},"geometry":{"type":"LineString","coordinates":[[103.6556928,1.3298036],[103.6551981,1.3302801]]}},{"type":"Feature","id":"way/646364371-0-0-0","properties":{"highway":"service","noname":"yes","surface":"asphalt","startNodeId":"4491954012","endNodeId":"8389158875"},"geometry":{"type":"LineString","coordinates":[[103.655203,1.3305072],[103.6551522,1.3304549]]}},{"type":"Feature","id":"way/646364371-0-1-0","properties":{"highway":"service","noname":"yes","surface":"asphalt","startNodeId":"8389158875","endNodeId":"5215159746"},"geometry":{"type":"LineString","coordinates":[[103.6551522,1.3304549],[103.6550119,1.3303104]]}},{"type":"Feature","id":"way/649587013-0-0-0","properties":{"highway":"motorway","lanes":"4","maxspeed":"80","name":"Ayer Rajah Expressway","name:ms":"Lebuhraya Ayer Rajah","name:ta":"\u0b86\u0baf\u0bb0\u0bcd \u0bb0\u0bbe\u0b9c\u0bbe \u0bb5\u0bbf\u0bb0\u0bb5\u0bc1\u0b9a\u0bcd\u0b9a\u0bbe\u0bb2\u0bc8","name:zh":"\u4e9a\u9038\u62c9\u60f9\u9ad8\u901f\u516c\u8def","oneway":"yes","ref":"AYE","surface":"asphalt","turn:lanes":"left|through|through|through","wikidata":"Q2657325","wikipedia":"en:Ayer Rajah Expressway","startNodeId":"6095894349","endNodeId":"1343791102"},"geometry":{"type":"LineString","coordinates":[[103.656051,1.3298894],[103.655171,1.330713]]}},{"type":"Feature","id":"way/649587014-0-0-0","properties":{"highway":"motorway","lanes":"3","maxspeed":"80","name":"Ayer Rajah Expressway","name:ms":"Lebuhraya Ayer Rajah","name:ta":"\u0b86\u0baf\u0bb0\u0bcd \u0bb0\u0bbe\u0b9c\u0bbe \u0bb5\u0bbf\u0bb0\u0bb5\u0bc1\u0b9a\u0bcd\u0b9a\u0bbe\u0bb2\u0bc8","name:zh":"\u4e9a\u9038\u62c9\u60f9\u9ad8\u901f\u516c\u8def","oneway":"yes","ref":"AYE","surface":"asphalt","wikidata":"Q2657325","wikipedia":"en:Ayer Rajah Expressway","startNodeId":"1343791102","endNodeId":"6064237309"},"geometry":{"type":"LineString","coordinates":[[103.655171,1.330713],[103.6550859,1.3307998]]}},{"type":"Feature","id":"way/649587014-0-1-0","properties":{"highway":"motorway","lanes":"3","maxspeed":"80","name":"Ayer Rajah Expressway","name:ms":"Lebuhraya Ayer Rajah","name:ta":"\u0b86\u0baf\u0bb0\u0bcd \u0bb0\u0bbe\u0b9c\u0bbe \u0bb5\u0bbf\u0bb0\u0bb5\u0bc1\u0b9a\u0bcd\u0b9a\u0bbe\u0bb2\u0bc8","name:zh":"\u4e9a\u9038\u62c9\u60f9\u9ad8\u901f\u516c\u8def","oneway":"yes","ref":"AYE","surface":"asphalt","wikidata":"Q2657325","wikipedia":"en:Ayer Rajah Expressway","startNodeId":"6064237309","endNodeId":"way/649587014-0:1:1"},"geometry":{"type":"LineString","coordinates":[[103.6550859,1.3307998],[103.6539311,1.331893]]}},{"type":"Feature","id":"way/649587014-0-1-1","properties":{"highway":"motorway","lanes":"3","maxspeed":"80","name":"Ayer Rajah Expressway","name:ms":"Lebuhraya Ayer Rajah","name:ta":"\u0b86\u0baf\u0bb0\u0bcd \u0bb0\u0bbe\u0b9c\u0bbe \u0bb5\u0bbf\u0bb0\u0bb5\u0bc1\u0b9a\u0bcd\u0b9a\u0bbe\u0bb2\u0bc8","name:zh":"\u4e9a\u9038\u62c9\u60f9\u9ad8\u901f\u516c\u8def","oneway":"yes","ref":"AYE","surface":"asphalt","wikidata":"Q2657325","wikipedia":"en:Ayer Rajah Expressway","startNodeId":"way/649587014-0:1:1","endNodeId":"148133869"},"geometry":{"type":"LineString","coordinates":[[103.6539311,1.331893],[103.6527762,1.3329861]]}},{"type":"Feature","id":"way/655537243-0-0-0","properties":{"destination":"Tuas Avenue 8;Tuas West Road","highway":"primary","lanes":"2","maxspeed":"70","name":"Jalan Ahmad Ibrahim","name:en":"Jalan Ahmad Ibrahim","name:zh":"\u60f9\u5170\u963f\u672b\u4f9d\u5e03\u62c9\u6b23","oneway":"yes","surface":"asphalt","startNodeId":"1343791133","endNodeId":"6141829896"},"geometry":{"type":"LineString","coordinates":[[103.6538077,1.3318511],[103.6531413,1.3324657]]}},{"type":"Feature","id":"way/655537245-0-0-0","properties":{"highway":"primary","lanes":"1","maxspeed":"70","name":"Jalan Ahmad Ibrahim","name:en":"Jalan Ahmad Ibrahim","name:zh":"\u60f9\u5170\u963f\u672b\u4f9d\u5e03\u62c9\u6b23","oneway":"yes","surface":"asphalt","turn:lanes":"through","startNodeId":"5270281535","endNodeId":"5215159743"},"geometry":{"type":"LineString","coordinates":[[103.6542435,1.3313733],[103.6541863,1.3314213]]}},{"type":"Feature","id":"way/655537245-0-1-0","properties":{"highway":"primary","lanes":"1","maxspeed":"70","name":"Jalan Ahmad Ibrahim","name:en":"Jalan Ahmad Ibrahim","name:zh":"\u60f9\u5170\u963f\u672b\u4f9d\u5e03\u62c9\u6b23","oneway":"yes","surface":"asphalt","turn:lanes":"through","startNodeId":"5215159743","endNodeId":"5270281531"},"geometry":{"type":"LineString","coordinates":[[103.6541863,1.3314213],[103.6541519,1.3314677]]}},{"type":"Feature","id":"way/655537245-0-2-0","properties":{"highway":"primary","lanes":"1","maxspeed":"70","name":"Jalan Ahmad Ibrahim","name:en":"Jalan Ahmad Ibrahim","name:zh":"\u60f9\u5170\u963f\u672b\u4f9d\u5e03\u62c9\u6b23","oneway":"yes","surface":"asphalt","turn:lanes":"through","startNodeId":"5270281531","endNodeId":"6167630065"},"geometry":{"type":"LineString","coordinates":[[103.6541519,1.3314677],[103.6538983,1.3317316]]}},{"type":"Feature","id":"way/655537245-0-3-0","properties":{"highway":"primary","lanes":"1","maxspeed":"70","name":"Jalan Ahmad Ibrahim","name:en":"Jalan Ahmad Ibrahim","name:zh":"\u60f9\u5170\u963f\u672b\u4f9d\u5e03\u62c9\u6b23","oneway":"yes","surface":"asphalt","turn:lanes":"through","startNodeId":"6167630065","endNodeId":"1343791133"},"geometry":{"type":"LineString","coordinates":[[103.6538983,1.3317316],[103.6538077,1.3318511]]}},{"type":"Feature","id":"way/655537247-0-0-0","properties":{"highway":"primary","lanes":"2","maxspeed":"70","name":"Jalan Ahmad Ibrahim","name:en":"Jalan Ahmad Ibrahim","name:zh":"\u60f9\u5170\u963f\u672b\u4f9d\u5e03\u62c9\u6b23","oneway":"yes","surface":"asphalt","turn:lanes":"left|through","startNodeId":"6141829897","endNodeId":"5270281535"},"geometry":{"type":"LineString","coordinates":[[103.6543241,1.3312952],[103.6542435,1.3313733]]}},{"type":"Feature","id":"way/655537250-0-0-0","properties":{"highway":"primary","lanes":"1","maxspeed":"70","name":"Jalan Ahmad Ibrahim","name:en":"Jalan Ahmad Ibrahim","name:zh":"\u60f9\u5170\u963f\u672b\u4f9d\u5e03\u62c9\u6b23","oneway":"yes","surface":"asphalt","startNodeId":"535176773","endNodeId":"6141829897"},"geometry":{"type":"LineString","coordinates":[[103.6544853,1.3311445],[103.6543241,1.3312952]]}},{"type":"Feature","id":"way/655537252-0-2-0","properties":{"highway":"primary","lanes":"2","maxspeed":"70","name":"Jalan Ahmad Ibrahim","name:en":"Jalan Ahmad Ibrahim","name:zh":"\u60f9\u5170\u963f\u672b\u4f9d\u5e03\u62c9\u6b23","oneway":"yes","surface":"asphalt","startNodeId":"4605936886","endNodeId":"4491954009"},"geometry":{"type":"LineString","coordinates":[[103.6572485,1.3285985],[103.6564634,1.32936]]}},{"type":"Feature","id":"way/655537252-0-3-0","properties":{"highway":"primary","lanes":"2","maxspeed":"70","name":"Jalan Ahmad Ibrahim","name:en":"Jalan Ahmad Ibrahim","name:zh":"\u60f9\u5170\u963f\u672b\u4f9d\u5e03\u62c9\u6b23","oneway":"yes","surface":"asphalt","startNodeId":"4491954009","endNodeId":"535176771"},"geometry":{"type":"LineString","coordinates":[[103.6564634,1.32936],[103.6558461,1.3299335]]}},{"type":"Feature","id":"way/655537252-0-4-0","properties":{"highway":"primary","lanes":"2","maxspeed":"70","name":"Jalan Ahmad Ibrahim","name:en":"Jalan Ahmad Ibrahim","name:zh":"\u60f9\u5170\u963f\u672b\u4f9d\u5e03\u62c9\u6b23","oneway":"yes","surface":"asphalt","startNodeId":"535176771","endNodeId":"4491954012"},"geometry":{"type":"LineString","coordinates":[[103.6558461,1.3299335],[103.655203,1.3305072]]}},{"type":"Feature","id":"way/655537252-0-5-0","properties":{"highway":"primary","lanes":"2","maxspeed":"70","name":"Jalan Ahmad Ibrahim","name:en":"Jalan Ahmad Ibrahim","name:zh":"\u60f9\u5170\u963f\u672b\u4f9d\u5e03\u62c9\u6b23","oneway":"yes","surface":"asphalt","startNodeId":"4491954012","endNodeId":"535176773"},"geometry":{"type":"LineString","coordinates":[[103.655203,1.3305072],[103.6544853,1.3311445]]}},{"type":"Feature","id":"way/670356753-0-0-0","properties":{"highway":"service","lanes":"2","lanes:backward":"1","lanes:forward":"1","noname":"yes","surface":"asphalt","turn:lanes:forward":"through","startNodeId":"6277717448","endNodeId":"4605939814"},"geometry":{"type":"LineString","coordinates":[[103.6561252,1.3293793],[103.6559426,1.3295629]]}},{"type":"Feature","id":"way/903239856-0-0-0","properties":{"highway":"service","startNodeId":"4491954011","endNodeId":"8389158886"},"geometry":{"type":"LineString","coordinates":[[103.6536607,1.3290561],[103.6535007,1.3288929]]}}]}