{"type":"FeatureCollection","features":[{"type":"Feature","id":"way/453273214-0","properties":{"building":"yes"},"geometry":{"type":"Polygon","coordinates":[[[103.6453611,1.2901736],[103.6453488,1.2900582],[103.6452361,1.2900703],[103.6452485,1.2901857],[103.6453611,1.2901736]]]}},{"type":"Feature","id":"way/453273215-0","properties":{"building":"yes"},"geometry":{"type":"Polygon","coordinates":[[[103.6453256,1.2895733],[103.64528,1.289151],[103.6451345,1.2891667],[103.6451801,1.289589],[103.6453256,1.2895733]]]}},{"type":"Feature","id":"way/453273219-0","properties":{"building":"yes"},"geometry":{"type":"Polygon","coordinates":[[[103.6465822,1.2892941],[103.6465158,1.289303],[103.6465453,1.2895216],[103.6466117,1.2895126],[103.6465822,1.2892941]]]}},{"type":"Feature","id":"way/453273222-0","properties":{"building":"yes"},"geometry":{"type":"Polygon","coordinates":[[[103.6470446,1.2897301],[103.6469856,1.2893386],[103.6467203,1.2893785],[103.6467794,1.28977],[103.6470446,1.2897301]]]}},{"type":"Feature","id":"way/503503842-0","properties":{"building":"industrial"},"geometry":{"type":"Polygon","coordinates":[[[103.6450149,1.2915749],[103.6450118,1.2914967],[103.6450632,1.2914946],[103.6450598,1.2914105],[103.6449616,1.2914145],[103.6449652,1.2915035],[103.6449003,1.2915061],[103.644897,1.2914245],[103.6446617,1.291434],[103.644668,1.2915889],[103.6450149,1.2915749]]]}},{"type":"Feature","id":"way/503503852-0","properties":{"building":"industrial"},"geometry":{"type":"Polygon","coordinates":[[[103.6457543,1.2929153],[103.6458279,1.2927508],[103.6456629,1.292677],[103.6455893,1.2928416],[103.6457543,1.2929153]]]}},{"type":"Feature","id":"way/503503853-0","properties":{"building":"industrial"},"geometry":{"type":"Polygon","coordinates":[[[103.6462324,1.2919845],[103.6463192,1.291815],[103.6461378,1.2917222],[103.6460511,1.2918918],[103.6462324,1.2919845]]]}},{"type":"Feature","id":"way/452056379-0-0-0","properties":{"highway":"service"},"geometry":{"type":"LineString","coordinates":[[103.6464218,1.2888792],[103.6465137,1.2902472]]}},{"type":"Feature","id":"way/452057675-0-1-1","properties":{"highway":"service"},"geometry":{"type":"LineString","coordinates":[[103.6442647,1.2893552],[103.6451006,1.2892929]]}},{"type":"Feature","id":"way/453273220-0-0-0","properties":{"highway":"service"},"geometry":{"type":"LineString","coordinates":[[103.6466609,1.2893441],[103.6467203,1.2897687]]}},{"type":"Feature","id":"way/453273220-0-1-0","properties":{"highway":"service"},"geometry":{"type":"LineString","coordinates":[[103.6467203,1.2897687],[103.6467659,1.2898089]]}},{"type":"Feature","id":"way/453273220-0-2-0","properties":{"highway":"service"},"geometry":{"type":"LineString","coordinates":[[103.6467659,1.2898089],[103.6470637,1.2897687]]}},{"type":"Feature","id":"way/453273220-0-3-0","properties":{"highway":"service"},"geometry":{"type":"LineString","coordinates":[[103.6470637,1.2897687],[103.6471012,1.2897298]]}},{"type":"Feature","id":"way/453273220-0-4-0","properties":{"highway":"service"},"geometry":{"type":"LineString","coordinates":[[103.6471012,1.2897298],[103.6470677,1.289463]]}},{"type":"Feature","id":"way/453273221-0-0-0","properties":{"highway":"service"},"geometry":{"type":"LineString","coordinates":[[103.6473659,1.2896156],[103.647297,1.2895207]]}},{"type":"Feature","id":"way/453273221-0-1-0","properties":{"highway":"service"},"geometry":{"type":"LineString","coordinates":[[103.647297,1.2895207],[103.6472554,1.2894938]]}},{"type":"Feature","id":"way/453273221-0-2-0","properties":{"highway":"service"},"geometry":{"type":"LineString","coordinates":[[103.6472554,1.2894938],[103.6471844,1.289459]]}},{"type":"Feature","id":"way/453273221-0-3-0","properties":{"highway":"service"},"geometry":{"type":"LineString","coordinates":[[103.6471844,1.289459],[103.6471401,1.289455]]}},{"type":"Feature","id":"way/453273221-0-4-0","properties":{"highway":"service"},"geometry":{"type":"LineString","coordinates":[[103.6471401,1.289455],[103.6470677,1.289463]]}},{"type":"Feature","id":"way/465766699-0-0-0","properties":{"highway":"service","lanes":"2","lanes:backward":"1","lanes:forward":"1"},"geometry":{"type":"LineString","coordinates":[[103.6445092,1.2926383],[103.6444822,1.29249]]}},{"type":"Feature","id":"way/465766699-0-1-0","properties":{"highway":"service","lanes":"2","lanes:backward":"1","lanes:forward":"1"},"geometry":{"type":"LineString","coordinates":[[103.6444822,1.29249],[103.6444737,1.2924433]]}},{"type":"Feature","id":"way/465766699-0-2-0","properties":{"highway":"service","lanes":"2","lanes:backward":"1","lanes:forward":"1"},"geometry":{"type":"LineString","coordinates":[[103.6444737,1.2924433],[103.6444697,1.2924187]]}},{"type":"Feature","id":"way/465766699-0-3-0","properties":{"highway":"service","lanes":"2","lanes:backward":"1","lanes:forward":"1"},"geometry":{"type":"LineString","coordinates":[[103.6444697,1.2924187],[103.6444605,1.2924012]]}},{"type":"Feature","id":"way/465766699-0-4-0","properties":{"highway":"service","lanes":"2","lanes:backward":"1","lanes:forward":"1"},"geometry":{"type":"LineString","coordinates":[[103.6444605,1.2924012],[103.6444342,1.2923849]]}},{"type":"Feature","id":"way/465766699-0-5-0","properties":{"highway":"service","lanes":"2","lanes:backward":"1","lanes:forward":"1"},"geometry":{"type":"LineString","coordinates":[[103.6444342,1.2923849],[103.6444022,1.2923829]]}},{"type":"Feature","id":"way/465766706-0-0-0","properties":{"highway":"service"},"geometry":{"type":"LineString","coordinates":[[103.6445464,1.2914078],[103.6445503,1.2913336]]}},{"type":"Feature","id":"way/465766706-0-1-0","properties":{"highway":"service"},"geometry":{"type":"LineString","coordinates":[[103.6445503,1.2913336],[103.6445706,1.2912626]]}},{"type":"Feature","id":"way/465766706-0-2-0","properties":{"highway":"service"},"geometry":{"type":"LineString","coordinates":[[103.6445706,1.2912626],[103.6446179,1.2912288]]}},{"type":"Feature","id":"way/465766706-0-3-0","properties":{"highway":"service"},"geometry":{"type":"LineString","coordinates":[[103.6446179,1.2912288],[103.6446787,1.2912187]]}},{"type":"Feature","id":"way/465766706-0-4-0","properties":{"highway":"service"},"geometry":{"type":"LineString","coordinates":[[103.6446787,1.2912187],[103.6457724,1.2911266]]}},{"type":"Feature","id":"way/465766706-0-5-0","properties":{"highway":"service"},"geometry":{"type":"LineString","coordinates":[[103.6457724,1.2911266],[103.6458279,1.2911231]]}},{"type":"Feature","id":"way/465766706-0-6-0","properties":{"highway":"service"},"geometry":{"type":"LineString","coordinates":[[103.6458279,1.2911231],[103.6458564,1.2911269]]}},{"type":"Feature","id":"way/465766706-0-7-0","properties":{"highway":"service"},"geometry":{"type":"LineString","coordinates":[[103.6458564,1.2911269],[103.6458777,1.2911373]]}},{"type":"Feature","id":"way/465766706-0-8-0","properties":{"highway":"service"},"geometry":{"type":"LineString","coordinates":[[103.6458777,1.2911373],[103.6458996,1.2911551]]}},{"type":"Feature","id":"way/465766706-0-9-0","properties":{"highway":"service"},"geometry":{"type":"LineString","coordinates":[[103.6458996,1.2911551],[103.6459316,1.2911786]]}},{"type":"Feature","id":"way/465766708-0-0-0","properties":{"highway":"service","lanes":"2","lanes:backward":"1","lanes:forward":"1","turn:lanes:backward":"left;right","turn:lanes:forward":"through"},"geometry":{"type":"LineString","coordinates":[[103.6458246,1.2913662],[103.6461259,1.2915392]]}},{"type":"Feature","id":"way/465766709-0-0-0","properties":{"highway":"service","lanes":"2","lanes:backward":"1","lanes:forward":"1","turn:lanes:backward":"left;right","turn:lanes:forward":"through"},"geometry":{"type":"LineString","coordinates":[[103.6457298,1.2930368],[103.6454085,1.2928558]]}},{"type":"Feature","id":"way/539304794-0-0-0","properties":{"covered":"yes","highway":"service"},"geometry":{"type":"LineString","coordinates":[[103.6445588,1.2916506],[103.6445464,1.2914078]]}},{"type":"Feature","id":"way/539304795-0-0-0","properties":{"highway":"service"},"geometry":{"type":"LineString","coordinates":[[103.6445965,1.2926383],[103.6445588,1.2916506]]}},{"type":"Feature","id":"way/644499336-0-0-0","properties":{"highway":"service"},"geometry":{"type":"LineString","coordinates":[[103.6452271,1.2908945],[103.6451491,1.2909328]]}},{"type":"Feature","id":"way/644499336-0-1-0","properties":{"highway":"service"},"geometry":{"type":"LineString","coordinates":[[103.6451491,1.2909328],[103.644951,1.2910333]]}},{"type":"Feature","id":"way/644499336-0-2-0","properties":{"highway":"service"},"geometry":{"type":"LineString","coordinates":[[103.644951,1.2910333],[103.6440769,1.2910805]]}},{"type":"Feature","id":"way/644503944-0-0-0","properties":{"highway":"service"},"geometry":{"type":"LineString","coordinates":[[103.6465137,1.2902472],[103.6461742,1.2904141]]}},{"type":"Feature","id":"way/644503944-0-1-0","properties":{"highway":"service"},"geometry":{"type":"LineString","coordinates":[[103.6461742,1.2904141],[103.6454824,1.2907693]]}},{"type":"Feature","id":"way/644503944-0-2-0","properties":{"highway":"service"},"geometry":{"type":"LineString","coordinates":[[103.6454824,1.2907693],[103.6452271,1.2908945]]}},{"type":"Feature","id":"way/644503945-0-0-0","properties":{"highway":"service"},"geometry":{"type":"LineString","coordinates":[[103.6473659,1.2896156],[103.6471364,1.2898639]]}},{"type":"Feature","id":"way/644503945-0-1-0","properties":{"highway":"service"},"geometry":{"type":"LineString","coordinates":[[103.6471364,1.2898639],[103.6468534,1.290062]]}},{"type":"Feature","id":"way/644503945-0-2-0","properties":{"highway":"service"},"geometry":{"type":"LineString","coordinates":[[103.6468534,1.290062],[103.6465452,1.2902317]]}},{"type":"Feature","id":"way/644503945-0-3-0","properties":{"highway":"service"},"geometry":{"type":"LineString","coordinates":[[103.6465452,1.2902317],[103.6465137,1.2902472]]}},{"type":"Feature","id":"way/644504490-0-0-0","properties":{"highway":"service"},"geometry":{"type":"LineString","coordinates":[[103.6451006,1.2892929],[103.6451588,1.2900142]]}},{"type":"Feature","id":"way/644504490-0-1-0","properties":{"highway":"service"},"geometry":{"type":"LineString","coordinates":[[103.6451588,1.2900142],[103.6452271,1.2908945]]}},{"type":"Feature","id":"way/644505005-0-0-0","properties":{"highway":"service"},"geometry":{"type":"LineString","coordinates":[[103.6475536,1.2893153],[103.6475074,1.2893955]]}},{"type":"Feature","id":"way/644505005-0-1-0","properties":{"highway":"service"},"geometry":{"type":"LineString","coordinates":[[103.6475074,1.2893955],[103.6473659,1.2896156]]}},{"type":"Feature","id":"way/644505007-0-0-0","properties":{"highway":"service"},"geometry":{"type":"LineString","coordinates":[[103.6450236,1.2883398],[103.6451006,1.2892929]]}},{"type":"Feature","id":"way/644505860-0-0-0","properties":{"highway":"service"},"geometry":{"type":"LineString","coordinates":[[103.6475536,1.2893153],[103.6464218,1.2888792]]}},{"type":"Feature","id":"way/644682797-0-0-0","properties":{"highway":"service"},"geometry":{"type":"LineString","coordinates":[[103.6464218,1.2888792],[103.6450236,1.2883398]]}},{"type":"Feature","id":"way/644684311-0-2-0","properties":{"highway":"service"},"geometry":{"type":"LineString","coordinates":[[103.6478501,1.2884776],[103.6477841,1.2888706]]}},{"type":"Feature","id":"way/644684311-0-3-0","properties":{"highway":"service"},"geometry":{"type":"LineString","coordinates":[[103.6477841,1.2888706],[103.6476395,1.2891661]]}},{"type":"Feature","id":"way/644684311-0-4-0","properties":{"highway":"service"},"geometry":{"type":"LineString","coordinates":[[103.6476395,1.2891661],[103.6475536,1.2893153]]}},{"type":"Feature","id":"way/644853327-0-0-0","properties":{"highway":"service"},"geometry":{"type":"LineString","coordinates":[[103.6470677,1.289463],[103.6470556,1.289349]]}},{"type":"Feature","id":"way/644853327-0-1-0","properties":{"highway":"service"},"geometry":{"type":"LineString","coordinates":[[103.6470556,1.289349],[103.6470261,1.2893035]]}},{"type":"Feature","id":"way/644853327-0-2-0","properties":{"highway":"service"},"geometry":{"type":"LineString","coordinates":[[103.6470261,1.2893035],[103.6466609,1.2893441]]}},{"type":"Feature","id":"way/644853328-0-0-0","properties":{"highway":"service"},"geometry":{"type":"LineString","coordinates":[[103.6466546,1.2892994],[103.6466609,1.2893441]]}},{"type":"Feature","id":"way/697796256-0-0-0","properties":{"highway":"service","lanes":"2","lanes:backward":"1","lanes:forward":"1","turn:lanes:backward":"through","turn:lanes:forward":"left;right"},"geometry":{"type":"LineString","coordinates":[[103.6461259,1.2915392],[103.6464099,1.2917005]]}},{"type":"Feature","id":"way/697796691-0-0-0","properties":{"highway":"service","lanes":"2","lanes:backward":"1","lanes:forward":"1","turn:lanes:backward":"through","turn:lanes:forward":"left;through;right"},"geometry":{"type":"LineString","coordinates":[[103.6454085,1.2928558],[103.6450829,1.2926849]]}}]}