{"type":"FeatureCollection","features":[{"type":"Feature","id":"way/117676284-0","properties":{"addr:city":"Singapore","addr:country":"SG","addr:housenumber":"10","addr:postcode":"638377","addr:street":"Tuas West Road","building":"industrial","name":"Firmenich Asia","clearanceGeometry":{"type":"Polygon","coordinates":[[[103.6445874,1.3351315],[103.6443422,1.3353671],[103.6444036,1.3354309],[103.6442443,1.3355839],[103.6441997,1.3355374],[103.64415259883681,1.3355826610217927],[103.64415323887327,1.335583325870881],[103.64405450177122,1.3356783303079867],[103.6444153,1.3360538],[103.6449657,1.335525],[103.6445874,1.3351315]]]},"clearanceHeight":1.7,"clearancePrepared":true},"geometry":{"type":"Polygon","coordinates":[[[103.6449657,1.335525],[103.6445874,1.3351315],[103.6443422,1.3353671],[103.6444036,1.3354309],[103.6442443,1.3355839],[103.6441997,1.3355374],[103.6440538,1.3356776],[103.6444153,1.3360538],[103.6449657,1.335525]]]}},{"type":"Feature","id":"way/117676289-0","properties":{"addr:city":"Singapore","addr:country":"SG","addr:housenumber":"95","addr:street":"Tuas Avenue 1","building":"yes","clearanceGeometry":{"type":"Polygon","coordinates":[[[103.645141,1.3362285],[103.6450519,1.336312],[103.6451136,1.336378],[103.6451302,1.3363624],[103.64513758065857,1.3363702818143954],[103.64519160803431,1.33631960425887],[103.6451843,1.3363118],[103.6454119,1.3360989],[103.6453008,1.3359802],[103.64526214335415,1.3359389662444205],[103.64526171447835,1.3359393773665995],[103.64500824220683,1.3356750920965565],[103.64500821416435,1.3356750823512993],[103.64500474797427,1.3356748050560925],[103.64500109794494,1.3356756741106945],[103.64499737091951,1.3356781292147457],[103.64479986558891,1.3358640721066413],[103.6450805,1.3361638],[103.645141,1.3362285]]]},"clearanceHeight":1.7,"clearancePrepared":true},"geometry":{"type":"Polygon","coordinates":[[[103.6450805,1.3361638],[103.645141,1.3362285],[103.6450519,1.336312],[103.6451136,1.336378],[103.6451302,1.3363624],[103.6451626,1.336397],[103.6452167,1.3363464],[103.6451843,1.3363118],[103.6454119,1.3360989],[103.6453008,1.3359802],[103.6452618,1.3359386],[103.6450074,1.3356668],[103.6447983,1.3358624],[103.6450805,1.3361638]]]}},{"type":"Feature","id":"way/117676290-0","properties":{"addr:city":"Singapore","addr:country":"SG","addr:housenumber":"30","addr:street":"Tuas Avenue 12","building":"yes","clearanceGeometry":{"type":"Polygon","coordinates":[[[103.6449049,1.3350637],[103.6451608,1.3353372],[103.645463,1.3350547],[103.6452071,1.3347811],[103.6449049,1.3350637]]]},"clearanceHeight":1.7,"clearancePrepared":true},"geometry":{"type":"Polygon","coordinates":[[[103.6452071,1.3347811],[103.6449049,1.3350637],[103.6451608,1.3353372],[103.645463,1.3350547],[103.6452071,1.3347811]]]}},{"type":"Feature","id":"way/117676295-0","properties":{"addr:city":"Singapore","addr:country":"SG","addr:housenumber":"28","addr:street":"Tuas Avenue 12","building":"yes","clearanceGeometry":{"type":"Polygon","coordinates":[[[103.6449564,1.3349572],[103.6450208,1.3348969],[103.6449649,1.3348372],[103.645117,1.3346948],[103.6449131,1.3344769],[103.6446153,1.3347556],[103.6447042,1.3348505],[103.644658,1.3348937],[103.6446958,1.3349341],[103.644742,1.3348909],[103.6448192,1.3349734],[103.6449005,1.3348974],[103.6449564,1.3349572]]]},"clearanceHeight":1.7,"clearancePrepared":true},"geometry":{"type":"Polygon","coordinates":[[[103.6449005,1.3348974],[103.6449564,1.3349572],[103.6450208,1.3348969],[103.6449649,1.3348372],[103.645117,1.3346948],[103.6449131,1.3344769],[103.6446153,1.3347556],[103.6447042,1.3348505],[103.644658,1.3348937],[103.6446958,1.3349341],[103.644742,1.3348909],[103.6448192,1.3349734],[103.6449005,1.3348974]]]}},{"type":"Feature","id":"way/117676298-0","properties":{"addr:city":"Singapore","addr:country":"SG","addr:housenumber":"34","addr:street":"Tuas Avenue 12","building":"yes","clearanceGeometry":{"type":"Polygon","coordinates":[[[103.6457248,1.3359419],[103.6460256,1.3356605],[103.6458262,1.3354475],[103.6456629,1.3356003],[103.6455254,1.3357289],[103.645606,1.335815],[103.6457248,1.3359419]]]},"clearanceHeight":1.7,"clearancePrepared":true},"geometry":{"type":"Polygon","coordinates":[[[103.645606,1.335815],[103.6457248,1.3359419],[103.6460256,1.3356605],[103.6458262,1.3354475],[103.6456629,1.3356003],[103.6455254,1.3357289],[103.645606,1.335815]]]}},{"type":"Feature","id":"way/117676299-0","properties":{"addr:city":"Singapore","addr:country":"SG","addr:housenumber":"97","addr:street":"Tuas Avenue 1","building":"industrial","clearanceGeometry":{"type":"Polygon","coordinates":[[[103.6450519,1.336312],[103.6449913,1.3362473],[103.6450805,1.3361638],[103.64479986558891,1.3358640721066413],[103.64473634916894,1.3359238701220975],[103.6447722,1.3359622],[103.6447293,1.3360024],[103.6446964,1.3359672],[103.6444995394978,1.3361513835309906],[103.64449905574938,1.3361524182151143],[103.64449871599219,1.336157650476028],[103.64450221776235,1.3361652103723882],[103.64489694448828,1.3365732337694345],[103.64489907239461,1.3365738901385498],[103.64490494991153,1.336573232365896],[103.6451136,1.336378],[103.6450519,1.336312]]]},"clearanceHeight":1.7,"clearancePrepared":true},"geometry":{"type":"Polygon","coordinates":[[[103.6451136,1.336378],[103.6450519,1.336312],[103.6449913,1.3362473],[103.6450805,1.3361638],[103.6447983,1.3358624],[103.6447346,1.335922],[103.6447722,1.3359622],[103.6447293,1.3360024],[103.6446964,1.3359672],[103.6444821,1.3361677],[103.6448819,1.3365948],[103.6451136,1.336378]]]}},{"type":"Feature","id":"way/117685909-0","properties":{"addr:city":"Singapore","addr:country":"SG","addr:housenumber":"91","addr:street":"Tuas Avenue 1","building":"yes","clearanceGeometry":{"type":"MultiPolygon","coordinates":[[[[103.6473874,1.3334933],[103.6473346,1.3335432],[103.6472858,1.3334915],[103.64725786071367,1.3334622786337018],[103.64730328560633,1.333418868554821],[103.6468904144082,1.3329794485476751],[103.64656551231171,1.3332863435553859],[103.64665777418291,1.3333811039316767],[103.64665354281424,1.3333852216650683],[103.64665380758912,1.3333855021174124],[103.64665808744492,1.3333814292935375],[103.64672364918526,1.3334502891092346],[103.64689421081543,1.3336284490300812],[103.64688939912953,1.3336330531907687],[103.64688940025782,1.3336330543847366],[103.64689421217543,1.333628450450722],[103.64698496361238,1.3337232539737438],[103.64704485179888,1.3336659871556829],[103.64705216306172,1.33367362924979],[103.6470523,1.3336735],[103.6470728,1.3336952],[103.64710074820113,1.333724412844317],[103.64710054516925,1.333724606989283],[103.6471112,1.3337359],[103.6470512695327,1.3337925172382086],[103.64746032191825,1.334219799412643],[103.64777897303301,1.3339076220225627],[103.6473874,1.3334933]]],[[[103.6460313,1.3337303],[103.6461272,1.3338318],[103.6463834,1.3340866],[103.64665816919867,1.333826877686023],[103.64665726291481,1.3338099603871292],[103.64667919424255,1.3337794472354825],[103.64671312096226,1.3337467128286038],[103.64672538413664,1.3337594162929758],[103.6467254,1.3337594],[103.6467412,1.3337758],[103.64676792925394,1.3338034889257342],[103.6468165,1.3337576],[103.6467896,1.3337291],[103.64676153099097,1.3337000031556836],[103.64680793744417,1.3336552584720294],[103.64666518918457,1.3335061509699189],[103.64666925323334,1.333502262201205],[103.64666918762951,1.3335021927579587],[103.64666511255508,1.3335060707064625],[103.64659966827713,1.3334373342620987],[103.64647630584679,1.3333106311054432],[103.64616066742232,1.333610789874168],[103.64615930948906,1.3336093626271976],[103.6460313,1.3337303]]]]},"clearanceHeight":1.7,"clearancePrepared":true},"geometry":{"type":"Polygon","coordinates":[[[103.6474633,1.3342317],[103.6477919,1.3339213],[103.6473874,1.3334933],[103.6473346,1.3335432],[103.6472858,1.3334915],[103.6472622,1.3334665],[103.6473168,1.3334149],[103.6468983,1.332972],[103.6465627,1.333289],[103.6466539,1.3333856],[103.6466288,1.3334093],[103.6466003,1.3334363],[103.6464623,1.3332903],[103.6463208,1.333424],[103.6463372,1.3334413],[103.6460313,1.3337303],[103.6461272,1.3338318],[103.6463834,1.3340866],[103.6466774,1.3338087],[103.6467254,1.3337594],[103.6467412,1.3337758],[103.6467676,1.3338038],[103.6468165,1.3337576],[103.6467896,1.3337291],[103.6467766,1.3337154],[103.6468263,1.3336685],[103.6466691,1.3335021],[103.6466944,1.3334782],[103.6467201,1.3334539],[103.6469864,1.3337357],[103.6470523,1.3336735],[103.6470728,1.3336952],[103.6471112,1.3337359],[103.6470497,1.333794],[103.6474633,1.3342317]]]}},{"type":"Feature","id":"way/117685911-0","properties":{"addr:city":"Singapore","addr:country":"SG","addr:housenumber":"11","addr:street":"Tuas Avenue 12","building":"yes","clearanceGeometry":{"type":"Polygon","coordinates":[[[103.6449442,1.3331734],[103.6446626,1.3334411],[103.6448573,1.3336459],[103.645139,1.3333781],[103.6449442,1.3331734]]]},"clearanceHeight":1.7,"clearancePrepared":true},"geometry":{"type":"Polygon","coordinates":[[[103.645139,1.3333781],[103.6449442,1.3331734],[103.6446626,1.3334411],[103.6448573,1.3336459],[103.645139,1.3333781]]]}},{"type":"Feature","id":"way/117685913-0","properties":{"addr:city":"Singapore","addr:country":"SG","addr:housenumber":"13","addr:street":"Tuas Avenue 12","building":"yes","clearanceGeometry":{"type":"Polygon","coordinates":[[[103.645199,1.3339237],[103.6456812,1.3334637],[103.6454976,1.3332714],[103.6450174,1.3337294],[103.6450269,1.3337394],[103.6449844,1.3337799],[103.6451534,1.333957],[103.6451939,1.3339184],[103.645199,1.3339237]]]},"clearanceHeight":1.7,"clearancePrepared":true},"geometry":{"type":"Polygon","coordinates":[[[103.6451939,1.3339184],[103.645199,1.3339237],[103.6456812,1.3334637],[103.6454976,1.3332714],[103.6450174,1.3337294],[103.6450269,1.3337394],[103.6449844,1.3337799],[103.6451534,1.333957],[103.6451939,1.3339184]]]}},{"type":"Feature","id":"way/117685917-0","properties":{"addr:city":"Singapore","addr:country":"SG","addr:housenumber":"19","addr:street":"Tuas Avenue 12","building":"yes","clearanceGeometry":{"type":"Polygon","coordinates":[[[103.64641344383783,1.3347163482567714],[103.64664159577009,1.3345103028399623],[103.64664285172228,1.3345116928443599],[103.6466444,1.3345103],[103.6463991,1.3342379],[103.6461623,1.3344509],[103.6462011,1.334494],[103.6459107,1.3347552],[103.6460751,1.3349378],[103.6463722,1.3346705],[103.64641344383783,1.3347163482567714]]]},"clearanceHeight":1.7,"clearancePrepared":true},"geometry":{"type":"Polygon","coordinates":[[[103.6463722,1.3346705],[103.6464143,1.3347173],[103.6466444,1.3345103],[103.6463991,1.3342379],[103.6461623,1.3344509],[103.6462011,1.334494],[103.6459107,1.3347552],[103.6460751,1.3349378],[103.6463722,1.3346705]]]}},{"type":"Feature","id":"way/117685920-0","properties":{"addr:city":"Singapore","addr:country":"SG","addr:housenumber":"15","addr:street":"Tuas Avenue 12","building":"yes","clearanceGeometry":{"type":"Polygon","coordinates":[[[103.6456485,1.3342337],[103.6459221,1.3339707],[103.6458211,1.3338658],[103.6459413,1.3337501],[103.6457405,1.3335413],[103.6451959,1.3340649],[103.6452584,1.3341298],[103.6452782,1.3341108],[103.64535488135743,1.3341905065224688],[103.6453618111014,1.3341833437995758],[103.64546397778344,1.3342821377163152],[103.645584,1.3341667],[103.6456485,1.3342337]]]},"clearanceHeight":1.7,"clearancePrepared":true},"geometry":{"type":"Polygon","coordinates":[[[103.645584,1.3341667],[103.6456485,1.3342337],[103.6459221,1.3339707],[103.6458211,1.3338658],[103.6459413,1.3337501],[103.6457405,1.3335413],[103.6451959,1.3340649],[103.6452584,1.3341298],[103.6452782,1.3341108],[103.6454531,1.3342926],[103.645584,1.3341667]]]}},{"type":"Feature","id":"way/117685925-0","properties":{"addr:city":"Singapore","addr:country":"SG","addr:housenumber":"17","addr:street":"Tuas Avenue 12","building":"yes","clearanceGeometry":{"type":"Polygon","coordinates":[[[103.6458626,1.3341758],[103.64584423772816,1.3341934452623463],[103.6458531597751,1.334202891866822],[103.64560056636617,1.334441339305191],[103.6457698,1.3346173],[103.6460386,1.3343588],[103.6458626,1.3341758]]]},"clearanceHeight":1.7,"clearancePrepared":true},"geometry":{"type":"Polygon","coordinates":[[[103.6460386,1.3343588],[103.6458626,1.3341758],[103.6455937,1.3344342],[103.6457698,1.3346173],[103.6460386,1.3343588]]]}},{"type":"Feature","id":"way/117685928-0","properties":{"addr:city":"Singapore","addr:country":"SG","addr:housenumber":"21","addr:street":"Tuas Avenue 12","building":"yes","clearanceGeometry":{"type":"Polygon","coordinates":[[[103.6468408,1.3349424],[103.6467027,1.3347972],[103.6467997,1.334705],[103.6467161,1.3346171],[103.64663585535249,1.3346933823531568],[103.646645663266,1.3347036938260854],[103.64625285448942,1.3350771322315258],[103.64635129583462,1.3351828568266173],[103.64633523553259,1.3351978032435425],[103.6464477,1.335316],[103.6468408,1.3349424]]]},"clearanceHeight":1.7,"clearancePrepared":true},"geometry":{"type":"Polygon","coordinates":[[[103.6464477,1.335316],[103.6468408,1.3349424],[103.6467027,1.3347972],[103.6467997,1.334705],[103.6467161,1.3346171],[103.646226,1.335083],[103.6464477,1.335316]]]}},{"type":"Feature","id":"way/117685930-0","properties":{"addr:city":"Singapore","addr:country":"SG","addr:housenumber":"93","addr:street":"Tuas Avenue 1","building":"yes","clearanceGeometry":{"type":"Polygon","coordinates":[[[103.6472979,1.3343312],[103.6473783,1.3342553],[103.6471691,1.3340338],[103.6470883,1.3341101],[103.6469052,1.3339162],[103.646691,1.3341184],[103.64668718533541,1.3341143680443832],[103.64668708423144,1.334114462996712],[103.6466594,1.334085],[103.6466161,1.3340392],[103.6466964,1.3339635],[103.6466103,1.3338724],[103.6463834,1.3340866],[103.6464723,1.3341807],[103.6465671,1.3340913],[103.64657955273618,1.3341044961831265],[103.6465796199417,1.3341044330846163],[103.6466073,1.3341339],[103.6466361,1.3341644],[103.64658863891904,1.3342091385073263],[103.64698350405574,1.3346547824957156],[103.6473114,1.3343454],[103.6472979,1.3343312]]]},"clearanceHeight":1.7,"clearancePrepared":true},"geometry":{"type":"Polygon","coordinates":[[[103.6473114,1.3343454],[103.6472979,1.3343312],[103.6473783,1.3342553],[103.6471691,1.3340338],[103.6470883,1.3341101],[103.6469052,1.3339162],[103.646691,1.3341184],[103.6466594,1.334085],[103.6466161,1.3340392],[103.6466964,1.3339635],[103.6466103,1.3338724],[103.6463834,1.3340866],[103.6464723,1.3341807],[103.6465671,1.3340913],[103.6466073,1.3341339],[103.6466361,1.3341644],[103.6465716,1.3342252],[103.6469802,1.3346579],[103.6473114,1.3343454]]]}},{"type":"Feature","id":"way/117692944-0","properties":{"addr:housenumber":"459","building":"yes","name":"Tiger Brewery","clearanceGeometry":{"type":"Polygon","coordinates":[[[103.6481325,1.336023],[103.6479375,1.3358183],[103.6478162,1.3359338],[103.6472571,1.3353468],[103.6460002,1.3365433],[103.6467542,1.337335],[103.6481325,1.336023]]]},"clearanceHeight":1.7,"clearancePrepared":true},"geometry":{"type":"Polygon","coordinates":[[[103.6467542,1.337335],[103.6481325,1.336023],[103.6479375,1.3358183],[103.6478162,1.3359338],[103.6472571,1.3353468],[103.6460002,1.3365433],[103.6467542,1.337335]]]}},{"type":"Feature","id":"way/117692956-0","properties":{"building":"yes","industrial":"brewery","name":"Archipelago Brewery","clearanceGeometry":{"type":"Polygon","coordinates":[[[103.647378,1.3374941],[103.6472008,1.3376664],[103.6473065,1.337775],[103.6474837,1.3376027],[103.647378,1.3374941]]]},"clearanceHeight":1.7,"clearancePrepared":true},"geometry":{"type":"Polygon","coordinates":[[[103.6474837,1.3376027],[103.647378,1.3374941],[103.6472008,1.3376664],[103.6473065,1.337775],[103.6474837,1.3376027]]]}},{"type":"Feature","id":"way/188190505-0","properties":{"addr:city":"Singapore","addr:country":"SG","addr:housenumber":"26","addr:street":"Tuas Avenue 12","building":"yes","clearanceGeometry":{"type":"Polygon","coordinates":[[[103.6446075,1.3341412],[103.6441431,1.3345779],[103.6443191,1.3347649],[103.6442967,1.3347861],[103.6444056,1.3349019],[103.6446034,1.3347159],[103.644539,1.3346475],[103.644828,1.3343757],[103.6448204,1.3343677],[103.6449225,1.3342717],[103.6446808,1.3340149],[103.6445789,1.3341108],[103.6446075,1.3341412]]]},"clearanceHeight":1.7,"clearancePrepared":true},"geometry":{"type":"Polygon","coordinates":[[[103.6445789,1.3341108],[103.6446075,1.3341412],[103.6441431,1.3345779],[103.6443191,1.3347649],[103.6442967,1.3347861],[103.6444056,1.3349019],[103.6446034,1.3347159],[103.644539,1.3346475],[103.644828,1.3343757],[103.6448204,1.3343677],[103.6449225,1.3342717],[103.6446808,1.3340149],[103.6445789,1.3341108]]]}},{"type":"Feature","id":"way/188190802-0","properties":{"building":"yes","clearanceGeometry":{"type":"Polygon","coordinates":[[[103.6466083,1.337957],[103.6467249,1.3378485],[103.6467972,1.3377812],[103.6466871,1.3376629],[103.6464981,1.3378387],[103.6466083,1.337957]]]},"clearanceHeight":1.7,"clearancePrepared":true},"geometry":{"type":"Polygon","coordinates":[[[103.6464981,1.3378387],[103.6466083,1.337957],[103.6467249,1.3378485],[103.6467972,1.3377812],[103.6466871,1.3376629],[103.6464981,1.3378387]]]}},{"type":"Feature","id":"way/188190804-0","properties":{"building":"yes","clearanceGeometry":{"type":"Polygon","coordinates":[[[103.6459117,1.3372422],[103.6457683,1.33709],[103.6455406,1.3373042],[103.645684,1.3374565],[103.6459117,1.3372422]]]},"clearanceHeight":1.7,"clearancePrepared":true},"geometry":{"type":"Polygon","coordinates":[[[103.645684,1.3374565],[103.6459117,1.3372422],[103.6457683,1.33709],[103.6455406,1.3373042],[103.645684,1.3374565]]]}},{"type":"Feature","id":"way/188190806-0","properties":{"building":"yes","clearanceGeometry":{"type":"Polygon","coordinates":[[[103.6463963,1.3376857],[103.646606,1.3374861],[103.6461348,1.3369915],[103.6459252,1.3371911],[103.6463963,1.3376857]]]},"clearanceHeight":1.7,"clearancePrepared":true},"geometry":{"type":"Polygon","coordinates":[[[103.6459252,1.3371911],[103.6463963,1.3376857],[103.646606,1.3374861],[103.6461348,1.3369915],[103.6459252,1.3371911]]]}},{"type":"Feature","id":"way/188190807-0","properties":{"building":"yes","clearanceGeometry":{"type":"Polygon","coordinates":[[[103.6461081,1.3375436],[103.6459186,1.3377195],[103.6460627,1.3378746],[103.6462521,1.3376986],[103.6461081,1.3375436]]]},"clearanceHeight":1.7,"clearancePrepared":true},"geometry":{"type":"Polygon","coordinates":[[[103.6462521,1.3376986],[103.6461081,1.3375436],[103.6459186,1.3377195],[103.6460627,1.3378746],[103.6462521,1.3376986]]]}},{"type":"Feature","id":"way/252391399-0","properties":{"addr:city":"Singapore","addr:country":"SG","addr:housenumber":"32","addr:street":"Tuas Avenue 12","building":"yes","clearanceGeometry":{"type":"Polygon","coordinates":[[[103.6452249,1.3354058],[103.6453945,1.3355871],[103.6454127,1.3356065],[103.6457149,1.335324],[103.645463,1.3350547],[103.6451608,1.3353372],[103.6452249,1.3354058]]]},"clearanceHeight":1.7,"clearancePrepared":true},"geometry":{"type":"Polygon","coordinates":[[[103.6451608,1.3353372],[103.6452249,1.3354058],[103.6453945,1.3355871],[103.6454127,1.3356065],[103.6457149,1.335324],[103.645463,1.3350547],[103.6451608,1.3353372]]]}},{"type":"Feature","id":"way/503506489-0","properties":{"building":"yes","clearanceGeometry":{"type":"Polygon","coordinates":[[[103.6449504,1.3352481],[103.6450058,1.3351971],[103.6448678,1.3350473],[103.6447138,1.3351891],[103.6449951,1.3354945],[103.6450938,1.3354037],[103.6449504,1.3352481]]]},"clearanceHeight":1.7,"clearancePrepared":true},"geometry":{"type":"Polygon","coordinates":[[[103.6450938,1.3354037],[103.6449504,1.3352481],[103.6450058,1.3351971],[103.6448678,1.3350473],[103.6447138,1.3351891],[103.6449951,1.3354945],[103.6450938,1.3354037]]]}},{"type":"Feature","id":"way/503506490-0","properties":{"building":"yes","clearanceGeometry":{"type":"Polygon","coordinates":[[[103.6451095,1.3355136],[103.64511773274577,1.3355224003540465],[103.64512057737835,1.3355197301521777],[103.64528238406348,1.3356920202909877],[103.6453945,1.3355871],[103.6452249,1.3354058],[103.6451095,1.3355136]]]},"clearanceHeight":1.7,"clearancePrepared":true},"geometry":{"type":"Polygon","coordinates":[[[103.6452249,1.3354058],[103.6451095,1.3355136],[103.6452792,1.335695],[103.6453945,1.3355871],[103.6452249,1.3354058]]]}},{"type":"Feature","id":"way/503506492-0","properties":{"building":"yes","clearanceGeometry":{"type":"Polygon","coordinates":[[[103.6474861,1.3349794],[103.6473439,1.3348329],[103.64713941325432,1.3350313100169133],[103.64727433931054,1.335184767913929],[103.6474861,1.3349794]]]},"clearanceHeight":1.7,"clearancePrepared":true},"geometry":{"type":"Polygon","coordinates":[[[103.6472741,1.335185],[103.6474861,1.3349794],[103.6473439,1.3348329],[103.6471319,1.3350386],[103.6472741,1.335185]]]}},{"type":"Feature","id":"way/503506494-0","properties":{"building":"yes","clearanceGeometry":{"type":"Polygon","coordinates":[[[103.6477509,1.3349025],[103.6478097,1.3348468],[103.6475867,1.3346115],[103.6474026,1.3347859],[103.6475645,1.3349566],[103.6476897,1.334838],[103.6477509,1.3349025]]]},"clearanceHeight":1.7,"clearancePrepared":true},"geometry":{"type":"Polygon","coordinates":[[[103.6476897,1.334838],[103.6477509,1.3349025],[103.6478097,1.3348468],[103.6475867,1.3346115],[103.6474026,1.3347859],[103.6475645,1.3349566],[103.6476897,1.334838]]]}},{"type":"Feature","id":"way/758091871-0","properties":{"building":"yes","clearanceGeometry":{"type":"Polygon","coordinates":[[[103.64541373312296,1.3343460303265955],[103.64536122705837,1.3342952576121452],[103.6453327,1.3343219],[103.6453825,1.3343752],[103.64541373312296,1.3343460303265955]]]},"clearanceHeight":1.7,"clearancePrepared":true},"geometry":{"type":"Polygon","coordinates":[[[103.6453825,1.3343752],[103.6454158,1.3343441],[103.645366,1.3342908],[103.6453327,1.3343219],[103.6453825,1.3343752]]]}},{"type":"Feature","id":"way/758091872-0","properties":{"building":"yes","clearanceGeometry":{"type":"Polygon","coordinates":[[[103.6456901,1.3347041],[103.64571198750834,1.3346835890645117],[103.64566096995246,1.3346299478745975],[103.6456395,1.33465],[103.6456901,1.3347041]]]},"clearanceHeight":1.7,"clearancePrepared":true},"geometry":{"type":"Polygon","coordinates":[[[103.6456395,1.33465],[103.6456901,1.3347041],[103.6457219,1.3346743],[103.6456713,1.3346203],[103.6456395,1.33465]]]}},{"type":"Feature","id":"way/758091873-0","properties":{"building":"yes","clearanceGeometry":{"type":"Polygon","coordinates":[[[103.646189,1.3352028],[103.6462612,1.33528],[103.6462993,1.3352444],[103.64629271799755,1.3352373719144117],[103.64629210416538,1.3352379431733827],[103.64622659109773,1.335167583076858],[103.646189,1.3352028]]]},"clearanceHeight":1.7,"clearancePrepared":true},"geometry":{"type":"Polygon","coordinates":[[[103.646227,1.3351672],[103.646189,1.3352028],[103.6462612,1.33528],[103.6462993,1.3352444],[103.646227,1.3351672]]]}},{"type":"Feature","id":"way/758091874-0","properties":{"building":"yes","clearanceGeometry":{"type":"Polygon","coordinates":[[[103.6461745852894,1.3351515649109287],[103.64613259935032,1.335191500122897],[103.6461608,1.3352216],[103.6462031,1.335182],[103.6461745852894,1.3351515649109287]]]},"clearanceHeight":1.7,"clearancePrepared":true},"geometry":{"type":"Polygon","coordinates":[[[103.6462031,1.335182],[103.6461541,1.3351297],[103.6461118,1.3351693],[103.6461608,1.3352216],[103.6462031,1.335182]]]}},{"type":"Feature","id":"way/758091875-0","properties":{"building":"yes","clearanceGeometry":{"type":"Polygon","coordinates":[[[103.6459865,1.3349514],[103.6459514,1.3349842],[103.6459992,1.3350352],[103.6460342,1.3350025],[103.6459865,1.3349514]]]},"clearanceHeight":1.7,"clearancePrepared":true},"geometry":{"type":"Polygon","coordinates":[[[103.6460342,1.3350025],[103.6459865,1.3349514],[103.6459514,1.3349842],[103.6459992,1.3350352],[103.6460342,1.3350025]]]}},{"type":"Feature","id":"way/758091876-0","properties":{"building":"yes","clearanceGeometry":{"type":"Polygon","coordinates":[[[103.6452909,1.3359114],[103.64526214335415,1.3359389662444205],[103.6453008,1.3359802],[103.6453304,1.3359525],[103.64535958583586,1.335924522961005],[103.64535992798895,1.3359248797181964],[103.645366,1.3359192],[103.6454261,1.3359834],[103.645606,1.335815],[103.6455254,1.3357289],[103.6456629,1.3356003],[103.6456444,1.3355806],[103.6452909,1.3359114]]]},"clearanceHeight":1.7,"clearancePrepared":true},"geometry":{"type":"Polygon","coordinates":[[[103.6456444,1.3355806],[103.6452909,1.3359114],[103.6452618,1.3359386],[103.6453008,1.3359802],[103.6453304,1.3359525],[103.645366,1.3359192],[103.6454261,1.3359834],[103.645606,1.335815],[103.6455254,1.3357289],[103.6456629,1.3356003],[103.6456444,1.3355806]]]}},{"type":"Feature","id":"way/758091877-0","properties":{"building":"yes","clearanceGeometry":{"type":"Polygon","coordinates":[[[103.6459979,1.3353929],[103.6459492,1.3353409],[103.6459194,1.3353687],[103.6459681,1.3354207],[103.6459979,1.3353929]]]},"clearanceHeight":1.7,"clearancePrepared":true},"geometry":{"type":"Polygon","coordinates":[[[103.6459681,1.3354207],[103.6459979,1.3353929],[103.6459492,1.3353409],[103.6459194,1.3353687],[103.6459681,1.3354207]]]}},{"type":"Feature","id":"way/758091878-0","properties":{"building":"yes","clearanceGeometry":{"type":"Polygon","coordinates":[[[103.6459355,1.3353898],[103.6459027,1.3354205],[103.645965,1.335487],[103.6459978,1.3354564],[103.6459355,1.3353898]]]},"clearanceHeight":1.7,"clearancePrepared":true},"geometry":{"type":"Polygon","coordinates":[[[103.6459978,1.3354564],[103.6459355,1.3353898],[103.6459027,1.3354205],[103.645965,1.335487],[103.6459978,1.3354564]]]}},{"type":"Feature","id":"way/758091879-0","properties":{"building":"yes","clearanceGeometry":{"type":"Polygon","coordinates":[[[103.6457746,1.3351492],[103.6457395,1.335182],[103.6457873,1.335233],[103.6458223,1.3352002],[103.6457746,1.3351492]]]},"clearanceHeight":1.7,"clearancePrepared":true},"geometry":{"type":"Polygon","coordinates":[[[103.6458223,1.3352002],[103.6457746,1.3351492],[103.6457395,1.335182],[103.6457873,1.335233],[103.6458223,1.3352002]]]}},{"type":"Feature","id":"way/758091881-0","properties":{"building":"yes","clearanceGeometry":{"type":"Polygon","coordinates":[[[103.6445837,1.3338902],[103.6445532,1.3339187],[103.6446024,1.3339713],[103.6446329,1.3339428],[103.6445837,1.3338902]]]},"clearanceHeight":1.7,"clearancePrepared":true},"geometry":{"type":"Polygon","coordinates":[[[103.6446329,1.3339428],[103.6445837,1.3338902],[103.6445532,1.3339187],[103.6446024,1.3339713],[103.6446329,1.3339428]]]}},{"type":"Feature","id":"way/758091883-0","properties":{"building":"yes","clearanceGeometry":{"type":"Polygon","coordinates":[[[103.6443758,1.3349461],[103.6443281,1.3349907],[103.6444375,1.3351076],[103.6444852,1.335063],[103.6443758,1.3349461]]]},"clearanceHeight":1.7,"clearancePrepared":true},"geometry":{"type":"Polygon","coordinates":[[[103.6444852,1.335063],[103.6443758,1.3349461],[103.6443281,1.3349907],[103.6444375,1.3351076],[103.6444852,1.335063]]]}},{"type":"Feature","id":"way/758091885-0","properties":{"building":"yes","clearanceGeometry":{"type":"Polygon","coordinates":[[[103.6451825,1.3345197],[103.6451495,1.3345506],[103.6451959,1.3346001],[103.6452289,1.3345693],[103.6451825,1.3345197]]]},"clearanceHeight":1.7,"clearancePrepared":true},"geometry":{"type":"Polygon","coordinates":[[[103.6452289,1.3345693],[103.6451825,1.3345197],[103.6451495,1.3345506],[103.6451959,1.3346001],[103.6452289,1.3345693]]]}},{"type":"Feature","id":"way/758091886-0","properties":{"building":"yes","clearanceGeometry":{"type":"Polygon","coordinates":[[[103.6454768,1.3348354],[103.6454453,1.334865],[103.6454929,1.3349159],[103.6455245,1.3348864],[103.6454768,1.3348354]]]},"clearanceHeight":1.7,"clearancePrepared":true},"geometry":{"type":"Polygon","coordinates":[[[103.6455245,1.3348864],[103.6454768,1.3348354],[103.6454453,1.334865],[103.6454929,1.3349159],[103.6455245,1.3348864]]]}},{"type":"Feature","id":"way/758091887-0","properties":{"building":"yes","clearanceGeometry":{"type":"Polygon","coordinates":[[[103.6451724,1.334582],[103.6450014,1.3343994],[103.6449652,1.3344332],[103.6451362,1.3346159],[103.6451724,1.334582]]]},"clearanceHeight":1.7,"clearancePrepared":true},"geometry":{"type":"Polygon","coordinates":[[[103.6451362,1.3346159],[103.6451724,1.334582],[103.6450014,1.3343994],[103.6449652,1.3344332],[103.6451362,1.3346159]]]}},{"type":"Feature","id":"way/758091890-0","properties":{"building":"yes","clearanceGeometry":{"type":"Polygon","coordinates":[[[103.6463003,1.3341302],[103.6460792,1.3339004],[103.6458443,1.3341262],[103.6460654,1.334356],[103.6463003,1.3341302]]]},"clearanceHeight":1.7,"clearancePrepared":true},"geometry":{"type":"Polygon","coordinates":[[[103.6460654,1.334356],[103.6463003,1.3341302],[103.6460792,1.3339004],[103.6458443,1.3341262],[103.6460654,1.334356]]]}},{"type":"Feature","id":"way/965287615-0","properties":{"building":"yes","clearanceGeometry":{"type":"Polygon","coordinates":[[[103.6478597,1.3347041],[103.6478135,1.3347478],[103.6478875,1.3348257],[103.6479336,1.334782],[103.6478597,1.3347041]]]},"clearanceHeight":1.7,"clearancePrepared":true},"geometry":{"type":"Polygon","coordinates":[[[103.6479336,1.334782],[103.6478597,1.3347041],[103.6478135,1.3347478],[103.6478875,1.3348257],[103.6479336,1.334782]]]}},{"type":"Feature","id":"way/965287616-0","properties":{"building":"yes","clearanceGeometry":{"type":"Polygon","coordinates":[[[103.6477561,1.335298],[103.6476,1.3354446],[103.6477111,1.3355628],[103.6478672,1.3354162],[103.6477561,1.335298]]]},"clearanceHeight":1.7,"clearancePrepared":true},"geometry":{"type":"Polygon","coordinates":[[[103.6478672,1.3354162],[103.6477561,1.335298],[103.6476,1.3354446],[103.6477111,1.3355628],[103.6478672,1.3354162]]]}},{"type":"Feature","id":"way/965287618-0","properties":{"building":"yes","clearanceGeometry":{"type":"Polygon","coordinates":[[[103.6483609,1.3365563],[103.6483207,1.336595],[103.6483455,1.3366206],[103.6483856,1.336582],[103.6483609,1.3365563]]]},"clearanceHeight":1.7,"clearancePrepared":true},"geometry":{"type":"Polygon","coordinates":[[[103.6483856,1.336582],[103.6483609,1.3365563],[103.6483207,1.336595],[103.6483455,1.3366206],[103.6483856,1.336582]]]}},{"type":"Feature","id":"way/965287619-0","properties":{"building":"yes","clearanceGeometry":{"type":"Polygon","coordinates":[[[103.6482449,1.3366535],[103.6481863,1.3367099],[103.6482295,1.3367547],[103.6482881,1.3366983],[103.6482449,1.3366535]]]},"clearanceHeight":1.7,"clearancePrepared":true},"geometry":{"type":"Polygon","coordinates":[[[103.6482881,1.3366983],[103.6482449,1.3366535],[103.6481863,1.3367099],[103.6482295,1.3367547],[103.6482881,1.3366983]]]}},{"type":"Feature","id":"way/965287620-0","properties":{"building":"yes","clearanceGeometry":{"type":"Polygon","coordinates":[[[103.6475256,1.3372255],[103.6475578,1.3371945],[103.6473148,1.3369424],[103.6472826,1.3369734],[103.6475256,1.3372255]]]},"clearanceHeight":1.7,"clearancePrepared":true},"geometry":{"type":"Polygon","coordinates":[[[103.6472826,1.3369734],[103.6475256,1.3372255],[103.6475578,1.3371945],[103.6473148,1.3369424],[103.6472826,1.3369734]]]}},{"type":"Feature","id":"way/965287621-0","properties":{"building":"yes","clearanceGeometry":{"type":"Polygon","coordinates":[[[103.6477315,1.3370271],[103.6477869,1.3369738],[103.6475951,1.3367748],[103.6475398,1.3368282],[103.6477315,1.3370271]]]},"clearanceHeight":1.7,"clearancePrepared":true},"geometry":{"type":"Polygon","coordinates":[[[103.6475398,1.3368282],[103.6477315,1.3370271],[103.6477869,1.3369738],[103.6475951,1.3367748],[103.6475398,1.3368282]]]}},{"type":"Feature","id":"way/965287622-0","properties":{"building":"yes","clearanceGeometry":{"type":"Polygon","coordinates":[[[103.647803,1.3365704],[103.6477514,1.3366201],[103.6479453,1.3368212],[103.6479969,1.3367715],[103.647803,1.3365704]]]},"clearanceHeight":1.7,"clearancePrepared":true},"geometry":{"type":"Polygon","coordinates":[[[103.6479969,1.3367715],[103.647803,1.3365704],[103.6477514,1.3366201],[103.6479453,1.3368212],[103.6479969,1.3367715]]]}},{"type":"Feature","id":"way/965287623-0","properties":{"building":"yes","clearanceGeometry":{"type":"Polygon","coordinates":[[[103.6481368,1.3367384],[103.648086,1.3366857],[103.6479969,1.3367715],[103.6479453,1.3368212],[103.6477869,1.3369738],[103.6477315,1.3370271],[103.6475578,1.3371945],[103.6475256,1.3372255],[103.6474018,1.3373448],[103.6474448,1.3373894],[103.6474526,1.3373975],[103.6480282,1.336843],[103.6481368,1.3367384]]]},"clearanceHeight":1.7,"clearancePrepared":true},"geometry":{"type":"Polygon","coordinates":[[[103.6480282,1.336843],[103.6481368,1.3367384],[103.648086,1.3366857],[103.6479969,1.3367715],[103.6479453,1.3368212],[103.6477869,1.3369738],[103.6477315,1.3370271],[103.6475578,1.3371945],[103.6475256,1.3372255],[103.6474018,1.3373448],[103.6474448,1.3373894],[103.6474526,1.3373975],[103.6480282,1.336843]]]}},{"type":"Feature","id":"way/965287624-0","properties":{"building":"yes","clearanceGeometry":{"type":"Polygon","coordinates":[[[103.6481408,1.3369599],[103.6480282,1.336843],[103.6474526,1.3373975],[103.6474448,1.3373894],[103.6473682,1.3374631],[103.6474887,1.3375881],[103.6481408,1.3369599]]]},"clearanceHeight":1.7,"clearancePrepared":true},"geometry":{"type":"Polygon","coordinates":[[[103.6474887,1.3375881],[103.6481408,1.3369599],[103.6480282,1.336843],[103.6474526,1.3373975],[103.6474448,1.3373894],[103.6473682,1.3374631],[103.6474887,1.3375881]]]}},{"type":"Feature","id":"way/965287625-0","properties":{"building":"yes","clearanceGeometry":{"type":"Polygon","coordinates":[[[103.6474448,1.3373894],[103.6474018,1.3373448],[103.6472641,1.3372019],[103.6469265,1.337527],[103.6471072,1.3377145],[103.6473682,1.3374631],[103.6474448,1.3373894]]]},"clearanceHeight":1.7,"clearancePrepared":true},"geometry":{"type":"Polygon","coordinates":[[[103.6473682,1.3374631],[103.6474448,1.3373894],[103.6474018,1.3373448],[103.6472641,1.3372019],[103.6469265,1.337527],[103.6471072,1.3377145],[103.6473682,1.3374631]]]}},{"type":"Feature","id":"way/1119200745-0","properties":{"building":"yes","layer":"1","clearanceGeometry":{"type":"Polygon","coordinates":[[[103.6455741,1.338263],[103.6447514,1.3373879],[103.6447271,1.3374103],[103.6455504,1.3382864],[103.6455741,1.338263]]]},"clearanceHeight":1.7,"clearancePrepared":true},"geometry":{"type":"Polygon","coordinates":[[[103.6455504,1.3382864],[103.6455741,1.338263],[103.6447514,1.3373879],[103.6447271,1.3374103],[103.6455504,1.3382864]]]}},{"type":"Feature","id":"way/1119242222-0","properties":{"building":"roof","layer":"1","clearanceGeometry":{"type":"Polygon","coordinates":[[[103.6445704,1.337193],[103.6445225,1.3372372],[103.6445047,1.3372536],[103.6445666,1.337323],[103.6446314,1.3372606],[103.6445704,1.337193]]]},"clearanceHeight":1.7,"clearancePrepared":true},"geometry":{"type":"Polygon","coordinates":[[[103.6446314,1.3372606],[103.6445704,1.337193],[103.6445225,1.3372372],[103.6445047,1.3372536],[103.6445666,1.337323],[103.6446314,1.3372606]]]}},{"type":"Feature","id":"way/1119242223-0","properties":{"building":"roof","layer":"1","clearanceGeometry":{"type":"Polygon","coordinates":[[[103.6445047,1.3372536],[103.6445225,1.3372372],[103.6444451,1.3371599],[103.6444759,1.3371306],[103.64425,1.3368879],[103.6442306,1.3369045],[103.6444453,1.3371342],[103.6444168,1.3371626],[103.6444983,1.3372469],[103.6445047,1.3372536]]]},"clearanceHeight":1.7,"clearancePrepared":true},"geometry":{"type":"Polygon","coordinates":[[[103.6444983,1.3372469],[103.6445047,1.3372536],[103.6445225,1.3372372],[103.6444451,1.3371599],[103.6444759,1.3371306],[103.64425,1.3368879],[103.6442306,1.3369045],[103.6444453,1.3371342],[103.6444168,1.3371626],[103.6444983,1.3372469]]]}},{"type":"Feature","id":"node/5270413544","properties":{"highway":"crossing"},"geometry":{"type":"Point","coordinates":[103.6470606,1.3348028]}},{"type":"Feature","id":"node/8382499362","properties":{"highway":"crossing"},"geometry":{"type":"Point","coordinates":[103.6486466,1.3335295]}},{"type":"Feature","id":"node/8382499363","properties":{"highway":"crossing"},"geometry":{"type":"Point","coordinates":[103.648452,1.3337051]}},{"type":"Feature","id":"node/8382499364","properties":{"highway":"crossing"},"geometry":{"type":"Point","coordinates":[103.6483763,1.3337822]}},{"type":"Feature","id":"node/8382499368","properties":{"highway":"crossing"},"geometry":{"type":"Point","coordinates":[103.64799,1.3339282]}},{"type":"Feature","id":"node/8382499841","properties":{"highway":"crossing"},"geometry":{"type":"Point","coordinates":[103.6455816,1.3362161]}},{"type":"Feature","id":"node/8382540245","properties":{"highway":"crossing"},"geometry":{"type":"Point","coordinates":[103.6470737,1.3350178]}},{"type":"Feature","id":"node/8382540257","properties":{"highway":"crossing"},"geometry":{"type":"Point","coordinates":[103.6475343,1.3343574]}},{"type":"Feature","id":"node/8382540258","properties":{"highway":"crossing"},"geometry":{"type":"Point","coordinates":[103.6463025,1.3355175]}},{"type":"Feature","id":"node/8382556188","properties":{"highway":"crossing"},"geometry":{"type":"Point","coordinates":[103.6444193,1.3336384]}},{"type":"Feature","id":"node/8382556189","properties":{"highway":"crossing"},"geometry":{"type":"Point","coordinates":[103.6447129,1.3339495]}},{"type":"Feature","id":"node/8382556190","properties":{"highway":"crossing"},"geometry":{"type":"Point","coordinates":[103.6450153,1.3342714]}},{"type":"Feature","id":"node/8382556191","properties":{"highway":"crossing"},"geometry":{"type":"Point","coordinates":[103.6453228,1.3345986]}},{"type":"Feature","id":"node/8382556192","properties":{"highway":"crossing"},"geometry":{"type":"Point","coordinates":[103.6456037,1.3348975]}},{"type":"Feature","id":"node/8382556193","properties":{"highway":"crossing"},"geometry":{"type":"Point","coordinates":[103.6459122,1.3352259]}},{"type":"Feature","id":"node/8382556198","properties":{"highway":"crossing"},"geometry":{"type":"Point","coordinates":[103.6447744,1.3337928]}},{"type":"Feature","id":"node/8382556199","properties":{"highway":"crossing"},"geometry":{"type":"Point","coordinates":[103.6450744,1.3341132]}},{"type":"Feature","id":"node/8382556200","properties":{"highway":"crossing"},"geometry":{"type":"Point","coordinates":[103.6457012,1.3347826]}},{"type":"Feature","id":"node/8382556201","properties":{"highway":"crossing"},"geometry":{"type":"Point","coordinates":[103.6460216,1.3351247]}},{"type":"Feature","id":"node/8382556202","properties":{"highway":"crossing"},"geometry":{"type":"Point","coordinates":[103.6460793,1.3351864]}},{"type":"Feature","id":"node/8382593661","properties":{"highway":"crossing"},"geometry":{"type":"Point","coordinates":[103.6453856,1.3344456]}},{"type":"Feature","id":"node/8403836771","properties":{"highway":"crossing"},"geometry":{"type":"Point","coordinates":[103.6487354,1.3366059]}},{"type":"Feature","id":"way/22907005-0-0-0","properties":{"highway":"primary","lanes":"3","maxspeed":"70","name":"Tuas West Road","name:en":"Tuas West Road","name:zh":"\u5927\u58eb\u897f\u8def","oneway":"yes","sidewalk":"left","surface":"asphalt","startNodeId":"246629850","endNodeId":"8402185299"},"geometry":{"type":"LineString","coordinates":[[103.6449093,1.3370052],[103.644855,1.3369474]]}},{"type":"Feature","id":"way/22907005-0-1-0","properties":{"highway":"primary","lanes":"3","maxspeed":"70","name":"Tuas West Road","name:en":"Tuas West Road","name:zh":"\u5927\u58eb\u897f\u8def","oneway":"yes","sidewalk":"left","surface":"asphalt","startNodeId":"8402185299","endNodeId":"4606173592"},"geometry":{"type":"LineString","coordinates":[[103.644855,1.3369474],[103.643821,1.3358469]]}},{"type":"Feature","id":"way/44776068-0-0-1","properties":{"highway":"motorway","lanes":"3","maxspeed":"80","name":"Ayer Rajah Expressway","name:ms":"Lebuhraya Ayer Rajah","name:ta":"\u0b86\u0baf\u0bb0\u0bcd \u0bb0\u0bbe\u0b9c\u0bbe \u0bb5\u0bbf\u0bb0\u0bb5\u0bc1\u0b9a\u0bcd\u0b9a\u0bbe\u0bb2\u0bc8","name:zh":"\u4e9a\u9038\u62c9\u60f9\u9ad8\u901f\u516c\u8def","oneway":"yes","ref":"AYE","surface":"asphalt","wikidata":"Q2657325","wikipedia":"en:Ayer Rajah Expressway","startNodeId":"way/44776068-0:0:1","endNodeId":"way/44776068-0:0:2"},"geometry":{"type":"LineString","coordinates":[[103.6480154,1.3378119],[103.6489916,1.3368701]]}},{"type":"Feature","id":"way/75423549-0-0-0","properties":{"highway":"unclassified","lanes":"2","lanes:backward":"1","lanes:forward":"1","maxspeed":"50","name":"Tuas Avenue 1","surface":"asphalt","turn:lanes:backward":"through;right","startNodeId":"310231423","endNodeId":"6315811037"},"geometry":{"type":"LineString","coordinates":[[103.6463765,1.3355944],[103.6459985,1.3359543]]}},{"type":"Feature","id":"way/75423559-0-0-0","properties":{"highway":"unclassified","lanes":"2","lanes:backward":"1","lanes:forward":"1","maxspeed":"50","name":"Tuas Avenue 12","surface":"asphalt","startNodeId":"4491953998","endNodeId":"8382593668"},"geometry":{"type":"LineString","coordinates":[[103.645379,1.3345459],[103.6455709,1.3347489]]}},{"type":"Feature","id":"way/75423559-0-1-0","properties":{"highway":"unclassified","lanes":"2","lanes:backward":"1","lanes:forward":"1","maxspeed":"50","name":"Tuas Avenue 12","surface":"asphalt","startNodeId":"8382593668","endNodeId":"8382593681"},"geometry":{"type":"LineString","coordinates":[[103.6455709,1.3347489],[103.6455799,1.3347583]]}},{"type":"Feature","id":"way/75423559-0-2-0","properties":{"highway":"unclassified","lanes":"2","lanes:backward":"1","lanes:forward":"1","maxspeed":"50","name":"Tuas Avenue 12","surface":"asphalt","startNodeId":"8382593681","endNodeId":"5270413527"},"geometry":{"type":"LineString","coordinates":[[103.6455799,1.3347583],[103.6456486,1.3348309]]}},{"type":"Feature","id":"way/452389364-0-0-0","properties":{"highway":"service","noname":"yes","surface":"asphalt","startNodeId":"4491946719","endNodeId":"8382556202"},"geometry":{"type":"LineString","coordinates":[[103.6460296,1.3352337],[103.6460793,1.3351864]]}},{"type":"Feature","id":"way/452389364-0-1-0","properties":{"highway":"service","noname":"yes","surface":"asphalt","startNodeId":"8382556202","endNodeId":"5270413525"},"geometry":{"type":"LineString","coordinates":[[103.6460793,1.3351864],[103.646196,1.3350754]]}},{"type":"Feature","id":"way/452389365-0-0-0","properties":{"highway":"service","noname":"yes","surface":"asphalt","startNodeId":"4491946721","endNodeId":"8382556201"},"geometry":{"type":"LineString","coordinates":[[103.6459703,1.335171],[103.6460216,1.3351247]]}},{"type":"Feature","id":"way/452389365-0-1-0","properties":{"highway":"service","noname":"yes","surface":"asphalt","startNodeId":"8382556201","endNodeId":"4491946720"},"geometry":{"type":"LineString","coordinates":[[103.6460216,1.3351247],[103.6466687,1.3345403]]}},{"type":"Feature","id":"way/452389369-0-0-0","properties":{"highway":"service","noname":"yes","surface":"asphalt","startNodeId":"5266894144","endNodeId":"5270413540"},"geometry":{"type":"LineString","coordinates":[[103.6466944,1.3334782],[103.646865,1.3336564]]}},{"type":"Feature","id":"way/452390153-0-0-0","properties":{"highway":"service","noname":"yes","surface":"asphalt","startNodeId":"4491953991","endNodeId":"5157507621"},"geometry":{"type":"LineString","coordinates":[[103.6453149,1.3357857],[103.6450911,1.3355474]]}},{"type":"Feature","id":"way/452390154-0-0-0","properties":{"highway":"service","noname":"yes","surface":"asphalt","startNodeId":"4491953994","endNodeId":"5270413523"},"geometry":{"type":"LineString","coordinates":[[103.6453653,1.3348787],[103.6454892,1.3350107]]}},{"type":"Feature","id":"way/452390156-0-0-0","properties":{"highway":"service","noname":"yes","surface":"asphalt","startNodeId":"4491953998","endNodeId":"8382556191"},"geometry":{"type":"LineString","coordinates":[[103.645379,1.3345459],[103.6453228,1.3345986]]}},{"type":"Feature","id":"way/452390156-0-1-0","properties":{"highway":"service","noname":"yes","surface":"asphalt","startNodeId":"8382556191","endNodeId":"4491953995"},"geometry":{"type":"LineString","coordinates":[[103.6453228,1.3345986],[103.6452052,1.3347087]]}},{"type":"Feature","id":"way/465664210-0-0-0","properties":{"highway":"service","noname":"yes","surface":"asphalt","startNodeId":"5215159722","endNodeId":"4605939835"},"geometry":{"type":"LineString","coordinates":[[103.6487101,1.3335973],[103.648862,1.3337594]]}},{"type":"Feature","id":"way/465664211-0-0-0","properties":{"highway":"service","noname":"yes","surface":"asphalt","startNodeId":"4605939838","endNodeId":"8382499364"},"geometry":{"type":"LineString","coordinates":[[103.6483363,1.3337379],[103.6483763,1.3337822]]}},{"type":"Feature","id":"way/465664211-0-1-0","properties":{"highway":"service","noname":"yes","surface":"asphalt","startNodeId":"8382499364","endNodeId":"5268985227"},"geometry":{"type":"LineString","coordinates":[[103.6483763,1.3337822],[103.6484988,1.3339176]]}},{"type":"Feature","id":"way/465664212-0-0-0","properties":{"highway":"service","noname":"yes","surface":"asphalt","startNodeId":"4605939840","endNodeId":"5270406302"},"geometry":{"type":"LineString","coordinates":[[103.6474594,1.3342773],[103.6479024,1.3338433]]}},{"type":"Feature","id":"way/465664244-0-0-0","properties":{"highway":"service","noname":"yes","surface":"asphalt","startNodeId":"4491946723","endNodeId":"5270604190"},"geometry":{"type":"LineString","coordinates":[[103.6453477,1.3332503],[103.6448599,1.3337119]]}},{"type":"Feature","id":"way/465664245-0-0-0","properties":{"highway":"service","noname":"yes","surface":"asphalt","startNodeId":"4491946721","endNodeId":"8382556193"},"geometry":{"type":"LineString","coordinates":[[103.6459703,1.335171],[103.6459122,1.3352259]]}},{"type":"Feature","id":"way/465664245-0-1-0","properties":{"highway":"service","noname":"yes","surface":"asphalt","startNodeId":"8382556193","endNodeId":"4491953993"},"geometry":{"type":"LineString","coordinates":[[103.6459122,1.3352259],[103.6457952,1.3353365]]}},{"type":"Feature","id":"way/479606437-0-0-0","properties":{"highway":"unclassified","lanes":"2","lanes:backward":"1","lanes:forward":"1","maxspeed":"50","name":"Tuas Avenue 1","surface":"asphalt","startNodeId":"4605939838","endNodeId":"8382540256"},"geometry":{"type":"LineString","coordinates":[[103.6483363,1.3337379],[103.6481338,1.3339285]]}},{"type":"Feature","id":"way/479606437-0-1-0","properties":{"highway":"unclassified","lanes":"2","lanes:backward":"1","lanes:forward":"1","maxspeed":"50","name":"Tuas Avenue 1","surface":"asphalt","startNodeId":"8382540256","endNodeId":"5270406303"},"geometry":{"type":"LineString","coordinates":[[103.6481338,1.3339285],[103.648061,1.3339971]]}},{"type":"Feature","id":"way/479606438-0-0-0","properties":{"highway":"unclassified","lanes":"2","lanes:backward":"1","lanes:forward":"1","maxspeed":"50","name":"Tuas Avenue 1","surface":"asphalt","turn:lanes:forward":"left;right","startNodeId":"4726785978","endNodeId":"246629850"},"geometry":{"type":"LineString","coordinates":[[103.6452254,1.3367085],[103.6449093,1.3370052]]}},{"type":"Feature","id":"way/544899428-0-0-0","properties":{"covered":"yes","highway":"service","noname":"yes","surface":"asphalt","startNodeId":"5266894145","endNodeId":"5266894144"},"geometry":{"type":"LineString","coordinates":[[103.6466288,1.3334093],[103.6466944,1.3334782]]}},{"type":"Feature","id":"way/545133496-0-0-0","properties":{"highway":"service","startNodeId":"5268985228","endNodeId":"5268985227"},"geometry":{"type":"LineString","coordinates":[[103.6479901,1.3343942],[103.6484988,1.3339176]]}},{"type":"Feature","id":"way/545133497-0-0-0","properties":{"highway":"service","startNodeId":"4605939837","endNodeId":"5268985233"},"geometry":{"type":"LineString","coordinates":[[103.6487041,1.3341448],[103.6483321,1.3344943]]}},{"type":"Feature","id":"way/545133497-0-1-0","properties":{"highway":"service","startNodeId":"5268985233","endNodeId":"5268985232"},"geometry":{"type":"LineString","coordinates":[[103.6483321,1.3344943],[103.6483213,1.3345066]]}},{"type":"Feature","id":"way/545133497-0-2-0","properties":{"highway":"service","startNodeId":"5268985232","endNodeId":"5268985231"},"geometry":{"type":"LineString","coordinates":[[103.6483213,1.3345066],[103.6482643,1.3346329]]}},{"type":"Feature","id":"way/545133497-0-3-0","properties":{"highway":"service","startNodeId":"5268985231","endNodeId":"5268985230"},"geometry":{"type":"LineString","coordinates":[[103.6482643,1.3346329],[103.6482551,1.3346591]]}},{"type":"Feature","id":"way/545133497-0-4-0","properties":{"highway":"service","startNodeId":"5268985230","endNodeId":"5268985229"},"geometry":{"type":"LineString","coordinates":[[103.6482551,1.3346591],[103.6479608,1.3349409]]}},{"type":"Feature","id":"way/545133498-0-0-0","properties":{"highway":"service","noname":"yes","surface":"asphalt","startNodeId":"5268985235","endNodeId":"8382499363"},"geometry":{"type":"LineString","coordinates":[[103.6484122,1.3336631],[103.648452,1.3337051]]}},{"type":"Feature","id":"way/545133498-0-1-0","properties":{"highway":"service","noname":"yes","surface":"asphalt","startNodeId":"8382499363","endNodeId":"5268985234"},"geometry":{"type":"LineString","coordinates":[[103.648452,1.3337051],[103.6487916,1.334064]]}},{"type":"Feature","id":"way/545302241-0-0-0","properties":{"highway":"service","startNodeId":"5270406319","endNodeId":"5270406318"},"geometry":{"type":"LineString","coordinates":[[103.645478,1.3361064],[103.6449506,1.3366011]]}},{"type":"Feature","id":"way/545302241-0-1-0","properties":{"highway":"service","startNodeId":"5270406318","endNodeId":"5270406317"},"geometry":{"type":"LineString","coordinates":[[103.6449506,1.3366011],[103.6449229,1.3366119]]}},{"type":"Feature","id":"way/545302241-0-2-0","properties":{"highway":"service","startNodeId":"5270406317","endNodeId":"5270406316"},"geometry":{"type":"LineString","coordinates":[[103.6449229,1.3366119],[103.6448952,1.336615]]}},{"type":"Feature","id":"way/545302241-0-3-0","properties":{"highway":"service","startNodeId":"5270406316","endNodeId":"5270406315"},"geometry":{"type":"LineString","coordinates":[[103.6448952,1.336615],[103.6448751,1.3366088]]}},{"type":"Feature","id":"way/545302241-0-4-0","properties":{"highway":"service","startNodeId":"5270406315","endNodeId":"5270406314"},"geometry":{"type":"LineString","coordinates":[[103.6448751,1.3366088],[103.6444684,1.3361884]]}},{"type":"Feature","id":"way/545302241-0-5-0","properties":{"highway":"service","startNodeId":"5270406314","endNodeId":"5270406313"},"geometry":{"type":"LineString","coordinates":[[103.6444684,1.3361884],[103.6444577,1.3361653]]}},{"type":"Feature","id":"way/545302241-0-6-0","properties":{"highway":"service","startNodeId":"5270406313","endNodeId":"5270406312"},"geometry":{"type":"LineString","coordinates":[[103.6444577,1.3361653],[103.6444592,1.3361422]]}},{"type":"Feature","id":"way/545302241-0-7-0","properties":{"highway":"service","startNodeId":"5270406312","endNodeId":"5270406311"},"geometry":{"type":"LineString","coordinates":[[103.6444592,1.3361422],[103.64447,1.3361191]]}},{"type":"Feature","id":"way/545302241-0-8-0","properties":{"highway":"service","startNodeId":"5270406311","endNodeId":"5270406310"},"geometry":{"type":"LineString","coordinates":[[103.64447,1.3361191],[103.6449722,1.3356463]]}},{"type":"Feature","id":"way/545302241-0-9-0","properties":{"highway":"service","startNodeId":"5270406310","endNodeId":"5270406308"},"geometry":{"type":"LineString","coordinates":[[103.6449722,1.3356463],[103.6449848,1.335638]]}},{"type":"Feature","id":"way/545302241-0-10-0","properties":{"highway":"service","startNodeId":"5270406308","endNodeId":"5270406309"},"geometry":{"type":"LineString","coordinates":[[103.6449848,1.335638],[103.6450016,1.335634]]}},{"type":"Feature","id":"way/545302241-0-11-0","properties":{"highway":"service","startNodeId":"5270406309","endNodeId":"5270406307"},"geometry":{"type":"LineString","coordinates":[[103.6450016,1.335634],[103.6450166,1.3356352]]}},{"type":"Feature","id":"way/545302241-0-12-0","properties":{"highway":"service","startNodeId":"5270406307","endNodeId":"5270413521"},"geometry":{"type":"LineString","coordinates":[[103.6450166,1.3356352],[103.6450307,1.3356401]]}},{"type":"Feature","id":"way/545302242-0-0-0","properties":{"highway":"service","startNodeId":"5270413521","endNodeId":"7103985328"},"geometry":{"type":"LineString","coordinates":[[103.6450307,1.3356401],[103.6452909,1.3359114]]}},{"type":"Feature","id":"way/545302243-0-0-0","properties":{"highway":"service","startNodeId":"5270413523","endNodeId":"8382556192"},"geometry":{"type":"LineString","coordinates":[[103.6454892,1.3350107],[103.6456037,1.3348975]]}},{"type":"Feature","id":"way/545302243-0-1-0","properties":{"highway":"service","startNodeId":"8382556192","endNodeId":"5270413522"},"geometry":{"type":"LineString","coordinates":[[103.6456037,1.3348975],[103.6456594,1.3348424]]}},{"type":"Feature","id":"way/545302244-0-0-0","properties":{"highway":"service","startNodeId":"5270413525","endNodeId":"5270413524"},"geometry":{"type":"LineString","coordinates":[[103.646196,1.3350754],[103.6463217,1.3352104]]}},{"type":"Feature","id":"way/545302245-0-0-0","properties":{"highway":"service","startNodeId":"5270413527","endNodeId":"8382556200"},"geometry":{"type":"LineString","coordinates":[[103.6456486,1.3348309],[103.6457012,1.3347826]]}},{"type":"Feature","id":"way/545302245-0-1-0","properties":{"highway":"service","startNodeId":"8382556200","endNodeId":"5270413528"},"geometry":{"type":"LineString","coordinates":[[103.6457012,1.3347826],[103.6457871,1.3347039]]}},{"type":"Feature","id":"way/545302246-0-0-0","properties":{"highway":"service","startNodeId":"5270413532","endNodeId":"5270413531"},"geometry":{"type":"LineString","coordinates":[[103.6458254,1.3341735],[103.6455522,1.3344314]]}},{"type":"Feature","id":"way/545302246-0-1-0","properties":{"highway":"service","startNodeId":"5270413531","endNodeId":"5270413530"},"geometry":{"type":"LineString","coordinates":[[103.6455522,1.3344314],[103.645551,1.3344466]]}},{"type":"Feature","id":"way/545302246-0-2-0","properties":{"highway":"service","startNodeId":"5270413530","endNodeId":"5270413529"},"geometry":{"type":"LineString","coordinates":[[103.645551,1.3344466],[103.6455557,1.3344606]]}},{"type":"Feature","id":"way/545302246-0-3-0","properties":{"highway":"service","startNodeId":"5270413529","endNodeId":"5270413528"},"geometry":{"type":"LineString","coordinates":[[103.6455557,1.3344606],[103.6457871,1.3347039]]}},{"type":"Feature","id":"way/545302248-0-0-0","properties":{"highway":"service","startNodeId":"5270464509","endNodeId":"5270413539"},"geometry":{"type":"LineString","coordinates":[[103.6467412,1.3337758],[103.6467099,1.333806]]}},{"type":"Feature","id":"way/545302248-0-1-0","properties":{"highway":"service","startNodeId":"5270413539","endNodeId":"5270413538"},"geometry":{"type":"LineString","coordinates":[[103.6467099,1.333806],[103.6466984,1.333822]]}},{"type":"Feature","id":"way/545302248-0-2-0","properties":{"highway":"service","startNodeId":"5270413538","endNodeId":"5270413537"},"geometry":{"type":"LineString","coordinates":[[103.6466984,1.333822],[103.6466993,1.3338388]]}},{"type":"Feature","id":"way/545302248-0-3-0","properties":{"highway":"service","startNodeId":"5270413537","endNodeId":"5270413536"},"geometry":{"type":"LineString","coordinates":[[103.6466993,1.3338388],[103.6467028,1.3338511]]}},{"type":"Feature","id":"way/545302248-0-4-0","properties":{"highway":"service","startNodeId":"5270413536","endNodeId":"5270413535"},"geometry":{"type":"LineString","coordinates":[[103.6467028,1.3338511],[103.6467991,1.3339538]]}},{"type":"Feature","id":"way/545302249-0-0-0","properties":{"highway":"service","startNodeId":"5270413535","endNodeId":"5270413551"},"geometry":{"type":"LineString","coordinates":[[103.6467991,1.3339538],[103.6469837,1.3337804]]}},{"type":"Feature","id":"way/545302250-0-0-0","properties":{"highway":"service","startNodeId":"4605939840","endNodeId":"5270413541"},"geometry":{"type":"LineString","coordinates":[[103.6474594,1.3342773],[103.6470782,1.3346267]]}},{"type":"Feature","id":"way/545302250-0-1-0","properties":{"highway":"service","startNodeId":"5270413541","endNodeId":"5270413542"},"geometry":{"type":"LineString","coordinates":[[103.6470782,1.3346267],[103.6470221,1.3346781]]}},{"type":"Feature","id":"way/545302250-0-2-0","properties":{"highway":"service","startNodeId":"5270413542","endNodeId":"5270413545"},"geometry":{"type":"LineString","coordinates":[[103.6470221,1.3346781],[103.6469824,1.3347145]]}},{"type":"Feature","id":"way/545302251-0-0-0","properties":{"highway":"service","startNodeId":"8382540250","endNodeId":"5270413544"},"geometry":{"type":"LineString","coordinates":[[103.6471296,1.3348807],[103.6470606,1.3348028]]}},{"type":"Feature","id":"way/545302251-0-1-0","properties":{"highway":"service","startNodeId":"5270413544","endNodeId":"5270413545"},"geometry":{"type":"LineString","coordinates":[[103.6470606,1.3348028],[103.6469824,1.3347145]]}},{"type":"Feature","id":"way/545302251-0-2-0","properties":{"highway":"service","startNodeId":"5270413545","endNodeId":"5270413546"},"geometry":{"type":"LineString","coordinates":[[103.6469824,1.3347145],[103.6465516,1.3342283]]}},{"type":"Feature","id":"way/545302251-0-3-0","properties":{"highway":"service","startNodeId":"5270413546","endNodeId":"5270413547"},"geometry":{"type":"LineString","coordinates":[[103.6465516,1.3342283],[103.6465458,1.334212]]}},{"type":"Feature","id":"way/545302251-0-4-0","properties":{"highway":"service","startNodeId":"5270413547","endNodeId":"5270413548"},"geometry":{"type":"LineString","coordinates":[[103.6465458,1.334212],[103.6465469,1.334198]]}},{"type":"Feature","id":"way/545306816-0-0-0","properties":{"highway":"service","startNodeId":"5270449413","endNodeId":"5270413550"},"geometry":{"type":"LineString","coordinates":[[103.6472858,1.3334915],[103.6473602,1.3334204]]}},{"type":"Feature","id":"way/545306817-0-0-0","properties":{"highway":"service","tunnel":"building_passage","startNodeId":"5270449414","endNodeId":"5270449413"},"geometry":{"type":"LineString","coordinates":[[103.6470728,1.3336952],[103.6472858,1.3334915]]}},{"type":"Feature","id":"way/545308188-0-0-0","properties":{"highway":"service","tunnel":"building_passage","startNodeId":"5270464508","endNodeId":"5270464509"},"geometry":{"type":"LineString","coordinates":[[103.6467896,1.3337291],[103.6467412,1.3337758]]}},{"type":"Feature","id":"way/545308189-0-0-0","properties":{"highway":"service","startNodeId":"5270413540","endNodeId":"5270464508"},"geometry":{"type":"LineString","coordinates":[[103.646865,1.3336564],[103.6467896,1.3337291]]}},{"type":"Feature","id":"way/545308194-0-0-0","properties":{"highway":"service","tunnel":"building_passage","startNodeId":"5270465139","endNodeId":"5270465140"},"geometry":{"type":"LineString","coordinates":[[103.6466073,1.3341339],[103.6466594,1.334085]]}},{"type":"Feature","id":"way/545308195-0-0-0","properties":{"highway":"service","startNodeId":"5270413548","endNodeId":"5270413549"},"geometry":{"type":"LineString","coordinates":[[103.6465469,1.334198],[103.6465533,1.3341846]]}},{"type":"Feature","id":"way/545308195-0-1-0","properties":{"highway":"service","startNodeId":"5270413549","endNodeId":"5270465139"},"geometry":{"type":"LineString","coordinates":[[103.6465533,1.3341846],[103.6466073,1.3341339]]}},{"type":"Feature","id":"way/576476857-0-0-0","properties":{"foot":"no","highway":"unclassified","lanes":"2","lanes:backward":"1","lanes:forward":"1","maxspeed":"50","name":"Tuas Avenue 1","surface":"asphalt","startNodeId":"246629850","endNodeId":"535176011"},"geometry":{"type":"LineString","coordinates":[[103.6449093,1.3370052],[103.6448049,1.337096]]}},{"type":"Feature","id":"way/639881917-0-0-0","properties":{"highway":"primary","lanes":"3","maxspeed":"70","name":"Tuas West Road","name:en":"Tuas West Road","name:zh":"\u5927\u58eb\u897f\u8def","oneway":"yes","sidewalk":"left","surface":"asphalt","startNodeId":"535176011","endNodeId":"5684371399"},"geometry":{"type":"LineString","coordinates":[[103.6448049,1.337096],[103.6458176,1.3381631]]}},{"type":"Feature","id":"way/639964880-0-0-0","properties":{"highway":"unclassified","lanes":"2","lanes:backward":"1","lanes:forward":"1","maxspeed":"50","name":"Tuas Avenue 12","surface":"asphalt","startNodeId":"5270621696","endNodeId":"8382593660"},"geometry":{"type":"LineString","coordinates":[[103.6450688,1.334218],[103.6452637,1.3344241]]}},{"type":"Feature","id":"way/639964880-0-1-0","properties":{"highway":"unclassified","lanes":"2","lanes:backward":"1","lanes:forward":"1","maxspeed":"50","name":"Tuas Avenue 12","surface":"asphalt","startNodeId":"8382593660","endNodeId":"8382593684"},"geometry":{"type":"LineString","coordinates":[[103.6452637,1.3344241],[103.6452853,1.3344469]]}},{"type":"Feature","id":"way/639964880-0-2-0","properties":{"highway":"unclassified","lanes":"2","lanes:backward":"1","lanes:forward":"1","maxspeed":"50","name":"Tuas Avenue 12","surface":"asphalt","startNodeId":"8382593684","endNodeId":"8382593665"},"geometry":{"type":"LineString","coordinates":[[103.6452853,1.3344469],[103.6453332,1.3344975]]}},{"type":"Feature","id":"way/639964880-0-3-0","properties":{"highway":"unclassified","lanes":"2","lanes:backward":"1","lanes:forward":"1","maxspeed":"50","name":"Tuas Avenue 12","surface":"asphalt","startNodeId":"8382593665","endNodeId":"4491953998"},"geometry":{"type":"LineString","coordinates":[[103.6453332,1.3344975],[103.645379,1.3345459]]}},{"type":"Feature","id":"way/639964881-0-0-0","properties":{"highway":"unclassified","lanes":"2","lanes:backward":"1","lanes:forward":"1","maxspeed":"50","name":"Tuas Avenue 12","surface":"asphalt","startNodeId":"4491946726","endNodeId":"5270621696"},"geometry":{"type":"LineString","coordinates":[[103.6450186,1.3341649],[103.6450688,1.334218]]}},{"type":"Feature","id":"way/639966032-0-0-0","properties":{"highway":"unclassified","lanes":"2","lanes:backward":"1","lanes:forward":"1","maxspeed":"50","name":"Tuas Avenue 12","surface":"asphalt","startNodeId":"4491946722","endNodeId":"5270621700"},"geometry":{"type":"LineString","coordinates":[[103.6447181,1.333846],[103.6447666,1.3338975]]}},{"type":"Feature","id":"way/639966033-0-0-0","properties":{"highway":"unclassified","lanes":"2","lanes:backward":"1","lanes:forward":"1","maxspeed":"50","name":"Tuas Avenue 12","surface":"asphalt","startNodeId":"5270621700","endNodeId":"8382593687"},"geometry":{"type":"LineString","coordinates":[[103.6447666,1.3338975],[103.6449967,1.3341418]]}},{"type":"Feature","id":"way/639966033-0-1-0","properties":{"highway":"unclassified","lanes":"2","lanes:backward":"1","lanes:forward":"1","maxspeed":"50","name":"Tuas Avenue 12","surface":"asphalt","startNodeId":"8382593687","endNodeId":"4491946726"},"geometry":{"type":"LineString","coordinates":[[103.6449967,1.3341418],[103.6450186,1.3341649]]}},{"type":"Feature","id":"way/640031309-0-0-0","properties":{"highway":"unclassified","lanes":"2","lanes:backward":"1","lanes:forward":"1","maxspeed":"50","name":"Tuas Avenue 1","surface":"asphalt","startNodeId":"5270406320","endNodeId":"4726785978"},"geometry":{"type":"LineString","coordinates":[[103.6456561,1.3362917],[103.6452254,1.3367085]]}},{"type":"Feature","id":"way/641059413-0-0-0","properties":{"highway":"unclassified","lanes":"2","lanes:backward":"1","lanes:forward":"1","maxspeed":"50","name":"Tuas Avenue 1","surface":"asphalt","startNodeId":"4605939841","endNodeId":"8382540249"},"geometry":{"type":"LineString","coordinates":[[103.6476017,1.3344296],[103.647201,1.3348125]]}},{"type":"Feature","id":"way/641059413-0-1-0","properties":{"highway":"unclassified","lanes":"2","lanes:backward":"1","lanes:forward":"1","maxspeed":"50","name":"Tuas Avenue 1","surface":"asphalt","startNodeId":"8382540249","endNodeId":"8382540250"},"geometry":{"type":"LineString","coordinates":[[103.647201,1.3348125],[103.6471296,1.3348807]]}},{"type":"Feature","id":"way/641059413-0-2-0","properties":{"highway":"unclassified","lanes":"2","lanes:backward":"1","lanes:forward":"1","maxspeed":"50","name":"Tuas Avenue 1","surface":"asphalt","startNodeId":"8382540250","endNodeId":"8382540246"},"geometry":{"type":"LineString","coordinates":[[103.6471296,1.3348807],[103.6470336,1.3349723]]}},{"type":"Feature","id":"way/641059413-0-3-0","properties":{"highway":"unclassified","lanes":"2","lanes:backward":"1","lanes:forward":"1","maxspeed":"50","name":"Tuas Avenue 1","surface":"asphalt","startNodeId":"8382540246","endNodeId":"6659696892"},"geometry":{"type":"LineString","coordinates":[[103.6470336,1.3349723],[103.6468998,1.3351002]]}},{"type":"Feature","id":"way/641059414-0-0-0","properties":{"highway":"unclassified","lanes":"2","lanes:backward":"1","lanes:forward":"1","maxspeed":"50","name":"Tuas Avenue 12","surface":"asphalt","turn:lanes:forward":"left;right","startNodeId":"4491946719","endNodeId":"8382593676"},"geometry":{"type":"LineString","coordinates":[[103.6460296,1.3352337],[103.6460864,1.3352927]]}},{"type":"Feature","id":"way/641059414-0-1-0","properties":{"highway":"unclassified","lanes":"2","lanes:backward":"1","lanes:forward":"1","maxspeed":"50","name":"Tuas Avenue 12","surface":"asphalt","turn:lanes:forward":"left;right","startNodeId":"8382593676","endNodeId":"8382593674"},"geometry":{"type":"LineString","coordinates":[[103.6460864,1.3352927],[103.6461102,1.3353177]]}},{"type":"Feature","id":"way/641059414-0-2-0","properties":{"highway":"unclassified","lanes":"2","lanes:backward":"1","lanes:forward":"1","maxspeed":"50","name":"Tuas Avenue 12","surface":"asphalt","turn:lanes:forward":"left;right","startNodeId":"8382593674","endNodeId":"8382540258"},"geometry":{"type":"LineString","coordinates":[[103.6461102,1.3353177],[103.6463025,1.3355175]]}},{"type":"Feature","id":"way/641059414-0-3-0","properties":{"highway":"unclassified","lanes":"2","lanes:backward":"1","lanes:forward":"1","maxspeed":"50","name":"Tuas Avenue 12","surface":"asphalt","turn:lanes:forward":"left;right","startNodeId":"8382540258","endNodeId":"310231423"},"geometry":{"type":"LineString","coordinates":[[103.6463025,1.3355175],[103.6463765,1.3355944]]}},{"type":"Feature","id":"way/641085986-0-0-0","properties":{"highway":"unclassified","lanes":"2","lanes:backward":"1","lanes:forward":"1","maxspeed":"50","name":"Tuas Avenue 12","parking:condition:right:vehicles":"motorcar","parking:lane:right":"parallel","surface":"asphalt","startNodeId":"6038296780","endNodeId":"8382593694"},"geometry":{"type":"LineString","coordinates":[[103.6442976,1.3334016],[103.6444258,1.333537]]}},{"type":"Feature","id":"way/641085986-0-1-0","properties":{"highway":"unclassified","lanes":"2","lanes:backward":"1","lanes:forward":"1","maxspeed":"50","name":"Tuas Avenue 12","parking:condition:right:vehicles":"motorcar","parking:lane:right":"parallel","surface":"asphalt","startNodeId":"8382593694","endNodeId":"5270621704"},"geometry":{"type":"LineString","coordinates":[[103.6444258,1.333537],[103.6444749,1.3335889]]}},{"type":"Feature","id":"way/641085991-0-0-0","properties":{"highway":"unclassified","lanes":"2","lanes:backward":"1","lanes:forward":"1","maxspeed":"50","name":"Tuas Avenue 12","parking:condition:right:vehicles":"motorcar","parking:lane:right":"parallel","surface":"asphalt","turn:lanes:backward":"left;through;right","startNodeId":"5270621704","endNodeId":"8382593690"},"geometry":{"type":"LineString","coordinates":[[103.6444749,1.3335889],[103.6446916,1.3338175]]}},{"type":"Feature","id":"way/641085991-0-1-0","properties":{"highway":"unclassified","lanes":"2","lanes:backward":"1","lanes:forward":"1","maxspeed":"50","name":"Tuas Avenue 12","parking:condition:right:vehicles":"motorcar","parking:lane:right":"parallel","surface":"asphalt","turn:lanes:backward":"left;through;right","startNodeId":"8382593690","endNodeId":"4491946722"},"geometry":{"type":"LineString","coordinates":[[103.6446916,1.3338175],[103.6447181,1.333846]]}},{"type":"Feature","id":"way/641089846-0-0-0","properties":{"highway":"unclassified","lanes":"2","lanes:backward":"1","lanes:forward":"1","maxspeed":"50","name":"Tuas Avenue 1","surface":"asphalt","startNodeId":"4605939836","endNodeId":"5268985235"},"geometry":{"type":"LineString","coordinates":[[103.6485991,1.3334789],[103.6484122,1.3336631]]}},{"type":"Feature","id":"way/641089847-0-0-0","properties":{"highway":"service","noname":"yes","surface":"asphalt","startNodeId":"4605939836","endNodeId":"8382499362"},"geometry":{"type":"LineString","coordinates":[[103.6485991,1.3334789],[103.6486466,1.3335295]]}},{"type":"Feature","id":"way/641089847-0-1-0","properties":{"highway":"service","noname":"yes","surface":"asphalt","startNodeId":"8382499362","endNodeId":"5215159722"},"geometry":{"type":"LineString","coordinates":[[103.6486466,1.3335295],[103.6487101,1.3335973]]}},{"type":"Feature","id":"way/641090108-0-0-0","properties":{"highway":"service","noname":"yes","surface":"asphalt","startNodeId":"4605939840","endNodeId":"8382540257"},"geometry":{"type":"LineString","coordinates":[[103.6474594,1.3342773],[103.6475343,1.3343574]]}},{"type":"Feature","id":"way/641090108-0-1-0","properties":{"highway":"service","noname":"yes","surface":"asphalt","startNodeId":"8382540257","endNodeId":"4605939841"},"geometry":{"type":"LineString","coordinates":[[103.6475343,1.3343574],[103.6476017,1.3344296]]}},{"type":"Feature","id":"way/641090109-0-0-0","properties":{"highway":"service","noname":"yes","surface":"asphalt","startNodeId":"5268985227","endNodeId":"4605939837"},"geometry":{"type":"LineString","coordinates":[[103.6484988,1.3339176],[103.6487041,1.3341448]]}},{"type":"Feature","id":"way/641090110-0-0-0","properties":{"highway":"unclassified","lanes":"2","lanes:backward":"1","lanes:forward":"1","maxspeed":"50","name":"Tuas Avenue 1","surface":"asphalt","startNodeId":"5270406303","endNodeId":"8382540253"},"geometry":{"type":"LineString","coordinates":[[103.648061,1.3339971],[103.6477009,1.3343362]]}},{"type":"Feature","id":"way/641090110-0-1-0","properties":{"highway":"unclassified","lanes":"2","lanes:backward":"1","lanes:forward":"1","maxspeed":"50","name":"Tuas Avenue 1","surface":"asphalt","startNodeId":"8382540253","endNodeId":"4605939841"},"geometry":{"type":"LineString","coordinates":[[103.6477009,1.3343362],[103.6476017,1.3344296]]}},{"type":"Feature","id":"way/641090111-0-0-0","properties":{"highway":"unclassified","lanes":"2","lanes:backward":"1","lanes:forward":"1","maxspeed":"50","name":"Tuas Avenue 1","surface":"asphalt","startNodeId":"5268985235","endNodeId":"4605939838"},"geometry":{"type":"LineString","coordinates":[[103.6484122,1.3336631],[103.6483363,1.3337379]]}},{"type":"Feature","id":"way/641112386-0-0-0","properties":{"highway":"unclassified","lanes":"2","lanes:backward":"1","lanes:forward":"1","maxspeed":"50","name":"Tuas Avenue 12","surface":"asphalt","startNodeId":"5270413522","endNodeId":"6274128387"},"geometry":{"type":"LineString","coordinates":[[103.6456594,1.3348424],[103.6458114,1.335003]]}},{"type":"Feature","id":"way/641112389-0-0-0","properties":{"highway":"unclassified","lanes":"2","lanes:backward":"1","lanes:forward":"1","maxspeed":"50","name":"Tuas Avenue 12","surface":"asphalt","turn:lanes:forward":"left;right","startNodeId":"4491946721","endNodeId":"4491946719"},"geometry":{"type":"LineString","coordinates":[[103.6459703,1.335171],[103.6460296,1.3352337]]}},{"type":"Feature","id":"way/644503267-0-0-0","properties":{"highway":"service","noname":"yes","surface":"asphalt","startNodeId":"4491953993","endNodeId":"4491953991"},"geometry":{"type":"LineString","coordinates":[[103.6457952,1.3353365],[103.6453149,1.3357857]]}},{"type":"Feature","id":"way/644812238-0-0-0","properties":{"highway":"service","noname":"yes","surface":"asphalt","startNodeId":"4491953995","endNodeId":"5157507622"},"geometry":{"type":"LineString","coordinates":[[103.6452052,1.3347087],[103.6451396,1.3347751]]}},{"type":"Feature","id":"way/644889351-0-0-0","properties":{"highway":"service","noname":"yes","surface":"asphalt","startNodeId":"5270413525","endNodeId":"4491946718"},"geometry":{"type":"LineString","coordinates":[[103.646196,1.3350754],[103.6466178,1.3346744]]}},{"type":"Feature","id":"way/644889634-0-0-0","properties":{"highway":"service","noname":"yes","surface":"asphalt","startNodeId":"5270604190","endNodeId":"8382556198"},"geometry":{"type":"LineString","coordinates":[[103.6448599,1.3337119],[103.6447744,1.3337928]]}},{"type":"Feature","id":"way/644889634-0-1-0","properties":{"highway":"service","noname":"yes","surface":"asphalt","startNodeId":"8382556198","endNodeId":"4491946722"},"geometry":{"type":"LineString","coordinates":[[103.6447744,1.3337928],[103.6447181,1.333846]]}},{"type":"Feature","id":"way/645305302-0-0-0","properties":{"highway":"service","startNodeId":"5270406302","endNodeId":"8382499368"},"geometry":{"type":"LineString","coordinates":[[103.6479024,1.3338433],[103.64799,1.3339282]]}},{"type":"Feature","id":"way/645305302-0-1-0","properties":{"highway":"service","startNodeId":"8382499368","endNodeId":"5270406303"},"geometry":{"type":"LineString","coordinates":[[103.64799,1.3339282],[103.648061,1.3339971]]}},{"type":"Feature","id":"way/645306193-0-0-0","properties":{"highway":"unclassified","lanes":"2","lanes:backward":"1","lanes:forward":"1","maxspeed":"50","name":"Tuas Avenue 12","surface":"asphalt","startNodeId":"5270413527","endNodeId":"5270413522"},"geometry":{"type":"LineString","coordinates":[[103.6456486,1.3348309],[103.6456594,1.3348424]]}},{"type":"Feature","id":"way/646650188-0-0-0","properties":{"highway":"service","startNodeId":"5268985234","endNodeId":"4605939837"},"geometry":{"type":"LineString","coordinates":[[103.6487916,1.334064],[103.6487041,1.3341448]]}},{"type":"Feature","id":"way/646650480-0-0-0","properties":{"highway":"service","noname":"yes","surface":"asphalt","startNodeId":"5270413551","endNodeId":"4605939840"},"geometry":{"type":"LineString","coordinates":[[103.6469837,1.3337804],[103.6474594,1.3342773]]}},{"type":"Feature","id":"way/646650481-0-0-0","properties":{"highway":"service","noname":"yes","surface":"asphalt","startNodeId":"5270406302","endNodeId":"4605939839"},"geometry":{"type":"LineString","coordinates":[[103.6479024,1.3338433],[103.6482664,1.3334866]]}},{"type":"Feature","id":"way/646795527-0-0-0","properties":{"highway":"service","startNodeId":"5270406319","endNodeId":"8382499841"},"geometry":{"type":"LineString","coordinates":[[103.645478,1.3361064],[103.6455816,1.3362161]]}},{"type":"Feature","id":"way/646795527-0-1-0","properties":{"highway":"service","startNodeId":"8382499841","endNodeId":"5270406320"},"geometry":{"type":"LineString","coordinates":[[103.6455816,1.3362161],[103.6456561,1.3362917]]}},{"type":"Feature","id":"way/646795775-0-0-0","properties":{"highway":"service","noname":"yes","surface":"asphalt","startNodeId":"5270413523","endNodeId":"4491953993"},"geometry":{"type":"LineString","coordinates":[[103.6454892,1.3350107],[103.6457952,1.3353365]]}},{"type":"Feature","id":"way/646796309-0-0-0","properties":{"highway":"service","startNodeId":"5270413528","endNodeId":"5270413526"},"geometry":{"type":"LineString","coordinates":[[103.6457871,1.3347039],[103.6459737,1.334533]]}},{"type":"Feature","id":"way/646802964-0-0-0","properties":{"highway":"service","startNodeId":"5270413551","endNodeId":"5270449414"},"geometry":{"type":"LineString","coordinates":[[103.6469837,1.3337804],[103.6470728,1.3336952]]}},{"type":"Feature","id":"way/646802965-0-0-0","properties":{"highway":"service","startNodeId":"5270465140","endNodeId":"5270413535"},"geometry":{"type":"LineString","coordinates":[[103.6466594,1.334085],[103.6467991,1.3339538]]}},{"type":"Feature","id":"way/646803615-0-0-0","properties":{"highway":"service","noname":"yes","surface":"asphalt","startNodeId":"5270413540","endNodeId":"5270413551"},"geometry":{"type":"LineString","coordinates":[[103.646865,1.3336564],[103.6469837,1.3337804]]}},{"type":"Feature","id":"way/649587014-0-3-3","properties":{"highway":"motorway","lanes":"3","maxspeed":"80","name":"Ayer Rajah Expressway","name:ms":"Lebuhraya Ayer Rajah","name:ta":"\u0b86\u0baf\u0bb0\u0bcd \u0bb0\u0bbe\u0b9c\u0bbe \u0bb5\u0bbf\u0bb0\u0bb5\u0bc1\u0b9a\u0bcd\u0b9a\u0bbe\u0bb2\u0bc8","name:zh":"\u4e9a\u9038\u62c9\u60f9\u9ad8\u901f\u516c\u8def","oneway":"yes","ref":"AYE","surface":"asphalt","wikidata":"Q2657325","wikipedia":"en:Ayer Rajah Expressway","startNodeId":"way/649587014-0:3:3","endNodeId":"way/649587014-0:3:4"},"geometry":{"type":"LineString","coordinates":[[103.6489203,1.3367439],[103.6479335,1.3376999]]}},{"type":"Feature","id":"way/655185745-0-0-0","properties":{"highway":"primary","lanes":"4","maxspeed":"70","name":"Tuas West Road","name:en":"Tuas West Road","name:zh":"\u5927\u58eb\u897f\u8def","oneway":"yes","sidewalk":"left","surface":"asphalt","turn:lanes":"through|through|through|right","startNodeId":"6138933206","endNodeId":"535176011"},"geometry":{"type":"LineString","coordinates":[[103.6443698,1.3366336],[103.6448049,1.337096]]}},{"type":"Feature","id":"way/655192534-0-0-0","properties":{"highway":"primary","lanes":"3","maxspeed":"70","name":"Tuas West Road","name:en":"Tuas West Road","name:zh":"\u5927\u58eb\u897f\u8def","oneway":"yes","sidewalk":"left","surface":"asphalt","turn:lanes":"left;through|through|through","startNodeId":"6138969347","endNodeId":"8382540259"},"geometry":{"type":"LineString","coordinates":[[103.645539,1.3376385],[103.644948,1.337047]]}},{"type":"Feature","id":"way/655192534-0-1-0","properties":{"highway":"primary","lanes":"3","maxspeed":"70","name":"Tuas West Road","name:en":"Tuas West Road","name:zh":"\u5927\u58eb\u897f\u8def","oneway":"yes","sidewalk":"left","surface":"asphalt","turn:lanes":"left;through|through|through","startNodeId":"8382540259","endNodeId":"246629850"},"geometry":{"type":"LineString","coordinates":[[103.644948,1.337047],[103.6449093,1.3370052]]}},{"type":"Feature","id":"way/669947162-0-0-0","properties":{"highway":"unclassified","lanes":"2","lanes:backward":"1","lanes:forward":"1","maxspeed":"50","name":"Tuas Avenue 12","surface":"asphalt","turn:lanes:forward":"left;right","startNodeId":"6274128387","endNodeId":"8382593671"},"geometry":{"type":"LineString","coordinates":[[103.6458114,1.335003],[103.645875,1.3350702]]}},{"type":"Feature","id":"way/669947162-0-1-0","properties":{"highway":"unclassified","lanes":"2","lanes:backward":"1","lanes:forward":"1","maxspeed":"50","name":"Tuas Avenue 12","surface":"asphalt","turn:lanes:forward":"left;right","startNodeId":"8382593671","endNodeId":"8382593679"},"geometry":{"type":"LineString","coordinates":[[103.645875,1.3350702],[103.6458985,1.3350952]]}},{"type":"Feature","id":"way/669947162-0-2-0","properties":{"highway":"unclassified","lanes":"2","lanes:backward":"1","lanes:forward":"1","maxspeed":"50","name":"Tuas Avenue 12","surface":"asphalt","turn:lanes:forward":"left;right","startNodeId":"8382593679","endNodeId":"4491946721"},"geometry":{"type":"LineString","coordinates":[[103.6458985,1.3350952],[103.6459703,1.335171]]}},{"type":"Feature","id":"way/674393279-0-0-0","properties":{"highway":"unclassified","lanes":"2","lanes:backward":"1","lanes:forward":"1","maxspeed":"50","name":"Tuas Avenue 1","surface":"asphalt","startNodeId":"6315811037","endNodeId":"5270406320"},"geometry":{"type":"LineString","coordinates":[[103.6459985,1.3359543],[103.6456561,1.3362917]]}},{"type":"Feature","id":"way/708702894-0-0-0","properties":{"highway":"unclassified","lanes":"2","lanes:backward":"1","lanes:forward":"1","maxspeed":"50","name":"Tuas Avenue 1","surface":"asphalt","turn:lanes:forward":"left;through","startNodeId":"6659696892","endNodeId":"310231423"},"geometry":{"type":"LineString","coordinates":[[103.6468998,1.3351002],[103.6463765,1.3355944]]}},{"type":"Feature","id":"way/732552063-0-2-0","properties":{"highway":"primary","lanes":"2","maxspeed":"70","name":"Jalan Ahmad Ibrahim","name:en":"Jalan Ahmad Ibrahim","name:zh":"\u60f9\u5170\u963f\u672b\u4f9d\u5e03\u62c9\u6b23","oneway":"yes","surface":"asphalt","startNodeId":"4491954013","endNodeId":"535176777"},"geometry":{"type":"LineString","coordinates":[[103.6487951,1.3366219],[103.6480704,1.337333]]}},{"type":"Feature","id":"way/732552063-0-3-0","properties":{"highway":"primary","lanes":"2","maxspeed":"70","name":"Jalan Ahmad Ibrahim","name:en":"Jalan Ahmad Ibrahim","name:zh":"\u60f9\u5170\u963f\u672b\u4f9d\u5e03\u62c9\u6b23","oneway":"yes","surface":"asphalt","startNodeId":"535176777","endNodeId":"8403836768"},"geometry":{"type":"LineString","coordinates":[[103.6480704,1.337333],[103.6479476,1.3374578]]}},{"type":"Feature","id":"way/732552063-0-4-0","properties":{"highway":"primary","lanes":"2","maxspeed":"70","name":"Jalan Ahmad Ibrahim","name:en":"Jalan Ahmad Ibrahim","name:zh":"\u60f9\u5170\u963f\u672b\u4f9d\u5e03\u62c9\u6b23","oneway":"yes","surface":"asphalt","startNodeId":"8403836768","endNodeId":"6141829895"},"geometry":{"type":"LineString","coordinates":[[103.6479476,1.3374578],[103.6473718,1.3380432]]}},{"type":"Feature","id":"way/760458764-0-0-0","properties":{"highway":"service","startNodeId":"7103985329","endNodeId":"5270406319"},"geometry":{"type":"LineString","coordinates":[[103.6453304,1.3359525],[103.645478,1.3361064]]}},{"type":"Feature","id":"way/760458765-0-0-0","properties":{"highway":"service","tunnel":"building_passage","startNodeId":"7103985328","endNodeId":"7103985329"},"geometry":{"type":"LineString","coordinates":[[103.6452909,1.3359114],[103.6453304,1.3359525]]}},{"type":"Feature","id":"way/902507995-0-0-0","properties":{"highway":"service","oneway":"yes","startNodeId":"8382540246","endNodeId":"8382540245"},"geometry":{"type":"LineString","coordinates":[[103.6470336,1.3349723],[103.6470737,1.3350178]]}},{"type":"Feature","id":"way/902507995-0-1-0","properties":{"highway":"service","oneway":"yes","startNodeId":"8382540245","endNodeId":"5268985238"},"geometry":{"type":"LineString","coordinates":[[103.6470737,1.3350178],[103.647263,1.3352331]]}},{"type":"Feature","id":"way/902513462-0-0-0","properties":{"highway":"service","startNodeId":"8382593663","endNodeId":"8382593662"},"geometry":{"type":"LineString","coordinates":[[103.6454791,1.334353],[103.6453337,1.3342124]]}},{"type":"Feature","id":"way/902513463-0-0-0","properties":{"highway":"service","startNodeId":"8382593665","endNodeId":"8382593661"},"geometry":{"type":"LineString","coordinates":[[103.6453332,1.3344975],[103.6453856,1.3344456]]}},{"type":"Feature","id":"way/902513463-0-1-0","properties":{"highway":"service","startNodeId":"8382593661","endNodeId":"8382593663"},"geometry":{"type":"LineString","coordinates":[[103.6453856,1.3344456],[103.6454791,1.334353]]}},{"type":"Feature","id":"way/902513463-0-2-0","properties":{"highway":"service","startNodeId":"8382593663","endNodeId":"8382593664"},"geometry":{"type":"LineString","coordinates":[[103.6454791,1.334353],[103.6456058,1.3342276]]}},{"type":"Feature","id":"way/902514401-0-0-0","properties":{"highway":"service","startNodeId":"8382556210","endNodeId":"5270413555"},"geometry":{"type":"LineString","coordinates":[[103.6461328,1.3335815],[103.6464774,1.3332538]]}}]}