{"type":"FeatureCollection","features":[{"type":"Feature","id":"way/252392090-0","properties":{"building":"industrial","clearanceGeometry":{"type":"Polygon","coordinates":[[[103.6420242,1.2937054],[103.6418435,1.2937188],[103.6418777,1.2941808],[103.6420698,1.2941666],[103.6421292,1.2949686],[103.6425214,1.2949396],[103.6425156,1.2948623],[103.6428432,1.294838],[103.6428505,1.2949363],[103.64328976838533,1.294903808863566],[103.64328956927675,1.2948458682661779],[103.64328734168113,1.2948008320940476],[103.6432723173201,1.2946034119901397],[103.64326943785936,1.2945175921860554],[103.6432225,1.2938839],[103.6429052,1.2939074],[103.6428475,1.2931283],[103.6430248,1.2931152],[103.6430156,1.2929911],[103.642286,1.2930451],[103.6423054,1.2933072],[103.6419964,1.2933301],[103.6420242,1.2937054]]]},"clearanceHeight":1.7,"clearancePrepared":true},"geometry":{"type":"Polygon","coordinates":[[[103.6419964,1.2933301],[103.6420242,1.2937054],[103.6418435,1.2937188],[103.6418777,1.2941808],[103.6420698,1.2941666],[103.6421292,1.2949686],[103.6425214,1.2949396],[103.6425156,1.2948623],[103.6428432,1.294838],[103.6428505,1.2949363],[103.643298,1.2949032],[103.6432225,1.2938839],[103.6429052,1.2939074],[103.6428475,1.2931283],[103.6430248,1.2931152],[103.6430156,1.2929911],[103.642286,1.2930451],[103.6423054,1.2933072],[103.6419964,1.2933301]]]}},{"type":"Feature","id":"way/453274314-0","properties":{"building":"yes","clearanceGeometry":{"type":"Polygon","coordinates":[[[103.6409534,1.2950158],[103.6407472,1.2951155],[103.6408033,1.2952315],[103.6405213,1.2953679],[103.640673,1.2956815],[103.6411612,1.2954455],[103.6409534,1.2950158]]]},"clearanceHeight":1.7,"clearancePrepared":true},"geometry":{"type":"Polygon","coordinates":[[[103.6411612,1.2954455],[103.6409534,1.2950158],[103.6407472,1.2951155],[103.6408033,1.2952315],[103.6405213,1.2953679],[103.640673,1.2956815],[103.6411612,1.2954455]]]}},{"type":"Feature","id":"way/453454395-0","properties":{"building":"yes","clearanceGeometry":{"type":"Polygon","coordinates":[[[103.64147750811145,1.2976751942369185],[103.64147864411056,1.29767419188476],[103.6415054,1.2977045],[103.64147864702787,1.297674189310929],[103.64161502334379,1.2975538806045757],[103.6415289,1.2974633],[103.6418506,1.2971577],[103.6416089,1.2969035],[103.6415165,1.2969912],[103.6413858,1.2968537],[103.6411921,1.2970377],[103.6411593,1.2970031],[103.6410377,1.2971187],[103.6410649,1.2971473],[103.6410054,1.2972038],[103.6411337,1.2973387],[103.6410083,1.2974579],[103.6412422,1.297704],[103.641285,1.2976633],[103.6413668,1.2977493],[103.641462,1.2976589],[103.64147750811145,1.2976751942369185]]]},"clearanceHeight":1.7,"clearancePrepared":true},"geometry":{"type":"Polygon","coordinates":[[[103.641462,1.2976589],[103.6415054,1.2977045],[103.6415256,1.2977257],[103.6416584,1.2975995],[103.6416429,1.2975832],[103.6415289,1.2974633],[103.6418506,1.2971577],[103.6416089,1.2969035],[103.6415165,1.2969912],[103.6413858,1.2968537],[103.6411921,1.2970377],[103.6411593,1.2970031],[103.6410377,1.2971187],[103.6410649,1.2971473],[103.6410054,1.2972038],[103.6411337,1.2973387],[103.6410083,1.2974579],[103.6412422,1.297704],[103.641285,1.2976633],[103.6413668,1.2977493],[103.641462,1.2976589]]]}},{"type":"Feature","id":"way/453454424-0","properties":{"building":"yes","clearanceGeometry":{"type":"Polygon","coordinates":[[[103.6416359,1.2973981],[103.6417459,1.2975215],[103.6418695,1.2974113],[103.6418222,1.2973583],[103.64199,1.2971836],[103.6419229,1.2971192],[103.6417602,1.2972887],[103.6417595,1.297288],[103.6416359,1.2973981]]]},"clearanceHeight":1.7,"clearancePrepared":true},"geometry":{"type":"Polygon","coordinates":[[[103.6417595,1.297288],[103.6416359,1.2973981],[103.6417459,1.2975215],[103.6418695,1.2974113],[103.6418222,1.2973583],[103.64199,1.2971836],[103.6419229,1.2971192],[103.6417602,1.2972887],[103.6417595,1.297288]]]}},{"type":"Feature","id":"way/503503845-0","properties":{"building":"industrial","clearanceGeometry":{"type":"Polygon","coordinates":[[[103.6437995,1.2929671],[103.6433884,1.2930128],[103.6433843,1.2929886],[103.64333901546092,1.292990594588181],[103.64334683330028,1.2931010466263733],[103.64333150081046,1.2931021313211983],[103.6433336,1.2931295],[103.643311,1.2931395],[103.6433175,1.2932359],[103.6434473,1.2932307],[103.6434527,1.2932039],[103.643813,1.2931848],[103.6437995,1.2929671]]]},"clearanceHeight":1.7,"clearancePrepared":true},"geometry":{"type":"Polygon","coordinates":[[[103.643813,1.2931848],[103.6437995,1.2929671],[103.6433884,1.2930128],[103.6433843,1.2929886],[103.643323,1.2929913],[103.6433336,1.2931295],[103.643311,1.2931395],[103.6433175,1.2932359],[103.6434473,1.2932307],[103.6434527,1.2932039],[103.643813,1.2931848]]]}},{"type":"Feature","id":"way/503503846-0","properties":{"building":"industrial","clearanceGeometry":{"type":"Polygon","coordinates":[[[103.6438744,1.2947935],[103.6437098,1.2948048],[103.6433865,1.2948271],[103.64336966691964,1.2948282896169867],[103.64337043072327,1.294843731733822],[103.6433710203754,1.295015320503496],[103.6434075,1.2955452],[103.6439237,1.2955097],[103.6438744,1.2947935]]]},"clearanceHeight":1.7,"clearancePrepared":true},"geometry":{"type":"Polygon","coordinates":[[[103.6439237,1.2955097],[103.6438744,1.2947935],[103.6437098,1.2948048],[103.6433865,1.2948271],[103.6433582,1.2948291],[103.6434075,1.2955452],[103.6439237,1.2955097]]]}},{"type":"Feature","id":"way/503503847-0","properties":{"building":"industrial","clearanceGeometry":{"type":"Polygon","coordinates":[[[103.6439303,1.2943715],[103.6439957,1.2942469],[103.6439797,1.2939624],[103.6441322,1.2939468],[103.64410400432699,1.2936947090698556],[103.64373867784495,1.2937180417657095],[103.6437384064238,1.2937137941833674],[103.6436888,1.293717],[103.6437514,1.2944596],[103.6439371,1.2944494],[103.6439303,1.2943715]]]},"clearanceHeight":1.7,"clearancePrepared":true},"geometry":{"type":"Polygon","coordinates":[[[103.6439371,1.2944494],[103.6439303,1.2943715],[103.6439957,1.2942469],[103.6439797,1.2939624],[103.6441322,1.2939468],[103.6441035,1.2936902],[103.6436888,1.293717],[103.6437514,1.2944596],[103.6439371,1.2944494]]]}},{"type":"Feature","id":"way/503503848-0","properties":{"building":"industrial","clearanceGeometry":{"type":"Polygon","coordinates":[[[103.6433708,1.2945997],[103.6433865,1.2948271],[103.6437098,1.2948048],[103.64369463365053,1.2945852260358754],[103.64351916692218,1.294595948697119],[103.6435187750339,1.2945895390171593],[103.6433708,1.2945997]]]},"clearanceHeight":1.7,"clearancePrepared":true},"geometry":{"type":"Polygon","coordinates":[[[103.6436941,1.2945775],[103.6433708,1.2945997],[103.6433865,1.2948271],[103.6437098,1.2948048],[103.6436941,1.2945775]]]}},{"type":"Feature","id":"way/503503850-0","properties":{"building":"industrial","clearanceGeometry":{"type":"Polygon","coordinates":[[[103.644449,1.2951789],[103.6443127,1.2951129],[103.644173,1.2954015],[103.6443092,1.2954675],[103.644449,1.2951789]]]},"clearanceHeight":1.7,"clearancePrepared":true},"geometry":{"type":"Polygon","coordinates":[[[103.6443092,1.2954675],[103.644449,1.2951789],[103.6443127,1.2951129],[103.644173,1.2954015],[103.6443092,1.2954675]]]}},{"type":"Feature","id":"node/5152210484","properties":{"highway":"crossing"},"geometry":{"type":"Point","coordinates":[103.6400239,1.2974066]}},{"type":"Feature","id":"node/8382969466","properties":{"highway":"crossing"},"geometry":{"type":"Point","coordinates":[103.6398638,1.2972377]}},{"type":"Feature","id":"node/8382969486","properties":{"highway":"crossing"},"geometry":{"type":"Point","coordinates":[103.6399193,1.2973209]}},{"type":"Feature","id":"node/8382969487","properties":{"highway":"crossing"},"geometry":{"type":"Point","coordinates":[103.6399687,1.2973752]}},{"type":"Feature","id":"node/8382969489","properties":{"highway":"crossing"},"geometry":{"type":"Point","coordinates":[103.6399333,1.2974655]}},{"type":"Feature","id":"node/8382988451","properties":{"highway":"crossing"},"geometry":{"type":"Point","coordinates":[103.6417566,1.2951653]}},{"type":"Feature","id":"node/8382988454","properties":{"highway":"crossing"},"geometry":{"type":"Point","coordinates":[103.6417273,1.2957476]}},{"type":"Feature","id":"node/8392695692","properties":{"highway":"crossing"},"geometry":{"type":"Point","coordinates":[103.640091,1.29309]}},{"type":"Feature","id":"way/117420260-0-0-0","properties":{"highway":"unclassified","lanes":"1","maxspeed":"50","name":"Tuas Bay Link","oneway":"yes","surface":"asphalt","startNodeId":"1322834723","endNodeId":"6497563049"},"geometry":{"type":"LineString","coordinates":[[103.6416613,1.2951934],[103.6416004,1.2952974]]}},{"type":"Feature","id":"way/117420260-0-1-0","properties":{"highway":"unclassified","lanes":"1","maxspeed":"50","name":"Tuas Bay Link","oneway":"yes","surface":"asphalt","startNodeId":"6497563049","endNodeId":"3150511901"},"geometry":{"type":"LineString","coordinates":[[103.6416004,1.2952974],[103.6415255,1.2954562]]}},{"type":"Feature","id":"way/117420260-0-2-0","properties":{"highway":"unclassified","lanes":"1","maxspeed":"50","name":"Tuas Bay Link","oneway":"yes","surface":"asphalt","startNodeId":"3150511901","endNodeId":"5152324428"},"geometry":{"type":"LineString","coordinates":[[103.6415255,1.2954562],[103.641521,1.295474]]}},{"type":"Feature","id":"way/117420260-0-3-0","properties":{"highway":"unclassified","lanes":"1","maxspeed":"50","name":"Tuas Bay Link","oneway":"yes","surface":"asphalt","startNodeId":"5152324428","endNodeId":"3150511883"},"geometry":{"type":"LineString","coordinates":[[103.641521,1.295474],[103.6415209,1.2954875]]}},{"type":"Feature","id":"way/117420260-0-4-0","properties":{"highway":"unclassified","lanes":"1","maxspeed":"50","name":"Tuas Bay Link","oneway":"yes","surface":"asphalt","startNodeId":"3150511883","endNodeId":"5152324430"},"geometry":{"type":"LineString","coordinates":[[103.6415209,1.2954875],[103.6415273,1.2955472]]}},{"type":"Feature","id":"way/117420260-0-5-0","properties":{"highway":"unclassified","lanes":"1","maxspeed":"50","name":"Tuas Bay Link","oneway":"yes","surface":"asphalt","startNodeId":"5152324430","endNodeId":"5152324429"},"geometry":{"type":"LineString","coordinates":[[103.6415273,1.2955472],[103.6415424,1.295575]]}},{"type":"Feature","id":"way/117420260-0-6-0","properties":{"highway":"unclassified","lanes":"1","maxspeed":"50","name":"Tuas Bay Link","oneway":"yes","surface":"asphalt","startNodeId":"5152324429","endNodeId":"3150511894"},"geometry":{"type":"LineString","coordinates":[[103.6415424,1.295575],[103.6415597,1.2956027]]}},{"type":"Feature","id":"way/117420260-0-7-0","properties":{"highway":"unclassified","lanes":"1","maxspeed":"50","name":"Tuas Bay Link","oneway":"yes","surface":"asphalt","startNodeId":"3150511894","endNodeId":"5152324431"},"geometry":{"type":"LineString","coordinates":[[103.6415597,1.2956027],[103.6415939,1.2956223]]}},{"type":"Feature","id":"way/117420260-0-8-0","properties":{"highway":"unclassified","lanes":"1","maxspeed":"50","name":"Tuas Bay Link","oneway":"yes","surface":"asphalt","startNodeId":"5152324431","endNodeId":"3150511910"},"geometry":{"type":"LineString","coordinates":[[103.6415939,1.2956223],[103.6416187,1.2956224]]}},{"type":"Feature","id":"way/117420260-0-9-0","properties":{"highway":"unclassified","lanes":"1","maxspeed":"50","name":"Tuas Bay Link","oneway":"yes","surface":"asphalt","startNodeId":"3150511910","endNodeId":"4488575502"},"geometry":{"type":"LineString","coordinates":[[103.6416187,1.2956224],[103.6416548,1.2956181]]}},{"type":"Feature","id":"way/123890038-0-3-0","properties":{"highway":"unclassified","lanes":"4","lanes:backward":"2","lanes:forward":"2","maxspeed":"60","name":"Tuas South Avenue 8","surface":"asphalt","turn:lanes:backward":"left;through|through","startNodeId":"1864054698","endNodeId":"1864054700"},"geometry":{"type":"LineString","coordinates":[[103.6408116,1.2929873],[103.6404618,1.2931052]]}},{"type":"Feature","id":"way/123890038-0-4-0","properties":{"highway":"unclassified","lanes":"4","lanes:backward":"2","lanes:forward":"2","maxspeed":"60","name":"Tuas South Avenue 8","surface":"asphalt","turn:lanes:backward":"left;through|through","startNodeId":"1864054700","endNodeId":"4488575330"},"geometry":{"type":"LineString","coordinates":[[103.6404618,1.2931052],[103.6401177,1.2932359]]}},{"type":"Feature","id":"way/309721681-0-0-0","properties":{"highway":"service","oneway":"yes","surface":"asphalt","startNodeId":"3150511886","endNodeId":"4488575501"},"geometry":{"type":"LineString","coordinates":[[103.6403807,1.2967861],[103.6403254,1.2968431]]}},{"type":"Feature","id":"way/452057660-0-0-0","properties":{"highway":"service","lanes":"1","oneway":"yes","turn:lanes":"through","startNodeId":"4488575342","endNodeId":"4488575343"},"geometry":{"type":"LineString","coordinates":[[103.6401409,1.2962506],[103.6401712,1.2962666]]}},{"type":"Feature","id":"way/452057660-0-1-0","properties":{"highway":"service","lanes":"1","oneway":"yes","turn:lanes":"through","startNodeId":"4488575343","endNodeId":"5272139390"},"geometry":{"type":"LineString","coordinates":[[103.6401712,1.2962666],[103.6402761,1.2963765]]}},{"type":"Feature","id":"way/452057660-0-2-0","properties":{"highway":"service","lanes":"1","oneway":"yes","turn:lanes":"through","startNodeId":"5272139390","endNodeId":"4488575344"},"geometry":{"type":"LineString","coordinates":[[103.6402761,1.2963765],[103.6402915,1.2963804]]}},{"type":"Feature","id":"way/452057660-0-3-0","properties":{"highway":"service","lanes":"1","oneway":"yes","turn:lanes":"through","startNodeId":"4488575344","endNodeId":"5272139389"},"geometry":{"type":"LineString","coordinates":[[103.6402915,1.2963804],[103.6403088,1.29638]]}},{"type":"Feature","id":"way/452057660-0-4-0","properties":{"highway":"service","lanes":"1","oneway":"yes","turn:lanes":"through","startNodeId":"5272139389","endNodeId":"4488575345"},"geometry":{"type":"LineString","coordinates":[[103.6403088,1.29638],[103.6403261,1.2963744]]}},{"type":"Feature","id":"way/452057660-0-5-0","properties":{"highway":"service","lanes":"1","oneway":"yes","turn:lanes":"through","startNodeId":"4488575345","endNodeId":"4488575346"},"geometry":{"type":"LineString","coordinates":[[103.6403261,1.2963744],[103.6406095,1.2961053]]}},{"type":"Feature","id":"way/452057660-0-6-0","properties":{"highway":"service","lanes":"1","oneway":"yes","turn:lanes":"through","startNodeId":"4488575346","endNodeId":"5272139386"},"geometry":{"type":"LineString","coordinates":[[103.6406095,1.2961053],[103.6406225,1.2960917]]}},{"type":"Feature","id":"way/452057660-0-7-0","properties":{"highway":"service","lanes":"1","oneway":"yes","turn:lanes":"through","startNodeId":"5272139386","endNodeId":"5272139387"},"geometry":{"type":"LineString","coordinates":[[103.6406225,1.2960917],[103.640626,1.2960802]]}},{"type":"Feature","id":"way/452057660-0-8-0","properties":{"highway":"service","lanes":"1","oneway":"yes","turn:lanes":"through","startNodeId":"5272139387","endNodeId":"5272139388"},"geometry":{"type":"LineString","coordinates":[[103.640626,1.2960802],[103.6406278,1.2960651]]}},{"type":"Feature","id":"way/452057660-0-9-0","properties":{"highway":"service","lanes":"1","oneway":"yes","turn:lanes":"through","startNodeId":"5272139388","endNodeId":"4488575350"},"geometry":{"type":"LineString","coordinates":[[103.6406278,1.2960651],[103.6406216,1.296043]]}},{"type":"Feature","id":"way/452057660-0-10-0","properties":{"highway":"service","lanes":"1","oneway":"yes","turn:lanes":"through","startNodeId":"4488575350","endNodeId":"4488575351"},"geometry":{"type":"LineString","coordinates":[[103.6406216,1.296043],[103.6404986,1.2959015]]}},{"type":"Feature","id":"way/452057661-0-0-0","properties":{"highway":"service","oneway":"yes","startNodeId":"4488575355","endNodeId":"5218420427"},"geometry":{"type":"LineString","coordinates":[[103.6399662,1.2964149],[103.6398364,1.2963994]]}},{"type":"Feature","id":"way/452057662-0-0-0","properties":{"highway":"service","oneway":"yes","startNodeId":"5218420458","endNodeId":"4488575360"},"geometry":{"type":"LineString","coordinates":[[103.6399656,1.2965123],[103.6400011,1.2965123]]}},{"type":"Feature","id":"way/452057662-0-1-0","properties":{"highway":"service","oneway":"yes","startNodeId":"4488575360","endNodeId":"4488575359"},"geometry":{"type":"LineString","coordinates":[[103.6400011,1.2965123],[103.6400654,1.2965444]]}},{"type":"Feature","id":"way/452057662-0-2-0","properties":{"highway":"service","oneway":"yes","startNodeId":"4488575359","endNodeId":"5218420459"},"geometry":{"type":"LineString","coordinates":[[103.6400654,1.2965444],[103.6401616,1.296655]]}},{"type":"Feature","id":"way/452057664-0-0-0","properties":{"highway":"service","oneway":"yes","service":"parking_aisle","startNodeId":"4488575380","endNodeId":"4488575381"},"geometry":{"type":"LineString","coordinates":[[103.64246,1.2967876],[103.6421709,1.2964817]]}},{"type":"Feature","id":"way/452057664-0-1-0","properties":{"highway":"service","oneway":"yes","service":"parking_aisle","startNodeId":"4488575381","endNodeId":"6615919166"},"geometry":{"type":"LineString","coordinates":[[103.6421709,1.2964817],[103.6420775,1.2965724]]}},{"type":"Feature","id":"way/452057664-0-2-0","properties":{"highway":"service","oneway":"yes","service":"parking_aisle","startNodeId":"6615919166","endNodeId":"4488575382"},"geometry":{"type":"LineString","coordinates":[[103.6420775,1.2965724],[103.6420776,1.2965782]]}},{"type":"Feature","id":"way/452057664-0-3-0","properties":{"highway":"service","oneway":"yes","service":"parking_aisle","startNodeId":"4488575382","endNodeId":"4488575384"},"geometry":{"type":"LineString","coordinates":[[103.6420776,1.2965782],[103.6424138,1.2969318]]}},{"type":"Feature","id":"way/452057664-0-4-0","properties":{"highway":"service","oneway":"yes","service":"parking_aisle","startNodeId":"4488575384","endNodeId":"4488575385"},"geometry":{"type":"LineString","coordinates":[[103.6424138,1.2969318],[103.6424667,1.2968855]]}},{"type":"Feature","id":"way/452057664-0-5-0","properties":{"highway":"service","oneway":"yes","service":"parking_aisle","startNodeId":"4488575385","endNodeId":"5218420425"},"geometry":{"type":"LineString","coordinates":[[103.6424667,1.2968855],[103.6424741,1.2968345]]}},{"type":"Feature","id":"way/452057664-0-6-0","properties":{"highway":"service","oneway":"yes","service":"parking_aisle","startNodeId":"5218420425","endNodeId":"4488575380"},"geometry":{"type":"LineString","coordinates":[[103.6424741,1.2968345],[103.64246,1.2967876]]}},{"type":"Feature","id":"way/452057665-0-0-0","properties":{"highway":"service","oneway":"yes","startNodeId":"4488575498","endNodeId":"4488575387"},"geometry":{"type":"LineString","coordinates":[[103.6405912,1.297159],[103.6407716,1.2973662]]}},{"type":"Feature","id":"way/452057666-0-0-0","properties":{"highway":"service","oneway":"yes","service":"parking_aisle","startNodeId":"4488575498","endNodeId":"4488575497"},"geometry":{"type":"LineString","coordinates":[[103.6405912,1.297159],[103.6404792,1.2972629]]}},{"type":"Feature","id":"way/452057666-0-1-0","properties":{"highway":"service","oneway":"yes","service":"parking_aisle","startNodeId":"4488575497","endNodeId":"5218420432"},"geometry":{"type":"LineString","coordinates":[[103.6404792,1.2972629],[103.6404725,1.2972857]]}},{"type":"Feature","id":"way/452057666-0-2-0","properties":{"highway":"service","oneway":"yes","service":"parking_aisle","startNodeId":"5218420432","endNodeId":"5218420431"},"geometry":{"type":"LineString","coordinates":[[103.6404725,1.2972857],[103.6404718,1.2973025]]}},{"type":"Feature","id":"way/452057666-0-3-0","properties":{"highway":"service","oneway":"yes","service":"parking_aisle","startNodeId":"5218420431","endNodeId":"4488575496"},"geometry":{"type":"LineString","coordinates":[[103.6404718,1.2973025],[103.6404812,1.2973239]]}},{"type":"Feature","id":"way/452057666-0-4-0","properties":{"highway":"service","oneway":"yes","service":"parking_aisle","startNodeId":"4488575496","endNodeId":"4488575494"},"geometry":{"type":"LineString","coordinates":[[103.6404812,1.2973239],[103.640606,1.297466]]}},{"type":"Feature","id":"way/452057666-0-5-0","properties":{"highway":"service","oneway":"yes","service":"parking_aisle","startNodeId":"4488575494","endNodeId":"5218420429"},"geometry":{"type":"LineString","coordinates":[[103.640606,1.297466],[103.6406254,1.2974727]]}},{"type":"Feature","id":"way/452057666-0-6-0","properties":{"highway":"service","oneway":"yes","service":"parking_aisle","startNodeId":"5218420429","endNodeId":"5218420430"},"geometry":{"type":"LineString","coordinates":[[103.6406254,1.2974727],[103.6406542,1.2974721]]}},{"type":"Feature","id":"way/452057666-0-7-0","properties":{"highway":"service","oneway":"yes","service":"parking_aisle","startNodeId":"5218420430","endNodeId":"4488575493"},"geometry":{"type":"LineString","coordinates":[[103.6406542,1.2974721],[103.6406804,1.297464]]}},{"type":"Feature","id":"way/452057666-0-8-0","properties":{"highway":"service","oneway":"yes","service":"parking_aisle","startNodeId":"4488575493","endNodeId":"4488575387"},"geometry":{"type":"LineString","coordinates":[[103.6406804,1.297464],[103.6407716,1.2973662]]}},{"type":"Feature","id":"way/452057667-0-0-0","properties":{"highway":"service","lanes":"2","lanes:backward":"1","lanes:forward":"1","turn:lanes:backward":"through","turn:lanes:forward":"through","startNodeId":"4488575511","endNodeId":"4488575510"},"geometry":{"type":"LineString","coordinates":[[103.6422821,1.2973183],[103.6425078,1.2971039]]}},{"type":"Feature","id":"way/452057667-0-1-0","properties":{"highway":"service","lanes":"2","lanes:backward":"1","lanes:forward":"1","turn:lanes:backward":"through","turn:lanes:forward":"through","startNodeId":"4488575510","endNodeId":"4488575509"},"geometry":{"type":"LineString","coordinates":[[103.6425078,1.2971039],[103.6425625,1.2970042]]}},{"type":"Feature","id":"way/452057667-0-2-0","properties":{"highway":"service","lanes":"2","lanes:backward":"1","lanes:forward":"1","turn:lanes:backward":"through","turn:lanes:forward":"through","startNodeId":"4488575509","endNodeId":"4488575508"},"geometry":{"type":"LineString","coordinates":[[103.6425625,1.2970042],[103.6425593,1.2968692]]}},{"type":"Feature","id":"way/452057667-0-3-0","properties":{"highway":"service","lanes":"2","lanes:backward":"1","lanes:forward":"1","turn:lanes:backward":"through","turn:lanes:forward":"through","startNodeId":"4488575508","endNodeId":"4488575386"},"geometry":{"type":"LineString","coordinates":[[103.6425593,1.2968692],[103.642537,1.2967868]]}},{"type":"Feature","id":"way/452057667-0-4-0","properties":{"highway":"service","lanes":"2","lanes:backward":"1","lanes:forward":"1","turn:lanes:backward":"through","turn:lanes:forward":"through","startNodeId":"4488575386","endNodeId":"4488575507"},"geometry":{"type":"LineString","coordinates":[[103.642537,1.2967868],[103.6425175,1.2967148]]}},{"type":"Feature","id":"way/452057667-0-5-0","properties":{"highway":"service","lanes":"2","lanes:backward":"1","lanes:forward":"1","turn:lanes:backward":"through","turn:lanes:forward":"through","startNodeId":"4488575507","endNodeId":"4488575506"},"geometry":{"type":"LineString","coordinates":[[103.6425175,1.2967148],[103.6424113,1.2965734]]}},{"type":"Feature","id":"way/452057667-0-6-0","properties":{"highway":"service","lanes":"2","lanes:backward":"1","lanes:forward":"1","turn:lanes:backward":"through","turn:lanes:forward":"through","startNodeId":"4488575506","endNodeId":"5218420426"},"geometry":{"type":"LineString","coordinates":[[103.6424113,1.2965734],[103.6422685,1.2963821]]}},{"type":"Feature","id":"way/452057668-0-0-0","properties":{"highway":"service","lanes":"2","lanes:backward":"1","lanes:forward":"1","turn:lanes:backward":"through","turn:lanes:forward":"through","startNodeId":"4488553441","endNodeId":"6487422764"},"geometry":{"type":"LineString","coordinates":[[103.6406732,1.2959561],[103.6407065,1.2960536]]}},{"type":"Feature","id":"way/452057668-0-1-0","properties":{"highway":"service","lanes":"2","lanes:backward":"1","lanes:forward":"1","turn:lanes:backward":"through","turn:lanes:forward":"through","startNodeId":"6487422764","endNodeId":"4488553440"},"geometry":{"type":"LineString","coordinates":[[103.6407065,1.2960536],[103.6406978,1.2961213]]}},{"type":"Feature","id":"way/452057668-0-2-0","properties":{"highway":"service","lanes":"2","lanes:backward":"1","lanes:forward":"1","turn:lanes:backward":"through","turn:lanes:forward":"through","startNodeId":"4488553440","endNodeId":"4488553439"},"geometry":{"type":"LineString","coordinates":[[103.6406978,1.2961213],[103.6406987,1.2962076]]}},{"type":"Feature","id":"way/452057668-0-3-0","properties":{"highway":"service","lanes":"2","lanes:backward":"1","lanes:forward":"1","turn:lanes:backward":"through","turn:lanes:forward":"through","startNodeId":"4488553439","endNodeId":"6487422763"},"geometry":{"type":"LineString","coordinates":[[103.6406987,1.2962076],[103.6407106,1.2962547]]}},{"type":"Feature","id":"way/452057668-0-4-0","properties":{"highway":"service","lanes":"2","lanes:backward":"1","lanes:forward":"1","turn:lanes:backward":"through","turn:lanes:forward":"through","startNodeId":"6487422763","endNodeId":"4488553438"},"geometry":{"type":"LineString","coordinates":[[103.6407106,1.2962547],[103.640758,1.2963264]]}},{"type":"Feature","id":"way/452057668-0-5-0","properties":{"highway":"service","lanes":"2","lanes:backward":"1","lanes:forward":"1","turn:lanes:backward":"through","turn:lanes:forward":"through","startNodeId":"4488553438","endNodeId":"4488553437"},"geometry":{"type":"LineString","coordinates":[[103.640758,1.2963264],[103.6409575,1.2964994]]}},{"type":"Feature","id":"way/452057668-0-6-0","properties":{"highway":"service","lanes":"2","lanes:backward":"1","lanes:forward":"1","turn:lanes:backward":"through","turn:lanes:forward":"through","startNodeId":"4488553437","endNodeId":"6487422762"},"geometry":{"type":"LineString","coordinates":[[103.6409575,1.2964994],[103.6410525,1.2965684]]}},{"type":"Feature","id":"way/452057668-0-7-0","properties":{"highway":"service","lanes":"2","lanes:backward":"1","lanes:forward":"1","turn:lanes:backward":"through","turn:lanes:forward":"through","startNodeId":"6487422762","endNodeId":"4488553436"},"geometry":{"type":"LineString","coordinates":[[103.6410525,1.2965684],[103.6411436,1.2966058]]}},{"type":"Feature","id":"way/452057668-0-8-0","properties":{"highway":"service","lanes":"2","lanes:backward":"1","lanes:forward":"1","turn:lanes:backward":"through","turn:lanes:forward":"through","startNodeId":"4488553436","endNodeId":"4488553435"},"geometry":{"type":"LineString","coordinates":[[103.6411436,1.2966058],[103.6412167,1.2966264]]}},{"type":"Feature","id":"way/452057668-0-9-0","properties":{"highway":"service","lanes":"2","lanes:backward":"1","lanes:forward":"1","turn:lanes:backward":"through","turn:lanes:forward":"through","startNodeId":"4488553435","endNodeId":"4488553434"},"geometry":{"type":"LineString","coordinates":[[103.6412167,1.2966264],[103.6413362,1.2966291]]}},{"type":"Feature","id":"way/452057668-0-10-0","properties":{"highway":"service","lanes":"2","lanes:backward":"1","lanes:forward":"1","turn:lanes:backward":"through","turn:lanes:forward":"through","startNodeId":"4488553434","endNodeId":"4488553433"},"geometry":{"type":"LineString","coordinates":[[103.6413362,1.2966291],[103.6414915,1.2966087]]}},{"type":"Feature","id":"way/452057668-0-11-0","properties":{"highway":"service","lanes":"2","lanes:backward":"1","lanes:forward":"1","turn:lanes:backward":"through","turn:lanes:forward":"through","startNodeId":"4488553433","endNodeId":"6487422765"},"geometry":{"type":"LineString","coordinates":[[103.6414915,1.2966087],[103.641538,1.2966194]]}},{"type":"Feature","id":"way/452057668-0-12-0","properties":{"highway":"service","lanes":"2","lanes:backward":"1","lanes:forward":"1","turn:lanes:backward":"through","turn:lanes:forward":"through","startNodeId":"6487422765","endNodeId":"4488553432"},"geometry":{"type":"LineString","coordinates":[[103.641538,1.2966194],[103.6416152,1.296657]]}},{"type":"Feature","id":"way/452057668-0-13-0","properties":{"highway":"service","lanes":"2","lanes:backward":"1","lanes:forward":"1","turn:lanes:backward":"through","turn:lanes:forward":"through","startNodeId":"4488553432","endNodeId":"6487422761"},"geometry":{"type":"LineString","coordinates":[[103.6416152,1.296657],[103.641699,1.2967293]]}},{"type":"Feature","id":"way/452057668-0-14-0","properties":{"highway":"service","lanes":"2","lanes:backward":"1","lanes:forward":"1","turn:lanes:backward":"through","turn:lanes:forward":"through","startNodeId":"6487422761","endNodeId":"4488553431"},"geometry":{"type":"LineString","coordinates":[[103.641699,1.2967293],[103.6417847,1.2968285]]}},{"type":"Feature","id":"way/452057668-0-15-0","properties":{"highway":"service","lanes":"2","lanes:backward":"1","lanes:forward":"1","turn:lanes:backward":"through","turn:lanes:forward":"through","startNodeId":"4488553431","endNodeId":"4488553430"},"geometry":{"type":"LineString","coordinates":[[103.6417847,1.2968285],[103.6419723,1.2970509]]}},{"type":"Feature","id":"way/452057668-0-16-0","properties":{"highway":"service","lanes":"2","lanes:backward":"1","lanes:forward":"1","turn:lanes:backward":"through","turn:lanes:forward":"through","startNodeId":"4488553430","endNodeId":"4488575376"},"geometry":{"type":"LineString","coordinates":[[103.6419723,1.2970509],[103.6421343,1.2972484]]}},{"type":"Feature","id":"way/452057673-0-6-0","properties":{"highway":"service","lanes":"2","lanes:backward":"1","lanes:forward":"1","startNodeId":"4488553487","endNodeId":"4488553477"},"geometry":{"type":"LineString","coordinates":[[103.6419536,1.2929949],[103.6418704,1.293025]]}},{"type":"Feature","id":"way/452057673-0-7-0","properties":{"highway":"service","lanes":"2","lanes:backward":"1","lanes:forward":"1","startNodeId":"4488553477","endNodeId":"4488553476"},"geometry":{"type":"LineString","coordinates":[[103.6418704,1.293025],[103.6418089,1.2930677]]}},{"type":"Feature","id":"way/452057673-0-8-0","properties":{"highway":"service","lanes":"2","lanes:backward":"1","lanes:forward":"1","startNodeId":"4488553476","endNodeId":"4488553475"},"geometry":{"type":"LineString","coordinates":[[103.6418089,1.2930677],[103.6417658,1.2931243]]}},{"type":"Feature","id":"way/452057673-0-9-0","properties":{"highway":"service","lanes":"2","lanes:backward":"1","lanes:forward":"1","startNodeId":"4488553475","endNodeId":"4488553474"},"geometry":{"type":"LineString","coordinates":[[103.6417658,1.2931243],[103.6417393,1.2932006]]}},{"type":"Feature","id":"way/465708988-0-0-0","properties":{"highway":"tertiary_link","lanes":"1","maxspeed":"50","oneway":"yes","surface":"asphalt","startNodeId":"4606359377","endNodeId":"4606359378"},"geometry":{"type":"LineString","coordinates":[[103.6400139,1.2972154],[103.6399261,1.2972338]]}},{"type":"Feature","id":"way/465708988-0-1-0","properties":{"highway":"tertiary_link","lanes":"1","maxspeed":"50","oneway":"yes","surface":"asphalt","startNodeId":"4606359378","endNodeId":"8382969466"},"geometry":{"type":"LineString","coordinates":[[103.6399261,1.2972338],[103.6398638,1.2972377]]}},{"type":"Feature","id":"way/465708988-0-2-0","properties":{"highway":"tertiary_link","lanes":"1","maxspeed":"50","oneway":"yes","surface":"asphalt","startNodeId":"8382969466","endNodeId":"4714156136"},"geometry":{"type":"LineString","coordinates":[[103.6398638,1.2972377],[103.6398453,1.2972386]]}},{"type":"Feature","id":"way/465708989-0-1-0","properties":{"highway":"tertiary_link","lanes":"1","maxspeed":"50","oneway":"yes","surface":"asphalt","startNodeId":"5152210483","endNodeId":"5152210484"},"geometry":{"type":"LineString","coordinates":[[103.6400258,1.2974443],[103.6400239,1.2974066]]}},{"type":"Feature","id":"way/465708989-0-2-0","properties":{"highway":"tertiary_link","lanes":"1","maxspeed":"50","oneway":"yes","surface":"asphalt","startNodeId":"5152210484","endNodeId":"5152210485"},"geometry":{"type":"LineString","coordinates":[[103.6400239,1.2974066],[103.6400339,1.2973577]]}},{"type":"Feature","id":"way/465708989-0-3-0","properties":{"highway":"tertiary_link","lanes":"1","maxspeed":"50","oneway":"yes","surface":"asphalt","startNodeId":"5152210485","endNodeId":"4715542882"},"geometry":{"type":"LineString","coordinates":[[103.6400339,1.2973577],[103.6400779,1.2972528]]}},{"type":"Feature","id":"way/465766689-0-1-0","properties":{"highway":"service","startNodeId":"4606872722","endNodeId":"4606872721"},"geometry":{"type":"LineString","coordinates":[[103.6438746,1.2930419],[103.6438703,1.2930706]]}},{"type":"Feature","id":"way/465766689-0-2-0","properties":{"highway":"service","startNodeId":"4606872721","endNodeId":"4606872720"},"geometry":{"type":"LineString","coordinates":[[103.6438703,1.2930706],[103.643849,1.2930855]]}},{"type":"Feature","id":"way/465766689-0-3-0","properties":{"highway":"service","startNodeId":"4606872720","endNodeId":"4606872719"},"geometry":{"type":"LineString","coordinates":[[103.643849,1.2930855],[103.643815,1.2930877]]}},{"type":"Feature","id":"way/465770467-0-0-0","properties":{"highway":"unclassified","lanes":"2","lanes:backward":"1","lanes:forward":"1","maxspeed":"50","name":"Tuas Bay Link","surface":"asphalt","turn:lanes:backward":"through;right","startNodeId":"1322834723","endNodeId":"6497563050"},"geometry":{"type":"LineString","coordinates":[[103.6416613,1.2951934],[103.6416599,1.2951643]]}},{"type":"Feature","id":"way/465770469-0-0-0","properties":{"highway":"service","lanes":"2","lanes:backward":"1","lanes:forward":"1","turn:lanes:backward":"through","turn:lanes:forward":"through","startNodeId":"4488553474","endNodeId":"4488553473"},"geometry":{"type":"LineString","coordinates":[[103.6417393,1.2932006],[103.6417414,1.2933263]]}},{"type":"Feature","id":"way/465770469-0-1-0","properties":{"highway":"service","lanes":"2","lanes:backward":"1","lanes:forward":"1","turn:lanes:backward":"through","turn:lanes:forward":"through","startNodeId":"4488553473","endNodeId":"4488553472"},"geometry":{"type":"LineString","coordinates":[[103.6417414,1.2933263],[103.6418114,1.2941185]]}},{"type":"Feature","id":"way/465770469-0-2-0","properties":{"highway":"service","lanes":"2","lanes:backward":"1","lanes:forward":"1","turn:lanes:backward":"through","turn:lanes:forward":"through","startNodeId":"4488553472","endNodeId":"6292427539"},"geometry":{"type":"LineString","coordinates":[[103.6418114,1.2941185],[103.6418572,1.2948066]]}},{"type":"Feature","id":"way/465770470-0-0-0","properties":{"highway":"service","lanes":"2","lanes:backward":"1","lanes:forward":"1","turn:lanes:backward":"through;right","turn:lanes:forward":"left","startNodeId":"4488553471","endNodeId":"8382988451"},"geometry":{"type":"LineString","coordinates":[[103.6418839,1.2951665],[103.6417566,1.2951653]]}},{"type":"Feature","id":"way/465770470-0-1-0","properties":{"highway":"service","lanes":"2","lanes:backward":"1","lanes:forward":"1","turn:lanes:backward":"through;right","turn:lanes:forward":"left","startNodeId":"8382988451","endNodeId":"6497563050"},"geometry":{"type":"LineString","coordinates":[[103.6417566,1.2951653],[103.6416599,1.2951643]]}},{"type":"Feature","id":"way/465770471-0-0-0","properties":{"highway":"service","startNodeId":"4488553480","endNodeId":"4937957438"},"geometry":{"type":"LineString","coordinates":[[103.6433308,1.2950776],[103.64333,1.2948448]]}},{"type":"Feature","id":"way/465770471-0-1-0","properties":{"highway":"service","startNodeId":"4937957438","endNodeId":"4937957450"},"geometry":{"type":"LineString","coordinates":[[103.64333,1.2948448],[103.6433277,1.2947983]]}},{"type":"Feature","id":"way/465770471-0-2-0","properties":{"highway":"service","startNodeId":"4937957450","endNodeId":"4937957449"},"geometry":{"type":"LineString","coordinates":[[103.6433277,1.2947983],[103.6433127,1.2946012]]}},{"type":"Feature","id":"way/465770471-0-3-0","properties":{"highway":"service","startNodeId":"4937957449","endNodeId":"4488553482"},"geometry":{"type":"LineString","coordinates":[[103.6433127,1.2946012],[103.643303,1.2943121]]}},{"type":"Feature","id":"way/465770471-0-4-0","properties":{"highway":"service","startNodeId":"4488553482","endNodeId":"4488553483"},"geometry":{"type":"LineString","coordinates":[[103.643303,1.2943121],[103.6432075,1.2929818]]}},{"type":"Feature","id":"way/465772748-0-0-0","properties":{"highway":"service","lanes":"1","oneway":"yes","turn:lanes":"left","startNodeId":"4488575355","endNodeId":"5218420457"},"geometry":{"type":"LineString","coordinates":[[103.6399662,1.2964149],[103.6399937,1.296372]]}},{"type":"Feature","id":"way/465772748-0-1-0","properties":{"highway":"service","lanes":"1","oneway":"yes","turn:lanes":"left","startNodeId":"5218420457","endNodeId":"4488575353"},"geometry":{"type":"LineString","coordinates":[[103.6399937,1.296372],[103.640112,1.2962604]]}},{"type":"Feature","id":"way/465772748-0-2-0","properties":{"highway":"service","lanes":"1","oneway":"yes","turn:lanes":"left","startNodeId":"4488575353","endNodeId":"4488575342"},"geometry":{"type":"LineString","coordinates":[[103.640112,1.2962604],[103.6401409,1.2962506]]}},{"type":"Feature","id":"way/478324093-0-0-0","properties":{"highway":"service","oneway":"yes","surface":"asphalt","startNodeId":"4715542882","endNodeId":"4715542884"},"geometry":{"type":"LineString","coordinates":[[103.6400779,1.2972528],[103.6403947,1.2969166]]}},{"type":"Feature","id":"way/478326810-0-1-0","properties":{"bicycle":"yes","cycleway":"no","highway":"tertiary","lanes":"4","maxspeed":"50","name":"Tuas South Avenue 9","oneway":"yes","surface":"asphalt","turn:lanes":"left;through|through|through|right","startNodeId":"8382969489","endNodeId":"4715542883"},"geometry":{"type":"LineString","coordinates":[[103.6399333,1.2974655],[103.6399096,1.2974415]]}},{"type":"Feature","id":"way/539268363-0-0-0","properties":{"highway":"service","lanes":"2","lanes:backward":"1","lanes:forward":"1","turn:lanes:backward":"through","turn:lanes:forward":"through","startNodeId":"4488575381","endNodeId":"5218420426"},"geometry":{"type":"LineString","coordinates":[[103.6421709,1.2964817],[103.6422685,1.2963821]]}},{"type":"Feature","id":"way/539268365-0-0-0","properties":{"highway":"service","oneway":"yes","startNodeId":"4488575387","endNodeId":"5218346022"},"geometry":{"type":"LineString","coordinates":[[103.6407716,1.2973662],[103.6407991,1.2972931]]}},{"type":"Feature","id":"way/539268365-0-1-0","properties":{"highway":"service","oneway":"yes","startNodeId":"5218346022","endNodeId":"5218420433"},"geometry":{"type":"LineString","coordinates":[[103.6407991,1.2972931],[103.6408085,1.2972562]]}},{"type":"Feature","id":"way/539268365-0-2-0","properties":{"highway":"service","oneway":"yes","startNodeId":"5218420433","endNodeId":"4488575490"},"geometry":{"type":"LineString","coordinates":[[103.6408085,1.2972562],[103.6408024,1.2972126]]}},{"type":"Feature","id":"way/539268365-0-3-0","properties":{"highway":"service","oneway":"yes","startNodeId":"4488575490","endNodeId":"5218420428"},"geometry":{"type":"LineString","coordinates":[[103.6408024,1.2972126],[103.640676,1.2970852]]}},{"type":"Feature","id":"way/539268366-0-0-0","properties":{"highway":"service","oneway":"yes","startNodeId":"4715542884","endNodeId":"4488575499"},"geometry":{"type":"LineString","coordinates":[[103.6403947,1.2969166],[103.6405812,1.29712]]}},{"type":"Feature","id":"way/539268366-0-1-0","properties":{"highway":"service","oneway":"yes","startNodeId":"4488575499","endNodeId":"4488575498"},"geometry":{"type":"LineString","coordinates":[[103.6405812,1.29712],[103.6405912,1.297159]]}},{"type":"Feature","id":"way/539268367-0-0-0","properties":{"highway":"service","startNodeId":"4488575498","endNodeId":"5218420428"},"geometry":{"type":"LineString","coordinates":[[103.6405912,1.297159],[103.640676,1.2970852]]}},{"type":"Feature","id":"way/539268368-0-0-0","properties":{"highway":"service","oneway":"yes","startNodeId":"5218420436","endNodeId":"5218420435"},"geometry":{"type":"LineString","coordinates":[[103.6398451,1.296561],[103.6398797,1.2965356]]}},{"type":"Feature","id":"way/539268368-0-1-0","properties":{"highway":"service","oneway":"yes","startNodeId":"5218420435","endNodeId":"5218420434"},"geometry":{"type":"LineString","coordinates":[[103.6398797,1.2965356],[103.63992,1.2965201]]}},{"type":"Feature","id":"way/539268368-0-2-0","properties":{"highway":"service","oneway":"yes","startNodeId":"5218420434","endNodeId":"5218420458"},"geometry":{"type":"LineString","coordinates":[[103.63992,1.2965201],[103.6399656,1.2965123]]}},{"type":"Feature","id":"way/539268372-0-0-0","properties":{"highway":"service","startNodeId":"5218420460","endNodeId":"5218420459"},"geometry":{"type":"LineString","coordinates":[[103.6402183,1.2966039],[103.6401616,1.296655]]}},{"type":"Feature","id":"way/539304793-0-0-0","properties":{"highway":"service","oneway":"yes","service":"parking_aisle","startNodeId":"5218777921","endNodeId":"5218777620"},"geometry":{"type":"LineString","coordinates":[[103.6420894,1.2951721],[103.6425301,1.2953704]]}},{"type":"Feature","id":"way/539304793-0-1-0","properties":{"highway":"service","oneway":"yes","service":"parking_aisle","startNodeId":"5218777620","endNodeId":"6484979674"},"geometry":{"type":"LineString","coordinates":[[103.6425301,1.2953704],[103.6425459,1.2953778]]}},{"type":"Feature","id":"way/539304793-0-2-0","properties":{"highway":"service","oneway":"yes","service":"parking_aisle","startNodeId":"6484979674","endNodeId":"6484979673"},"geometry":{"type":"LineString","coordinates":[[103.6425459,1.2953778],[103.6425616,1.2953838]]}},{"type":"Feature","id":"way/539304793-0-3-0","properties":{"highway":"service","oneway":"yes","service":"parking_aisle","startNodeId":"6484979673","endNodeId":"6484979675"},"geometry":{"type":"LineString","coordinates":[[103.6425616,1.2953838],[103.642577,1.2953872]]}},{"type":"Feature","id":"way/539304793-0-4-0","properties":{"highway":"service","oneway":"yes","service":"parking_aisle","startNodeId":"6484979675","endNodeId":"5218777619"},"geometry":{"type":"LineString","coordinates":[[103.642577,1.2953872],[103.6432828,1.295339]]}},{"type":"Feature","id":"way/539304793-0-5-0","properties":{"highway":"service","oneway":"yes","service":"parking_aisle","startNodeId":"5218777619","endNodeId":"6484979671"},"geometry":{"type":"LineString","coordinates":[[103.6432828,1.295339],[103.6433069,1.2953282]]}},{"type":"Feature","id":"way/539304793-0-6-0","properties":{"highway":"service","oneway":"yes","service":"parking_aisle","startNodeId":"6484979671","endNodeId":"6484979672"},"geometry":{"type":"LineString","coordinates":[[103.6433069,1.2953282],[103.6433244,1.2953081]]}},{"type":"Feature","id":"way/539304793-0-7-0","properties":{"highway":"service","oneway":"yes","service":"parking_aisle","startNodeId":"6484979672","endNodeId":"6484979670"},"geometry":{"type":"LineString","coordinates":[[103.6433244,1.2953081],[103.6433284,1.2952799]]}},{"type":"Feature","id":"way/539304793-0-8-0","properties":{"highway":"service","oneway":"yes","service":"parking_aisle","startNodeId":"6484979670","endNodeId":"4488553480"},"geometry":{"type":"LineString","coordinates":[[103.6433284,1.2952799],[103.6433308,1.2950776]]}},{"type":"Feature","id":"way/539305548-0-0-0","properties":{"highway":"service","service":"parking_aisle","startNodeId":"5218781690","endNodeId":"5218781689"},"geometry":{"type":"LineString","coordinates":[[103.6411183,1.295052],[103.6412725,1.2954247]]}},{"type":"Feature","id":"way/539305548-0-1-0","properties":{"highway":"service","service":"parking_aisle","startNodeId":"5218781689","endNodeId":"5218781688"},"geometry":{"type":"LineString","coordinates":[[103.6412725,1.2954247],[103.6412752,1.2954623]]}},{"type":"Feature","id":"way/539305548-0-2-0","properties":{"highway":"service","service":"parking_aisle","startNodeId":"5218781688","endNodeId":"5218781687"},"geometry":{"type":"LineString","coordinates":[[103.6412752,1.2954623],[103.6412685,1.2954891]]}},{"type":"Feature","id":"way/539305548-0-3-0","properties":{"highway":"service","service":"parking_aisle","startNodeId":"5218781687","endNodeId":"5218781686"},"geometry":{"type":"LineString","coordinates":[[103.6412685,1.2954891],[103.6412524,1.2955092]]}},{"type":"Feature","id":"way/539305548-0-4-0","properties":{"highway":"service","service":"parking_aisle","startNodeId":"5218781686","endNodeId":"5218781695"},"geometry":{"type":"LineString","coordinates":[[103.6412524,1.2955092],[103.6412124,1.2955256]]}},{"type":"Feature","id":"way/539305549-0-0-0","properties":{"highway":"service","oneway":"yes","service":"parking_aisle","startNodeId":"5218781694","endNodeId":"5218781693"},"geometry":{"type":"LineString","coordinates":[[103.6412833,1.2956848],[103.6412537,1.2957586]]}},{"type":"Feature","id":"way/539305549-0-1-0","properties":{"highway":"service","oneway":"yes","service":"parking_aisle","startNodeId":"5218781693","endNodeId":"5218781692"},"geometry":{"type":"LineString","coordinates":[[103.6412537,1.2957586],[103.6411732,1.2958726]]}},{"type":"Feature","id":"way/539305549-0-2-0","properties":{"highway":"service","oneway":"yes","service":"parking_aisle","startNodeId":"5218781692","endNodeId":"6484970574"},"geometry":{"type":"LineString","coordinates":[[103.6411732,1.2958726],[103.640919,1.2959903]]}},{"type":"Feature","id":"way/539305549-0-3-0","properties":{"highway":"service","oneway":"yes","service":"parking_aisle","startNodeId":"6484970574","endNodeId":"6484970576"},"geometry":{"type":"LineString","coordinates":[[103.640919,1.2959903],[103.6409049,1.2959929]]}},{"type":"Feature","id":"way/539305549-0-4-0","properties":{"highway":"service","oneway":"yes","service":"parking_aisle","startNodeId":"6484970576","endNodeId":"5218781691"},"geometry":{"type":"LineString","coordinates":[[103.6409049,1.2959929],[103.6408944,1.2959915]]}},{"type":"Feature","id":"way/539305549-0-5-0","properties":{"highway":"service","oneway":"yes","service":"parking_aisle","startNodeId":"5218781691","endNodeId":"6484970577"},"geometry":{"type":"LineString","coordinates":[[103.6408944,1.2959915],[103.6408854,1.295984]]}},{"type":"Feature","id":"way/539305549-0-6-0","properties":{"highway":"service","oneway":"yes","service":"parking_aisle","startNodeId":"6484970577","endNodeId":"6484970575"},"geometry":{"type":"LineString","coordinates":[[103.6408854,1.295984],[103.640876,1.2959678]]}},{"type":"Feature","id":"way/539305549-0-7-0","properties":{"highway":"service","oneway":"yes","service":"parking_aisle","startNodeId":"6484970575","endNodeId":"5218781697"},"geometry":{"type":"LineString","coordinates":[[103.640876,1.2959678],[103.6408339,1.2958846]]}},{"type":"Feature","id":"way/539305550-0-0-0","properties":{"highway":"service","oneway":"yes","service":"parking_aisle","startNodeId":"5218781697","endNodeId":"6484970581"},"geometry":{"type":"LineString","coordinates":[[103.6408339,1.2958846],[103.640775,1.2957521]]}},{"type":"Feature","id":"way/539305550-0-1-0","properties":{"highway":"service","oneway":"yes","service":"parking_aisle","startNodeId":"6484970581","endNodeId":"6484970579"},"geometry":{"type":"LineString","coordinates":[[103.640775,1.2957521],[103.6407724,1.2957437]]}},{"type":"Feature","id":"way/539305550-0-2-0","properties":{"highway":"service","oneway":"yes","service":"parking_aisle","startNodeId":"6484970579","endNodeId":"5218781696"},"geometry":{"type":"LineString","coordinates":[[103.6407724,1.2957437],[103.6407713,1.2957333]]}},{"type":"Feature","id":"way/539305550-0-3-0","properties":{"highway":"service","oneway":"yes","service":"parking_aisle","startNodeId":"5218781696","endNodeId":"6484970578"},"geometry":{"type":"LineString","coordinates":[[103.6407713,1.2957333],[103.640774,1.2957268]]}},{"type":"Feature","id":"way/539305550-0-4-0","properties":{"highway":"service","oneway":"yes","service":"parking_aisle","startNodeId":"6484970578","endNodeId":"6484970580"},"geometry":{"type":"LineString","coordinates":[[103.640774,1.2957268],[103.640783,1.2957178]]}},{"type":"Feature","id":"way/539305550-0-5-0","properties":{"highway":"service","oneway":"yes","service":"parking_aisle","startNodeId":"6484970580","endNodeId":"5218781695"},"geometry":{"type":"LineString","coordinates":[[103.640783,1.2957178],[103.6412124,1.2955256]]}},{"type":"Feature","id":"way/539305550-0-6-0","properties":{"highway":"service","oneway":"yes","service":"parking_aisle","startNodeId":"5218781695","endNodeId":"5218781694"},"geometry":{"type":"LineString","coordinates":[[103.6412124,1.2955256],[103.6412833,1.2956848]]}},{"type":"Feature","id":"way/539305550-0-7-0","properties":{"highway":"service","oneway":"yes","service":"parking_aisle","startNodeId":"5218781694","endNodeId":"5218781697"},"geometry":{"type":"LineString","coordinates":[[103.6412833,1.2956848],[103.6408339,1.2958846]]}},{"type":"Feature","id":"way/539305551-0-0-0","properties":{"highway":"service","startNodeId":"4488553441","endNodeId":"5218781697"},"geometry":{"type":"LineString","coordinates":[[103.6406732,1.2959561],[103.6408339,1.2958846]]}},{"type":"Feature","id":"way/539305552-0-0-0","properties":{"highway":"service","lanes":"2","lanes:backward":"1","lanes:forward":"1","turn:lanes:backward":"through","turn:lanes:forward":"through","startNodeId":"5218781699","endNodeId":"5218781698"},"geometry":{"type":"LineString","coordinates":[[103.6414924,1.296189],[103.6418339,1.2958667]]}},{"type":"Feature","id":"way/545496262-0-0-0","properties":{"highway":"service","oneway":"yes","startNodeId":"4488575351","endNodeId":"5272139385"},"geometry":{"type":"LineString","coordinates":[[103.6404986,1.2959015],[103.6403535,1.2957361]]}},{"type":"Feature","id":"way/545496262-0-1-0","properties":{"highway":"service","oneway":"yes","startNodeId":"5272139385","endNodeId":"5272139384"},"geometry":{"type":"LineString","coordinates":[[103.6403535,1.2957361],[103.6403499,1.2957228]]}},{"type":"Feature","id":"way/545496262-0-2-0","properties":{"highway":"service","oneway":"yes","startNodeId":"5272139384","endNodeId":"5272139383"},"geometry":{"type":"LineString","coordinates":[[103.6403499,1.2957228],[103.6403535,1.2957095]]}},{"type":"Feature","id":"way/545496262-0-3-0","properties":{"highway":"service","oneway":"yes","startNodeId":"5272139383","endNodeId":"5272139382"},"geometry":{"type":"LineString","coordinates":[[103.6403535,1.2957095],[103.6403588,1.2957025]]}},{"type":"Feature","id":"way/545496262-0-4-0","properties":{"highway":"service","oneway":"yes","startNodeId":"5272139382","endNodeId":"5272139381"},"geometry":{"type":"LineString","coordinates":[[103.6403588,1.2957025],[103.640457,1.2956147]]}},{"type":"Feature","id":"way/545496263-0-0-0","properties":{"highway":"service","startNodeId":"5272139393","endNodeId":"5272139392"},"geometry":{"type":"LineString","coordinates":[[103.6442829,1.2938741],[103.6442908,1.2938829]]}},{"type":"Feature","id":"way/545496264-0-1-0","properties":{"highway":"service","startNodeId":"5272139395","endNodeId":"5272139394"},"geometry":{"type":"LineString","coordinates":[[103.6442846,1.293844],[103.6442811,1.293859]]}},{"type":"Feature","id":"way/545496264-0-2-0","properties":{"highway":"service","startNodeId":"5272139394","endNodeId":"5272139393"},"geometry":{"type":"LineString","coordinates":[[103.6442811,1.293859],[103.6442829,1.2938741]]}},{"type":"Feature","id":"way/545496266-0-0-0","properties":{"highway":"service","service":"parking_aisle","startNodeId":"5272139400","endNodeId":"5272139399"},"geometry":{"type":"LineString","coordinates":[[103.6438457,1.2947192],[103.6438358,1.2945361]]}},{"type":"Feature","id":"way/545496267-0-0-0","properties":{"highway":"service","startNodeId":"5272139402","endNodeId":"5272139399"},"geometry":{"type":"LineString","coordinates":[[103.644057,1.2945226],[103.6438358,1.2945361]]}},{"type":"Feature","id":"way/584217004-0-0-0","properties":{"highway":"unclassified","lanes":"1","maxspeed":"50","name":"Tuas Bay Link","oneway":"yes","surface":"asphalt","startNodeId":"4488575502","endNodeId":"6497563048"},"geometry":{"type":"LineString","coordinates":[[103.6416548,1.2956181],[103.6416862,1.2955923]]}},{"type":"Feature","id":"way/584217004-0-1-0","properties":{"highway":"unclassified","lanes":"1","maxspeed":"50","name":"Tuas Bay Link","oneway":"yes","surface":"asphalt","startNodeId":"6497563048","endNodeId":"5152324433"},"geometry":{"type":"LineString","coordinates":[[103.6416862,1.2955923],[103.6416994,1.2955737]]}},{"type":"Feature","id":"way/584217004-0-2-0","properties":{"highway":"unclassified","lanes":"1","maxspeed":"50","name":"Tuas Bay Link","oneway":"yes","surface":"asphalt","startNodeId":"5152324433","endNodeId":"5152324432"},"geometry":{"type":"LineString","coordinates":[[103.6416994,1.2955737],[103.6417122,1.2955437]]}},{"type":"Feature","id":"way/584217004-0-3-0","properties":{"highway":"unclassified","lanes":"1","maxspeed":"50","name":"Tuas Bay Link","oneway":"yes","surface":"asphalt","startNodeId":"5152324432","endNodeId":"3150511888"},"geometry":{"type":"LineString","coordinates":[[103.6417122,1.2955437],[103.6417124,1.2955125]]}},{"type":"Feature","id":"way/584217004-0-4-0","properties":{"highway":"unclassified","lanes":"1","maxspeed":"50","name":"Tuas Bay Link","oneway":"yes","surface":"asphalt","startNodeId":"3150511888","endNodeId":"3150511876"},"geometry":{"type":"LineString","coordinates":[[103.6417124,1.2955125],[103.641687,1.2952698]]}},{"type":"Feature","id":"way/584217004-0-5-0","properties":{"highway":"unclassified","lanes":"1","maxspeed":"50","name":"Tuas Bay Link","oneway":"yes","surface":"asphalt","startNodeId":"3150511876","endNodeId":"4488553478"},"geometry":{"type":"LineString","coordinates":[[103.641687,1.2952698],[103.6416757,1.2952297]]}},{"type":"Feature","id":"way/584217014-0-0-0","properties":{"highway":"service","oneway":"yes","surface":"asphalt","startNodeId":"4715542883","endNodeId":"8382969487"},"geometry":{"type":"LineString","coordinates":[[103.6399096,1.2974415],[103.6399687,1.2973752]]}},{"type":"Feature","id":"way/584217014-0-1-0","properties":{"highway":"service","oneway":"yes","surface":"asphalt","startNodeId":"8382969487","endNodeId":"4715542882"},"geometry":{"type":"LineString","coordinates":[[103.6399687,1.2973752],[103.6400779,1.2972528]]}},{"type":"Feature","id":"way/584217015-0-0-0","properties":{"highway":"service","oneway":"yes","surface":"asphalt","startNodeId":"4606359377","endNodeId":"8382969486"},"geometry":{"type":"LineString","coordinates":[[103.6400139,1.2972154],[103.6399193,1.2973209]]}},{"type":"Feature","id":"way/584217015-0-1-0","properties":{"highway":"service","oneway":"yes","surface":"asphalt","startNodeId":"8382969486","endNodeId":"2584494487"},"geometry":{"type":"LineString","coordinates":[[103.6399193,1.2973209],[103.6398573,1.29739]]}},{"type":"Feature","id":"way/584217016-0-0-0","properties":{"bicycle":"yes","cycleway":"no","highway":"tertiary","lanes":"4","maxspeed":"70","name":"Tuas South Avenue 9","oneway":"yes","surface":"asphalt","turn:lanes":"through|through|through|right","startNodeId":"4715542883","endNodeId":"2584494487"},"geometry":{"type":"LineString","coordinates":[[103.6399096,1.2974415],[103.6398573,1.29739]]}},{"type":"Feature","id":"way/632733062-0-0-0","properties":{"highway":"service","lanes":"2","lanes:backward":"1","lanes:forward":"1","turn:lanes:backward":"left;through","turn:lanes:forward":"through","startNodeId":"5218781698","endNodeId":"8382988454"},"geometry":{"type":"LineString","coordinates":[[103.6418339,1.2958667],[103.6417273,1.2957476]]}},{"type":"Feature","id":"way/632733062-0-1-0","properties":{"highway":"service","lanes":"2","lanes:backward":"1","lanes:forward":"1","turn:lanes:backward":"left;through","turn:lanes:forward":"through","startNodeId":"8382988454","endNodeId":"4488575503"},"geometry":{"type":"LineString","coordinates":[[103.6417273,1.2957476],[103.6417037,1.2957212]]}},{"type":"Feature","id":"way/632733062-0-2-0","properties":{"highway":"service","lanes":"2","lanes:backward":"1","lanes:forward":"1","turn:lanes:backward":"left;through","turn:lanes:forward":"through","startNodeId":"4488575503","endNodeId":"4488575502"},"geometry":{"type":"LineString","coordinates":[[103.6417037,1.2957212],[103.6416548,1.2956181]]}},{"type":"Feature","id":"way/632740607-0-0-0","properties":{"highway":"unclassified","lanes":"4","lanes:backward":"2","lanes:forward":"2","maxspeed":"60","name":"Tuas South Avenue 8","surface":"asphalt","startNodeId":"4488575330","endNodeId":"8392695691"},"geometry":{"type":"LineString","coordinates":[[103.6401177,1.2932359],[103.6400616,1.2932572]]}},{"type":"Feature","id":"way/632740607-0-1-0","properties":{"highway":"unclassified","lanes":"4","lanes:backward":"2","lanes:forward":"2","maxspeed":"60","name":"Tuas South Avenue 8","surface":"asphalt","startNodeId":"8392695691","endNodeId":"4488553467"},"geometry":{"type":"LineString","coordinates":[[103.6400616,1.2932572],[103.6398581,1.2933346]]}},{"type":"Feature","id":"way/632740609-0-0-0","properties":{"highway":"service","lanes":"2","lanes:backward":"1","lanes:forward":"1","startNodeId":"4488575329","endNodeId":"8392695692"},"geometry":{"type":"LineString","coordinates":[[103.6400682,1.2929655],[103.640091,1.29309]]}},{"type":"Feature","id":"way/632740609-0-1-0","properties":{"highway":"service","lanes":"2","lanes:backward":"1","lanes:forward":"1","startNodeId":"8392695692","endNodeId":"4488575330"},"geometry":{"type":"LineString","coordinates":[[103.640091,1.29309],[103.6401177,1.2932359]]}},{"type":"Feature","id":"way/632742930-0-0-0","properties":{"highway":"unclassified","lanes":"1","maxspeed":"50","name":"Tuas Bay Link","oneway":"yes","surface":"asphalt","startNodeId":"4488553478","endNodeId":"1322834723"},"geometry":{"type":"LineString","coordinates":[[103.6416757,1.2952297],[103.6416613,1.2951934]]}},{"type":"Feature","id":"way/633568415-0-8-0","properties":{"highway":"service","startNodeId":"4488553446","endNodeId":"4488553445"},"geometry":{"type":"LineString","coordinates":[[103.6398292,1.2950094],[103.6400497,1.2952446]]}},{"type":"Feature","id":"way/633568415-0-9-0","properties":{"highway":"service","startNodeId":"4488553445","endNodeId":"4488553444"},"geometry":{"type":"LineString","coordinates":[[103.6400497,1.2952446],[103.6400969,1.2952131]]}},{"type":"Feature","id":"way/633568415-0-10-0","properties":{"highway":"service","startNodeId":"4488553444","endNodeId":"4488553443"},"geometry":{"type":"LineString","coordinates":[[103.6400969,1.2952131],[103.6403327,1.2954804]]}},{"type":"Feature","id":"way/633568415-0-11-0","properties":{"highway":"service","startNodeId":"4488553443","endNodeId":"5272139381"},"geometry":{"type":"LineString","coordinates":[[103.6403327,1.2954804],[103.640457,1.2956147]]}},{"type":"Feature","id":"way/633568982-0-0-0","properties":{"highway":"service","lanes":"2","lanes:backward":"1","lanes:forward":"1","turn:lanes:backward":"left;through","turn:lanes:forward":"left;through","startNodeId":"4488553471","endNodeId":"5218777921"},"geometry":{"type":"LineString","coordinates":[[103.6418839,1.2951665],[103.6420894,1.2951721]]}},{"type":"Feature","id":"way/633591058-0-0-0","properties":{"highway":"service","startNodeId":"5218420426","endNodeId":"4488575505"},"geometry":{"type":"LineString","coordinates":[[103.6422685,1.2963821],[103.6422216,1.2963193]]}},{"type":"Feature","id":"way/633591058-0-1-0","properties":{"highway":"service","startNodeId":"4488575505","endNodeId":"4488575504"},"geometry":{"type":"LineString","coordinates":[[103.6422216,1.2963193],[103.6420029,1.2960557]]}},{"type":"Feature","id":"way/633591058-0-2-0","properties":{"highway":"service","startNodeId":"4488575504","endNodeId":"5218781698"},"geometry":{"type":"LineString","coordinates":[[103.6420029,1.2960557],[103.6418339,1.2958667]]}},{"type":"Feature","id":"way/633591059-0-0-0","properties":{"highway":"service","lanes":"2","lanes:backward":"1","lanes:forward":"1","turn:lanes:backward":"left","turn:lanes:forward":"through","startNodeId":"4488575387","endNodeId":"5980873334"},"geometry":{"type":"LineString","coordinates":[[103.6407716,1.2973662],[103.6409169,1.2975243]]}},{"type":"Feature","id":"way/633592432-0-0-0","properties":{"highway":"service","lanes":"2","lanes:backward":"1","lanes:forward":"1","turn:lanes:backward":"through","turn:lanes:forward":"through","startNodeId":"5980869895","endNodeId":"4488575376"},"geometry":{"type":"LineString","coordinates":[[103.6418901,1.2974828],[103.6421343,1.2972484]]}},{"type":"Feature","id":"way/644104645-0-0-0","properties":{"highway":"service","startNodeId":"4488575511","endNodeId":"6059224478"},"geometry":{"type":"LineString","coordinates":[[103.6422821,1.2973183],[103.6423561,1.297397]]}},{"type":"Feature","id":"way/644104645-0-1-0","properties":{"highway":"service","startNodeId":"6059224478","endNodeId":"6059224477"},"geometry":{"type":"LineString","coordinates":[[103.6423561,1.297397],[103.6424084,1.2974225]]}},{"type":"Feature","id":"way/644104645-0-2-0","properties":{"highway":"service","startNodeId":"6059224477","endNodeId":"6484970912"},"geometry":{"type":"LineString","coordinates":[[103.6424084,1.2974225],[103.6424594,1.2974319]]}},{"type":"Feature","id":"way/644104645-0-3-0","properties":{"highway":"service","startNodeId":"6484970912","endNodeId":"6059224476"},"geometry":{"type":"LineString","coordinates":[[103.6424594,1.2974319],[103.6425278,1.2974198]]}},{"type":"Feature","id":"way/644104645-0-4-0","properties":{"highway":"service","startNodeId":"6059224476","endNodeId":"6059224475"},"geometry":{"type":"LineString","coordinates":[[103.6425278,1.2974198],[103.642631,1.2973594]]}},{"type":"Feature","id":"way/644104645-0-5-0","properties":{"highway":"service","startNodeId":"6059224475","endNodeId":"6059224474"},"geometry":{"type":"LineString","coordinates":[[103.642631,1.2973594],[103.6427021,1.2972938]]}},{"type":"Feature","id":"way/644104645-0-6-0","properties":{"highway":"service","startNodeId":"6059224474","endNodeId":"6059224473"},"geometry":{"type":"LineString","coordinates":[[103.6427021,1.2972938],[103.6428148,1.297161]]}},{"type":"Feature","id":"way/644480381-0-0-0","properties":{"highway":"service","lanes":"2","lanes:backward":"1","lanes:forward":"1","turn:lanes:backward":"through","turn:lanes:forward":"through","startNodeId":"5272139381","endNodeId":"4488553442"},"geometry":{"type":"LineString","coordinates":[[103.640457,1.2956147],[103.6405685,1.295735]]}},{"type":"Feature","id":"way/644480381-0-1-0","properties":{"highway":"service","lanes":"2","lanes:backward":"1","lanes:forward":"1","turn:lanes:backward":"through","turn:lanes:forward":"through","startNodeId":"4488553442","endNodeId":"4488553441"},"geometry":{"type":"LineString","coordinates":[[103.6405685,1.295735],[103.6406732,1.2959561]]}},{"type":"Feature","id":"way/644480382-0-0-0","properties":{"highway":"service","lanes":"2","lanes:backward":"1","lanes:forward":"1","turn:lanes:forward":"left;right","startNodeId":"4488575376","endNodeId":"4488575517"},"geometry":{"type":"LineString","coordinates":[[103.6421343,1.2972484],[103.6422087,1.2973322]]}},{"type":"Feature","id":"way/644480382-0-1-0","properties":{"highway":"service","lanes":"2","lanes:backward":"1","lanes:forward":"1","turn:lanes:forward":"left;right","startNodeId":"4488575517","endNodeId":"4488575375"},"geometry":{"type":"LineString","coordinates":[[103.6422087,1.2973322],[103.6422408,1.2973657]]}},{"type":"Feature","id":"way/644488627-0-0-0","properties":{"highway":"service","startNodeId":"5218777921","endNodeId":"4488553480"},"geometry":{"type":"LineString","coordinates":[[103.6420894,1.2951721],[103.6433308,1.2950776]]}},{"type":"Feature","id":"way/644697796-0-0-0","properties":{"highway":"service","startNodeId":"5218420458","endNodeId":"4488575355"},"geometry":{"type":"LineString","coordinates":[[103.6399656,1.2965123],[103.6399662,1.2964149]]}},{"type":"Feature","id":"way/644698672-0-0-0","properties":{"highway":"service","oneway":"yes","startNodeId":"5218420428","endNodeId":"4715542885"},"geometry":{"type":"LineString","coordinates":[[103.640676,1.2970852],[103.6404531,1.2968604]]}},{"type":"Feature","id":"way/644877673-0-0-0","properties":{"highway":"service","oneway":"yes","startNodeId":"4488575501","endNodeId":"4715542884"},"geometry":{"type":"LineString","coordinates":[[103.6403254,1.2968431],[103.6403947,1.2969166]]}},{"type":"Feature","id":"way/644877675-0-0-0","properties":{"highway":"service","oneway":"yes","surface":"asphalt","startNodeId":"4715542884","endNodeId":"4715542885"},"geometry":{"type":"LineString","coordinates":[[103.6403947,1.2969166],[103.6404531,1.2968604]]}},{"type":"Feature","id":"way/644877677-0-0-0","properties":{"highway":"service","oneway":"yes","surface":"asphalt","startNodeId":"4488575501","endNodeId":"4606359377"},"geometry":{"type":"LineString","coordinates":[[103.6403254,1.2968431],[103.6400139,1.2972154]]}},{"type":"Feature","id":"way/646217279-0-0-0","properties":{"highway":"service","startNodeId":"5272139396","endNodeId":"5272139397"},"geometry":{"type":"LineString","coordinates":[[103.6444031,1.2936351],[103.6437361,1.2936777]]}},{"type":"Feature","id":"way/646217761-0-0-0","properties":{"highway":"service","startNodeId":"5272139399","endNodeId":"5272139401"},"geometry":{"type":"LineString","coordinates":[[103.6438358,1.2945361],[103.6435167,1.2945556]]}},{"type":"Feature","id":"way/646254505-0-0-0","properties":{"highway":"service","lanes":"2","lanes:backward":"1","lanes:forward":"1","startNodeId":"4488575375","endNodeId":"4488575511"},"geometry":{"type":"LineString","coordinates":[[103.6422408,1.2973657],[103.6422821,1.2973183]]}},{"type":"Feature","id":"way/646287734-0-0-0","properties":{"highway":"service","oneway":"yes","startNodeId":"4715542885","endNodeId":"3150511886"},"geometry":{"type":"LineString","coordinates":[[103.6404531,1.2968604],[103.6403807,1.2967861]]}},{"type":"Feature","id":"way/646723851-0-0-0","properties":{"highway":"service","oneway":"yes","startNodeId":"5218420460","endNodeId":"5218420461"},"geometry":{"type":"LineString","coordinates":[[103.6402183,1.2966039],[103.6401238,1.296498]]}},{"type":"Feature","id":"way/646723851-0-1-0","properties":{"highway":"service","oneway":"yes","startNodeId":"5218420461","endNodeId":"4488575354"},"geometry":{"type":"LineString","coordinates":[[103.6401238,1.296498],[103.6400454,1.296441]]}},{"type":"Feature","id":"way/646723851-0-2-0","properties":{"highway":"service","oneway":"yes","startNodeId":"4488575354","endNodeId":"4488575355"},"geometry":{"type":"LineString","coordinates":[[103.6400454,1.296441],[103.6399662,1.2964149]]}},{"type":"Feature","id":"way/646723852-0-0-0","properties":{"highway":"service","oneway":"yes","startNodeId":"3150511886","endNodeId":"5218420460"},"geometry":{"type":"LineString","coordinates":[[103.6403807,1.2967861],[103.6402183,1.2966039]]}},{"type":"Feature","id":"way/646723853-0-0-0","properties":{"highway":"service","oneway":"yes","startNodeId":"5218420459","endNodeId":"4488575501"},"geometry":{"type":"LineString","coordinates":[[103.6401616,1.296655],[103.6403254,1.2968431]]}},{"type":"Feature","id":"way/668818781-0-0-0","properties":{"highway":"service","lanes":"2","lanes:backward":"1","lanes:forward":"1","turn:lanes:forward":"through;right","startNodeId":"6263177192","endNodeId":"4488575375"},"geometry":{"type":"LineString","coordinates":[[103.642045,1.2975539],[103.6422408,1.2973657]]}},{"type":"Feature","id":"way/671951666-0-0-0","properties":{"highway":"service","lanes":"2","lanes:backward":"1","lanes:forward":"1","turn:lanes:backward":"through","turn:lanes:forward":"left;right","startNodeId":"6292427539","endNodeId":"4488553471"},"geometry":{"type":"LineString","coordinates":[[103.6418572,1.2948066],[103.6418839,1.2951665]]}},{"type":"Feature","id":"way/692215481-0-0-0","properties":{"highway":"unclassified","lanes":"2","lanes:backward":"1","lanes:forward":"1","maxspeed":"50","name":"Tuas Bay Link","surface":"asphalt","turn:lanes:backward":"through;right","startNodeId":"6497563050","endNodeId":"6497571524"},"geometry":{"type":"LineString","coordinates":[[103.6416599,1.2951643],[103.6416519,1.2950698]]}},{"type":"Feature","id":"way/692216018-0-0-0","properties":{"highway":"unclassified","lanes":"4","lanes:backward":"2","lanes:forward":"2","maxspeed":"50","name":"Tuas Bay Link","surface":"asphalt","turn:lanes:forward":"left|right","startNodeId":"6497571523","endNodeId":"8403638684"},"geometry":{"type":"LineString","coordinates":[[103.6415126,1.2934269],[103.6414736,1.2929655]]}},{"type":"Feature","id":"way/692216019-0-0-0","properties":{"highway":"unclassified","lanes":"4","lanes:backward":"2","lanes:forward":"2","maxspeed":"50","name":"Tuas Bay Link","surface":"asphalt","startNodeId":"6497571524","endNodeId":"8382988468"},"geometry":{"type":"LineString","coordinates":[[103.6416519,1.2950698],[103.6416215,1.2947113]]}},{"type":"Feature","id":"way/692216019-0-1-0","properties":{"highway":"unclassified","lanes":"4","lanes:backward":"2","lanes:forward":"2","maxspeed":"50","name":"Tuas Bay Link","surface":"asphalt","startNodeId":"8382988468","endNodeId":"8382988449"},"geometry":{"type":"LineString","coordinates":[[103.6416215,1.2947113],[103.6416033,1.2944962]]}},{"type":"Feature","id":"way/692216019-0-2-0","properties":{"highway":"unclassified","lanes":"4","lanes:backward":"2","lanes:forward":"2","maxspeed":"50","name":"Tuas Bay Link","surface":"asphalt","startNodeId":"8382988449","endNodeId":"6497571523"},"geometry":{"type":"LineString","coordinates":[[103.6416033,1.2944962],[103.6415126,1.2934269]]}}]}