{"type":"FeatureCollection","features":[{"type":"Feature","id":"relation/7785638-0","properties":{"addr:city":"Singapore","addr:country":"SG","addr:housenumber":"30","addr:street":"Tuas West Road","building":"yes","type":"multipolygon","clearanceGeometry":{"type":"Polygon","coordinates":[[[103.6402673,1.3313589],[103.6402978,1.3313988],[103.640273,1.3314233],[103.6402506,1.3314548],[103.6402351,1.3314869],[103.6402234,1.3315258],[103.6402221,1.3315657],[103.6402291,1.3316049],[103.64033232761533,1.3317138152673471],[103.64037532194065,1.331723628661374],[103.64050641121405,1.3318518473667493],[103.64060867238204,1.3319469307577811],[103.64066823599569,1.3319430601980489],[103.64070898663554,1.3319273988622757],[103.6407535,1.3319006],[103.6407964,1.3318523],[103.6408172,1.3318121],[103.6408319,1.3317678],[103.6408339,1.3317043],[103.64088901052097,1.3317614236906778],[103.64110362096042,1.3315755061976526],[103.64129322878118,1.3313925220341327],[103.64129401222833,1.3313879907452248],[103.64129369476503,1.3313865333000687],[103.64104442507002,1.3311238817582918],[103.64061786343066,1.3315321982737915],[103.64056193656933,1.3314738017262087],[103.64098868292307,1.3310653083970352],[103.64075835454672,1.3308239499664685],[103.6407568688701,1.3308239108697153],[103.64075636157631,1.3308239941567568],[103.64030343347159,1.331250807759854],[103.6402673,1.3313589]],[[103.6406791,1.3317179],[103.6406723,1.3317421],[103.6406592,1.3317636],[103.6406409,1.3317808],[103.6406186,1.3317925],[103.6405941,1.3317978],[103.640569,1.3317963],[103.6405452,1.3317881],[103.6403908,1.3316274],[103.640382,1.3316025],[103.6403807,1.3315761],[103.640387,1.3315505],[103.6404004,1.3315278],[103.6404198,1.3315098],[103.6404435,1.3314982],[103.6404695,1.3314939],[103.6404957,1.3314972],[103.6405199,1.3315079],[103.6406726,1.3316685],[103.6406792,1.3316928],[103.6406791,1.3317179]]]},"clearanceHeight":1.7,"clearancePrepared":true},"geometry":{"type":"Polygon","coordinates":[[[103.6403142,1.3312186],[103.6402673,1.3313589],[103.6402978,1.3313988],[103.640273,1.3314233],[103.6402506,1.3314548],[103.6402351,1.3314869],[103.6402234,1.3315258],[103.6402221,1.3315657],[103.6402291,1.3316049],[103.6405449,1.3319381],[103.6405986,1.3319522],[103.6406502,1.3319502],[103.6407045,1.3319301],[103.6407535,1.3319006],[103.6407964,1.3318523],[103.6408172,1.3318121],[103.6408319,1.3317678],[103.6408339,1.3317043],[103.6408996,1.3317724],[103.6413204,1.3313663],[103.6407613,1.3307872],[103.6403142,1.3312186]],[[103.6406792,1.3316928],[103.6406791,1.3317179],[103.6406723,1.3317421],[103.6406592,1.3317636],[103.6406409,1.3317808],[103.6406186,1.3317925],[103.6405941,1.3317978],[103.640569,1.3317963],[103.6405452,1.3317881],[103.6403908,1.3316274],[103.640382,1.3316025],[103.6403807,1.3315761],[103.640387,1.3315505],[103.6404004,1.3315278],[103.6404198,1.3315098],[103.6404435,1.3314982],[103.6404695,1.3314939],[103.6404957,1.3314972],[103.6405199,1.3315079],[103.6406726,1.3316685],[103.6406792,1.3316928]]]}},{"type":"Feature","id":"way/117665721-0","properties":{"addr:city":"Singapore","addr:country":"SG","addr:housenumber":"29","addr:street":"Tuas West Road","building":"yes","clearanceGeometry":{"type":"Polygon","coordinates":[[[103.639915,1.3331512],[103.6399676,1.333207],[103.6400571,1.3331227],[103.6400045,1.3330669],[103.6400393,1.3330341],[103.6400853,1.3330829],[103.6402479,1.3329297],[103.6402019,1.3328809],[103.6402653,1.3328211],[103.6402936,1.3328511],[103.6403627,1.3327859],[103.6399245,1.3323212],[103.639638,1.3325912],[103.6396977,1.3326545],[103.6395177,1.3328242],[103.6398679,1.3331956],[103.639915,1.3331512]]]},"clearanceHeight":1.7,"clearancePrepared":true},"geometry":{"type":"Polygon","coordinates":[[[103.6398679,1.3331956],[103.639915,1.3331512],[103.6399676,1.333207],[103.6400571,1.3331227],[103.6400045,1.3330669],[103.6400393,1.3330341],[103.6400853,1.3330829],[103.6402479,1.3329297],[103.6402019,1.3328809],[103.6402653,1.3328211],[103.6402936,1.3328511],[103.6403627,1.3327859],[103.6399245,1.3323212],[103.639638,1.3325912],[103.6396977,1.3326545],[103.6395177,1.3328242],[103.6398679,1.3331956]]]}},{"type":"Feature","id":"way/117672324-0","properties":{"addr:city":"Singapore","addr:country":"SG","addr:housenumber":"28","addr:street":"Tuas West Road","building":"yes","clearanceGeometry":{"type":"Polygon","coordinates":[[[103.6416491,1.3319127],[103.6413822,1.3316424],[103.6408257,1.3321916],[103.6410926,1.3324619],[103.6416491,1.3319127]]]},"clearanceHeight":1.7,"clearancePrepared":true},"geometry":{"type":"Polygon","coordinates":[[[103.6410926,1.3324619],[103.6416491,1.3319127],[103.6413822,1.3316424],[103.6408257,1.3321916],[103.6410926,1.3324619]]]}},{"type":"Feature","id":"way/117672326-0","properties":{"addr:housenumber":"118","addr:postcode":"639598","addr:street":"Pioneer Road","building":"yes","name":"Sinar Mas Building","clearanceGeometry":{"type":"Polygon","coordinates":[[[103.6401111,1.3300279],[103.6393928,1.3307035],[103.6399936,1.3313419],[103.6407119,1.3306664],[103.6401111,1.3300279]]]},"clearanceHeight":1.7,"clearancePrepared":true},"geometry":{"type":"Polygon","coordinates":[[[103.6407119,1.3306664],[103.6401111,1.3300279],[103.6393928,1.3307035],[103.6399936,1.3313419],[103.6407119,1.3306664]]]}},{"type":"Feature","id":"way/117673166-0","properties":{"addr:city":"Singapore","addr:country":"SG","addr:housenumber":"10","addr:street":"Tuas Avenue 12","building":"yes","clearanceGeometry":{"type":"Polygon","coordinates":[[[103.6432819,1.3329766],[103.6433461,1.3329162],[103.6433045,1.3328721],[103.643389,1.3327925],[103.643294,1.3326918],[103.6433049,1.3326816],[103.6432655,1.3326398],[103.6432547,1.33265],[103.6431954,1.3325871],[103.6428245,1.3329364],[103.6430181,1.3331418],[103.6432403,1.3329325],[103.6432819,1.3329766]]]},"clearanceHeight":1.7,"clearancePrepared":true},"geometry":{"type":"Polygon","coordinates":[[[103.6432403,1.3329325],[103.6432819,1.3329766],[103.6433461,1.3329162],[103.6433045,1.3328721],[103.643389,1.3327925],[103.643294,1.3326918],[103.6433049,1.3326816],[103.6432655,1.3326398],[103.6432547,1.33265],[103.6431954,1.3325871],[103.6428245,1.3329364],[103.6430181,1.3331418],[103.6432403,1.3329325]]]}},{"type":"Feature","id":"way/117673167-0","properties":{"addr:city":"Singapore","addr:country":"SG","addr:housenumber":"28","addr:street":"Tuas West Road","building":"yes","name":"MacDermid Enthone","source":"Kaart Ground Survey 2017","clearanceGeometry":{"type":"Polygon","coordinates":[[[103.6418155,1.3320976],[103.6412598,1.3326219],[103.6415424,1.3329213],[103.6420981,1.3323971],[103.6418155,1.3320976]]]},"clearanceHeight":1.7,"clearancePrepared":true},"geometry":{"type":"Polygon","coordinates":[[[103.6420981,1.3323971],[103.6418155,1.3320976],[103.6412598,1.3326219],[103.6415424,1.3329213],[103.6420981,1.3323971]]]}},{"type":"Feature","id":"way/117673171-0","properties":{"addr:city":"Singapore","addr:country":"SG","addr:housenumber":"2B","addr:street":"Tuas Avenue 12","building":"yes","clearanceGeometry":{"type":"Polygon","coordinates":[[[103.6415007,1.3307608],[103.6413343,1.3305893],[103.6410658,1.3308499],[103.6408835,1.3306621],[103.64079271540247,1.3307501281601912],[103.64080289072366,1.330753497471847],[103.64107509379612,1.3310387359101383],[103.6411417640505,1.3311089853044906],[103.6415007,1.3307608]]]},"clearanceHeight":1.7,"clearancePrepared":true},"geometry":{"type":"Polygon","coordinates":[[[103.6411301,1.3311203],[103.6415007,1.3307608],[103.6413343,1.3305893],[103.6410658,1.3308499],[103.6408835,1.3306621],[103.6407814,1.3307611],[103.6411301,1.3311203]]]}},{"type":"Feature","id":"way/117673175-0","properties":{"addr:city":"Singapore","addr:country":"SG","addr:housenumber":"6","addr:street":"Tuas Avenue 12","building":"yes","clearanceGeometry":{"type":"Polygon","coordinates":[[[103.6418542,1.3312022],[103.6415896,1.3314576],[103.6417844,1.3316594],[103.6420491,1.331404],[103.6418542,1.3312022]]]},"clearanceHeight":1.7,"clearancePrepared":true},"geometry":{"type":"Polygon","coordinates":[[[103.6420491,1.331404],[103.6418542,1.3312022],[103.6415896,1.3314576],[103.6417844,1.3316594],[103.6420491,1.331404]]]}},{"type":"Feature","id":"way/117673178-0","properties":{"addr:city":"Singapore","addr:country":"SG","addr:housenumber":"6A","addr:street":"Tuas Avenue 12","building":"yes","clearanceGeometry":{"type":"Polygon","coordinates":[[[103.6422425882963,1.331530270717122],[103.64197729080418,1.3317778504615343],[103.64196908635002,1.3317690632799215],[103.6418686,1.3318629],[103.6420722,1.3320807],[103.6424378,1.3317392],[103.6422425882963,1.331530270717122]]]},"clearanceHeight":1.7,"clearancePrepared":true},"geometry":{"type":"Polygon","coordinates":[[[103.6424378,1.3317392],[103.6422343,1.3315214],[103.6418686,1.3318629],[103.6420722,1.3320807],[103.6424378,1.3317392]]]}},{"type":"Feature","id":"way/117673181-0","properties":{"addr:city":"Singapore","addr:country":"SG","addr:housenumber":"8","addr:street":"Tuas Avenue 12","building":"yes","clearanceGeometry":{"type":"Polygon","coordinates":[[[103.6424514,1.3323639],[103.6427423,1.33209],[103.6425486,1.3318844],[103.6422577,1.3321584],[103.6424514,1.3323639]]]},"clearanceHeight":1.7,"clearancePrepared":true},"geometry":{"type":"Polygon","coordinates":[[[103.6422577,1.3321584],[103.6424514,1.3323639],[103.6427423,1.33209],[103.6425486,1.3318844],[103.6422577,1.3321584]]]}},{"type":"Feature","id":"way/117673185-0","properties":{"addr:city":"Singapore","addr:country":"SG","addr:housenumber":"10A","addr:street":"Tuas Avenue 12","building":"yes","clearanceGeometry":{"type":"Polygon","coordinates":[[[103.6435066,1.3329446],[103.6432344,1.3332168],[103.6434422,1.3334245],[103.6437145,1.3331524],[103.6435066,1.3329446]]]},"clearanceHeight":1.7,"clearancePrepared":true},"geometry":{"type":"Polygon","coordinates":[[[103.6437145,1.3331524],[103.6435066,1.3329446],[103.6432344,1.3332168],[103.6434422,1.3334245],[103.6437145,1.3331524]]]}},{"type":"Feature","id":"way/117673186-0","properties":{"addr:city":"Singapore","addr:country":"SG","addr:housenumber":"2A","addr:street":"Tuas Avenue 12","building":"industrial","clearanceGeometry":{"type":"Polygon","coordinates":[[[103.6405143,1.3296485],[103.6402712,1.3298772],[103.6408094,1.3304492],[103.6410526,1.3302204],[103.6405143,1.3296485]]]},"clearanceHeight":1.7,"clearancePrepared":true},"geometry":{"type":"Polygon","coordinates":[[[103.6410526,1.3302204],[103.6405143,1.3296485],[103.6402712,1.3298772],[103.6408094,1.3304492],[103.6410526,1.3302204]]]}},{"type":"Feature","id":"way/117673191-0","properties":{"addr:city":"Singapore","addr:country":"SG","addr:housenumber":"22","addr:street":"Tuas West Road","building":"yes","name":"Pamarine","source":"Kaart Ground Survey 2017","clearanceGeometry":{"type":"Polygon","coordinates":[[[103.6425824,1.3329505],[103.6420349,1.3334832],[103.6422823,1.3337373],[103.6428298,1.3332046],[103.6425824,1.3329505]]]},"clearanceHeight":1.7,"clearancePrepared":true},"geometry":{"type":"Polygon","coordinates":[[[103.6428298,1.3332046],[103.6425824,1.3329505],[103.6420349,1.3334832],[103.6422823,1.3337373],[103.6428298,1.3332046]]]}},{"type":"Feature","id":"way/117673193-0","properties":{"addr:city":"Singapore","addr:country":"SG","addr:housenumber":"8A","addr:street":"Tuas Avenue 12","building":"yes","clearanceGeometry":{"type":"Polygon","coordinates":[[[103.6428619,1.3322308],[103.6425697,1.3325059],[103.6427637,1.3327118],[103.6430558,1.3324366],[103.6428619,1.3322308]]]},"clearanceHeight":1.7,"clearancePrepared":true},"geometry":{"type":"Polygon","coordinates":[[[103.6430558,1.3324366],[103.6428619,1.3322308],[103.6425697,1.3325059],[103.6427637,1.3327118],[103.6430558,1.3324366]]]}},{"type":"Feature","id":"way/117673199-0","properties":{"addr:city":"Singapore","addr:country":"SG","addr:housenumber":"24","addr:street":"Tuas West Road","building":"yes","name":"Wrist","source":"Kaart Ground Survey 2017","clearanceGeometry":{"type":"Polygon","coordinates":[[[103.6422339,1.332488],[103.6416581,1.3330599],[103.6419013,1.3333046],[103.6424771,1.3327327],[103.6422339,1.332488]]]},"clearanceHeight":1.7,"clearancePrepared":true},"geometry":{"type":"Polygon","coordinates":[[[103.6424771,1.3327327],[103.6422339,1.332488],[103.6416581,1.3330599],[103.6419013,1.3333046],[103.6424771,1.3327327]]]}},{"type":"Feature","id":"way/117673201-0","properties":{"addr:city":"Singapore","addr:country":"SG","addr:housenumber":"4","addr:street":"Tuas Avenue 12","building":"yes","clearanceGeometry":{"type":"Polygon","coordinates":[[[103.6416827,1.3308941],[103.6414308,1.3311599],[103.6415752,1.3312967],[103.6418271,1.331031],[103.6416827,1.3308941]]]},"clearanceHeight":1.7,"clearancePrepared":true},"geometry":{"type":"Polygon","coordinates":[[[103.6418271,1.331031],[103.6416827,1.3308941],[103.6414308,1.3311599],[103.6415752,1.3312967],[103.6418271,1.331031]]]}},{"type":"Feature","id":"way/117687468-0","properties":{"addr:city":"Singapore","addr:country":"SG","addr:housenumber":"6","addr:street":"Tuas Lane","building":"yes","clearanceGeometry":{"type":"Polygon","coordinates":[[[103.643348,1.3289507],[103.6431886,1.3287639],[103.642725,1.3292161],[103.6430131,1.3295125],[103.6434784,1.3290605],[103.643348,1.3289507]]]},"clearanceHeight":1.7,"clearancePrepared":true},"geometry":{"type":"Polygon","coordinates":[[[103.6434784,1.3290605],[103.643348,1.3289507],[103.6431886,1.3287639],[103.642725,1.3292161],[103.6430131,1.3295125],[103.6434784,1.3290605]]]}},{"type":"Feature","id":"way/117687480-0","properties":{"addr:city":"Singapore","addr:country":"SG","addr:housenumber":"5","addr:street":"Tuas Lane","building":"yes","clearanceGeometry":{"type":"Polygon","coordinates":[[[103.6423748,1.3295586],[103.6418281,1.3300795],[103.6420688,1.330332],[103.6426156,1.3298111],[103.6423748,1.3295586]]]},"clearanceHeight":1.7,"clearancePrepared":true},"geometry":{"type":"Polygon","coordinates":[[[103.6426156,1.3298111],[103.6423748,1.3295586],[103.6418281,1.3300795],[103.6420688,1.330332],[103.6426156,1.3298111]]]}},{"type":"Feature","id":"way/117687483-0","properties":{"addr:city":"Singapore","addr:country":"SG","addr:housenumber":"3","addr:street":"Tuas Lane","building":"yes","clearanceGeometry":{"type":"Polygon","coordinates":[[[103.642042,1.3290963],[103.6414588,1.3296498],[103.6417096,1.3299139],[103.6422928,1.3293604],[103.642042,1.3290963]]]},"clearanceHeight":1.7,"clearancePrepared":true},"geometry":{"type":"Polygon","coordinates":[[[103.6422928,1.3293604],[103.642042,1.3290963],[103.6414588,1.3296498],[103.6417096,1.3299139],[103.6422928,1.3293604]]]}},{"type":"Feature","id":"way/117687487-0","properties":{"addr:city":"Singapore","addr:country":"SG","addr:housenumber":"1","addr:street":"Tuas Lane","building":"yes","name":"Teho International","source":"Kaart Ground Survey 2017","clearanceGeometry":{"type":"Polygon","coordinates":[[[103.64183906963537,1.328959817793375],[103.64173311339522,1.3288371637729015],[103.6415804,1.3286795],[103.6410096,1.329232],[103.6412749,1.3295059],[103.64183906963537,1.328959817793375]]]},"clearanceHeight":1.7,"clearancePrepared":true},"geometry":{"type":"Polygon","coordinates":[[[103.6412749,1.3295059],[103.6418457,1.3289534],[103.6415804,1.3286795],[103.6410096,1.329232],[103.6412749,1.3295059]]]}},{"type":"Feature","id":"way/117689087-0","properties":{"building":"yes","clearanceGeometry":{"type":"Polygon","coordinates":[[[103.6430896,1.3306796],[103.6428415,1.3304222],[103.6426571,1.3305998],[103.6429052,1.3308572],[103.6430896,1.3306796]]]},"clearanceHeight":1.7,"clearancePrepared":true},"geometry":{"type":"Polygon","coordinates":[[[103.6429052,1.3308572],[103.6430896,1.3306796],[103.6428415,1.3304222],[103.6426571,1.3305998],[103.6429052,1.3308572]]]}},{"type":"Feature","id":"way/117689094-0","properties":{"addr:city":"Singapore","addr:country":"SG","addr:housenumber":"5","addr:street":"Tuas Avenue 12","building":"yes","clearanceGeometry":{"type":"Polygon","coordinates":[[[103.643566,1.331248],[103.64345338845887,1.3313533061836083],[103.64346284178382,1.3313636723594273],[103.64305436385982,1.3317359924582541],[103.643341,1.3320424],[103.6438575,1.3315595],[103.643566,1.331248]]]},"clearanceHeight":1.7,"clearancePrepared":true},"geometry":{"type":"Polygon","coordinates":[[[103.6438575,1.3315595],[103.643566,1.331248],[103.6430496,1.3317309],[103.643341,1.3320424],[103.6438575,1.3315595]]]}},{"type":"Feature","id":"way/117689095-0","properties":{"addr:city":"Singapore","addr:country":"SG","addr:housenumber":"52","addr:street":"Tuas Avenue 9","building":"yes","clearanceGeometry":{"type":"Polygon","coordinates":[[[103.643785,1.3310832],[103.6438118,1.3311104],[103.644008,1.3309177],[103.6439877,1.330897],[103.6440332,1.3308524],[103.6436104,1.3304219],[103.643333,1.3306941],[103.6437494,1.3311181],[103.643785,1.3310832]]]},"clearanceHeight":1.7,"clearancePrepared":true},"geometry":{"type":"Polygon","coordinates":[[[103.6437494,1.3311181],[103.643785,1.3310832],[103.6438118,1.3311104],[103.644008,1.3309177],[103.6439877,1.330897],[103.6440332,1.3308524],[103.6436104,1.3304219],[103.643333,1.3306941],[103.6437494,1.3311181]]]}},{"type":"Feature","id":"way/117689098-0","properties":{"addr:city":"Singapore","addr:country":"SG","addr:housenumber":"9","addr:street":"Tuas Avenue 12","building":"yes","clearanceGeometry":{"type":"Polygon","coordinates":[[[103.6442027,1.3323421],[103.6438896,1.332637],[103.6441714,1.332936],[103.6444845,1.3326411],[103.6442027,1.3323421]]]},"clearanceHeight":1.7,"clearancePrepared":true},"geometry":{"type":"Polygon","coordinates":[[[103.6444845,1.3326411],[103.6442027,1.3323421],[103.6438896,1.332637],[103.6441714,1.332936],[103.6444845,1.3326411]]]}},{"type":"Feature","id":"way/117689101-0","properties":{"addr:city":"Singapore","addr:country":"SG","addr:housenumber":"48","addr:street":"Tuas Avenue 9","building":"yes","clearanceGeometry":{"type":"Polygon","coordinates":[[[103.6444871,1.3295374],[103.644097,1.3291075],[103.643776,1.3293986],[103.6441661,1.3298285],[103.6444871,1.3295374]]]},"clearanceHeight":1.7,"clearancePrepared":true},"geometry":{"type":"Polygon","coordinates":[[[103.6441661,1.3298285],[103.6444871,1.3295374],[103.644097,1.3291075],[103.643776,1.3293986],[103.6441661,1.3298285]]]}},{"type":"Feature","id":"way/117689103-0","properties":{"addr:city":"Singapore","addr:country":"SG","addr:housenumber":"7","addr:street":"Tuas Avenue 12","building":"yes","clearanceGeometry":{"type":"Polygon","coordinates":[[[103.64376830193136,1.3318834243376667],[103.64347134933531,1.3321720397014487],[103.6437461,1.3324517],[103.6440416,1.3321617],[103.64376830193136,1.3318834243376667]]]},"clearanceHeight":1.7,"clearancePrepared":true},"geometry":{"type":"Polygon","coordinates":[[[103.6440416,1.3321617],[103.6437506,1.3318654],[103.6434551,1.3321555],[103.6437461,1.3324517],[103.6440416,1.3321617]]]}},{"type":"Feature","id":"way/117689110-0","properties":{"addr:city":"Singapore","addr:country":"SG","addr:housenumber":"3","addr:street":"Tuas Avenue 12","building":"yes","clearanceGeometry":{"type":"Polygon","coordinates":[[[103.64297084875051,1.3310051888453795],[103.64267004585234,1.3313122803058801],[103.6429553,1.3316052],[103.6432633,1.3313053],[103.64297084875051,1.3310051888453795]]]},"clearanceHeight":1.7,"clearancePrepared":true},"geometry":{"type":"Polygon","coordinates":[[[103.6432633,1.3313053],[103.6429655,1.3309997],[103.6426576,1.3312995],[103.6429553,1.3316052],[103.6432633,1.3313053]]]}},{"type":"Feature","id":"way/117689111-0","properties":{"addr:city":"Singapore","addr:country":"SG","addr:housenumber":"50","addr:street":"Tuas Avenue 9","building":"yes","clearanceGeometry":{"type":"Polygon","coordinates":[[[103.6436195,1.3295305],[103.64330458654538,1.3298384219426487],[103.64370782476873,1.3302555290644786],[103.6440252,1.3299452],[103.6436195,1.3295305]]]},"clearanceHeight":1.7,"clearancePrepared":true},"geometry":{"type":"Polygon","coordinates":[[[103.6440252,1.3299452],[103.6436195,1.3295305],[103.6432997,1.3298432],[103.6437054,1.3302579],[103.6440252,1.3299452]]]}},{"type":"Feature","id":"way/117689117-0","properties":{"building":"yes","clearanceGeometry":{"type":"Polygon","coordinates":[[[103.6443757,1.3302374],[103.6443545,1.3302583],[103.6442816,1.3301841],[103.6439259,1.3305332],[103.6442203,1.330833],[103.6445973,1.3304629],[103.6443757,1.3302374]]]},"clearanceHeight":1.7,"clearancePrepared":true},"geometry":{"type":"Polygon","coordinates":[[[103.6445973,1.3304629],[103.6443757,1.3302374],[103.6443545,1.3302583],[103.6442816,1.3301841],[103.6439259,1.3305332],[103.6442203,1.330833],[103.6445973,1.3304629]]]}},{"type":"Feature","id":"way/117689118-0","properties":{"addr:city":"Singapore","addr:country":"SG","addr:housenumber":"1","addr:street":"Tuas Avenue 12","building":"yes","clearanceGeometry":{"type":"Polygon","coordinates":[[[103.6425241,1.3305571],[103.6422129,1.3308406],[103.6424815,1.3311352],[103.6427927,1.3308517],[103.6425241,1.3305571]]]},"clearanceHeight":1.7,"clearancePrepared":true},"geometry":{"type":"Polygon","coordinates":[[[103.6427927,1.3308517],[103.6425241,1.3305571],[103.6422129,1.3308406],[103.6424815,1.3311352],[103.6427927,1.3308517]]]}},{"type":"Feature","id":"way/503506483-0","properties":{"building":"industrial","clearanceGeometry":{"type":"MultiPolygon","coordinates":[[[[103.64113908605117,1.330684211622338],[103.64113804206464,1.3306831330856614],[103.64113745269935,1.330684311224351],[103.64113825536252,1.3306850296662514],[103.64113908605117,1.330684211622338]]],[[[103.64123681235671,1.3303597156349132],[103.64102466315177,1.3305705993567443],[103.64113146270768,1.3306774836742006],[103.64113361558259,1.3306785601116569],[103.6411222815109,1.3306668509452024],[103.64133987666453,1.3304563320567353],[103.6412542639006,1.3303637757209308],[103.64124609006875,1.3303584867709044],[103.6412437334477,1.330357985362169],[103.64123681235671,1.3303597156349132]]]]},"clearanceHeight":1.7,"clearancePrepared":true},"geometry":{"type":"Polygon","coordinates":[[[103.6411261,1.330697],[103.6413626,1.3304641],[103.6412441,1.3303439],[103.6410077,1.3305767],[103.6411261,1.330697]]]}},{"type":"Feature","id":"way/758091869-0","properties":{"building":"yes","clearanceGeometry":{"type":"Polygon","coordinates":[[[103.6431849,1.3299464],[103.6428544,1.3302708],[103.643264,1.3306879],[103.6435945,1.3303635],[103.6431849,1.3299464]]]},"clearanceHeight":1.7,"clearancePrepared":true},"geometry":{"type":"Polygon","coordinates":[[[103.6435945,1.3303635],[103.6431849,1.3299464],[103.6428544,1.3302708],[103.643264,1.3306879],[103.6435945,1.3303635]]]}},{"type":"Feature","id":"way/758091901-0","properties":{"building":"yes","clearanceGeometry":{"type":"Polygon","coordinates":[[[103.6440368,1.3321714],[103.6439428,1.3322637],[103.6440509,1.3323738],[103.644145,1.3322815],[103.6440368,1.3321714]]]},"clearanceHeight":1.7,"clearancePrepared":true},"geometry":{"type":"Polygon","coordinates":[[[103.644145,1.3322815],[103.6440368,1.3321714],[103.6439428,1.3322637],[103.6440509,1.3323738],[103.644145,1.3322815]]]}},{"type":"Feature","id":"node/7146806767","properties":{"highway":"crossing"},"geometry":{"type":"Point","coordinates":[103.6441707,1.3332675]}},{"type":"Feature","id":"node/7146806893","properties":{"highway":"crossing"},"geometry":{"type":"Point","coordinates":[103.6440377,1.3331261]}},{"type":"Feature","id":"node/7146806913","properties":{"highway":"crossing"},"geometry":{"type":"Point","coordinates":[103.6436108,1.3293164]}},{"type":"Feature","id":"node/7146806914","properties":{"highway":"crossing"},"geometry":{"type":"Point","coordinates":[103.6431814,1.3297691]}},{"type":"Feature","id":"node/7146806915","properties":{"highway":"crossing"},"geometry":{"type":"Point","coordinates":[103.642732,1.3301873]}},{"type":"Feature","id":"node/8370352055","properties":{"highway":"crossing"},"geometry":{"type":"Point","coordinates":[103.6436491,1.3328136]}},{"type":"Feature","id":"node/8370352057","properties":{"highway":"crossing"},"geometry":{"type":"Point","coordinates":[103.6433006,1.3324428]}},{"type":"Feature","id":"node/8370352059","properties":{"highway":"crossing"},"geometry":{"type":"Point","coordinates":[103.6429817,1.3321034]}},{"type":"Feature","id":"node/8370352060","properties":{"highway":"crossing"},"geometry":{"type":"Point","coordinates":[103.6426453,1.3317455]}},{"type":"Feature","id":"node/8370352062","properties":{"highway":"crossing"},"geometry":{"type":"Point","coordinates":[103.6423218,1.3314012]}},{"type":"Feature","id":"node/8370352064","properties":{"highway":"crossing"},"geometry":{"type":"Point","coordinates":[103.641975,1.3310321]}},{"type":"Feature","id":"node/8370352075","properties":{"highway":"crossing"},"geometry":{"type":"Point","coordinates":[103.6424239,1.3312826]}},{"type":"Feature","id":"node/8370352076","properties":{"highway":"crossing"},"geometry":{"type":"Point","coordinates":[103.6425298,1.3313959]}},{"type":"Feature","id":"node/8370352077","properties":{"highway":"crossing"},"geometry":{"type":"Point","coordinates":[103.6429173,1.331811]}},{"type":"Feature","id":"node/8370352078","properties":{"highway":"crossing"},"geometry":{"type":"Point","coordinates":[103.6433143,1.3322353]}},{"type":"Feature","id":"node/8370352079","properties":{"highway":"crossing"},"geometry":{"type":"Point","coordinates":[103.6437601,1.3327123]}},{"type":"Feature","id":"node/8373789314","properties":{"highway":"crossing"},"geometry":{"type":"Point","coordinates":[103.6405885,1.3294198]}},{"type":"Feature","id":"node/8373789316","properties":{"highway":"crossing"},"geometry":{"type":"Point","coordinates":[103.6404257,1.3294472]}},{"type":"Feature","id":"node/8373791617","properties":{"highway":"crossing"},"geometry":{"type":"Point","coordinates":[103.6402383,1.3292736]}},{"type":"Feature","id":"node/8373791619","properties":{"highway":"crossing"},"geometry":{"type":"Point","coordinates":[103.640262,1.3290652]}},{"type":"Feature","id":"node/8373791620","properties":{"highway":"crossing"},"geometry":{"type":"Point","coordinates":[103.6404155,1.3291128]}},{"type":"Feature","id":"node/8373791621","properties":{"highway":"crossing"},"geometry":{"type":"Point","coordinates":[103.6406081,1.3292842]}},{"type":"Feature","id":"node/8374007400","properties":{"highway":"crossing"},"geometry":{"type":"Point","coordinates":[103.6419755,1.3307864]}},{"type":"Feature","id":"node/8374007408","properties":{"highway":"crossing"},"geometry":{"type":"Point","coordinates":[103.6417407,1.3307736]}},{"type":"Feature","id":"node/8374007409","properties":{"highway":"crossing"},"geometry":{"type":"Point","coordinates":[103.6416707,1.3306916]}},{"type":"Feature","id":"node/8374007410","properties":{"highway":"crossing"},"geometry":{"type":"Point","coordinates":[103.6414176,1.3304374]}},{"type":"Feature","id":"node/8374007411","properties":{"highway":"crossing"},"geometry":{"type":"Point","coordinates":[103.6411629,1.330187]}},{"type":"Feature","id":"node/8374019617","properties":{"highway":"crossing"},"geometry":{"type":"Point","coordinates":[103.6425056,1.3294077]}},{"type":"Feature","id":"node/8374019618","properties":{"highway":"crossing"},"geometry":{"type":"Point","coordinates":[103.6424218,1.3293364]}},{"type":"Feature","id":"node/8374019623","properties":{"highway":"crossing"},"geometry":{"type":"Point","coordinates":[103.64252,1.3292429]}},{"type":"Feature","id":"node/8374019624","properties":{"highway":"crossing"},"geometry":{"type":"Point","coordinates":[103.6425951,1.3293218]}},{"type":"Feature","id":"node/8382513737","properties":{"highway":"crossing"},"geometry":{"type":"Point","coordinates":[103.6440649,1.3332572]}},{"type":"Feature","id":"node/8382513739","properties":{"highway":"crossing"},"geometry":{"type":"Point","coordinates":[103.6441745,1.3331525]}},{"type":"Feature","id":"way/28247077-0-0-0","properties":{"highway":"unclassified","lanes":"2","lanes:backward":"1","lanes:forward":"1","maxspeed":"50","name":"Tuas Avenue 12","surface":"asphalt","startNodeId":"5270617112","endNodeId":"8370336302"},"geometry":{"type":"LineString","coordinates":[[103.6433579,1.3323895],[103.6433458,1.3323768]]}},{"type":"Feature","id":"way/28247077-0-1-0","properties":{"highway":"unclassified","lanes":"2","lanes:backward":"1","lanes:forward":"1","maxspeed":"50","name":"Tuas Avenue 12","surface":"asphalt","startNodeId":"8370336302","endNodeId":"8370352070"},"geometry":{"type":"LineString","coordinates":[[103.6433458,1.3323768],[103.6432722,1.3323001]]}},{"type":"Feature","id":"way/28247077-0-2-0","properties":{"highway":"unclassified","lanes":"2","lanes:backward":"1","lanes:forward":"1","maxspeed":"50","name":"Tuas Avenue 12","surface":"asphalt","startNodeId":"8370352070","endNodeId":"5270604201"},"geometry":{"type":"LineString","coordinates":[[103.6432722,1.3323001],[103.6432601,1.3322874]]}},{"type":"Feature","id":"way/28247375-0-0-0","properties":{"highway":"residential","lanes":"2","lanes:backward":"1","lanes:forward":"1","maxspeed":"50","name":"Tuas Lane","surface":"asphalt","turn:lanes:backward":"left;right","startNodeId":"310231522","endNodeId":"7146806887"},"geometry":{"type":"LineString","coordinates":[[103.642993,1.3298388],[103.6429491,1.3297907]]}},{"type":"Feature","id":"way/28247375-0-1-0","properties":{"highway":"residential","lanes":"2","lanes:backward":"1","lanes:forward":"1","maxspeed":"50","name":"Tuas Lane","surface":"asphalt","turn:lanes:backward":"left;right","startNodeId":"7146806887","endNodeId":"6038117425"},"geometry":{"type":"LineString","coordinates":[[103.6429491,1.3297907],[103.6428134,1.3296421]]}},{"type":"Feature","id":"way/75423527-0-0-0","properties":{"highway":"unclassified","lanes":"2","lanes:backward":"1","lanes:forward":"1","maxspeed":"50","name":"Tuas Avenue 12","surface":"asphalt","turn:lanes:forward":"through;right","startNodeId":"5270618642","endNodeId":"310231500"},"geometry":{"type":"LineString","coordinates":[[103.6418026,1.3307159],[103.6419182,1.3308399]]}},{"type":"Feature","id":"way/75435076-0-0-0","properties":{"highway":"primary","lanes":"3","maxheight":"4.5","maxspeed":"70","name":"Pioneer Road","name:en":"Pioneer Road","name:zh":"\u5148\u9a71\u8def","oneway":"yes","sidewalk":"no","surface":"asphalt","startNodeId":"890662277","endNodeId":"8373791617"},"geometry":{"type":"LineString","coordinates":[[103.6403552,1.3291642],[103.6402383,1.3292736]]}},{"type":"Feature","id":"way/75435076-0-1-0","properties":{"highway":"primary","lanes":"3","maxheight":"4.5","maxspeed":"70","name":"Pioneer Road","name:en":"Pioneer Road","name:zh":"\u5148\u9a71\u8def","oneway":"yes","sidewalk":"no","surface":"asphalt","startNodeId":"8373791617","endNodeId":"4740102696"},"geometry":{"type":"LineString","coordinates":[[103.6402383,1.3292736],[103.6398515,1.3296353]]}},{"type":"Feature","id":"way/75435087-0-0-0","properties":{"highway":"primary","lanes":"4","maxheight":"4.5","maxspeed":"70","name":"Pioneer Road","name:en":"Pioneer Road","name:zh":"\u5148\u9a71\u8def","oneway":"yes","sidewalk":"no","surface":"asphalt","turn:lanes":"left|through|through|through","startNodeId":"310231428","endNodeId":"8373791621"},"geometry":{"type":"LineString","coordinates":[[103.6405321,1.3293526],[103.6406081,1.3292842]]}},{"type":"Feature","id":"way/141381439-0-14-0","properties":{"bicycle":"no","bridge":"viaduct","expressway":"yes","highway":"primary","lanes":"2","layer":"1","maxspeed":"70","name":"Tuas Viaduct","name:ms":"Jejambat Tuas","name:ta":"\u0ba4\u0bc1\u0bb5\u0bbe\u0bb8\u0bcd \u0bae\u0bc7\u0bae\u0bcd\u0baa\u0bbe\u0bb2\u0bae\u0bcd","name:zh":"\u5927\u58eb\u9ad8\u67b6\u6865","oneway":"yes","surface":"asphalt","startNodeId":"4929305452","endNodeId":"5152605420"},"geometry":{"type":"LineString","coordinates":[[103.63969,1.3294785],[103.6402237,1.3293015]]}},{"type":"Feature","id":"way/141381439-0-15-0","properties":{"bicycle":"no","bridge":"viaduct","expressway":"yes","highway":"primary","lanes":"2","layer":"1","maxspeed":"70","name":"Tuas Viaduct","name:ms":"Jejambat Tuas","name:ta":"\u0ba4\u0bc1\u0bb5\u0bbe\u0bb8\u0bcd \u0bae\u0bc7\u0bae\u0bcd\u0baa\u0bbe\u0bb2\u0bae\u0bcd","name:zh":"\u5927\u58eb\u9ad8\u67b6\u6865","oneway":"yes","surface":"asphalt","startNodeId":"5152605420","endNodeId":"1547482263"},"geometry":{"type":"LineString","coordinates":[[103.6402237,1.3293015],[103.6405778,1.3291125]]}},{"type":"Feature","id":"way/251582128-0-0-0","properties":{"highway":"unclassified","lanes":"2","lanes:backward":"1","lanes:forward":"1","maxheight":"4.5","maxspeed":"50","name":"Tuas Avenue 12","surface":"asphalt","turn:lanes:forward":"through|right","startNodeId":"890662277","endNodeId":"4852666016"},"geometry":{"type":"LineString","coordinates":[[103.6403552,1.3291642],[103.6404612,1.3292805]]}},{"type":"Feature","id":"way/251582128-0-1-0","properties":{"highway":"unclassified","lanes":"2","lanes:backward":"1","lanes:forward":"1","maxheight":"4.5","maxspeed":"50","name":"Tuas Avenue 12","surface":"asphalt","turn:lanes:forward":"through|right","startNodeId":"4852666016","endNodeId":"310231428"},"geometry":{"type":"LineString","coordinates":[[103.6404612,1.3292805],[103.6405321,1.3293526]]}},{"type":"Feature","id":"way/470533681-0-9-0","properties":{"bicycle":"no","bridge":"viaduct","expressway":"yes","highway":"primary","lanes":"2","layer":"1","maxspeed":"70","name":"Tuas Viaduct","name:ms":"Jejambat Tuas","name:ta":"\u0ba4\u0bc1\u0bb5\u0bbe\u0bb8\u0bcd \u0bae\u0bc7\u0bae\u0bcd\u0baa\u0bbe\u0bb2\u0bae\u0bcd","name:zh":"\u5927\u58eb\u9ad8\u67b6\u6865","oneway":"yes","surface":"asphalt","startNodeId":"5152605842","endNodeId":"1547459073"},"geometry":{"type":"LineString","coordinates":[[103.6408065,1.3287451],[103.6402345,1.3291433]]}},{"type":"Feature","id":"way/470533681-0-10-0","properties":{"bicycle":"no","bridge":"viaduct","expressway":"yes","highway":"primary","lanes":"2","layer":"1","maxspeed":"70","name":"Tuas Viaduct","name:ms":"Jejambat Tuas","name:ta":"\u0ba4\u0bc1\u0bb5\u0bbe\u0bb8\u0bcd \u0bae\u0bc7\u0bae\u0bcd\u0baa\u0bbe\u0bb2\u0bae\u0bcd","name:zh":"\u5927\u58eb\u9ad8\u67b6\u6865","oneway":"yes","surface":"asphalt","startNodeId":"1547459073","endNodeId":"4929305451"},"geometry":{"type":"LineString","coordinates":[[103.6402345,1.3291433],[103.6399998,1.3292439]]}},{"type":"Feature","id":"way/479606440-0-0-0","properties":{"highway":"primary","lanes":"3","maxspeed":"70","name":"Tuas West Road","name:en":"Tuas West Road","name:zh":"\u5927\u58eb\u897f\u8def","oneway":"yes","sidewalk":"left","surface":"asphalt","startNodeId":"4726832941","endNodeId":"4726832943"},"geometry":{"type":"LineString","coordinates":[[103.6413853,1.3332455],[103.6409658,1.332807]]}},{"type":"Feature","id":"way/479606440-0-1-0","properties":{"highway":"primary","lanes":"3","maxspeed":"70","name":"Tuas West Road","name:en":"Tuas West Road","name:zh":"\u5927\u58eb\u897f\u8def","oneway":"yes","sidewalk":"left","surface":"asphalt","startNodeId":"4726832943","endNodeId":"4726832945"},"geometry":{"type":"LineString","coordinates":[[103.6409658,1.332807],[103.6405681,1.3323834]]}},{"type":"Feature","id":"way/479606440-0-2-0","properties":{"highway":"primary","lanes":"3","maxspeed":"70","name":"Tuas West Road","name:en":"Tuas West Road","name:zh":"\u5927\u58eb\u897f\u8def","oneway":"yes","sidewalk":"left","surface":"asphalt","startNodeId":"4726832945","endNodeId":"246629844"},"geometry":{"type":"LineString","coordinates":[[103.6405681,1.3323834],[103.6405356,1.33235]]}},{"type":"Feature","id":"way/479606440-0-3-0","properties":{"highway":"primary","lanes":"3","maxspeed":"70","name":"Tuas West Road","name:en":"Tuas West Road","name:zh":"\u5927\u58eb\u897f\u8def","oneway":"yes","sidewalk":"left","surface":"asphalt","startNodeId":"246629844","endNodeId":"4726832947"},"geometry":{"type":"LineString","coordinates":[[103.6405356,1.33235],[103.6402216,1.3320115]]}},{"type":"Feature","id":"way/479606440-0-4-0","properties":{"highway":"primary","lanes":"3","maxspeed":"70","name":"Tuas West Road","name:en":"Tuas West Road","name:zh":"\u5927\u58eb\u897f\u8def","oneway":"yes","sidewalk":"left","surface":"asphalt","startNodeId":"4726832947","endNodeId":"4726832955"},"geometry":{"type":"LineString","coordinates":[[103.6402216,1.3320115],[103.639841,1.3315843]]}},{"type":"Feature","id":"way/479608710-0-0-0","properties":{"highway":"service","noname":"yes","oneway":"yes","surface":"asphalt","startNodeId":"4726832947","endNodeId":"4726832948"},"geometry":{"type":"LineString","coordinates":[[103.6402216,1.3320115],[103.6402282,1.331915]]}},{"type":"Feature","id":"way/479608710-0-1-0","properties":{"highway":"service","noname":"yes","oneway":"yes","surface":"asphalt","startNodeId":"4726832948","endNodeId":"4726832949"},"geometry":{"type":"LineString","coordinates":[[103.6402282,1.331915],[103.6402306,1.3318464]]}},{"type":"Feature","id":"way/479608710-0-2-0","properties":{"highway":"service","noname":"yes","oneway":"yes","surface":"asphalt","startNodeId":"4726832949","endNodeId":"5270854537"},"geometry":{"type":"LineString","coordinates":[[103.6402306,1.3318464],[103.6402667,1.3317403]]}},{"type":"Feature","id":"way/479608710-0-3-0","properties":{"highway":"service","noname":"yes","oneway":"yes","surface":"asphalt","startNodeId":"5270854537","endNodeId":"4726832950"},"geometry":{"type":"LineString","coordinates":[[103.6402667,1.3317403],[103.6402624,1.3317129]]}},{"type":"Feature","id":"way/479608710-0-4-0","properties":{"highway":"service","noname":"yes","oneway":"yes","surface":"asphalt","startNodeId":"4726832950","endNodeId":"4726832951"},"geometry":{"type":"LineString","coordinates":[[103.6402624,1.3317129],[103.6401859,1.3316232]]}},{"type":"Feature","id":"way/479608711-0-0-0","properties":{"highway":"service","noname":"yes","oneway":"yes","surface":"asphalt","startNodeId":"4726832951","endNodeId":"5270854536"},"geometry":{"type":"LineString","coordinates":[[103.6401859,1.3316232],[103.6401298,1.3315641]]}},{"type":"Feature","id":"way/479608711-0-1-0","properties":{"highway":"service","noname":"yes","oneway":"yes","surface":"asphalt","startNodeId":"5270854536","endNodeId":"5270854535"},"geometry":{"type":"LineString","coordinates":[[103.6401298,1.3315641],[103.6400923,1.3315379]]}},{"type":"Feature","id":"way/479608711-0-2-0","properties":{"highway":"service","noname":"yes","oneway":"yes","surface":"asphalt","startNodeId":"5270854535","endNodeId":"4726832953"},"geometry":{"type":"LineString","coordinates":[[103.6400923,1.3315379],[103.6400532,1.3315322]]}},{"type":"Feature","id":"way/479608711-0-3-0","properties":{"highway":"service","noname":"yes","oneway":"yes","surface":"asphalt","startNodeId":"4726832953","endNodeId":"5270854534"},"geometry":{"type":"LineString","coordinates":[[103.6400532,1.3315322],[103.6399633,1.3315831]]}},{"type":"Feature","id":"way/479608711-0-4-0","properties":{"highway":"service","noname":"yes","oneway":"yes","surface":"asphalt","startNodeId":"5270854534","endNodeId":"4726832954"},"geometry":{"type":"LineString","coordinates":[[103.6399633,1.3315831],[103.6399407,1.3315872]]}},{"type":"Feature","id":"way/479608711-0-5-0","properties":{"highway":"service","noname":"yes","oneway":"yes","surface":"asphalt","startNodeId":"4726832954","endNodeId":"4726832955"},"geometry":{"type":"LineString","coordinates":[[103.6399407,1.3315872],[103.639841,1.3315843]]}},{"type":"Feature","id":"way/480875432-0-0-0","properties":{"highway":"primary","lanes":"3","maxspeed":"70","name":"Pioneer Road","name:en":"Pioneer Road","name:zh":"\u5148\u9a71\u8def","oneway":"yes","sidewalk":"no","surface":"asphalt","turn:lanes":"left;through|through|through;right","startNodeId":"4738252150","endNodeId":"8373789316"},"geometry":{"type":"LineString","coordinates":[[103.6401388,1.3297025],[103.6404257,1.3294472]]}},{"type":"Feature","id":"way/480875432-0-1-0","properties":{"highway":"primary","lanes":"3","maxspeed":"70","name":"Pioneer Road","name:en":"Pioneer Road","name:zh":"\u5148\u9a71\u8def","oneway":"yes","sidewalk":"no","surface":"asphalt","turn:lanes":"left;through|through|through;right","startNodeId":"8373789316","endNodeId":"310231428"},"geometry":{"type":"LineString","coordinates":[[103.6404257,1.3294472],[103.6405321,1.3293526]]}},{"type":"Feature","id":"way/539505824-0-2-0","properties":{"highway":"primary","lanes":"3","maxspeed":"70","name":"Pioneer Road","name:en":"Pioneer Road","name:zh":"\u5148\u9a71\u8def","oneway":"yes","sidewalk":"no","surface":"asphalt","turn:lanes":"left;through|through|through","startNodeId":"6202101424","endNodeId":"4738252150"},"geometry":{"type":"LineString","coordinates":[[103.6400003,1.329829],[103.6401388,1.3297025]]}},{"type":"Feature","id":"way/639881919-0-0-0","properties":{"highway":"primary","lanes":"3","maxspeed":"70","name":"Tuas West Road","name:en":"Tuas West Road","name:zh":"\u5927\u58eb\u897f\u8def","oneway":"yes","sidewalk":"left","surface":"asphalt","startNodeId":"5270625018","endNodeId":"way/639881919-0:0:1"},"geometry":{"type":"LineString","coordinates":[[103.6406161,1.3326197],[103.6412896,1.333334]]}},{"type":"Feature","id":"way/639964882-0-0-0","properties":{"highway":"unclassified","lanes":"2","lanes:backward":"1","lanes:forward":"1","maxspeed":"50","name":"Tuas Avenue 12","surface":"asphalt","turn:lanes:backward":"left;through;right","startNodeId":"310231426","endNodeId":"7146806767"},"geometry":{"type":"LineString","coordinates":[[103.6441153,1.333209],[103.6441707,1.3332675]]}},{"type":"Feature","id":"way/639964882-0-1-0","properties":{"highway":"unclassified","lanes":"2","lanes:backward":"1","lanes:forward":"1","maxspeed":"50","name":"Tuas Avenue 12","surface":"asphalt","turn:lanes:backward":"left;through;right","startNodeId":"7146806767","endNodeId":"6038296780"},"geometry":{"type":"LineString","coordinates":[[103.6441707,1.3332675],[103.6442976,1.3334016]]}},{"type":"Feature","id":"way/639967649-0-1-0","properties":{"highway":"unclassified","lanes":"3","lanes:backward":"1","lanes:forward":"2","maxheight":"4.5","maxspeed":"50","name":"Tuas Avenue 20","surface":"asphalt","turn:lanes:forward":"left;through|right","startNodeId":"6320168398","endNodeId":"8373791619"},"geometry":{"type":"LineString","coordinates":[[103.6402187,1.3290193],[103.640262,1.3290652]]}},{"type":"Feature","id":"way/639967649-0-2-0","properties":{"highway":"unclassified","lanes":"3","lanes:backward":"1","lanes:forward":"2","maxheight":"4.5","maxspeed":"50","name":"Tuas Avenue 20","surface":"asphalt","turn:lanes:forward":"left;through|right","startNodeId":"8373791619","endNodeId":"890662277"},"geometry":{"type":"LineString","coordinates":[[103.640262,1.3290652],[103.6403552,1.3291642]]}},{"type":"Feature","id":"way/640284774-0-0-0","properties":{"highway":"residential","lanes":"2","lanes:backward":"1","lanes:forward":"1","maxspeed":"50","name":"Tuas Lane","parking:condition:left:vehicles":"motorcar","parking:lane:left":"parallel","surface":"asphalt","startNodeId":"4606173586","endNodeId":"8386717139"},"geometry":{"type":"LineString","coordinates":[[103.6424777,1.329285],[103.6424439,1.3292486]]}},{"type":"Feature","id":"way/640284774-0-1-0","properties":{"highway":"residential","lanes":"2","lanes:backward":"1","lanes:forward":"1","maxspeed":"50","name":"Tuas Lane","parking:condition:left:vehicles":"motorcar","parking:lane:left":"parallel","surface":"asphalt","startNodeId":"8386717139","endNodeId":"4606173559"},"geometry":{"type":"LineString","coordinates":[[103.6424439,1.3292486],[103.6420483,1.328823]]}},{"type":"Feature","id":"way/640286913-0-0-0","properties":{"highway":"residential","lanes":"2","lanes:backward":"1","lanes:forward":"1","maxspeed":"50","name":"Tuas Lane","surface":"asphalt","startNodeId":"5217213603","endNodeId":"4606173586"},"geometry":{"type":"LineString","coordinates":[[103.6425513,1.3293641],[103.6424777,1.329285]]}},{"type":"Feature","id":"way/641058759-0-0-0","properties":{"highway":"residential","lanes":"2","lanes:backward":"1","lanes:forward":"1","maxspeed":"50","name":"Tuas Avenue 9","surface":"asphalt","turn:lanes:backward":"left;through","startNodeId":"310231522","endNodeId":"4606173590"},"geometry":{"type":"LineString","coordinates":[[103.642993,1.3298388],[103.6431272,1.329713]]}},{"type":"Feature","id":"way/641058761-0-0-0","properties":{"highway":"residential","lanes":"2","lanes:backward":"1","lanes:forward":"1","maxspeed":"50","name":"Tuas Lane","parking:condition:left:vehicles":"motorcar","parking:lane:left":"parallel","surface":"asphalt","startNodeId":"6038117425","endNodeId":"5217213603"},"geometry":{"type":"LineString","coordinates":[[103.6428134,1.3296421],[103.6425513,1.3293641]]}},{"type":"Feature","id":"way/641058764-0-0-0","properties":{"highway":"residential","lanes":"2","lanes:backward":"1","lanes:forward":"1","maxspeed":"50","name":"Tuas Avenue 9","surface":"asphalt","turn:lanes:forward":"through;right","startNodeId":"6038117426","endNodeId":"310231522"},"geometry":{"type":"LineString","coordinates":[[103.6428845,1.3299397],[103.642993,1.3298388]]}},{"type":"Feature","id":"way/641058766-0-0-0","properties":{"highway":"residential","lanes":"2","lanes:backward":"1","lanes:forward":"1","maxspeed":"50","name":"Tuas Avenue 9","parking:condition:right:vehicles":"motorcar","parking:lane:right":"parallel","surface":"asphalt","turn:lanes:backward":"left;right","turn:lanes:forward":"through;right","startNodeId":"310231500","endNodeId":"7146806919"},"geometry":{"type":"LineString","coordinates":[[103.6419182,1.3308399],[103.6419541,1.3308064]]}},{"type":"Feature","id":"way/641058766-0-1-0","properties":{"highway":"residential","lanes":"2","lanes:backward":"1","lanes:forward":"1","maxspeed":"50","name":"Tuas Avenue 9","parking:condition:right:vehicles":"motorcar","parking:lane:right":"parallel","surface":"asphalt","turn:lanes:backward":"left;right","turn:lanes:forward":"through;right","startNodeId":"7146806919","endNodeId":"8374007400"},"geometry":{"type":"LineString","coordinates":[[103.6419541,1.3308064],[103.6419755,1.3307864]]}},{"type":"Feature","id":"way/641058766-0-2-0","properties":{"highway":"residential","lanes":"2","lanes:backward":"1","lanes:forward":"1","maxspeed":"50","name":"Tuas Avenue 9","parking:condition:right:vehicles":"motorcar","parking:lane:right":"parallel","surface":"asphalt","turn:lanes:backward":"left;right","turn:lanes:forward":"through;right","startNodeId":"8374007400","endNodeId":"4606173588"},"geometry":{"type":"LineString","coordinates":[[103.6419755,1.3307864],[103.6426777,1.3301324]]}},{"type":"Feature","id":"way/641059511-0-0-0","properties":{"highway":"residential","lanes":"2","lanes:backward":"1","lanes:forward":"1","maxspeed":"50","name":"Tuas Avenue 9","surface":"asphalt","turn:lanes:backward":"left;through","startNodeId":"4606173590","endNodeId":"5270604234"},"geometry":{"type":"LineString","coordinates":[[103.6431272,1.329713],[103.6435811,1.3292833]]}},{"type":"Feature","id":"way/641085976-0-0-0","properties":{"highway":"residential","lanes":"4","lanes:backward":"2","lanes:forward":"2","maxspeed":"50","name":"Tuas Avenue 7","surface":"asphalt","turn:lanes:backward":"left|through;right","startNodeId":"310231426","endNodeId":"8382513737"},"geometry":{"type":"LineString","coordinates":[[103.6441153,1.333209],[103.6440649,1.3332572]]}},{"type":"Feature","id":"way/641085976-0-1-0","properties":{"highway":"residential","lanes":"4","lanes:backward":"2","lanes:forward":"2","maxspeed":"50","name":"Tuas Avenue 7","surface":"asphalt","turn:lanes:backward":"left|through;right","startNodeId":"8382513737","endNodeId":"6038296777"},"geometry":{"type":"LineString","coordinates":[[103.6440649,1.3332572],[103.6439882,1.3333305]]}},{"type":"Feature","id":"way/641085981-0-0-0","properties":{"highway":"unclassified","lanes":"2","lanes:backward":"1","lanes:forward":"1","maxspeed":"50","name":"Tuas Avenue 12","surface":"asphalt","turn:lanes:backward":"left;through;right","startNodeId":"310231426","endNodeId":"7146806893"},"geometry":{"type":"LineString","coordinates":[[103.6441153,1.333209],[103.6440377,1.3331261]]}},{"type":"Feature","id":"way/641085981-0-1-0","properties":{"highway":"unclassified","lanes":"2","lanes:backward":"1","lanes:forward":"1","maxspeed":"50","name":"Tuas Avenue 12","surface":"asphalt","turn:lanes:backward":"left;through;right","startNodeId":"7146806893","endNodeId":"6038296778"},"geometry":{"type":"LineString","coordinates":[[103.6440377,1.3331261],[103.6439758,1.33306]]}},{"type":"Feature","id":"way/641085984-0-0-0","properties":{"highway":"residential","lanes":"2","lanes:backward":"1","lanes:forward":"1","maxspeed":"50","name":"Tuas Avenue 7","surface":"asphalt","turn:lanes:forward":"left;through;right","startNodeId":"6038296779","endNodeId":"8382513730"},"geometry":{"type":"LineString","coordinates":[[103.6443208,1.3330127],[103.6442876,1.3330444]]}},{"type":"Feature","id":"way/641085984-0-1-0","properties":{"highway":"residential","lanes":"2","lanes:backward":"1","lanes:forward":"1","maxspeed":"50","name":"Tuas Avenue 7","surface":"asphalt","turn:lanes:forward":"left;through;right","startNodeId":"8382513730","endNodeId":"8382513739"},"geometry":{"type":"LineString","coordinates":[[103.6442876,1.3330444],[103.6441745,1.3331525]]}},{"type":"Feature","id":"way/641085984-0-2-0","properties":{"highway":"residential","lanes":"2","lanes:backward":"1","lanes:forward":"1","maxspeed":"50","name":"Tuas Avenue 7","surface":"asphalt","turn:lanes:forward":"left;through;right","startNodeId":"8382513739","endNodeId":"310231426"},"geometry":{"type":"LineString","coordinates":[[103.6441745,1.3331525],[103.6441153,1.333209]]}},{"type":"Feature","id":"way/644078473-0-0-0","properties":{"highway":"service","startNodeId":"5270854537","endNodeId":"6059196282"},"geometry":{"type":"LineString","coordinates":[[103.6402667,1.3317403],[103.6403552,1.3317605]]}},{"type":"Feature","id":"way/644078473-0-1-0","properties":{"highway":"service","startNodeId":"6059196282","endNodeId":"6059196281"},"geometry":{"type":"LineString","coordinates":[[103.6403552,1.3317605],[103.6404785,1.3318811]]}},{"type":"Feature","id":"way/644078473-0-2-0","properties":{"highway":"service","startNodeId":"6059196281","endNodeId":"6059196280"},"geometry":{"type":"LineString","coordinates":[[103.6404785,1.3318811],[103.6405939,1.3319884]]}},{"type":"Feature","id":"way/644078473-0-3-0","properties":{"highway":"service","startNodeId":"6059196280","endNodeId":"6059196279"},"geometry":{"type":"LineString","coordinates":[[103.6405939,1.3319884],[103.640677,1.331983]]}},{"type":"Feature","id":"way/644078473-0-4-0","properties":{"highway":"service","startNodeId":"6059196279","endNodeId":"6059196278"},"geometry":{"type":"LineString","coordinates":[[103.640677,1.331983],[103.6407816,1.3319428]]}},{"type":"Feature","id":"way/644078473-0-5-0","properties":{"highway":"service","startNodeId":"6059196278","endNodeId":"6059196277"},"geometry":{"type":"LineString","coordinates":[[103.6407816,1.3319428],[103.6409023,1.3318034]]}},{"type":"Feature","id":"way/644078473-0-6-0","properties":{"highway":"service","startNodeId":"6059196277","endNodeId":"6059196276"},"geometry":{"type":"LineString","coordinates":[[103.6409023,1.3318034],[103.6413047,1.3314548]]}},{"type":"Feature","id":"way/644078473-0-7-0","properties":{"highway":"service","startNodeId":"6059196276","endNodeId":"6504404919"},"geometry":{"type":"LineString","coordinates":[[103.6413047,1.3314548],[103.6413248,1.331428]]}},{"type":"Feature","id":"way/644078473-0-8-0","properties":{"highway":"service","startNodeId":"6504404919","endNodeId":"6504404918"},"geometry":{"type":"LineString","coordinates":[[103.6413248,1.331428],[103.6413315,1.3314085]]}},{"type":"Feature","id":"way/644078473-0-9-0","properties":{"highway":"service","startNodeId":"6504404918","endNodeId":"6504404917"},"geometry":{"type":"LineString","coordinates":[[103.6413315,1.3314085],[103.6413352,1.3313871]]}},{"type":"Feature","id":"way/644078473-0-10-0","properties":{"highway":"service","startNodeId":"6504404917","endNodeId":"6059196275"},"geometry":{"type":"LineString","coordinates":[[103.6413352,1.3313871],[103.6413308,1.3313669]]}},{"type":"Feature","id":"way/644078473-0-11-0","properties":{"highway":"service","startNodeId":"6059196275","endNodeId":"6059196274"},"geometry":{"type":"LineString","coordinates":[[103.6413308,1.3313669],[103.6410458,1.3310666]]}},{"type":"Feature","id":"way/644078473-0-12-0","properties":{"highway":"service","startNodeId":"6059196274","endNodeId":"6059196273"},"geometry":{"type":"LineString","coordinates":[[103.6410458,1.3310666],[103.6407806,1.3307887]]}},{"type":"Feature","id":"way/644078473-0-13-0","properties":{"highway":"service","startNodeId":"6059196273","endNodeId":"6504404916"},"geometry":{"type":"LineString","coordinates":[[103.6407806,1.3307887],[103.6407655,1.3307837]]}},{"type":"Feature","id":"way/644078473-0-14-0","properties":{"highway":"service","startNodeId":"6504404916","endNodeId":"6059196272"},"geometry":{"type":"LineString","coordinates":[[103.6407655,1.3307837],[103.6407541,1.3307834]]}},{"type":"Feature","id":"way/644078473-0-15-0","properties":{"highway":"service","startNodeId":"6059196272","endNodeId":"6504404915"},"geometry":{"type":"LineString","coordinates":[[103.6407541,1.3307834],[103.6407407,1.3307856]]}},{"type":"Feature","id":"way/644078473-0-16-0","properties":{"highway":"service","startNodeId":"6504404915","endNodeId":"6059196271"},"geometry":{"type":"LineString","coordinates":[[103.6407407,1.3307856],[103.640732,1.3307914]]}},{"type":"Feature","id":"way/644078473-0-17-0","properties":{"highway":"service","startNodeId":"6059196271","endNodeId":"6059196270"},"geometry":{"type":"LineString","coordinates":[[103.640732,1.3307914],[103.6401319,1.3313569]]}},{"type":"Feature","id":"way/644078473-0-18-0","properties":{"highway":"service","startNodeId":"6059196270","endNodeId":"6504404920"},"geometry":{"type":"LineString","coordinates":[[103.6401319,1.3313569],[103.6401178,1.3313757]]}},{"type":"Feature","id":"way/644078473-0-19-0","properties":{"highway":"service","startNodeId":"6504404920","endNodeId":"6504404921"},"geometry":{"type":"LineString","coordinates":[[103.6401178,1.3313757],[103.6401118,1.3313978]]}},{"type":"Feature","id":"way/644078473-0-20-0","properties":{"highway":"service","startNodeId":"6504404921","endNodeId":"6504404922"},"geometry":{"type":"LineString","coordinates":[[103.6401118,1.3313978],[103.6401044,1.3314353]]}},{"type":"Feature","id":"way/644078473-0-21-0","properties":{"highway":"service","startNodeId":"6504404922","endNodeId":"6504404923"},"geometry":{"type":"LineString","coordinates":[[103.6401044,1.3314353],[103.640091,1.3314709]]}},{"type":"Feature","id":"way/644078473-0-22-0","properties":{"highway":"service","startNodeId":"6504404923","endNodeId":"4726832953"},"geometry":{"type":"LineString","coordinates":[[103.640091,1.3314709],[103.6400532,1.3315322]]}},{"type":"Feature","id":"way/644451191-0-0-0","properties":{"highway":"unclassified","lanes":"2","lanes:backward":"1","lanes:forward":"1","maxspeed":"50","name":"Tuas Avenue 12","surface":"asphalt","turn:lanes:backward":"left;through;right","startNodeId":"6657123501","endNodeId":"5218281097"},"geometry":{"type":"LineString","coordinates":[[103.6409278,1.3297775],[103.6412417,1.330114]]}},{"type":"Feature","id":"way/646487114-0-0-0","properties":{"highway":"residential","lanes":"2","lanes:backward":"1","lanes:forward":"1","maxspeed":"50","name":"Tuas Avenue 9","surface":"asphalt","turn:lanes:forward":"through;right","startNodeId":"4606173588","endNodeId":"6038117426"},"geometry":{"type":"LineString","coordinates":[[103.6426777,1.3301324],[103.6428845,1.3299397]]}},{"type":"Feature","id":"way/646701398-0-0-0","properties":{"highway":"unclassified","lanes":"2","lanes:backward":"1","lanes:forward":"1","maxspeed":"50","name":"Tuas Avenue 12","parking:condition:right:vehicles":"hgv_articulated","parking:lane:right":"parallel","surface":"asphalt","turn:lanes:forward":"through;right","startNodeId":"6496906580","endNodeId":"5270618642"},"geometry":{"type":"LineString","coordinates":[[103.6417314,1.330638],[103.6418026,1.3307159]]}},{"type":"Feature","id":"way/646785111-0-0-0","properties":{"highway":"service","lanes":"2","lanes:backward":"1","lanes:forward":"1","turn:lanes:backward":"through","turn:lanes:forward":"through","startNodeId":"5217213595","endNodeId":"6496961513"},"geometry":{"type":"LineString","coordinates":[[103.6426246,1.3313009],[103.642969,1.3309493]]}},{"type":"Feature","id":"way/646785111-0-1-0","properties":{"highway":"service","lanes":"2","lanes:backward":"1","lanes:forward":"1","turn:lanes:backward":"through","turn:lanes:forward":"through","startNodeId":"6496961513","endNodeId":"6496961512"},"geometry":{"type":"LineString","coordinates":[[103.642969,1.3309493],[103.6429958,1.3309466]]}},{"type":"Feature","id":"way/646785111-0-2-0","properties":{"highway":"service","lanes":"2","lanes:backward":"1","lanes:forward":"1","turn:lanes:backward":"through","turn:lanes:forward":"through","startNodeId":"6496961512","endNodeId":"6496961511"},"geometry":{"type":"LineString","coordinates":[[103.6429958,1.3309466],[103.6430132,1.3309574]]}},{"type":"Feature","id":"way/646785111-0-3-0","properties":{"highway":"service","lanes":"2","lanes:backward":"1","lanes:forward":"1","turn:lanes:backward":"through","turn:lanes:forward":"through","startNodeId":"6496961511","endNodeId":"5217213596"},"geometry":{"type":"LineString","coordinates":[[103.6430132,1.3309574],[103.6431661,1.3311142]]}},{"type":"Feature","id":"way/646785345-0-0-0","properties":{"highway":"unclassified","lanes":"2","lanes:backward":"1","lanes:forward":"1","maxspeed":"50","name":"Tuas Avenue 12","surface":"asphalt","turn:lanes:forward":"left;through","startNodeId":"5270604218","endNodeId":"8370336293"},"geometry":{"type":"LineString","coordinates":[[103.6423732,1.3313306],[103.6423201,1.3312733]]}},{"type":"Feature","id":"way/646785345-0-1-0","properties":{"highway":"unclassified","lanes":"2","lanes:backward":"1","lanes:forward":"1","maxspeed":"50","name":"Tuas Avenue 12","surface":"asphalt","turn:lanes:forward":"left;through","startNodeId":"8370336293","endNodeId":"8370352073"},"geometry":{"type":"LineString","coordinates":[[103.6423201,1.3312733],[103.6422659,1.3312149]]}},{"type":"Feature","id":"way/646785345-0-2-0","properties":{"highway":"unclassified","lanes":"2","lanes:backward":"1","lanes:forward":"1","maxspeed":"50","name":"Tuas Avenue 12","surface":"asphalt","turn:lanes:forward":"left;through","startNodeId":"8370352073","endNodeId":"5270618641"},"geometry":{"type":"LineString","coordinates":[[103.6422659,1.3312149],[103.6420378,1.3309689]]}},{"type":"Feature","id":"way/646785346-0-0-0","properties":{"highway":"unclassified","lanes":"2","lanes:backward":"1","lanes:forward":"1","maxspeed":"50","name":"Tuas Avenue 12","surface":"asphalt","turn:lanes:forward":"left;through","startNodeId":"5217213597","endNodeId":"5270618633"},"geometry":{"type":"LineString","coordinates":[[103.6424792,1.3314464],[103.6423845,1.3313427]]}},{"type":"Feature","id":"way/646785347-0-0-0","properties":{"highway":"unclassified","lanes":"2","lanes:backward":"1","lanes:forward":"1","maxspeed":"50","name":"Tuas Avenue 12","surface":"asphalt","startNodeId":"5270618629","endNodeId":"8370352072"},"geometry":{"type":"LineString","coordinates":[[103.6427029,1.3316874],[103.6426192,1.3315972]]}},{"type":"Feature","id":"way/646785347-0-1-0","properties":{"highway":"unclassified","lanes":"2","lanes:backward":"1","lanes:forward":"1","maxspeed":"50","name":"Tuas Avenue 12","surface":"asphalt","startNodeId":"8370352072","endNodeId":"8370336296"},"geometry":{"type":"LineString","coordinates":[[103.6426192,1.3315972],[103.6425619,1.3315355]]}},{"type":"Feature","id":"way/646785347-0-2-0","properties":{"highway":"unclassified","lanes":"2","lanes:backward":"1","lanes:forward":"1","maxspeed":"50","name":"Tuas Avenue 12","surface":"asphalt","startNodeId":"8370336296","endNodeId":"5217213597"},"geometry":{"type":"LineString","coordinates":[[103.6425619,1.3315355],[103.6424792,1.3314464]]}},{"type":"Feature","id":"way/646795795-0-0-0","properties":{"highway":"service","noname":"yes","surface":"asphalt","startNodeId":"4726832943","endNodeId":"5218277455"},"geometry":{"type":"LineString","coordinates":[[103.6409658,1.332807],[103.6411388,1.3326419]]}},{"type":"Feature","id":"way/646796163-0-0-0","properties":{"highway":"service","noname":"yes","surface":"asphalt","startNodeId":"5218277457","endNodeId":"4726832942"},"geometry":{"type":"LineString","coordinates":[[103.6415772,1.3330601],[103.6419739,1.3326767]]}},{"type":"Feature","id":"way/646825780-0-0-0","properties":{"highway":"unclassified","lanes":"2","lanes:backward":"1","lanes:forward":"1","maxspeed":"50","name":"Tuas Avenue 12","parking:condition:right:vehicles":"motorcar","parking:lane:right":"parallel","surface":"asphalt","startNodeId":"5270604201","endNodeId":"5270617116"},"geometry":{"type":"LineString","coordinates":[[103.6432601,1.3322874],[103.64304,1.3320495]]}},{"type":"Feature","id":"way/646825781-0-0-0","properties":{"highway":"unclassified","lanes":"2","lanes:backward":"1","lanes:forward":"1","maxspeed":"50","name":"Tuas Avenue 12","surface":"asphalt","startNodeId":"5270617116","endNodeId":"8370336299"},"geometry":{"type":"LineString","coordinates":[[103.64304,1.3320495],[103.6429209,1.3319205]]}},{"type":"Feature","id":"way/646825781-0-1-0","properties":{"highway":"unclassified","lanes":"2","lanes:backward":"1","lanes:forward":"1","maxspeed":"50","name":"Tuas Avenue 12","surface":"asphalt","startNodeId":"8370336299","endNodeId":"5270604209"},"geometry":{"type":"LineString","coordinates":[[103.6429209,1.3319205],[103.6428649,1.3318615]]}},{"type":"Feature","id":"way/646825782-0-0-0","properties":{"highway":"unclassified","lanes":"2","lanes:backward":"1","lanes:forward":"1","maxspeed":"50","name":"Tuas Avenue 12","parking:condition:right:vehicles":"motorcar","parking:lane:right":"parallel","surface":"asphalt","turn:lanes:backward":"left;through;right","startNodeId":"6038296778","endNodeId":"8370352065"},"geometry":{"type":"LineString","coordinates":[[103.6439758,1.33306],[103.6439194,1.3329989]]}},{"type":"Feature","id":"way/646825782-0-1-0","properties":{"highway":"unclassified","lanes":"2","lanes:backward":"1","lanes:forward":"1","maxspeed":"50","name":"Tuas Avenue 12","parking:condition:right:vehicles":"motorcar","parking:lane:right":"parallel","surface":"asphalt","turn:lanes:backward":"left;through;right","startNodeId":"8370352065","endNodeId":"8370370376"},"geometry":{"type":"LineString","coordinates":[[103.6439194,1.3329989],[103.6438098,1.3328803]]}},{"type":"Feature","id":"way/646825782-0-2-0","properties":{"highway":"unclassified","lanes":"2","lanes:backward":"1","lanes:forward":"1","maxspeed":"50","name":"Tuas Avenue 12","parking:condition:right:vehicles":"motorcar","parking:lane:right":"parallel","surface":"asphalt","turn:lanes:backward":"left;through;right","startNodeId":"8370370376","endNodeId":"5270604205"},"geometry":{"type":"LineString","coordinates":[[103.6438098,1.3328803],[103.6437035,1.3327653]]}},{"type":"Feature","id":"way/646825951-0-0-0","properties":{"highway":"service","startNodeId":"5270604205","endNodeId":"8370352079"},"geometry":{"type":"LineString","coordinates":[[103.6437035,1.3327653],[103.6437601,1.3327123]]}},{"type":"Feature","id":"way/646825951-0-1-0","properties":{"highway":"service","startNodeId":"8370352079","endNodeId":"5270604203"},"geometry":{"type":"LineString","coordinates":[[103.6437601,1.3327123],[103.6438539,1.3326243]]}},{"type":"Feature","id":"way/646826174-0-0-0","properties":{"highway":"service","startNodeId":"5270617097","endNodeId":"8370352055"},"geometry":{"type":"LineString","coordinates":[[103.6435436,1.3329077],[103.6436491,1.3328136]]}},{"type":"Feature","id":"way/646826174-0-1-0","properties":{"highway":"service","startNodeId":"8370352055","endNodeId":"5270604205"},"geometry":{"type":"LineString","coordinates":[[103.6436491,1.3328136],[103.6437035,1.3327653]]}},{"type":"Feature","id":"way/646826175-0-0-0","properties":{"highway":"unclassified","lanes":"2","lanes:backward":"1","lanes:forward":"1","maxspeed":"50","name":"Tuas Avenue 12","parking:condition:right:vehicles":"motorcar","parking:lane:right":"parallel","surface":"asphalt","startNodeId":"5270604205","endNodeId":"8370352068"},"geometry":{"type":"LineString","coordinates":[[103.6437035,1.3327653],[103.6435902,1.3326426]]}},{"type":"Feature","id":"way/646826175-0-1-0","properties":{"highway":"unclassified","lanes":"2","lanes:backward":"1","lanes:forward":"1","maxspeed":"50","name":"Tuas Avenue 12","parking:condition:right:vehicles":"motorcar","parking:lane:right":"parallel","surface":"asphalt","startNodeId":"8370352068","endNodeId":"5270617112"},"geometry":{"type":"LineString","coordinates":[[103.6435902,1.3326426],[103.6433579,1.3323895]]}},{"type":"Feature","id":"way/646826432-0-0-0","properties":{"highway":"service","startNodeId":"5270604207","endNodeId":"5270604208"},"geometry":{"type":"LineString","coordinates":[[103.6430097,1.331722],[103.6434356,1.3313338]]}},{"type":"Feature","id":"way/646826621-0-0-0","properties":{"highway":"unclassified","lanes":"2","lanes:backward":"1","lanes:forward":"1","maxspeed":"50","name":"Tuas Avenue 12","surface":"asphalt","startNodeId":"5270604209","endNodeId":"5270618629"},"geometry":{"type":"LineString","coordinates":[[103.6428649,1.3318615],[103.6427029,1.3316874]]}},{"type":"Feature","id":"way/646826809-0-0-0","properties":{"highway":"service","startNodeId":"5270604216","endNodeId":"5270604217"},"geometry":{"type":"LineString","coordinates":[[103.6425141,1.3311972],[103.6428268,1.330901]]}},{"type":"Feature","id":"way/646827237-0-0-0","properties":{"highway":"unclassified","lanes":"2","lanes:backward":"1","lanes:forward":"1","maxspeed":"50","name":"Tuas Avenue 12","surface":"asphalt","startNodeId":"5270618641","endNodeId":"310231500"},"geometry":{"type":"LineString","coordinates":[[103.6420378,1.3309689],[103.6419182,1.3308399]]}},{"type":"Feature","id":"way/646827238-0-0-0","properties":{"highway":"unclassified","lanes":"2","lanes:backward":"1","lanes:forward":"1","maxspeed":"50","name":"Tuas Avenue 12","surface":"asphalt","turn:lanes:forward":"left;through","startNodeId":"5270618633","endNodeId":"5270604218"},"geometry":{"type":"LineString","coordinates":[[103.6423845,1.3313427],[103.6423732,1.3313306]]}},{"type":"Feature","id":"way/646827382-0-0-0","properties":{"highway":"service","noname":"yes","surface":"asphalt","startNodeId":"4606173588","endNodeId":"7146806915"},"geometry":{"type":"LineString","coordinates":[[103.6426777,1.3301324],[103.642732,1.3301873]]}},{"type":"Feature","id":"way/646827382-0-1-0","properties":{"highway":"service","noname":"yes","surface":"asphalt","startNodeId":"7146806915","endNodeId":"5270604219"},"geometry":{"type":"LineString","coordinates":[[103.642732,1.3301873],[103.6428168,1.3302731]]}},{"type":"Feature","id":"way/646828823-0-0-0","properties":{"highway":"service","noname":"yes","surface":"asphalt","startNodeId":"5270604236","endNodeId":"5270604237"},"geometry":{"type":"LineString","coordinates":[[103.6432609,1.3298514],[103.6437261,1.3303326]]}},{"type":"Feature","id":"way/646830586-0-0-0","properties":{"highway":"service","startNodeId":"5270604253","endNodeId":"8374019619"},"geometry":{"type":"LineString","coordinates":[[103.6418968,1.3289648],[103.6419962,1.3288718]]}},{"type":"Feature","id":"way/646830854-0-0-0","properties":{"highway":"service","startNodeId":"5270617111","endNodeId":"8370352057"},"geometry":{"type":"LineString","coordinates":[[103.6432068,1.3325299],[103.6433006,1.3324428]]}},{"type":"Feature","id":"way/646830854-0-1-0","properties":{"highway":"service","startNodeId":"8370352057","endNodeId":"5270617112"},"geometry":{"type":"LineString","coordinates":[[103.6433006,1.3324428],[103.6433579,1.3323895]]}},{"type":"Feature","id":"way/646832081-0-0-0","properties":{"highway":"service","startNodeId":"5270617115","endNodeId":"8370352059"},"geometry":{"type":"LineString","coordinates":[[103.6428872,1.3321904],[103.6429817,1.3321034]]}},{"type":"Feature","id":"way/646832081-0-1-0","properties":{"highway":"service","startNodeId":"8370352059","endNodeId":"5270617116"},"geometry":{"type":"LineString","coordinates":[[103.6429817,1.3321034],[103.64304,1.3320495]]}},{"type":"Feature","id":"way/646833290-0-0-0","properties":{"highway":"service","startNodeId":"5270618629","endNodeId":"8370352060"},"geometry":{"type":"LineString","coordinates":[[103.6427029,1.3316874],[103.6426453,1.3317455]]}},{"type":"Feature","id":"way/646833290-0-1-0","properties":{"highway":"service","startNodeId":"8370352060","endNodeId":"5270617119"},"geometry":{"type":"LineString","coordinates":[[103.6426453,1.3317455],[103.642559,1.3318326]]}},{"type":"Feature","id":"way/646833961-0-0-0","properties":{"highway":"service","startNodeId":"5270618631","endNodeId":"5270618632"},"geometry":{"type":"LineString","coordinates":[[103.6422327,1.3314842],[103.6419497,1.3317483]]}},{"type":"Feature","id":"way/646835214-0-0-0","properties":{"highway":"service","startNodeId":"5270618641","endNodeId":"8370352064"},"geometry":{"type":"LineString","coordinates":[[103.6420378,1.3309689],[103.641975,1.3310321]]}},{"type":"Feature","id":"way/646835214-0-1-0","properties":{"highway":"service","startNodeId":"8370352064","endNodeId":"5270618635"},"geometry":{"type":"LineString","coordinates":[[103.641975,1.3310321],[103.6418955,1.331112]]}},{"type":"Feature","id":"way/655907873-0-0-0","properties":{"highway":"primary","lanes":"5","maxheight":"4.5","maxspeed":"70","name":"Pioneer Road","name:en":"Pioneer Road","name:zh":"\u5148\u9a71\u8def","oneway":"yes","sidewalk":"no","surface":"asphalt","turn:lanes":"left|through|through|through|right","startNodeId":"6144811334","endNodeId":"8373791620"},"geometry":{"type":"LineString","coordinates":[[103.6407407,1.3288075],[103.6404155,1.3291128]]}},{"type":"Feature","id":"way/655907873-0-1-0","properties":{"highway":"primary","lanes":"5","maxheight":"4.5","maxspeed":"70","name":"Pioneer Road","name:en":"Pioneer Road","name:zh":"\u5148\u9a71\u8def","oneway":"yes","sidewalk":"no","surface":"asphalt","turn:lanes":"left|through|through|through|right","startNodeId":"8373791620","endNodeId":"890662277"},"geometry":{"type":"LineString","coordinates":[[103.6404155,1.3291128],[103.6403552,1.3291642]]}},{"type":"Feature","id":"way/691884991-0-0-0","properties":{"highway":"unclassified","lanes":"2","lanes:backward":"1","lanes:forward":"1","maxspeed":"50","name":"Tuas Avenue 12","parking:condition:right:vehicles":"hgv_articulated","parking:lane:right":"parallel","surface":"asphalt","turn:lanes:forward":"through;right","startNodeId":"5218281097","endNodeId":"6494076819"},"geometry":{"type":"LineString","coordinates":[[103.6412417,1.330114],[103.6414869,1.3303703]]}},{"type":"Feature","id":"way/691884992-0-0-0","properties":{"highway":"service","startNodeId":"6494076820","endNodeId":"6496925082"},"geometry":{"type":"LineString","coordinates":[[103.6411504,1.3306959],[103.6413964,1.3304579]]}},{"type":"Feature","id":"way/691884993-0-0-0","properties":{"highway":"service","startNodeId":"6059196274","endNodeId":"6494076821"},"geometry":{"type":"LineString","coordinates":[[103.6410458,1.3310666],[103.6405899,1.331503]]}},{"type":"Feature","id":"way/692146464-0-0-0","properties":{"highway":"unclassified","lanes":"2","lanes:backward":"1","lanes:forward":"1","maxspeed":"50","name":"Tuas Avenue 12","parking:condition:right:vehicles":"hgv_articulated","parking:lane:right":"parallel","surface":"asphalt","turn:lanes:forward":"through;right","startNodeId":"6494076819","endNodeId":"6496906580"},"geometry":{"type":"LineString","coordinates":[[103.6414869,1.3303703],[103.6417314,1.330638]]}},{"type":"Feature","id":"way/692146465-0-0-0","properties":{"highway":"service","startNodeId":"6496906581","endNodeId":"8374007409"},"geometry":{"type":"LineString","coordinates":[[103.6412537,1.3310593],[103.6416707,1.3306916]]}},{"type":"Feature","id":"way/692146465-0-1-0","properties":{"highway":"service","startNodeId":"8374007409","endNodeId":"6496906580"},"geometry":{"type":"LineString","coordinates":[[103.6416707,1.3306916],[103.6417314,1.330638]]}},{"type":"Feature","id":"way/692148173-0-0-0","properties":{"highway":"service","startNodeId":"6496925082","endNodeId":"6496925081"},"geometry":{"type":"LineString","coordinates":[[103.6413964,1.3304579],[103.6412805,1.3303326]]}},{"type":"Feature","id":"way/692148173-0-1-0","properties":{"highway":"service","startNodeId":"6496925081","endNodeId":"6496925080"},"geometry":{"type":"LineString","coordinates":[[103.6412805,1.3303326],[103.6412618,1.3303205]]}},{"type":"Feature","id":"way/692148173-0-2-0","properties":{"highway":"service","startNodeId":"6496925080","endNodeId":"6496925079"},"geometry":{"type":"LineString","coordinates":[[103.6412618,1.3303205],[103.641243,1.3303165]]}},{"type":"Feature","id":"way/692148173-0-3-0","properties":{"highway":"service","startNodeId":"6496925079","endNodeId":"6496925078"},"geometry":{"type":"LineString","coordinates":[[103.641243,1.3303165],[103.6412162,1.3303232]]}},{"type":"Feature","id":"way/692148173-0-4-0","properties":{"highway":"service","startNodeId":"6496925078","endNodeId":"6496925077"},"geometry":{"type":"LineString","coordinates":[[103.6412162,1.3303232],[103.6409815,1.3305565]]}},{"type":"Feature","id":"way/692148173-0-5-0","properties":{"highway":"service","startNodeId":"6496925077","endNodeId":"6496925076"},"geometry":{"type":"LineString","coordinates":[[103.6409815,1.3305565],[103.6409748,1.3305699]]}},{"type":"Feature","id":"way/692148173-0-6-0","properties":{"highway":"service","startNodeId":"6496925076","endNodeId":"6496925075"},"geometry":{"type":"LineString","coordinates":[[103.6409748,1.3305699],[103.6409815,1.3305846]]}},{"type":"Feature","id":"way/692148173-0-7-0","properties":{"highway":"service","startNodeId":"6496925075","endNodeId":"6496925074"},"geometry":{"type":"LineString","coordinates":[[103.6409815,1.3305846],[103.6411075,1.3307107]]}},{"type":"Feature","id":"way/692148173-0-8-0","properties":{"highway":"service","startNodeId":"6496925074","endNodeId":"6496925073"},"geometry":{"type":"LineString","coordinates":[[103.6411075,1.3307107],[103.6411209,1.3307174]]}},{"type":"Feature","id":"way/692148173-0-9-0","properties":{"highway":"service","startNodeId":"6496925073","endNodeId":"6496925072"},"geometry":{"type":"LineString","coordinates":[[103.6411209,1.3307174],[103.6411384,1.3307093]]}},{"type":"Feature","id":"way/692148173-0-10-0","properties":{"highway":"service","startNodeId":"6496925072","endNodeId":"6494076820"},"geometry":{"type":"LineString","coordinates":[[103.6411384,1.3307093],[103.6411504,1.3306959]]}},{"type":"Feature","id":"way/692180708-0-0-0","properties":{"highway":"service","startNodeId":"5270604197","endNodeId":"6557938674"},"geometry":{"type":"LineString","coordinates":[[103.6434211,1.3321645],[103.6437844,1.3318114]]}},{"type":"Feature","id":"way/692180708-0-1-0","properties":{"highway":"service","startNodeId":"6557938674","endNodeId":"6557938673"},"geometry":{"type":"LineString","coordinates":[[103.6437844,1.3318114],[103.6438082,1.3318067]]}},{"type":"Feature","id":"way/692180708-0-2-0","properties":{"highway":"service","startNodeId":"6557938673","endNodeId":"6059196269"},"geometry":{"type":"LineString","coordinates":[[103.6438082,1.3318067],[103.6438367,1.3318087]]}},{"type":"Feature","id":"way/707215599-0-0-0","properties":{"highway":"primary","lanes":"3","maxspeed":"70","name":"Tuas West Road","name:en":"Tuas West Road","name:zh":"\u5927\u58eb\u897f\u8def","oneway":"yes","sidewalk":"left","surface":"asphalt","startNodeId":"6646101427","endNodeId":"5270625018"},"geometry":{"type":"LineString","coordinates":[[103.6395337,1.3314858],[103.6406161,1.3326197]]}},{"type":"Feature","id":"way/708435663-0-0-0","properties":{"highway":"unclassified","lanes":"3","lanes:backward":"2","lanes:forward":"1","maxspeed":"50","name":"Tuas Avenue 12","surface":"asphalt","turn:lanes:backward":"left;through|right","startNodeId":"310231428","endNodeId":"8373789314"},"geometry":{"type":"LineString","coordinates":[[103.6405321,1.3293526],[103.6405885,1.3294198]]}},{"type":"Feature","id":"way/708435663-0-1-0","properties":{"highway":"unclassified","lanes":"3","lanes:backward":"2","lanes:forward":"1","maxspeed":"50","name":"Tuas Avenue 12","surface":"asphalt","turn:lanes:backward":"left;through|right","startNodeId":"8373789314","endNodeId":"8386694140"},"geometry":{"type":"LineString","coordinates":[[103.6405885,1.3294198],[103.6406263,1.3294597]]}},{"type":"Feature","id":"way/708435663-0-2-0","properties":{"highway":"unclassified","lanes":"3","lanes:backward":"2","lanes:forward":"1","maxspeed":"50","name":"Tuas Avenue 12","surface":"asphalt","turn:lanes:backward":"left;through|right","startNodeId":"8386694140","endNodeId":"6657123501"},"geometry":{"type":"LineString","coordinates":[[103.6406263,1.3294597],[103.6409278,1.3297775]]}}]}