{"type":"FeatureCollection","features":[{"type":"Feature","id":"way/119685636-0","properties":{"building":"retail","building:levels":"2","clearanceGeometry":{"type":"Polygon","coordinates":[[[103.6355035,1.3424066],[103.6353746,1.342269],[103.6350854,1.3425399],[103.63502176206308,1.3425995172393845],[103.6351557124039,1.342745790693954],[103.6352335,1.342673],[103.6352721,1.3427142],[103.6353182,1.3426711],[103.6356337,1.3430077],[103.635573,1.3430646],[103.6356902,1.3431897],[103.6359727,1.3429251],[103.6358589,1.3428037],[103.6358324,1.3428285],[103.6357803,1.3427729],[103.63574667378924,1.3427396693917293],[103.63574017636321,1.3427356085004607],[103.63573767645488,1.3427307779083606],[103.6357123,1.3427057],[103.6354654,1.3424422],[103.6355035,1.3424066]]]},"clearanceHeight":1.7,"clearancePrepared":true},"geometry":{"type":"Polygon","coordinates":[[[103.6354654,1.3424422],[103.6355035,1.3424066],[103.6353746,1.342269],[103.6350854,1.3425399],[103.6349936,1.3426259],[103.6351292,1.3427706],[103.6352335,1.342673],[103.6352721,1.3427142],[103.6353182,1.3426711],[103.6356337,1.3430077],[103.635573,1.3430646],[103.6356902,1.3431897],[103.6359727,1.3429251],[103.6358589,1.3428037],[103.6358324,1.3428285],[103.6357803,1.3427729],[103.6357123,1.3427057],[103.6354654,1.3424422]]]}},{"type":"Feature","id":"way/119685637-0","properties":{"building":"roof","layer":"1","clearanceGeometry":{"type":"MultiPolygon","coordinates":[[[[103.63580051292273,1.3426762587966568],[103.6358018236368,1.3426787914995393],[103.63580439974791,1.34268040156899],[103.63580051292273,1.3426762587966568]]],[[[103.6357123,1.3427057],[103.63573767645488,1.3427307779083606],[103.63572065480227,1.3426978868380726],[103.6357123,1.3427057]]],[[[103.6357803,1.3427729],[103.63578811816508,1.3427655721266278],[103.63574667378924,1.3427396693917293],[103.6357803,1.3427729]]]]},"clearanceHeight":1.7,"clearancePrepared":true},"geometry":{"type":"Polygon","coordinates":[[[103.6358393,1.3427176],[103.635774,1.342648],[103.6357123,1.3427057],[103.6357803,1.3427729],[103.6358393,1.3427176]]]}},{"type":"Feature","id":"way/454818480-0","properties":{"building":"yes","clearanceGeometry":{"type":"Polygon","coordinates":[[[103.6395171,1.3467052],[103.63942319975386,1.3466598993671144],[103.63936797461515,1.3467160526594104],[103.6392863,1.3468852],[103.639403,1.3469415],[103.6395171,1.3467052]]]},"clearanceHeight":1.7,"clearancePrepared":true},"geometry":{"type":"Polygon","coordinates":[[[103.639403,1.3469415],[103.6395171,1.3467052],[103.6394004,1.3466489],[103.6392863,1.3468852],[103.639403,1.3469415]]]}},{"type":"Feature","id":"way/454818486-0","properties":{"building":"yes","clearanceGeometry":{"type":"Polygon","coordinates":[[[103.6399005,1.3469147],[103.63986422488857,1.3468450660115876],[103.63981699756745,1.3467999256588266],[103.63980038721739,1.3467855842483487],[103.63975022518146,1.3467537015983904],[103.63974483734579,1.3467509480566173],[103.63967597151314,1.3467468412040908],[103.6396577,1.3467485],[103.6396349,1.3467739],[103.63964241605711,1.3468002622898523],[103.63975720226925,1.346884414239585],[103.6398736,1.3469523],[103.6399005,1.3469147]]]},"clearanceHeight":1.7,"clearancePrepared":true},"geometry":{"type":"Polygon","coordinates":[[[103.6398736,1.3469523],[103.6399005,1.3469147],[103.6398495,1.3468168],[103.6397315,1.3467418],[103.6396577,1.3467485],[103.6396349,1.3467739],[103.6396483,1.3468209],[103.6398736,1.3469523]]]}},{"type":"Feature","id":"way/454818487-0","properties":{"building":"yes","clearanceGeometry":{"type":"Polygon","coordinates":[[[103.639588,1.3464951],[103.639594,1.3465321],[103.6395807,1.3465341],[103.63959989066797,1.34666131236607],[103.63960665667027,1.3466617158604086],[103.6398053,1.3466319],[103.6397859,1.3465032],[103.6397767,1.3465046],[103.6397704,1.3464656],[103.639588,1.3464951]]]},"clearanceHeight":1.7,"clearancePrepared":true},"geometry":{"type":"Polygon","coordinates":[[[103.6397704,1.3464656],[103.639588,1.3464951],[103.639594,1.3465321],[103.6395807,1.3465341],[103.6396001,1.3466627],[103.6398053,1.3466319],[103.6397859,1.3465032],[103.6397767,1.3465046],[103.6397704,1.3464656]]]}},{"type":"Feature","id":"way/467880090-0","properties":{"building":"yes","building:levels":"6","clearanceGeometry":{"type":"Polygon","coordinates":[[[103.6382578,1.3430685],[103.63822444138621,1.3431926857399277],[103.63823902907802,1.3432318834741477],[103.6382637,1.3432385],[103.63825435682189,1.3432730697590243],[103.63826024334747,1.3432888870979682],[103.63826239839742,1.3432937064757986],[103.638325,1.3433105],[103.638311,1.3433626],[103.6384684,1.3434049],[103.6384615,1.3434307],[103.6386266,1.343475],[103.6386341,1.3434469],[103.6387799,1.3434861],[103.6388494,1.3432273],[103.6382578,1.3430685]]]},"clearanceHeight":1.7,"clearancePrepared":true},"geometry":{"type":"Polygon","coordinates":[[[103.6388494,1.3432273],[103.6382578,1.3430685],[103.6382156,1.3432256],[103.6382637,1.3432385],[103.6382497,1.3432903],[103.638325,1.3433105],[103.638311,1.3433626],[103.6384684,1.3434049],[103.6384615,1.3434307],[103.6386266,1.343475],[103.6386341,1.3434469],[103.6387799,1.3434861],[103.6388494,1.3432273]]]}},{"type":"Feature","id":"way/545342829-0","properties":{"building":"yes","clearanceGeometry":{"type":"Polygon","coordinates":[[[103.63526168391594,1.3463248035109658],[103.63563409496778,1.3461874209043332],[103.63564850584065,1.3461817901659296],[103.63588997221501,1.3460883860099493],[103.6358508128008,1.345987136492013],[103.63574664831019,1.3460260121679666],[103.63531653086861,1.3462062631269778],[103.63524413928596,1.3462455202538954],[103.6352337299059,1.346252486842872],[103.63526168391594,1.3463248035109658]]]},"clearanceHeight":1.7,"clearancePrepared":true},"geometry":{"type":"Polygon","coordinates":[[[103.6358344,1.3459447],[103.6352083,1.3461867],[103.635279,1.3463696],[103.6359051,1.3461275],[103.6358344,1.3459447]]]}},{"type":"Feature","id":"way/842171871-0","properties":{"area":"yes","barrier":"border_control","building":"yes","source":"Bing","clearanceGeometry":{"type":"Polygon","coordinates":[[[103.6360385,1.3462926],[103.63493008812284,1.3467153410216688],[103.63489814347864,1.3467636633768718],[103.63487356759562,1.346813757075691],[103.63486551380274,1.3468335884576919],[103.63485615397346,1.3468566316524784],[103.6348955,1.3469598],[103.6349726,1.3471619],[103.63618899938827,1.3466979732497029],[103.63607846564678,1.346421227480047],[103.63607415110212,1.3463994949589393],[103.63607451075272,1.346387027072085],[103.6360385,1.3462926]]]},"clearanceHeight":1.7,"clearancePrepared":true},"geometry":{"type":"Polygon","coordinates":[[[103.6361097,1.3464793],[103.6360385,1.3462926],[103.6348185,1.3467579],[103.6348955,1.3469598],[103.6349726,1.3471619],[103.6361926,1.3466966],[103.6361097,1.3464793]]]}},{"type":"Feature","id":"way/965287606-0","properties":{"building":"yes","clearanceGeometry":{"type":"Polygon","coordinates":[[[103.6386967,1.3429401],[103.63868,1.3429958],[103.6387348,1.3430123],[103.6387515,1.3429566],[103.6386967,1.3429401]]]},"clearanceHeight":1.7,"clearancePrepared":true},"geometry":{"type":"Polygon","coordinates":[[[103.6387515,1.3429566],[103.6386967,1.3429401],[103.63868,1.3429958],[103.6387348,1.3430123],[103.6387515,1.3429566]]]}},{"type":"Feature","id":"way/965287628-0","properties":{"building":"yes","clearanceGeometry":{"type":"Polygon","coordinates":[[[103.6390643,1.3437138],[103.6390637,1.3436662],[103.6390141,1.3436669],[103.6390147,1.3437145],[103.6390643,1.3437138]]]},"clearanceHeight":1.7,"clearancePrepared":true},"geometry":{"type":"Polygon","coordinates":[[[103.6390147,1.3437145],[103.6390643,1.3437138],[103.6390637,1.3436662],[103.6390141,1.3436669],[103.6390147,1.3437145]]]}},{"type":"Feature","id":"node/1885907579","properties":{"highway":"traffic_signals"},"geometry":{"type":"Point","coordinates":[103.6394142,1.3454753]}},{"type":"Feature","id":"node/1885907547","properties":{"highway":"crossing"},"geometry":{"type":"Point","coordinates":[103.6394083,1.3452809]}},{"type":"Feature","id":"node/1885907550","properties":{"highway":"crossing"},"geometry":{"type":"Point","coordinates":[103.6392572,1.3454787]}},{"type":"Feature","id":"node/3846201921","properties":{"highway":"crossing"},"geometry":{"type":"Point","coordinates":[103.6393873,1.3454232]}},{"type":"Feature","id":"node/8383508266","properties":{"crossing":"unmarked","highway":"crossing"},"geometry":{"type":"Point","coordinates":[103.6383927,1.3439995]}},{"type":"Feature","id":"node/8383508267","properties":{"highway":"crossing"},"geometry":{"type":"Point","coordinates":[103.6380468,1.343039]}},{"type":"Feature","id":"node/8383508268","properties":{"highway":"crossing"},"geometry":{"type":"Point","coordinates":[103.637888,1.342563]}},{"type":"Feature","id":"node/13984671610","properties":{"crossing":"traffic_signals","highway":"crossing"},"geometry":{"type":"Point","coordinates":[103.6397808,1.345634]}},{"type":"Feature","id":"node/13984671611","properties":{"crossing":"traffic_signals","highway":"crossing"},"geometry":{"type":"Point","coordinates":[103.6395404,1.3454132]}},{"type":"Feature","id":"node/13984671612","properties":{"crossing":"traffic_signals","highway":"crossing"},"geometry":{"type":"Point","coordinates":[103.639507,1.3453889]}},{"type":"Feature","id":"node/13984671613","properties":{"crossing":"unmarked","crossing:markings":"no","highway":"crossing"},"geometry":{"type":"Point","coordinates":[103.6396378,1.3458873]}},{"type":"Feature","id":"node/13984671614","properties":{"crossing":"unmarked","crossing:markings":"no","highway":"crossing"},"geometry":{"type":"Point","coordinates":[103.6395806,1.3459405]}},{"type":"Feature","id":"way/32877535-0-0-0","properties":{"highway":"motorway_link","lanes":"2","maxspeed":"70","name":"Jalan Ahmad Ibrahim","name:en":"Jalan Ahmad Ibrahim","name:zh":"\u60f9\u5170\u963f\u672b\u4f9d\u5e03\u62c9\u6b23","oneway":"yes","surface":"asphalt","turn:lanes":"left;through|through","startNodeId":"3846201903","endNodeId":"3846201904"},"geometry":{"type":"LineString","coordinates":[[103.6395093,1.3458878],[103.6395858,1.3458125]]}},{"type":"Feature","id":"way/119663634-0-1-0","properties":{"alt_name":"Tuas Checkpoint Viaduct","alt_name:zh":"\u5927\u58eb\u5173\u5361\u9ad8\u67b6\u6865","bridge":"yes","goods":"no","hgv":"no","highway":"motorway","lanes":"3","layer":"1","maxspeed":"80","motorcar":"yes","motorcycle":"yes","name":"Ayer Rajah Expressway","name:ms":"Lebuhraya Ayer Rajah","name:ta":"\u0b86\u0baf\u0bb0\u0bcd \u0bb0\u0bbe\u0b9c\u0bbe \u0bb5\u0bbf\u0bb0\u0bb5\u0bc1\u0b9a\u0bcd\u0b9a\u0bbe\u0bb2\u0bc8","name:zh":"\u4e9a\u9038\u62c9\u60f9\u9ad8\u901f\u516c\u8def","oneway":"yes","ref":"AYE","surface":"asphalt","wikidata":"Q2657325","wikipedia":"en:Ayer Rajah Expressway","startNodeId":"148134004","endNodeId":"way/119663634-0:1:1"},"geometry":{"type":"LineString","coordinates":[[103.6398389,1.3452518],[103.6391869,1.3458761]]}},{"type":"Feature","id":"way/119663634-0-1-1","properties":{"alt_name":"Tuas Checkpoint Viaduct","alt_name:zh":"\u5927\u58eb\u5173\u5361\u9ad8\u67b6\u6865","bridge":"yes","goods":"no","hgv":"no","highway":"motorway","lanes":"3","layer":"1","maxspeed":"80","motorcar":"yes","motorcycle":"yes","name":"Ayer Rajah Expressway","name:ms":"Lebuhraya Ayer Rajah","name:ta":"\u0b86\u0baf\u0bb0\u0bcd \u0bb0\u0bbe\u0b9c\u0bbe \u0bb5\u0bbf\u0bb0\u0bb5\u0bc1\u0b9a\u0bcd\u0b9a\u0bbe\u0bb2\u0bc8","name:zh":"\u4e9a\u9038\u62c9\u60f9\u9ad8\u901f\u516c\u8def","oneway":"yes","ref":"AYE","surface":"asphalt","wikidata":"Q2657325","wikipedia":"en:Ayer Rajah Expressway","startNodeId":"way/119663634-0:1:1","endNodeId":"148134016"},"geometry":{"type":"LineString","coordinates":[[103.6391869,1.3458761],[103.6385349,1.3465004]]}},{"type":"Feature","id":"way/119663634-0-2-0","properties":{"alt_name":"Tuas Checkpoint Viaduct","alt_name:zh":"\u5927\u58eb\u5173\u5361\u9ad8\u67b6\u6865","bridge":"yes","goods":"no","hgv":"no","highway":"motorway","lanes":"3","layer":"1","maxspeed":"80","motorcar":"yes","motorcycle":"yes","name":"Ayer Rajah Expressway","name:ms":"Lebuhraya Ayer Rajah","name:ta":"\u0b86\u0baf\u0bb0\u0bcd \u0bb0\u0bbe\u0b9c\u0bbe \u0bb5\u0bbf\u0bb0\u0bb5\u0bc1\u0b9a\u0bcd\u0b9a\u0bbe\u0bb2\u0bc8","name:zh":"\u4e9a\u9038\u62c9\u60f9\u9ad8\u901f\u516c\u8def","oneway":"yes","ref":"AYE","surface":"asphalt","wikidata":"Q2657325","wikipedia":"en:Ayer Rajah Expressway","startNodeId":"148134016","endNodeId":"5916970207"},"geometry":{"type":"LineString","coordinates":[[103.6385349,1.3465004],[103.6380672,1.3469458]]}},{"type":"Feature","id":"way/119673760-0-0-0","properties":{"highway":"trunk","lanes":"4","maxspeed":"70","name":"Jalan Ahmad Ibrahim","name:en":"Jalan Ahmad Ibrahim","name:zh":"\u60f9\u5170\u963f\u672b\u4f9d\u5e03\u62c9\u6b23","oneway":"yes","surface":"asphalt","startNodeId":"246626610","endNodeId":"535175654"},"geometry":{"type":"LineString","coordinates":[[103.639175,1.3457216],[103.6385407,1.3463477]]}},{"type":"Feature","id":"way/119673760-0-1-0","properties":{"highway":"trunk","lanes":"4","maxspeed":"70","name":"Jalan Ahmad Ibrahim","name:en":"Jalan Ahmad Ibrahim","name:zh":"\u60f9\u5170\u963f\u672b\u4f9d\u5e03\u62c9\u6b23","oneway":"yes","surface":"asphalt","startNodeId":"535175654","endNodeId":"1343716842"},"geometry":{"type":"LineString","coordinates":[[103.6385407,1.3463477],[103.6382268,1.3466427]]}},{"type":"Feature","id":"way/119673760-0-2-0","properties":{"highway":"trunk","lanes":"4","maxspeed":"70","name":"Jalan Ahmad Ibrahim","name:en":"Jalan Ahmad Ibrahim","name:zh":"\u60f9\u5170\u963f\u672b\u4f9d\u5e03\u62c9\u6b23","oneway":"yes","surface":"asphalt","startNodeId":"1343716842","endNodeId":"5916970225"},"geometry":{"type":"LineString","coordinates":[[103.6382268,1.3466427],[103.6380404,1.3468169]]}},{"type":"Feature","id":"way/119673760-0-3-0","properties":{"highway":"trunk","lanes":"4","maxspeed":"70","name":"Jalan Ahmad Ibrahim","name:en":"Jalan Ahmad Ibrahim","name:zh":"\u60f9\u5170\u963f\u672b\u4f9d\u5e03\u62c9\u6b23","oneway":"yes","surface":"asphalt","startNodeId":"5916970225","endNodeId":"4722667575"},"geometry":{"type":"LineString","coordinates":[[103.6380404,1.3468169],[103.6379117,1.3469296]]}},{"type":"Feature","id":"way/119685645-0-0-0","properties":{"highway":"service","noname":"yes","oneway":"yes","service":"driveway","surface":"asphalt","startNodeId":"1343837844","endNodeId":"1343837820"},"geometry":{"type":"LineString","coordinates":[[103.6357455,1.3425863],[103.6357385,1.3426444]]}},{"type":"Feature","id":"way/119685645-0-1-0","properties":{"highway":"service","noname":"yes","oneway":"yes","service":"driveway","surface":"asphalt","startNodeId":"1343837820","endNodeId":"1343837875"},"geometry":{"type":"LineString","coordinates":[[103.6357385,1.3426444],[103.635771,1.3427072]]}},{"type":"Feature","id":"way/119685645-0-2-0","properties":{"highway":"service","noname":"yes","oneway":"yes","service":"driveway","surface":"asphalt","startNodeId":"1343837875","endNodeId":"1343837879"},"geometry":{"type":"LineString","coordinates":[[103.635771,1.3427072],[103.6358454,1.3427537]]}},{"type":"Feature","id":"way/119685645-0-3-0","properties":{"highway":"service","noname":"yes","oneway":"yes","service":"driveway","surface":"asphalt","startNodeId":"1343837879","endNodeId":"1343837785"},"geometry":{"type":"LineString","coordinates":[[103.6358454,1.3427537],[103.6359012,1.3427537]]}},{"type":"Feature","id":"way/119685645-0-4-0","properties":{"highway":"service","noname":"yes","oneway":"yes","service":"driveway","surface":"asphalt","startNodeId":"1343837785","endNodeId":"1343837926"},"geometry":{"type":"LineString","coordinates":[[103.6359012,1.3427537],[103.6361384,1.3425282]]}},{"type":"Feature","id":"way/119685645-0-5-0","properties":{"highway":"service","noname":"yes","oneway":"yes","service":"driveway","surface":"asphalt","startNodeId":"1343837926","endNodeId":"1343837827"},"geometry":{"type":"LineString","coordinates":[[103.6361384,1.3425282],[103.6361616,1.3424864]]}},{"type":"Feature","id":"way/119685645-0-6-0","properties":{"highway":"service","noname":"yes","oneway":"yes","service":"driveway","surface":"asphalt","startNodeId":"1343837827","endNodeId":"1343837801"},"geometry":{"type":"LineString","coordinates":[[103.6361616,1.3424864],[103.6362009,1.3424078]]}},{"type":"Feature","id":"way/119685646-0-0-0","properties":{"highway":"service","noname":"yes","service":"parking_aisle","surface":"paved","startNodeId":"1343837804","endNodeId":"1343837818"},"geometry":{"type":"LineString","coordinates":[[103.6359864,1.3428442],[103.6360824,1.3429462]]}},{"type":"Feature","id":"way/119685646-0-1-0","properties":{"highway":"service","noname":"yes","service":"parking_aisle","surface":"paved","startNodeId":"1343837818","endNodeId":"6059196186"},"geometry":{"type":"LineString","coordinates":[[103.6360824,1.3429462],[103.6361602,1.3428966]]}},{"type":"Feature","id":"way/119685646-0-2-0","properties":{"highway":"service","noname":"yes","service":"parking_aisle","surface":"paved","startNodeId":"6059196186","endNodeId":"1343837786"},"geometry":{"type":"LineString","coordinates":[[103.6361602,1.3428966],[103.6362669,1.3427855]]}},{"type":"Feature","id":"way/119685646-0-3-0","properties":{"highway":"service","noname":"yes","service":"parking_aisle","surface":"paved","startNodeId":"1343837786","endNodeId":"1343837873"},"geometry":{"type":"LineString","coordinates":[[103.6362669,1.3427855],[103.6362126,1.342638]]}},{"type":"Feature","id":"way/119685648-0-0-0","properties":{"highway":"service","noname":"yes","service":"parking_aisle","surface":"paved","startNodeId":"1343837804","endNodeId":"1343837873"},"geometry":{"type":"LineString","coordinates":[[103.6359864,1.3428442],[103.6362126,1.342638]]}},{"type":"Feature","id":"way/123267214-0-0-0","properties":{"access":"permissive","bicycle":"no","foot":"no","goods":"yes","hgv":"yes","highway":"trunk","horse":"no","motorcar":"no","motorcycle":"no","oneway":"yes","surface":"asphalt","toll":"yes","startNodeId":"1375254891","endNodeId":"5916970252"},"geometry":{"type":"LineString","coordinates":[[103.636483,1.3465517],[103.6364176,1.3464627]]}},{"type":"Feature","id":"way/123267214-0-1-0","properties":{"access":"permissive","bicycle":"no","foot":"no","goods":"yes","hgv":"yes","highway":"trunk","horse":"no","motorcar":"no","motorcycle":"no","oneway":"yes","surface":"asphalt","toll":"yes","startNodeId":"5916970252","endNodeId":"5916970253"},"geometry":{"type":"LineString","coordinates":[[103.6364176,1.3464627],[103.6363788,1.3464196]]}},{"type":"Feature","id":"way/123267214-0-2-0","properties":{"access":"permissive","bicycle":"no","foot":"no","goods":"yes","hgv":"yes","highway":"trunk","horse":"no","motorcar":"no","motorcycle":"no","oneway":"yes","surface":"asphalt","toll":"yes","startNodeId":"5916970253","endNodeId":"2718472219"},"geometry":{"type":"LineString","coordinates":[[103.6363788,1.3464196],[103.6363496,1.3463913]]}},{"type":"Feature","id":"way/123267214-0-3-0","properties":{"access":"permissive","bicycle":"no","foot":"no","goods":"yes","hgv":"yes","highway":"trunk","horse":"no","motorcar":"no","motorcycle":"no","oneway":"yes","surface":"asphalt","toll":"yes","startNodeId":"2718472219","endNodeId":"4913999915"},"geometry":{"type":"LineString","coordinates":[[103.6363496,1.3463913],[103.636315,1.3463567]]}},{"type":"Feature","id":"way/123267214-0-4-0","properties":{"access":"permissive","bicycle":"no","foot":"no","goods":"yes","hgv":"yes","highway":"trunk","horse":"no","motorcar":"no","motorcycle":"no","oneway":"yes","surface":"asphalt","toll":"yes","startNodeId":"4913999915","endNodeId":"5310505130"},"geometry":{"type":"LineString","coordinates":[[103.636315,1.3463567],[103.6362968,1.3463415]]}},{"type":"Feature","id":"way/123267214-0-5-0","properties":{"access":"permissive","bicycle":"no","foot":"no","goods":"yes","hgv":"yes","highway":"trunk","horse":"no","motorcar":"no","motorcycle":"no","oneway":"yes","surface":"asphalt","toll":"yes","startNodeId":"5310505130","endNodeId":"5916970254"},"geometry":{"type":"LineString","coordinates":[[103.6362968,1.3463415],[103.6362786,1.3463301]]}},{"type":"Feature","id":"way/123267214-0-6-0","properties":{"access":"permissive","bicycle":"no","foot":"no","goods":"yes","hgv":"yes","highway":"trunk","horse":"no","motorcar":"no","motorcycle":"no","oneway":"yes","surface":"asphalt","toll":"yes","startNodeId":"5916970254","endNodeId":"2718472217"},"geometry":{"type":"LineString","coordinates":[[103.6362786,1.3463301],[103.6362588,1.3463208]]}},{"type":"Feature","id":"way/123267214-0-7-0","properties":{"access":"permissive","bicycle":"no","foot":"no","goods":"yes","hgv":"yes","highway":"trunk","horse":"no","motorcar":"no","motorcycle":"no","oneway":"yes","surface":"asphalt","toll":"yes","startNodeId":"2718472217","endNodeId":"5916970204"},"geometry":{"type":"LineString","coordinates":[[103.6362588,1.3463208],[103.6362286,1.3463095]]}},{"type":"Feature","id":"way/123890025-0-0-0","properties":{"highway":"secondary","lanes":"2","maxspeed":"60","name":"Tuas West Drive","oneway":"yes","surface":"asphalt","turn:lanes":"left|left","startNodeId":"1864054746","endNodeId":"5916970223"},"geometry":{"type":"LineString","coordinates":[[103.6397033,1.3452105],[103.6396142,1.3452476]]}},{"type":"Feature","id":"way/123890025-0-1-0","properties":{"highway":"secondary","lanes":"2","maxspeed":"60","name":"Tuas West Drive","oneway":"yes","surface":"asphalt","turn:lanes":"left|left","startNodeId":"5916970223","endNodeId":"3846201900"},"geometry":{"type":"LineString","coordinates":[[103.6396142,1.3452476],[103.6395433,1.3452689]]}},{"type":"Feature","id":"way/123890025-0-2-0","properties":{"highway":"secondary","lanes":"2","maxspeed":"60","name":"Tuas West Drive","oneway":"yes","surface":"asphalt","turn:lanes":"left|left","startNodeId":"3846201900","endNodeId":"5916970224"},"geometry":{"type":"LineString","coordinates":[[103.6395433,1.3452689],[103.6394869,1.3452796]]}},{"type":"Feature","id":"way/123890025-0-3-0","properties":{"highway":"secondary","lanes":"2","maxspeed":"60","name":"Tuas West Drive","oneway":"yes","surface":"asphalt","turn:lanes":"left|left","startNodeId":"5916970224","endNodeId":"3846201899"},"geometry":{"type":"LineString","coordinates":[[103.6394869,1.3452796],[103.6394363,1.3452817]]}},{"type":"Feature","id":"way/123890025-0-4-0","properties":{"highway":"secondary","lanes":"2","maxspeed":"60","name":"Tuas West Drive","oneway":"yes","surface":"asphalt","turn:lanes":"left|left","startNodeId":"3846201899","endNodeId":"1885907547"},"geometry":{"type":"LineString","coordinates":[[103.6394363,1.3452817],[103.6394083,1.3452809]]}},{"type":"Feature","id":"way/175845931-0-0-0","properties":{"highway":"trunk","lanes":"4","maxspeed":"50","name":"Jalan Ahmad Ibrahim","name:en":"Jalan Ahmad Ibrahim","name:zh":"\u60f9\u5170\u963f\u672b\u4f9d\u5e03\u62c9\u6b23","oneway":"yes","surface":"asphalt","turn:lanes":"through|through|through|right","startNodeId":"1864054746","endNodeId":"3846201911"},"geometry":{"type":"LineString","coordinates":[[103.6397033,1.3452105],[103.6395458,1.3453527]]}},{"type":"Feature","id":"way/175845931-0-1-0","properties":{"highway":"trunk","lanes":"4","maxspeed":"50","name":"Jalan Ahmad Ibrahim","name:en":"Jalan Ahmad Ibrahim","name:zh":"\u60f9\u5170\u963f\u672b\u4f9d\u5e03\u62c9\u6b23","oneway":"yes","surface":"asphalt","turn:lanes":"through|through|through|right","startNodeId":"3846201911","endNodeId":"13984671612"},"geometry":{"type":"LineString","coordinates":[[103.6395458,1.3453527],[103.639507,1.3453889]]}},{"type":"Feature","id":"way/175845931-0-2-0","properties":{"highway":"trunk","lanes":"4","maxspeed":"50","name":"Jalan Ahmad Ibrahim","name:en":"Jalan Ahmad Ibrahim","name:zh":"\u60f9\u5170\u963f\u672b\u4f9d\u5e03\u62c9\u6b23","oneway":"yes","surface":"asphalt","turn:lanes":"through|through|through|right","startNodeId":"13984671612","endNodeId":"1885907579"},"geometry":{"type":"LineString","coordinates":[[103.639507,1.3453889],[103.6394142,1.3454753]]}},{"type":"Feature","id":"way/175879016-0-0-0","properties":{"highway":"secondary","lanes":"2","maxheight":"4.5","maxspeed":"60","name":"Tuas West Drive","oneway":"yes","sidewalk":"no","surface":"asphalt","startNodeId":"1864054744","endNodeId":"5154723288"},"geometry":{"type":"LineString","coordinates":[[103.6386347,1.3445014],[103.6384589,1.3442005]]}},{"type":"Feature","id":"way/175879016-0-1-0","properties":{"highway":"secondary","lanes":"2","maxheight":"4.5","maxspeed":"60","name":"Tuas West Drive","oneway":"yes","sidewalk":"no","surface":"asphalt","startNodeId":"5154723288","endNodeId":"5154723289"},"geometry":{"type":"LineString","coordinates":[[103.6384589,1.3442005],[103.6383765,1.3440508]]}},{"type":"Feature","id":"way/175879016-0-2-0","properties":{"highway":"secondary","lanes":"2","maxheight":"4.5","maxspeed":"60","name":"Tuas West Drive","oneway":"yes","sidewalk":"no","surface":"asphalt","startNodeId":"5154723289","endNodeId":"5684371409"},"geometry":{"type":"LineString","coordinates":[[103.6383765,1.3440508],[103.6383561,1.3440104]]}},{"type":"Feature","id":"way/175879017-0-0-0","properties":{"highway":"secondary","lanes":"2","maxspeed":"60","name":"Tuas West Drive","oneway":"yes","sidewalk":"no","surface":"asphalt","startNodeId":"890662421","endNodeId":"5272336036"},"geometry":{"type":"LineString","coordinates":[[103.6385648,1.3445565],[103.6386912,1.3447297]]}},{"type":"Feature","id":"way/175879017-0-1-0","properties":{"highway":"secondary","lanes":"2","maxspeed":"60","name":"Tuas West Drive","oneway":"yes","sidewalk":"no","surface":"asphalt","startNodeId":"5272336036","endNodeId":"890584189"},"geometry":{"type":"LineString","coordinates":[[103.6386912,1.3447297],[103.6388601,1.3449289]]}},{"type":"Feature","id":"way/175879017-0-2-0","properties":{"highway":"secondary","lanes":"2","maxspeed":"60","name":"Tuas West Drive","oneway":"yes","sidewalk":"no","surface":"asphalt","startNodeId":"890584189","endNodeId":"1885907573"},"geometry":{"type":"LineString","coordinates":[[103.6388601,1.3449289],[103.6390073,1.3450857]]}},{"type":"Feature","id":"way/178219626-0-0-0","properties":{"foot":"no","highway":"trunk_link","lanes":"1","maxheight":"4.5","maxspeed":"50","oneway":"yes","surface":"asphalt","turn:lanes":"through;right","startNodeId":"3846201911","endNodeId":"3846201915"},"geometry":{"type":"LineString","coordinates":[[103.6395458,1.3453527],[103.6395409,1.3453955]]}},{"type":"Feature","id":"way/178219626-0-1-0","properties":{"foot":"no","highway":"trunk_link","lanes":"1","maxheight":"4.5","maxspeed":"50","oneway":"yes","surface":"asphalt","turn:lanes":"through;right","startNodeId":"3846201915","endNodeId":"13984671611"},"geometry":{"type":"LineString","coordinates":[[103.6395409,1.3453955],[103.6395404,1.3454132]]}},{"type":"Feature","id":"way/178219626-0-2-0","properties":{"foot":"no","highway":"trunk_link","lanes":"1","maxheight":"4.5","maxspeed":"50","oneway":"yes","surface":"asphalt","turn:lanes":"through;right","startNodeId":"13984671611","endNodeId":"3846201914"},"geometry":{"type":"LineString","coordinates":[[103.6395404,1.3454132],[103.6395396,1.3454412]]}},{"type":"Feature","id":"way/178219626-0-3-0","properties":{"foot":"no","highway":"trunk_link","lanes":"1","maxheight":"4.5","maxspeed":"50","oneway":"yes","surface":"asphalt","turn:lanes":"through;right","startNodeId":"3846201914","endNodeId":"3846201913"},"geometry":{"type":"LineString","coordinates":[[103.6395396,1.3454412],[103.6395423,1.3454619]]}},{"type":"Feature","id":"way/178219626-0-4-0","properties":{"foot":"no","highway":"trunk_link","lanes":"1","maxheight":"4.5","maxspeed":"50","oneway":"yes","surface":"asphalt","turn:lanes":"through;right","startNodeId":"3846201913","endNodeId":"3846201912"},"geometry":{"type":"LineString","coordinates":[[103.6395423,1.3454619],[103.6395443,1.3455014]]}},{"type":"Feature","id":"way/178219626-0-5-0","properties":{"foot":"no","highway":"trunk_link","lanes":"1","maxheight":"4.5","maxspeed":"50","oneway":"yes","surface":"asphalt","turn:lanes":"through;right","startNodeId":"3846201912","endNodeId":"1885907571"},"geometry":{"type":"LineString","coordinates":[[103.6395443,1.3455014],[103.6395496,1.3455672]]}},{"type":"Feature","id":"way/178219626-0-6-0","properties":{"foot":"no","highway":"trunk_link","lanes":"1","maxheight":"4.5","maxspeed":"50","oneway":"yes","surface":"asphalt","turn:lanes":"through;right","startNodeId":"1885907571","endNodeId":"1885907565"},"geometry":{"type":"LineString","coordinates":[[103.6395496,1.3455672],[103.6395523,1.3456007]]}},{"type":"Feature","id":"way/178219626-0-7-0","properties":{"foot":"no","highway":"trunk_link","lanes":"1","maxheight":"4.5","maxspeed":"50","oneway":"yes","surface":"asphalt","turn:lanes":"through;right","startNodeId":"1885907565","endNodeId":"3846201905"},"geometry":{"type":"LineString","coordinates":[[103.6395523,1.3456007],[103.6395697,1.3457535]]}},{"type":"Feature","id":"way/178219626-0-8-0","properties":{"foot":"no","highway":"trunk_link","lanes":"1","maxheight":"4.5","maxspeed":"50","oneway":"yes","surface":"asphalt","turn:lanes":"through;right","startNodeId":"3846201905","endNodeId":"3846201906"},"geometry":{"type":"LineString","coordinates":[[103.6395697,1.3457535],[103.6395764,1.3457803]]}},{"type":"Feature","id":"way/178219626-0-9-0","properties":{"foot":"no","highway":"trunk_link","lanes":"1","maxheight":"4.5","maxspeed":"50","oneway":"yes","surface":"asphalt","turn:lanes":"through;right","startNodeId":"3846201906","endNodeId":"3846201904"},"geometry":{"type":"LineString","coordinates":[[103.6395764,1.3457803],[103.6395858,1.3458125]]}},{"type":"Feature","id":"way/178219628-0-0-0","properties":{"foot":"no","highway":"trunk_link","lanes":"2","maxspeed":"50","oneway":"yes","surface":"asphalt","startNodeId":"3846201903","endNodeId":"3846201902"},"geometry":{"type":"LineString","coordinates":[[103.6395093,1.3458878],[103.6395268,1.3458299]]}},{"type":"Feature","id":"way/178219628-0-1-0","properties":{"foot":"no","highway":"trunk_link","lanes":"2","maxspeed":"50","oneway":"yes","surface":"asphalt","startNodeId":"3846201902","endNodeId":"3846201901"},"geometry":{"type":"LineString","coordinates":[[103.6395268,1.3458299],[103.6395268,1.3457991]]}},{"type":"Feature","id":"way/178219628-0-2-0","properties":{"foot":"no","highway":"trunk_link","lanes":"2","maxspeed":"50","oneway":"yes","surface":"asphalt","startNodeId":"3846201901","endNodeId":"3846201922"},"geometry":{"type":"LineString","coordinates":[[103.6395268,1.3457991],[103.6394812,1.3456275]]}},{"type":"Feature","id":"way/178219628-0-3-0","properties":{"foot":"no","highway":"trunk_link","lanes":"2","maxspeed":"50","oneway":"yes","surface":"asphalt","startNodeId":"3846201922","endNodeId":"1885907579"},"geometry":{"type":"LineString","coordinates":[[103.6394812,1.3456275],[103.6394142,1.3454753]]}},{"type":"Feature","id":"way/266258736-0-0-0","properties":{"access":"permissive","bicycle":"no","bus":"designated","foot":"no","goods":"designated","hgv":"designated","highway":"trunk","horse":"no","motorcar":"no","motorcycle":"no","oneway":"yes","surface":"asphalt","toll":"yes","startNodeId":"1375254899","endNodeId":"1375254891"},"geometry":{"type":"LineString","coordinates":[[103.6366278,1.3469417],[103.636483,1.3465517]]}},{"type":"Feature","id":"way/381418973-0-0-0","properties":{"foot":"use_sidepath","highway":"secondary","lanes":"2","maxspeed":"60","name":"Tuas West Drive","oneway":"yes","sidewalk":"separate","surface":"asphalt","startNodeId":"1885907558","endNodeId":"3846201918"},"geometry":{"type":"LineString","coordinates":[[103.6392427,1.3452228],[103.6391976,1.3451723]]}},{"type":"Feature","id":"way/381418973-0-1-0","properties":{"foot":"use_sidepath","highway":"secondary","lanes":"2","maxspeed":"60","name":"Tuas West Drive","oneway":"yes","sidewalk":"separate","surface":"asphalt","startNodeId":"3846201918","endNodeId":"3846201917"},"geometry":{"type":"LineString","coordinates":[[103.6391976,1.3451723],[103.6389215,1.3448694]]}},{"type":"Feature","id":"way/381418973-0-2-0","properties":{"foot":"use_sidepath","highway":"secondary","lanes":"2","maxspeed":"60","name":"Tuas West Drive","oneway":"yes","sidewalk":"separate","surface":"asphalt","startNodeId":"3846201917","endNodeId":"5154723290"},"geometry":{"type":"LineString","coordinates":[[103.6389215,1.3448694],[103.6387538,1.344666]]}},{"type":"Feature","id":"way/381418973-0-3-0","properties":{"foot":"use_sidepath","highway":"secondary","lanes":"2","maxspeed":"60","name":"Tuas West Drive","oneway":"yes","sidewalk":"separate","surface":"asphalt","startNodeId":"5154723290","endNodeId":"1864054744"},"geometry":{"type":"LineString","coordinates":[[103.6387538,1.344666],[103.6386347,1.3445014]]}},{"type":"Feature","id":"way/391007722-0-2-0","properties":{"highway":"trunk","lanes":"2","maxspeed":"70","name":"Jalan Ahmad Ibrahim","name:en":"Jalan Ahmad Ibrahim","name:zh":"\u60f9\u5170\u963f\u672b\u4f9d\u5e03\u62c9\u6b23","oneway":"yes","surface":"asphalt","startNodeId":"567844776","endNodeId":"4722740607"},"geometry":{"type":"LineString","coordinates":[[103.638492,1.3468553],[103.6390157,1.3463572]]}},{"type":"Feature","id":"way/428887212-0-0-0","properties":{"foot":"use_sidepath","highway":"secondary","lanes":"2","maxspeed":"60","name":"Tuas West Drive","oneway":"yes","sidewalk":"separate","surface":"asphalt","turn:lanes":"left|left","startNodeId":"1885907573","endNodeId":"6503515754"},"geometry":{"type":"LineString","coordinates":[[103.6390073,1.3450857],[103.6391361,1.3452188]]}},{"type":"Feature","id":"way/428887212-0-1-0","properties":{"foot":"use_sidepath","highway":"secondary","lanes":"2","maxspeed":"60","name":"Tuas West Drive","oneway":"yes","sidewalk":"separate","surface":"asphalt","turn:lanes":"left|left","startNodeId":"6503515754","endNodeId":"6503515753"},"geometry":{"type":"LineString","coordinates":[[103.6391361,1.3452188],[103.6391985,1.3452939]]}},{"type":"Feature","id":"way/428887212-0-2-0","properties":{"foot":"use_sidepath","highway":"secondary","lanes":"2","maxspeed":"60","name":"Tuas West Drive","oneway":"yes","sidewalk":"separate","surface":"asphalt","turn:lanes":"left|left","startNodeId":"6503515753","endNodeId":"3846201923"},"geometry":{"type":"LineString","coordinates":[[103.6391985,1.3452939],[103.6392323,1.345356]]}},{"type":"Feature","id":"way/428887212-0-3-0","properties":{"foot":"use_sidepath","highway":"secondary","lanes":"2","maxspeed":"60","name":"Tuas West Drive","oneway":"yes","sidewalk":"separate","surface":"asphalt","turn:lanes":"left|left","startNodeId":"3846201923","endNodeId":"6503515752"},"geometry":{"type":"LineString","coordinates":[[103.6392323,1.345356],[103.6392501,1.3454031]]}},{"type":"Feature","id":"way/428887212-0-4-0","properties":{"foot":"use_sidepath","highway":"secondary","lanes":"2","maxspeed":"60","name":"Tuas West Drive","oneway":"yes","sidewalk":"separate","surface":"asphalt","turn:lanes":"left|left","startNodeId":"6503515752","endNodeId":"3846201924"},"geometry":{"type":"LineString","coordinates":[[103.6392501,1.3454031],[103.6392572,1.3454405]]}},{"type":"Feature","id":"way/428887212-0-5-0","properties":{"foot":"use_sidepath","highway":"secondary","lanes":"2","maxspeed":"60","name":"Tuas West Drive","oneway":"yes","sidewalk":"separate","surface":"asphalt","turn:lanes":"left|left","startNodeId":"3846201924","endNodeId":"1885907550"},"geometry":{"type":"LineString","coordinates":[[103.6392572,1.3454405],[103.6392572,1.3454787]]}},{"type":"Feature","id":"way/428887212-0-6-0","properties":{"foot":"use_sidepath","highway":"secondary","lanes":"2","maxspeed":"60","name":"Tuas West Drive","oneway":"yes","sidewalk":"separate","surface":"asphalt","turn:lanes":"left|left","startNodeId":"1885907550","endNodeId":"3846201926"},"geometry":{"type":"LineString","coordinates":[[103.6392572,1.3454787],[103.6392519,1.3455323]]}},{"type":"Feature","id":"way/428887212-0-7-0","properties":{"foot":"use_sidepath","highway":"secondary","lanes":"2","maxspeed":"60","name":"Tuas West Drive","oneway":"yes","sidewalk":"separate","surface":"asphalt","turn:lanes":"left|left","startNodeId":"3846201926","endNodeId":"3846201925"},"geometry":{"type":"LineString","coordinates":[[103.6392519,1.3455323],[103.6392358,1.3455913]]}},{"type":"Feature","id":"way/428887212-0-8-0","properties":{"foot":"use_sidepath","highway":"secondary","lanes":"2","maxspeed":"60","name":"Tuas West Drive","oneway":"yes","sidewalk":"separate","surface":"asphalt","turn:lanes":"left|left","startNodeId":"3846201925","endNodeId":"246626610"},"geometry":{"type":"LineString","coordinates":[[103.6392358,1.3455913],[103.639175,1.3457216]]}},{"type":"Feature","id":"way/428897145-0-3-0","properties":{"alt_name":"Tuas Checkpoint Viaduct","alt_name:zh":"\u5927\u58eb\u5173\u5361\u9ad8\u67b6\u6865","bridge":"yes","goods":"no","hgv":"no","highway":"motorway","lanes":"3","layer":"1","maxspeed":"80","motorcar":"yes","motorcycle":"yes","name":"Ayer Rajah Expressway","name:ms":"Lebuhraya Ayer Rajah","name:ta":"\u0b86\u0baf\u0bb0\u0bcd \u0bb0\u0bbe\u0b9c\u0bbe \u0bb5\u0bbf\u0bb0\u0bb5\u0bc1\u0b9a\u0bcd\u0b9a\u0bbe\u0bb2\u0bc8","name:zh":"\u4e9a\u9038\u62c9\u60f9\u9ad8\u901f\u516c\u8def","oneway":"yes","ref":"AYE","surface":"asphalt","turn:lanes":"through|through|through","wikidata":"Q2657325","wikipedia":"en:Ayer Rajah Expressway","startNodeId":"148145964","endNodeId":"way/428897145-0:3:1"},"geometry":{"type":"LineString","coordinates":[[103.6386094,1.346601],[103.6392679,1.3459714]]}},{"type":"Feature","id":"way/428897145-0-3-1","properties":{"alt_name":"Tuas Checkpoint Viaduct","alt_name:zh":"\u5927\u58eb\u5173\u5361\u9ad8\u67b6\u6865","bridge":"yes","goods":"no","hgv":"no","highway":"motorway","lanes":"3","layer":"1","maxspeed":"80","motorcar":"yes","motorcycle":"yes","name":"Ayer Rajah Expressway","name:ms":"Lebuhraya Ayer Rajah","name:ta":"\u0b86\u0baf\u0bb0\u0bcd \u0bb0\u0bbe\u0b9c\u0bbe \u0bb5\u0bbf\u0bb0\u0bb5\u0bc1\u0b9a\u0bcd\u0b9a\u0bbe\u0bb2\u0bc8","name:zh":"\u4e9a\u9038\u62c9\u60f9\u9ad8\u901f\u516c\u8def","oneway":"yes","ref":"AYE","surface":"asphalt","turn:lanes":"through|through|through","wikidata":"Q2657325","wikipedia":"en:Ayer Rajah Expressway","startNodeId":"way/428897145-0:3:1","endNodeId":"148144638"},"geometry":{"type":"LineString","coordinates":[[103.6392679,1.3459714],[103.6399263,1.3453417]]}},{"type":"Feature","id":"way/479120235-0-0-0","properties":{"foot":"use_sidepath","highway":"secondary","lanes":"2","maxspeed":"60","name":"Tuas West Drive","oneway":"yes","sidewalk":"separate","surface":"asphalt","startNodeId":"4722667568","endNodeId":"9173842142"},"geometry":{"type":"LineString","coordinates":[[103.6381334,1.3437013],[103.638275,1.3440433]]}},{"type":"Feature","id":"way/479120237-0-0-0","properties":{"foot":"use_sidepath","highway":"secondary","lanes":"2","maxheight":"4.5","maxspeed":"60","name":"Tuas West Drive","oneway":"yes","sidewalk":"separate","surface":"asphalt","startNodeId":"4722667574","endNodeId":"4722667569"},"geometry":{"type":"LineString","coordinates":[[103.6376768,1.3424895],[103.6378486,1.3429699]]}},{"type":"Feature","id":"way/479120238-0-0-0","properties":{"foot":"use_sidepath","highway":"secondary","lanes":"2","maxheight":"4.5","maxspeed":"60","name":"Tuas West Drive","oneway":"yes","sidewalk":"separate","surface":"asphalt","startNodeId":"4722667569","endNodeId":"5154723291"},"geometry":{"type":"LineString","coordinates":[[103.6378486,1.3429699],[103.6379941,1.3433127]]}},{"type":"Feature","id":"way/479120238-0-1-0","properties":{"foot":"use_sidepath","highway":"secondary","lanes":"2","maxheight":"4.5","maxspeed":"60","name":"Tuas West Drive","oneway":"yes","sidewalk":"separate","surface":"asphalt","startNodeId":"5154723291","endNodeId":"4722667568"},"geometry":{"type":"LineString","coordinates":[[103.6379941,1.3433127],[103.6381334,1.3437013]]}},{"type":"Feature","id":"way/479127290-0-0-0","properties":{"highway":"trunk","lanes":"3","maxspeed":"70","name":"Jalan Ahmad Ibrahim","name:en":"Jalan Ahmad Ibrahim","name:zh":"\u60f9\u5170\u963f\u672b\u4f9d\u5e03\u62c9\u6b23","oneway":"yes","surface":"asphalt","turn:lanes":"left;through|through|right","startNodeId":"4722740607","endNodeId":"3846201903"},"geometry":{"type":"LineString","coordinates":[[103.6390157,1.3463572],[103.6395093,1.3458878]]}},{"type":"Feature","id":"way/479127291-0-0-0","properties":{"highway":"motorway_link","lanes":"2","maxspeed":"70","name":"Jalan Ahmad Ibrahim","name:en":"Jalan Ahmad Ibrahim","name:zh":"\u60f9\u5170\u963f\u672b\u4f9d\u5e03\u62c9\u6b23","oneway":"yes","surface":"asphalt","startNodeId":"3846201904","endNodeId":"13984671610"},"geometry":{"type":"LineString","coordinates":[[103.6395858,1.3458125],[103.6397808,1.345634]]}},{"type":"Feature","id":"way/500307165-0-0-0","properties":{"access":"permissive","bicycle":"no","bus":"designated","foot":"no","goods":"no","hgv":"no","highway":"service","horse":"no","motorcar":"no","motorcycle":"no","oneway":"yes","startNodeId":"5916970204","endNodeId":"5310505131"},"geometry":{"type":"LineString","coordinates":[[103.6362286,1.3463095],[103.6361416,1.346341]]}},{"type":"Feature","id":"way/500307165-0-1-0","properties":{"access":"permissive","bicycle":"no","bus":"designated","foot":"no","goods":"no","hgv":"no","highway":"service","horse":"no","motorcar":"no","motorcycle":"no","oneway":"yes","startNodeId":"5310505131","endNodeId":"5310505133"},"geometry":{"type":"LineString","coordinates":[[103.6361416,1.346341],[103.6361328,1.3463474]]}},{"type":"Feature","id":"way/500307165-0-2-0","properties":{"access":"permissive","bicycle":"no","bus":"designated","foot":"no","goods":"no","hgv":"no","highway":"service","horse":"no","motorcar":"no","motorcycle":"no","oneway":"yes","startNodeId":"5310505133","endNodeId":"5916970251"},"geometry":{"type":"LineString","coordinates":[[103.6361328,1.3463474],[103.6361254,1.3463554]]}},{"type":"Feature","id":"way/500307165-0-3-0","properties":{"access":"permissive","bicycle":"no","bus":"designated","foot":"no","goods":"no","hgv":"no","highway":"service","horse":"no","motorcar":"no","motorcycle":"no","oneway":"yes","startNodeId":"5916970251","endNodeId":"4913999916"},"geometry":{"type":"LineString","coordinates":[[103.6361254,1.3463554],[103.6361195,1.346366]]}},{"type":"Feature","id":"way/500307165-0-4-0","properties":{"access":"permissive","bicycle":"no","bus":"designated","foot":"no","goods":"no","hgv":"no","highway":"service","horse":"no","motorcar":"no","motorcycle":"no","oneway":"yes","startNodeId":"4913999916","endNodeId":"4914000125"},"geometry":{"type":"LineString","coordinates":[[103.6361195,1.346366],[103.6361169,1.3463746]]}},{"type":"Feature","id":"way/500307165-0-5-0","properties":{"access":"permissive","bicycle":"no","bus":"designated","foot":"no","goods":"no","hgv":"no","highway":"service","horse":"no","motorcar":"no","motorcycle":"no","oneway":"yes","startNodeId":"4914000125","endNodeId":"5916970250"},"geometry":{"type":"LineString","coordinates":[[103.6361169,1.3463746],[103.636115,1.3463857]]}},{"type":"Feature","id":"way/500307165-0-6-0","properties":{"access":"permissive","bicycle":"no","bus":"designated","foot":"no","goods":"no","hgv":"no","highway":"service","horse":"no","motorcar":"no","motorcycle":"no","oneway":"yes","startNodeId":"5916970250","endNodeId":"5916970249"},"geometry":{"type":"LineString","coordinates":[[103.636115,1.3463857],[103.6361147,1.3463961]]}},{"type":"Feature","id":"way/500307165-0-7-0","properties":{"access":"permissive","bicycle":"no","bus":"designated","foot":"no","goods":"no","hgv":"no","highway":"service","horse":"no","motorcar":"no","motorcycle":"no","oneway":"yes","startNodeId":"5916970249","endNodeId":"4913999909"},"geometry":{"type":"LineString","coordinates":[[103.6361147,1.3463961],[103.6361174,1.3464097]]}},{"type":"Feature","id":"way/500307165-0-8-0","properties":{"access":"permissive","bicycle":"no","bus":"designated","foot":"no","goods":"no","hgv":"no","highway":"service","horse":"no","motorcar":"no","motorcycle":"no","oneway":"yes","startNodeId":"4913999909","endNodeId":"4913999910"},"geometry":{"type":"LineString","coordinates":[[103.6361174,1.3464097],[103.6363189,1.3469142]]}},{"type":"Feature","id":"way/500307168-0-0-0","properties":{"access":"permissive","bicycle":"no","bus":"no","foot":"no","goods":"designated","hgv":"designated","highway":"trunk","horse":"no","lanes":"1","motorcar":"no","motorcycle":"no","oneway":"yes","surface":"asphalt","toll":"yes","startNodeId":"1375254891","endNodeId":"1375254871"},"geometry":{"type":"LineString","coordinates":[[103.636483,1.3465517],[103.6362967,1.3460697]]}},{"type":"Feature","id":"way/500307168-0-1-0","properties":{"access":"permissive","bicycle":"no","bus":"no","foot":"no","goods":"designated","hgv":"designated","highway":"trunk","horse":"no","lanes":"1","motorcar":"no","motorcycle":"no","oneway":"yes","surface":"asphalt","toll":"yes","startNodeId":"1375254871","endNodeId":"5916970228"},"geometry":{"type":"LineString","coordinates":[[103.6362967,1.3460697],[103.6362627,1.3460005]]}},{"type":"Feature","id":"way/500307168-0-2-0","properties":{"access":"permissive","bicycle":"no","bus":"no","foot":"no","goods":"designated","hgv":"designated","highway":"trunk","horse":"no","lanes":"1","motorcar":"no","motorcycle":"no","oneway":"yes","surface":"asphalt","toll":"yes","startNodeId":"5916970228","endNodeId":"5916970229"},"geometry":{"type":"LineString","coordinates":[[103.6362627,1.3460005],[103.6362222,1.3459441]]}},{"type":"Feature","id":"way/500307168-0-3-0","properties":{"access":"permissive","bicycle":"no","bus":"no","foot":"no","goods":"designated","hgv":"designated","highway":"trunk","horse":"no","lanes":"1","motorcar":"no","motorcycle":"no","oneway":"yes","surface":"asphalt","toll":"yes","startNodeId":"5916970229","endNodeId":"1375254865"},"geometry":{"type":"LineString","coordinates":[[103.6362222,1.3459441],[103.6361754,1.3458973]]}},{"type":"Feature","id":"way/500307168-0-4-0","properties":{"access":"permissive","bicycle":"no","bus":"no","foot":"no","goods":"designated","hgv":"designated","highway":"trunk","horse":"no","lanes":"1","motorcar":"no","motorcycle":"no","oneway":"yes","surface":"asphalt","toll":"yes","startNodeId":"1375254865","endNodeId":"4913999920"},"geometry":{"type":"LineString","coordinates":[[103.6361754,1.3458973],[103.6361222,1.3458686]]}},{"type":"Feature","id":"way/500307168-0-5-0","properties":{"access":"permissive","bicycle":"no","bus":"no","foot":"no","goods":"designated","hgv":"designated","highway":"trunk","horse":"no","lanes":"1","motorcar":"no","motorcycle":"no","oneway":"yes","surface":"asphalt","toll":"yes","startNodeId":"4913999920","endNodeId":"1375254862"},"geometry":{"type":"LineString","coordinates":[[103.6361222,1.3458686],[103.6360594,1.3458483]]}},{"type":"Feature","id":"way/500307168-0-6-0","properties":{"access":"permissive","bicycle":"no","bus":"no","foot":"no","goods":"designated","hgv":"designated","highway":"trunk","horse":"no","lanes":"1","motorcar":"no","motorcycle":"no","oneway":"yes","surface":"asphalt","toll":"yes","startNodeId":"1375254862","endNodeId":"4914000121"},"geometry":{"type":"LineString","coordinates":[[103.6360594,1.3458483],[103.6359998,1.345843]]}},{"type":"Feature","id":"way/500307168-0-7-0","properties":{"access":"permissive","bicycle":"no","bus":"no","foot":"no","goods":"designated","hgv":"designated","highway":"trunk","horse":"no","lanes":"1","motorcar":"no","motorcycle":"no","oneway":"yes","surface":"asphalt","toll":"yes","startNodeId":"4914000121","endNodeId":"1375254857"},"geometry":{"type":"LineString","coordinates":[[103.6359998,1.345843],[103.6359359,1.3458547]]}},{"type":"Feature","id":"way/500307168-0-8-0","properties":{"access":"permissive","bicycle":"no","bus":"no","foot":"no","goods":"designated","hgv":"designated","highway":"trunk","horse":"no","lanes":"1","motorcar":"no","motorcycle":"no","oneway":"yes","surface":"asphalt","toll":"yes","startNodeId":"1375254857","endNodeId":"1375254867"},"geometry":{"type":"LineString","coordinates":[[103.6359359,1.3458547],[103.6357119,1.3459383]]}},{"type":"Feature","id":"way/500307168-0-9-0","properties":{"access":"permissive","bicycle":"no","bus":"no","foot":"no","goods":"designated","hgv":"designated","highway":"trunk","horse":"no","lanes":"1","motorcar":"no","motorcycle":"no","oneway":"yes","surface":"asphalt","toll":"yes","startNodeId":"1375254867","endNodeId":"1375254889"},"geometry":{"type":"LineString","coordinates":[[103.6357119,1.3459383],[103.6352757,1.3461211]]}},{"type":"Feature","id":"way/500307171-0-0-0","properties":{"access":"permissive","bicycle":"no","bus":"designated","foot":"no","goods":"yes","hgv":"yes","highway":"trunk","horse":"no","motorcar":"no","motorcycle":"no","oneway":"yes","surface":"asphalt","toll":"yes","startNodeId":"5916970204","endNodeId":"7086715530"},"geometry":{"type":"LineString","coordinates":[[103.6362286,1.3463095],[103.6362106,1.346303]]}},{"type":"Feature","id":"way/500307171-0-1-0","properties":{"access":"permissive","bicycle":"no","bus":"designated","foot":"no","goods":"yes","hgv":"yes","highway":"trunk","horse":"no","motorcar":"no","motorcycle":"no","oneway":"yes","surface":"asphalt","toll":"yes","startNodeId":"7086715530","endNodeId":"5916970205"},"geometry":{"type":"LineString","coordinates":[[103.6362106,1.346303],[103.6361971,1.3462961]]}},{"type":"Feature","id":"way/500307171-0-2-0","properties":{"access":"permissive","bicycle":"no","bus":"designated","foot":"no","goods":"yes","hgv":"yes","highway":"trunk","horse":"no","motorcar":"no","motorcycle":"no","oneway":"yes","surface":"asphalt","toll":"yes","startNodeId":"5916970205","endNodeId":"5916970203"},"geometry":{"type":"LineString","coordinates":[[103.6361971,1.3462961],[103.636187,1.3462887]]}},{"type":"Feature","id":"way/500307171-0-3-0","properties":{"access":"permissive","bicycle":"no","bus":"designated","foot":"no","goods":"yes","hgv":"yes","highway":"trunk","horse":"no","motorcar":"no","motorcycle":"no","oneway":"yes","surface":"asphalt","toll":"yes","startNodeId":"5916970203","endNodeId":"5916970206"},"geometry":{"type":"LineString","coordinates":[[103.636187,1.3462887],[103.6361723,1.346278]]}},{"type":"Feature","id":"way/500307171-0-4-0","properties":{"access":"permissive","bicycle":"no","bus":"designated","foot":"no","goods":"yes","hgv":"yes","highway":"trunk","horse":"no","motorcar":"no","motorcycle":"no","oneway":"yes","surface":"asphalt","toll":"yes","startNodeId":"5916970206","endNodeId":"5916970257"},"geometry":{"type":"LineString","coordinates":[[103.6361723,1.346278],[103.6361493,1.3462458]]}},{"type":"Feature","id":"way/500307171-0-5-0","properties":{"access":"permissive","bicycle":"no","bus":"designated","foot":"no","goods":"yes","hgv":"yes","highway":"trunk","horse":"no","motorcar":"no","motorcycle":"no","oneway":"yes","surface":"asphalt","toll":"yes","startNodeId":"5916970257","endNodeId":"5916970256"},"geometry":{"type":"LineString","coordinates":[[103.6361493,1.3462458],[103.6361397,1.3462287]]}},{"type":"Feature","id":"way/500307171-0-6-0","properties":{"access":"permissive","bicycle":"no","bus":"designated","foot":"no","goods":"yes","hgv":"yes","highway":"trunk","horse":"no","motorcar":"no","motorcycle":"no","oneway":"yes","surface":"asphalt","toll":"yes","startNodeId":"5916970256","endNodeId":"3251317501"},"geometry":{"type":"LineString","coordinates":[[103.6361397,1.3462287],[103.636124,1.3462068]]}},{"type":"Feature","id":"way/500307171-0-7-0","properties":{"access":"permissive","bicycle":"no","bus":"designated","foot":"no","goods":"yes","hgv":"yes","highway":"trunk","horse":"no","motorcar":"no","motorcycle":"no","oneway":"yes","surface":"asphalt","toll":"yes","startNodeId":"3251317501","endNodeId":"4913999919"},"geometry":{"type":"LineString","coordinates":[[103.636124,1.3462068],[103.6361042,1.3461899]]}},{"type":"Feature","id":"way/500307171-0-8-0","properties":{"access":"permissive","bicycle":"no","bus":"designated","foot":"no","goods":"yes","hgv":"yes","highway":"trunk","horse":"no","motorcar":"no","motorcycle":"no","oneway":"yes","surface":"asphalt","toll":"yes","startNodeId":"4913999919","endNodeId":"5916970255"},"geometry":{"type":"LineString","coordinates":[[103.6361042,1.3461899],[103.6360822,1.3461764]]}},{"type":"Feature","id":"way/500307171-0-9-0","properties":{"access":"permissive","bicycle":"no","bus":"designated","foot":"no","goods":"yes","hgv":"yes","highway":"trunk","horse":"no","motorcar":"no","motorcycle":"no","oneway":"yes","surface":"asphalt","toll":"yes","startNodeId":"5916970255","endNodeId":"5916970248"},"geometry":{"type":"LineString","coordinates":[[103.6360822,1.3461764],[103.636056,1.3461662]]}},{"type":"Feature","id":"way/500307171-0-10-0","properties":{"access":"permissive","bicycle":"no","bus":"designated","foot":"no","goods":"yes","hgv":"yes","highway":"trunk","horse":"no","motorcar":"no","motorcycle":"no","oneway":"yes","surface":"asphalt","toll":"yes","startNodeId":"5916970248","endNodeId":"4913999917"},"geometry":{"type":"LineString","coordinates":[[103.636056,1.3461662],[103.6360222,1.3461586]]}},{"type":"Feature","id":"way/500307171-0-11-0","properties":{"access":"permissive","bicycle":"no","bus":"designated","foot":"no","goods":"yes","hgv":"yes","highway":"trunk","horse":"no","motorcar":"no","motorcycle":"no","oneway":"yes","surface":"asphalt","toll":"yes","startNodeId":"4913999917","endNodeId":"4913999918"},"geometry":{"type":"LineString","coordinates":[[103.6360222,1.3461586],[103.6359884,1.3461578]]}},{"type":"Feature","id":"way/500307171-0-12-0","properties":{"access":"permissive","bicycle":"no","bus":"designated","foot":"no","goods":"yes","hgv":"yes","highway":"trunk","horse":"no","motorcar":"no","motorcycle":"no","oneway":"yes","surface":"asphalt","toll":"yes","startNodeId":"4913999918","endNodeId":"2718472223"},"geometry":{"type":"LineString","coordinates":[[103.6359884,1.3461578],[103.6359513,1.3461658]]}},{"type":"Feature","id":"way/500307171-0-13-0","properties":{"access":"permissive","bicycle":"no","bus":"designated","foot":"no","goods":"yes","hgv":"yes","highway":"trunk","horse":"no","motorcar":"no","motorcycle":"no","oneway":"yes","surface":"asphalt","toll":"yes","startNodeId":"2718472223","endNodeId":"7856857143"},"geometry":{"type":"LineString","coordinates":[[103.6359513,1.3461658],[103.6356827,1.3462697]]}},{"type":"Feature","id":"way/500307171-0-14-0","properties":{"access":"permissive","bicycle":"no","bus":"designated","foot":"no","goods":"yes","hgv":"yes","highway":"trunk","horse":"no","motorcar":"no","motorcycle":"no","oneway":"yes","surface":"asphalt","toll":"yes","startNodeId":"7856857143","endNodeId":"7083225991"},"geometry":{"type":"LineString","coordinates":[[103.6356827,1.3462697],[103.6356676,1.3462756]]}},{"type":"Feature","id":"way/500307171-0-15-0","properties":{"access":"permissive","bicycle":"no","bus":"designated","foot":"no","goods":"yes","hgv":"yes","highway":"trunk","horse":"no","motorcar":"no","motorcycle":"no","oneway":"yes","surface":"asphalt","toll":"yes","startNodeId":"7083225991","endNodeId":"3251317502"},"geometry":{"type":"LineString","coordinates":[[103.6356676,1.3462756],[103.6350528,1.3465024]]}},{"type":"Feature","id":"way/524721415-0-0-0","properties":{"highway":"service","startNodeId":"1343837801","endNodeId":"5105840516"},"geometry":{"type":"LineString","coordinates":[[103.6362009,1.3424078],[103.6361646,1.3423754]]}},{"type":"Feature","id":"way/539514243-0-0-0","properties":{"foot":"use_sidepath","highway":"secondary","lanes":"2","maxspeed":"60","name":"Tuas West Drive","oneway":"yes","sidewalk":"separate","surface":"asphalt","turn:lanes":"left|left","startNodeId":"1885907547","endNodeId":"5916970222"},"geometry":{"type":"LineString","coordinates":[[103.6394083,1.3452809],[103.639354,1.3452718]]}},{"type":"Feature","id":"way/539514243-0-1-0","properties":{"foot":"use_sidepath","highway":"secondary","lanes":"2","maxspeed":"60","name":"Tuas West Drive","oneway":"yes","sidewalk":"separate","surface":"asphalt","turn:lanes":"left|left","startNodeId":"5916970222","endNodeId":"5916970221"},"geometry":{"type":"LineString","coordinates":[[103.639354,1.3452718],[103.6393145,1.345259]]}},{"type":"Feature","id":"way/539514243-0-2-0","properties":{"foot":"use_sidepath","highway":"secondary","lanes":"2","maxspeed":"60","name":"Tuas West Drive","oneway":"yes","sidewalk":"separate","surface":"asphalt","turn:lanes":"left|left","startNodeId":"5916970221","endNodeId":"5916970220"},"geometry":{"type":"LineString","coordinates":[[103.6393145,1.345259],[103.639283,1.3452449]]}},{"type":"Feature","id":"way/539514243-0-3-0","properties":{"foot":"use_sidepath","highway":"secondary","lanes":"2","maxspeed":"60","name":"Tuas West Drive","oneway":"yes","sidewalk":"separate","surface":"asphalt","turn:lanes":"left|left","startNodeId":"5916970220","endNodeId":"1885907558"},"geometry":{"type":"LineString","coordinates":[[103.639283,1.3452449],[103.6392427,1.3452228]]}},{"type":"Feature","id":"way/539518145-0-0-0","properties":{"access":"permissive","bridge":"yes","covered":"yes","goods":"no","hgv":"no","highway":"trunk","horse":"no","layer":"1","motorcar":"no","motorcycle":"designated","name":"Tuas Checkpoint","note":"motorcycles - automatic booth lane","oneway":"yes","source":"Bing","surface":"asphalt","startNodeId":"5220593902","endNodeId":"1375254894"},"geometry":{"type":"LineString","coordinates":[[103.6361097,1.3464793],[103.6354392,1.3467361]]}},{"type":"Feature","id":"way/539518151-0-0-0","properties":{"access":"permissive","bridge":"yes","goods":"no","hgv":"no","highway":"trunk","lanes":"4","layer":"1","motorcar":"yes","motorcycle":"yes","oneway":"yes","source":"Bing","surface":"asphalt","startNodeId":"535179152","endNodeId":"1186532839"},"geometry":{"type":"LineString","coordinates":[[103.636681,1.3469685],[103.6365238,1.3465554]]}},{"type":"Feature","id":"way/539518151-0-1-0","properties":{"access":"permissive","bridge":"yes","goods":"no","hgv":"no","highway":"trunk","lanes":"4","layer":"1","motorcar":"yes","motorcycle":"yes","oneway":"yes","source":"Bing","surface":"asphalt","startNodeId":"1186532839","endNodeId":"2718472222"},"geometry":{"type":"LineString","coordinates":[[103.6365238,1.3465554],[103.6364523,1.346474]]}},{"type":"Feature","id":"way/539518151-0-2-0","properties":{"access":"permissive","bridge":"yes","goods":"no","hgv":"no","highway":"trunk","lanes":"4","layer":"1","motorcar":"yes","motorcycle":"yes","oneway":"yes","source":"Bing","surface":"asphalt","startNodeId":"2718472222","endNodeId":"7122571294"},"geometry":{"type":"LineString","coordinates":[[103.6364523,1.346474],[103.6364248,1.3464581]]}},{"type":"Feature","id":"way/539518151-0-3-0","properties":{"access":"permissive","bridge":"yes","goods":"no","hgv":"no","highway":"trunk","lanes":"4","layer":"1","motorcar":"yes","motorcycle":"yes","oneway":"yes","source":"Bing","surface":"asphalt","startNodeId":"7122571294","endNodeId":"1186532804"},"geometry":{"type":"LineString","coordinates":[[103.6364248,1.3464581],[103.6363825,1.3464336]]}},{"type":"Feature","id":"way/539518151-0-4-0","properties":{"access":"permissive","bridge":"yes","goods":"no","hgv":"no","highway":"trunk","lanes":"4","layer":"1","motorcar":"yes","motorcycle":"yes","oneway":"yes","source":"Bing","surface":"asphalt","startNodeId":"1186532804","endNodeId":"2718472220"},"geometry":{"type":"LineString","coordinates":[[103.6363825,1.3464336],[103.6363075,1.3464189]]}},{"type":"Feature","id":"way/539518151-0-5-0","properties":{"access":"permissive","bridge":"yes","goods":"no","hgv":"no","highway":"trunk","lanes":"4","layer":"1","motorcar":"yes","motorcycle":"yes","oneway":"yes","source":"Bing","surface":"asphalt","startNodeId":"2718472220","endNodeId":"1186532845"},"geometry":{"type":"LineString","coordinates":[[103.6363075,1.3464189],[103.6362578,1.3464259]]}},{"type":"Feature","id":"way/539518151-0-6-0","properties":{"access":"permissive","bridge":"yes","goods":"no","hgv":"no","highway":"trunk","lanes":"4","layer":"1","motorcar":"yes","motorcycle":"yes","oneway":"yes","source":"Bing","surface":"asphalt","startNodeId":"1186532845","endNodeId":"5220593902"},"geometry":{"type":"LineString","coordinates":[[103.6362578,1.3464259],[103.6361097,1.3464793]]}},{"type":"Feature","id":"way/638470299-0-0-0","properties":{"foot":"no","highway":"motorway_link","lanes":"2","maxspeed":"60","name":"Tuas West Drive","oneway":"yes","surface":"asphalt","startNodeId":"1885907579","endNodeId":"3846201921"},"geometry":{"type":"LineString","coordinates":[[103.6394142,1.3454753],[103.6393873,1.3454232]]}},{"type":"Feature","id":"way/638470299-0-1-0","properties":{"foot":"no","highway":"motorway_link","lanes":"2","maxspeed":"60","name":"Tuas West Drive","oneway":"yes","surface":"asphalt","startNodeId":"3846201921","endNodeId":"3846201920"},"geometry":{"type":"LineString","coordinates":[[103.6393873,1.3454232],[103.6393442,1.3453521]]}},{"type":"Feature","id":"way/638470299-0-2-0","properties":{"foot":"no","highway":"motorway_link","lanes":"2","maxspeed":"60","name":"Tuas West Drive","oneway":"yes","surface":"asphalt","startNodeId":"3846201920","endNodeId":"1885907558"},"geometry":{"type":"LineString","coordinates":[[103.6393442,1.3453521],[103.6392427,1.3452228]]}},{"type":"Feature","id":"way/638470300-0-0-0","properties":{"highway":"trunk","lanes":"2","maxspeed":"70","name":"Jalan Ahmad Ibrahim","name:en":"Jalan Ahmad Ibrahim","name:zh":"\u60f9\u5170\u963f\u672b\u4f9d\u5e03\u62c9\u6b23","oneway":"yes","surface":"asphalt","startNodeId":"1885907579","endNodeId":"246626610"},"geometry":{"type":"LineString","coordinates":[[103.6394142,1.3454753],[103.639175,1.3457216]]}},{"type":"Feature","id":"way/644078428-0-0-0","properties":{"highway":"service","lanes":"2","lanes:backward":"1","lanes:forward":"1","startNodeId":"6059194683","endNodeId":"6059194682"},"geometry":{"type":"LineString","coordinates":[[103.6357874,1.3433069],[103.6357283,1.3433096]]}},{"type":"Feature","id":"way/644078428-0-1-0","properties":{"highway":"service","lanes":"2","lanes:backward":"1","lanes:forward":"1","startNodeId":"6059194682","endNodeId":"6542234858"},"geometry":{"type":"LineString","coordinates":[[103.6357283,1.3433096],[103.6356412,1.3432895]]}},{"type":"Feature","id":"way/644078428-0-2-0","properties":{"highway":"service","lanes":"2","lanes:backward":"1","lanes:forward":"1","startNodeId":"6542234858","endNodeId":"6059194681"},"geometry":{"type":"LineString","coordinates":[[103.6356412,1.3432895],[103.6355607,1.3432479]]}},{"type":"Feature","id":"way/644878668-0-0-0","properties":{"highway":"service","noname":"yes","surface":"asphalt","startNodeId":"3846201904","endNodeId":"13984671614"},"geometry":{"type":"LineString","coordinates":[[103.6395858,1.3458125],[103.6395806,1.3459405]]}},{"type":"Feature","id":"way/644878668-0-1-0","properties":{"highway":"service","noname":"yes","surface":"asphalt","startNodeId":"13984671614","endNodeId":"1343842750"},"geometry":{"type":"LineString","coordinates":[[103.6395806,1.3459405],[103.6395798,1.3459593]]}},{"type":"Feature","id":"way/644878668-0-2-0","properties":{"highway":"service","noname":"yes","surface":"asphalt","startNodeId":"1343842750","endNodeId":"3846201908"},"geometry":{"type":"LineString","coordinates":[[103.6395798,1.3459593],[103.6395617,1.346019]]}},{"type":"Feature","id":"way/644878668-0-3-0","properties":{"highway":"service","noname":"yes","surface":"asphalt","startNodeId":"3846201908","endNodeId":"3846201907"},"geometry":{"type":"LineString","coordinates":[[103.6395617,1.346019],[103.6394463,1.3461611]]}},{"type":"Feature","id":"way/644878668-0-4-0","properties":{"highway":"service","noname":"yes","surface":"asphalt","startNodeId":"3846201907","endNodeId":"6486969150"},"geometry":{"type":"LineString","coordinates":[[103.6394463,1.3461611],[103.6392573,1.3463523]]}},{"type":"Feature","id":"way/645195076-0-0-0","properties":{"highway":"service","noname":"yes","oneway":"yes","service":"parking_aisle","surface":"paved","startNodeId":"1343837907","endNodeId":"1343837844"},"geometry":{"type":"LineString","coordinates":[[103.6356662,1.3425025],[103.6357455,1.3425863]]}},{"type":"Feature","id":"way/646755303-0-0-0","properties":{"highway":"service","noname":"yes","service":"parking_aisle","surface":"paved","startNodeId":"1343837785","endNodeId":"1343837804"},"geometry":{"type":"LineString","coordinates":[[103.6359012,1.3427537],[103.6359864,1.3428442]]}},{"type":"Feature","id":"way/646755304-0-0-0","properties":{"highway":"service","noname":"yes","service":"parking_aisle","surface":"paved","startNodeId":"1343837873","endNodeId":"1343837827"},"geometry":{"type":"LineString","coordinates":[[103.6362126,1.342638],[103.6361616,1.3424864]]}},{"type":"Feature","id":"way/647098664-0-0-0","properties":{"highway":"service","noname":"yes","oneway":"yes","service":"parking_aisle","surface":"paved","startNodeId":"1343837860","endNodeId":"1343837907"},"geometry":{"type":"LineString","coordinates":[[103.635557,1.342387],[103.6356662,1.3425025]]}},{"type":"Feature","id":"way/691323724-0-0-0","properties":{"highway":"service","startNodeId":"6486969149","endNodeId":"6486969144"},"geometry":{"type":"LineString","coordinates":[[103.6395746,1.3467003],[103.6397557,1.3467111]]}},{"type":"Feature","id":"way/691323724-0-1-0","properties":{"highway":"service","startNodeId":"6486969144","endNodeId":"6486969143"},"geometry":{"type":"LineString","coordinates":[[103.6397557,1.3467111],[103.6398054,1.3467365]]}},{"type":"Feature","id":"way/691323724-0-2-0","properties":{"highway":"service","startNodeId":"6486969143","endNodeId":"6486969142"},"geometry":{"type":"LineString","coordinates":[[103.6398054,1.3467365],[103.6398442,1.34677]]}},{"type":"Feature","id":"way/691323725-0-0-0","properties":{"highway":"service","startNodeId":"6486969149","endNodeId":"6486969148"},"geometry":{"type":"LineString","coordinates":[[103.6395746,1.3467003],[103.6395733,1.3467499]]}},{"type":"Feature","id":"way/691323725-0-1-0","properties":{"highway":"service","startNodeId":"6486969148","endNodeId":"6486969147"},"geometry":{"type":"LineString","coordinates":[[103.6395733,1.3467499],[103.6396041,1.3468223]]}},{"type":"Feature","id":"way/691325952-0-0-0","properties":{"highway":"service","noname":"yes","surface":"asphalt","startNodeId":"6486969150","endNodeId":"3846201909"},"geometry":{"type":"LineString","coordinates":[[103.6392573,1.3463523],[103.6386524,1.3469642]]}},{"type":"Feature","id":"way/691325953-0-0-0","properties":{"highway":"service","startNodeId":"6540134251","endNodeId":"6540134244"},"geometry":{"type":"LineString","coordinates":[[103.6393367,1.3464394],[103.6394554,1.3465695]]}},{"type":"Feature","id":"way/691549207-0-0-0","properties":{"highway":"service","lanes":"2","lanes:backward":"1","lanes:forward":"1","turn:lanes:backward":"through","turn:lanes:forward":"through","startNodeId":"6489573732","endNodeId":"6489573727"},"geometry":{"type":"LineString","coordinates":[[103.6381182,1.3430166],[103.6381819,1.3431943]]}},{"type":"Feature","id":"way/691549207-0-1-0","properties":{"highway":"service","lanes":"2","lanes:backward":"1","lanes:forward":"1","turn:lanes:backward":"through","turn:lanes:forward":"through","startNodeId":"6489573727","endNodeId":"6489573726"},"geometry":{"type":"LineString","coordinates":[[103.6381819,1.3431943],[103.6382228,1.3433042]]}},{"type":"Feature","id":"way/691549207-0-2-0","properties":{"highway":"service","lanes":"2","lanes:backward":"1","lanes:forward":"1","turn:lanes:backward":"through","turn:lanes:forward":"through","startNodeId":"6489573726","endNodeId":"6489573725"},"geometry":{"type":"LineString","coordinates":[[103.6382228,1.3433042],[103.638263,1.3433941]]}},{"type":"Feature","id":"way/691549207-0-3-0","properties":{"highway":"service","lanes":"2","lanes:backward":"1","lanes:forward":"1","turn:lanes:backward":"through","turn:lanes:forward":"through","startNodeId":"6489573725","endNodeId":"6489573724"},"geometry":{"type":"LineString","coordinates":[[103.638263,1.3433941],[103.6383026,1.3434349]]}},{"type":"Feature","id":"way/691549208-0-0-0","properties":{"highway":"service","lanes":"2","lanes:backward":"1","lanes:forward":"1","turn:lanes:backward":"through","turn:lanes:forward":"through","startNodeId":"6489573732","endNodeId":"8929634679"},"geometry":{"type":"LineString","coordinates":[[103.6381182,1.3430166],[103.6381993,1.3430059]]}},{"type":"Feature","id":"way/691549208-0-1-0","properties":{"highway":"service","lanes":"2","lanes:backward":"1","lanes:forward":"1","turn:lanes:backward":"through","turn:lanes:forward":"through","startNodeId":"8929634679","endNodeId":"6489573731"},"geometry":{"type":"LineString","coordinates":[[103.6381993,1.3430059],[103.6382597,1.3430079]]}},{"type":"Feature","id":"way/691549208-0-2-0","properties":{"highway":"service","lanes":"2","lanes:backward":"1","lanes:forward":"1","turn:lanes:backward":"through","turn:lanes:forward":"through","startNodeId":"6489573731","endNodeId":"6489573730"},"geometry":{"type":"LineString","coordinates":[[103.6382597,1.3430079],[103.6386701,1.3431346]]}},{"type":"Feature","id":"way/691549870-0-0-0","properties":{"highway":"service","lanes":"2","lanes:backward":"1","lanes:forward":"1","startNodeId":"4722667570","endNodeId":"8383508267"},"geometry":{"type":"LineString","coordinates":[[103.6379785,1.3430584],[103.6380468,1.343039]]}},{"type":"Feature","id":"way/691549870-0-1-0","properties":{"highway":"service","lanes":"2","lanes:backward":"1","lanes:forward":"1","startNodeId":"8383508267","endNodeId":"6489573732"},"geometry":{"type":"LineString","coordinates":[[103.6380468,1.343039],[103.6381182,1.3430166]]}},{"type":"Feature","id":"way/691549873-0-0-0","properties":{"highway":"service","lanes":"2","lanes:backward":"1","lanes:forward":"1","turn:lanes:backward":"through","turn:lanes:forward":"through","startNodeId":"6489583398","endNodeId":"6489583397"},"geometry":{"type":"LineString","coordinates":[[103.6381678,1.3428169],[103.6381048,1.3427652]]}},{"type":"Feature","id":"way/691549873-0-1-0","properties":{"highway":"service","lanes":"2","lanes:backward":"1","lanes:forward":"1","turn:lanes:backward":"through","turn:lanes:forward":"through","startNodeId":"6489583397","endNodeId":"8383508268"},"geometry":{"type":"LineString","coordinates":[[103.6381048,1.3427652],[103.637888,1.342563]]}},{"type":"Feature","id":"way/691549873-0-2-0","properties":{"highway":"service","lanes":"2","lanes:backward":"1","lanes:forward":"1","turn:lanes:backward":"through","turn:lanes:forward":"through","startNodeId":"8383508268","endNodeId":"6489583395"},"geometry":{"type":"LineString","coordinates":[[103.637888,1.342563],[103.6377794,1.3424533]]}},{"type":"Feature","id":"way/691549880-0-0-0","properties":{"highway":"service","lanes":"2","lanes:backward":"1","lanes:forward":"1","turn:lanes:backward":"through","turn:lanes:forward":"through","startNodeId":"6489583398","endNodeId":"8929634681"},"geometry":{"type":"LineString","coordinates":[[103.6381678,1.3428169],[103.6380894,1.3429234]]}},{"type":"Feature","id":"way/692728946-0-0-0","properties":{"highway":"secondary_link","maxspeed":"50","oneway":"yes","surface":"asphalt","startNodeId":"4722667574","endNodeId":"6904931776"},"geometry":{"type":"LineString","coordinates":[[103.6376768,1.3424895],[103.6377176,1.342548]]}},{"type":"Feature","id":"way/692728946-0-1-0","properties":{"highway":"secondary_link","maxspeed":"50","oneway":"yes","surface":"asphalt","startNodeId":"6904931776","endNodeId":"6503523922"},"geometry":{"type":"LineString","coordinates":[[103.6377176,1.342548],[103.637769,1.342652]]}},{"type":"Feature","id":"way/692728946-0-2-0","properties":{"highway":"secondary_link","maxspeed":"50","oneway":"yes","surface":"asphalt","startNodeId":"6503523922","endNodeId":"6904931775"},"geometry":{"type":"LineString","coordinates":[[103.637769,1.342652],[103.637783,1.3426932]]}},{"type":"Feature","id":"way/692728946-0-3-0","properties":{"highway":"secondary_link","maxspeed":"50","oneway":"yes","surface":"asphalt","startNodeId":"6904931775","endNodeId":"6503523921"},"geometry":{"type":"LineString","coordinates":[[103.637783,1.3426932],[103.6378206,1.3427741]]}},{"type":"Feature","id":"way/692728946-0-4-0","properties":{"highway":"secondary_link","maxspeed":"50","oneway":"yes","surface":"asphalt","startNodeId":"6503523921","endNodeId":"6904931774"},"geometry":{"type":"LineString","coordinates":[[103.6378206,1.3427741],[103.6378465,1.3428105]]}},{"type":"Feature","id":"way/692728946-0-5-0","properties":{"highway":"secondary_link","maxspeed":"50","oneway":"yes","surface":"asphalt","startNodeId":"6904931774","endNodeId":"6503523920"},"geometry":{"type":"LineString","coordinates":[[103.6378465,1.3428105],[103.6378757,1.3428262]]}},{"type":"Feature","id":"way/692728946-0-6-0","properties":{"highway":"secondary_link","maxspeed":"50","oneway":"yes","surface":"asphalt","startNodeId":"6503523920","endNodeId":"6503523918"},"geometry":{"type":"LineString","coordinates":[[103.6378757,1.3428262],[103.6378961,1.3428296]]}},{"type":"Feature","id":"way/692728947-0-0-0","properties":{"foot":"use_sidepath","highway":"secondary","lanes":"2","maxheight":"4.5","maxspeed":"60","name":"Tuas West Drive","oneway":"yes","sidewalk":"separate","surface":"asphalt","startNodeId":"5154723294","endNodeId":"4722667574"},"geometry":{"type":"LineString","coordinates":[[103.637631,1.3423544],[103.6376768,1.3424895]]}},{"type":"Feature","id":"way/696434219-0-0-0","properties":{"highway":"service","startNodeId":"6540134244","endNodeId":"6486969149"},"geometry":{"type":"LineString","coordinates":[[103.6394554,1.3465695],[103.6395746,1.3467003]]}},{"type":"Feature","id":"way/696434220-0-0-0","properties":{"highway":"service","startNodeId":"6486969150","endNodeId":"6540134251"},"geometry":{"type":"LineString","coordinates":[[103.6392573,1.3463523],[103.6393367,1.3464394]]}},{"type":"Feature","id":"way/696434221-0-0-0","properties":{"highway":"service","startNodeId":"6540134251","endNodeId":"6540134250"},"geometry":{"type":"LineString","coordinates":[[103.6393367,1.3464394],[103.6390677,1.346711]]}},{"type":"Feature","id":"way/696434221-0-1-0","properties":{"highway":"service","startNodeId":"6540134250","endNodeId":"6540134249"},"geometry":{"type":"LineString","coordinates":[[103.6390677,1.346711],[103.6390543,1.3467352]]}},{"type":"Feature","id":"way/696434221-0-2-0","properties":{"highway":"service","startNodeId":"6540134249","endNodeId":"6540134248"},"geometry":{"type":"LineString","coordinates":[[103.6390543,1.3467352],[103.639057,1.3467526]]}},{"type":"Feature","id":"way/696434221-0-3-0","properties":{"highway":"service","startNodeId":"6540134248","endNodeId":"6540134247"},"geometry":{"type":"LineString","coordinates":[[103.639057,1.3467526],[103.6391281,1.3468451]]}},{"type":"Feature","id":"way/696434221-0-4-0","properties":{"highway":"service","startNodeId":"6540134247","endNodeId":"6540134246"},"geometry":{"type":"LineString","coordinates":[[103.6391281,1.3468451],[103.6391482,1.3468518]]}},{"type":"Feature","id":"way/696434221-0-5-0","properties":{"highway":"service","startNodeId":"6540134246","endNodeId":"6540134243"},"geometry":{"type":"LineString","coordinates":[[103.6391482,1.3468518],[103.6391636,1.3468535]]}},{"type":"Feature","id":"way/696434221-0-6-0","properties":{"highway":"service","startNodeId":"6540134243","endNodeId":"6540134245"},"geometry":{"type":"LineString","coordinates":[[103.6391636,1.3468535],[103.6391817,1.3468478]]}},{"type":"Feature","id":"way/696434221-0-7-0","properties":{"highway":"service","startNodeId":"6540134245","endNodeId":"6540134244"},"geometry":{"type":"LineString","coordinates":[[103.6391817,1.3468478],[103.6394554,1.3465695]]}},{"type":"Feature","id":"way/696656832-0-0-0","properties":{"highway":"service","lanes":"2","lanes:backward":"1","lanes:forward":"1","turn:lanes:backward":"through","turn:lanes:forward":"through","startNodeId":"6059196186","endNodeId":"6059196185"},"geometry":{"type":"LineString","coordinates":[[103.6361602,1.3428966],[103.6361575,1.3429798]]}},{"type":"Feature","id":"way/696656832-0-1-0","properties":{"highway":"service","lanes":"2","lanes:backward":"1","lanes:forward":"1","turn:lanes:backward":"through","turn:lanes:forward":"through","startNodeId":"6059196185","endNodeId":"6059194684"},"geometry":{"type":"LineString","coordinates":[[103.6361575,1.3429798],[103.6361092,1.3430522]]}},{"type":"Feature","id":"way/696656832-0-2-0","properties":{"highway":"service","lanes":"2","lanes:backward":"1","lanes:forward":"1","turn:lanes:backward":"through","turn:lanes:forward":"through","startNodeId":"6059194684","endNodeId":"6059194683"},"geometry":{"type":"LineString","coordinates":[[103.6361092,1.3430522],[103.6357874,1.3433069]]}},{"type":"Feature","id":"way/707157983-0-0-0","properties":{"highway":"service","noname":"yes","oneway":"yes","service":"driveway","surface":"asphalt","startNodeId":"1343837844","endNodeId":"1343837936"},"geometry":{"type":"LineString","coordinates":[[103.6357455,1.3425863],[103.6360351,1.3423531]]}},{"type":"Feature","id":"way/762269415-0-0-0","properties":{"access":"permissive","bridge":"yes","covered":"yes","goods":"no","hgv":"no","highway":"trunk","horse":"no","layer":"1","motorcar":"no","motorcycle":"designated","name":"Tuas Checkpoint","note":"motorcycles - manual booth lane","oneway":"yes","source":"Bing","surface":"asphalt","startNodeId":"7122571291","endNodeId":"7122571292"},"geometry":{"type":"LineString","coordinates":[[103.6360921,1.3464396],[103.6354209,1.3466951]]}},{"type":"Feature","id":"way/762269416-0-0-0","properties":{"access":"permissive","bridge":"yes","goods":"no","hgv":"no","highway":"trunk","lanes":"4","layer":"1","motorcar":"yes","motorcycle":"yes","oneway":"yes","source":"Bing","surface":"asphalt","startNodeId":"7122571294","endNodeId":"7122571295"},"geometry":{"type":"LineString","coordinates":[[103.6364248,1.3464581],[103.6363649,1.3463939]]}},{"type":"Feature","id":"way/762269416-0-1-0","properties":{"access":"permissive","bridge":"yes","goods":"no","hgv":"no","highway":"trunk","lanes":"4","layer":"1","motorcar":"yes","motorcycle":"yes","oneway":"yes","source":"Bing","surface":"asphalt","startNodeId":"7122571295","endNodeId":"7122571296"},"geometry":{"type":"LineString","coordinates":[[103.6363649,1.3463939],[103.6362899,1.3463792]]}},{"type":"Feature","id":"way/762269417-0-0-0","properties":{"access":"permissive","bridge":"yes","goods":"no","hgv":"no","highway":"trunk","lanes":"4","layer":"1","motorcar":"yes","motorcycle":"yes","oneway":"yes","source":"Bing","surface":"asphalt","startNodeId":"7122571296","endNodeId":"7122571297"},"geometry":{"type":"LineString","coordinates":[[103.6362899,1.3463792],[103.6362402,1.3463862]]}},{"type":"Feature","id":"way/762269417-0-1-0","properties":{"access":"permissive","bridge":"yes","goods":"no","hgv":"no","highway":"trunk","lanes":"4","layer":"1","motorcar":"yes","motorcycle":"yes","oneway":"yes","source":"Bing","surface":"asphalt","startNodeId":"7122571297","endNodeId":"7122571291"},"geometry":{"type":"LineString","coordinates":[[103.6362402,1.3463862],[103.6360921,1.3464396]]}},{"type":"Feature","id":"way/992979410-0-0-0","properties":{"highway":"service","maxspeed":"50","startNodeId":"5684371409","endNodeId":"9173842142"},"geometry":{"type":"LineString","coordinates":[[103.6383561,1.3440104],[103.638275,1.3440433]]}},{"type":"Feature","id":"way/992979411-0-0-0","properties":{"foot":"use_sidepath","highway":"secondary","lanes":"2","maxspeed":"60","name":"Tuas West Drive","oneway":"yes","sidewalk":"separate","surface":"asphalt","startNodeId":"9173842142","endNodeId":"5154723292"},"geometry":{"type":"LineString","coordinates":[[103.638275,1.3440433],[103.6382869,1.344072]]}},{"type":"Feature","id":"way/992979411-0-1-0","properties":{"foot":"use_sidepath","highway":"secondary","lanes":"2","maxspeed":"60","name":"Tuas West Drive","oneway":"yes","sidewalk":"separate","surface":"asphalt","startNodeId":"5154723292","endNodeId":"246626636"},"geometry":{"type":"LineString","coordinates":[[103.6382869,1.344072],[103.6383525,1.3442095]]}},{"type":"Feature","id":"way/992979411-0-2-0","properties":{"foot":"use_sidepath","highway":"secondary","lanes":"2","maxspeed":"60","name":"Tuas West Drive","oneway":"yes","sidewalk":"separate","surface":"asphalt","startNodeId":"246626636","endNodeId":"5154723293"},"geometry":{"type":"LineString","coordinates":[[103.6383525,1.3442095],[103.6384564,1.3443877]]}},{"type":"Feature","id":"way/992979411-0-3-0","properties":{"foot":"use_sidepath","highway":"secondary","lanes":"2","maxspeed":"60","name":"Tuas West Drive","oneway":"yes","sidewalk":"separate","surface":"asphalt","startNodeId":"5154723293","endNodeId":"890662421"},"geometry":{"type":"LineString","coordinates":[[103.6384564,1.3443877],[103.6385648,1.3445565]]}},{"type":"Feature","id":"way/992979412-0-0-0","properties":{"highway":"secondary","lanes":"2","maxheight":"4.5","maxspeed":"60","name":"Tuas West Drive","oneway":"yes","sidewalk":"no","surface":"asphalt","startNodeId":"5684371409","endNodeId":"1864054742"},"geometry":{"type":"LineString","coordinates":[[103.6383561,1.3440104],[103.6383091,1.3438946]]}},{"type":"Feature","id":"way/992979412-0-1-0","properties":{"highway":"secondary","lanes":"2","maxheight":"4.5","maxspeed":"60","name":"Tuas West Drive","oneway":"yes","sidewalk":"no","surface":"asphalt","startNodeId":"1864054742","endNodeId":"4722667570"},"geometry":{"type":"LineString","coordinates":[[103.6383091,1.3438946],[103.6379785,1.3430584]]}},{"type":"Feature","id":"way/992979412-0-2-0","properties":{"highway":"secondary","lanes":"2","maxheight":"4.5","maxspeed":"60","name":"Tuas West Drive","oneway":"yes","sidewalk":"no","surface":"asphalt","startNodeId":"4722667570","endNodeId":"6503523918"},"geometry":{"type":"LineString","coordinates":[[103.6379785,1.3430584],[103.6378961,1.3428296]]}},{"type":"Feature","id":"way/992979412-0-3-0","properties":{"highway":"secondary","lanes":"2","maxheight":"4.5","maxspeed":"60","name":"Tuas West Drive","oneway":"yes","sidewalk":"no","surface":"asphalt","startNodeId":"6503523918","endNodeId":"6489583395"},"geometry":{"type":"LineString","coordinates":[[103.6378961,1.3428296],[103.6377794,1.3424533]]}}]}