{"type":"FeatureCollection","features":[{"type":"Feature","id":"way/117765113-0","properties":{"addr:city":"Singapore","addr:country":"SG","addr:housenumber":"6","addr:street":"Tuas Avenue 20","building":"warehouse"},"geometry":{"type":"Polygon","coordinates":[[[103.638752,1.3287509],[103.6392311,1.3283032],[103.6390022,1.3280584],[103.6385232,1.3285061],[103.638752,1.3287509]]]}},{"type":"Feature","id":"way/117765115-0","properties":{"addr:city":"Singapore","addr:country":"SG","addr:housenumber":"14","addr:street":"Tuas Avenue 20","building":"industrial"},"geometry":{"type":"Polygon","coordinates":[[[103.637374,1.3270649],[103.6377388,1.3267193],[103.6375025,1.3264699],[103.6371377,1.3268155],[103.637374,1.3270649]]]}},{"type":"Feature","id":"way/117765118-0","properties":{"addr:city":"Singapore","addr:country":"SG","addr:housenumber":"16","addr:street":"Tuas Avenue 20","building":"industrial"},"geometry":{"type":"Polygon","coordinates":[[[103.6373042,1.3263307],[103.6370852,1.3261044],[103.6366521,1.3265234],[103.636871,1.3267496],[103.6373042,1.3263307]]]}},{"type":"Feature","id":"way/117765120-0","properties":{"addr:city":"Singapore","addr:country":"SG","addr:housenumber":"40","addr:street":"Tuas West Road","building":"yes","name":"Hai Leck Holdings Limited","source":"Kaart Ground Survey 2017"},"geometry":{"type":"Polygon","coordinates":[[[103.636168,1.3272973],[103.6367144,1.3267782],[103.6362873,1.3263288],[103.6363684,1.3262518],[103.635879,1.3257368],[103.6352514,1.3263329],[103.636168,1.3272973]]]}},{"type":"Feature","id":"way/117765126-0","properties":{"addr:city":"Singapore","addr:country":"SG","addr:housenumber":"12","addr:street":"Tuas Avenue 20","building":"industrial"},"geometry":{"type":"Polygon","coordinates":[[[103.6375691,1.3273334],[103.6375093,1.3273927],[103.6376541,1.3275386],[103.6380661,1.3271298],[103.6378257,1.3268876],[103.6374734,1.327237],[103.6375691,1.3273334]]]}},{"type":"Feature","id":"way/117765128-0","properties":{"building":"yes"},"geometry":{"type":"Polygon","coordinates":[[[103.6366538,1.3262234],[103.6365332,1.3261058],[103.6364391,1.3262023],[103.6365597,1.3263199],[103.6366538,1.3262234]]]}},{"type":"Feature","id":"way/117765130-0","properties":{"building":"yes"},"geometry":{"type":"Polygon","coordinates":[[[103.6367801,1.3261396],[103.6370472,1.325889],[103.6368875,1.325719],[103.6366205,1.3259696],[103.6367801,1.3261396]]]}},{"type":"Feature","id":"way/117765131-0","properties":{"addr:city":"Singapore","addr:country":"SG","addr:housenumber":"38","addr:street":"Tuas West Road","building":"yes"},"geometry":{"type":"Polygon","coordinates":[[[103.6377761,1.3287535],[103.637858,1.3286745],[103.6379226,1.3287415],[103.6382757,1.328401],[103.6373483,1.3274399],[103.6369133,1.3278593],[103.6377761,1.3287535]]]}},{"type":"Feature","id":"way/117765133-0","properties":{"addr:city":"Singapore","addr:country":"SG","addr:housenumber":"10","addr:street":"Tuas Avenue 20","building":"industrial","building:levels":"4"},"geometry":{"type":"Polygon","coordinates":[[[103.6384788,1.3274808],[103.638255,1.327245],[103.6380563,1.3274334],[103.6380026,1.3273768],[103.6377629,1.3276042],[103.6380404,1.3278966],[103.6384788,1.3274808]]]}},{"type":"Feature","id":"way/117765134-0","properties":{"building":"yes"},"geometry":{"type":"Polygon","coordinates":[[[103.6372085,1.3272746],[103.6370529,1.3271085],[103.6368813,1.3272691],[103.6370369,1.3274352],[103.6372085,1.3272746]]]}},{"type":"Feature","id":"way/117765135-0","properties":{"addr:city":"Singapore","addr:country":"SG","addr:housenumber":"18","addr:street":"Tuas Avenue 20","building":"yes"},"geometry":{"type":"Polygon","coordinates":[[[103.6363532,1.3259124],[103.6367206,1.3255558],[103.6365409,1.3253708],[103.6361735,1.3257274],[103.6363532,1.3259124]]]}},{"type":"Feature","id":"way/117765142-0","properties":{"addr:city":"Singapore","addr:country":"SG","addr:housenumber":"8","addr:street":"Tuas Avenue 20","building":"industrial","building:levels":"4"},"geometry":{"type":"Polygon","coordinates":[[[103.6388766,1.3278864],[103.638507,1.3275044],[103.6380789,1.3279184],[103.6383309,1.3281789],[103.638267,1.3282406],[103.6383846,1.3283621],[103.6388766,1.3278864]]]}},{"type":"Feature","id":"way/117765145-0","properties":{"addr:city":"Singapore","addr:country":"SG","addr:housenumber":"4","addr:street":"Tuas Avenue 20","building":"industrial","name":"Amcor","source":"Kaart Ground Survey 2017"},"geometry":{"type":"Polygon","coordinates":[[[103.6395416,1.328717],[103.6393009,1.3284699],[103.6389258,1.3288351],[103.6391666,1.3290822],[103.6395416,1.328717]]]}},{"type":"Feature","id":"way/117792059-0","properties":{"addr:city":"Singapore","addr:country":"SG","addr:housenumber":"39","addr:street":"Tuas Avenue 13","building":"yes"},"geometry":{"type":"Polygon","coordinates":[[[103.6374458,1.3245987],[103.6375644,1.3244854],[103.6377897,1.3247212],[103.6379277,1.3245895],[103.6375323,1.3241757],[103.6372758,1.3244207],[103.6374458,1.3245987]]]}},{"type":"Feature","id":"way/117792061-0","properties":{"addr:city":"Singapore","addr:country":"SG","addr:housenumber":"41","addr:street":"Tuas Avenue 13","building":"yes"},"geometry":{"type":"Polygon","coordinates":[[[103.637623,1.3247858],[103.6375373,1.3246961],[103.6375137,1.3247187],[103.6374828,1.3246864],[103.6374937,1.324676],[103.6372644,1.3244363],[103.6370103,1.3246794],[103.6371231,1.3247973],[103.6371851,1.324738],[103.6374182,1.3249817],[103.637623,1.3247858]]]}},{"type":"Feature","id":"way/117792069-0","properties":{"addr:city":"Singapore","addr:country":"SG","addr:housenumber":"43","addr:street":"Tuas Avenue 13","building":"industrial"},"geometry":{"type":"Polygon","coordinates":[[[103.6371493,1.3252743],[103.6370867,1.32521],[103.637247,1.325054],[103.6370211,1.324822],[103.6367326,1.3251028],[103.6370211,1.3253991],[103.6371493,1.3252743]]]}},{"type":"Feature","id":"way/117803245-0","properties":{"addr:city":"Singapore","addr:country":"SG","addr:housenumber":"13","addr:street":"Tuas Avenue 20","building":"yes"},"geometry":{"type":"Polygon","coordinates":[[[103.6382423,1.3250436],[103.6381421,1.3249427],[103.6375861,1.325494],[103.6376862,1.325595],[103.6382423,1.3250436]]]}},{"type":"Feature","id":"way/117803246-0","properties":{"addr:street":"Tuas Avenue 11","building":"yes","source":"Kaart Ground Survey 2017"},"geometry":{"type":"Polygon","coordinates":[[[103.6396816,1.3267491],[103.6394134,1.326481],[103.6392313,1.3266631],[103.6394995,1.3269312],[103.6396816,1.3267491]]]}},{"type":"Feature","id":"way/117803247-0","properties":{"building":"yes"},"geometry":{"type":"Polygon","coordinates":[[[103.6389982,1.3263762],[103.6392691,1.3261011],[103.6391707,1.3260042],[103.6388998,1.3262794],[103.6389982,1.3263762]]]}},{"type":"Feature","id":"way/117803248-0","properties":{"building":"yes"},"geometry":{"type":"Polygon","coordinates":[[[103.6379599,1.3264373],[103.6381643,1.3262395],[103.6380405,1.3261116],[103.637836,1.3263094],[103.6379599,1.3264373]]]}},{"type":"Feature","id":"way/117803249-0","properties":{"building":"industrial"},"geometry":{"type":"Polygon","coordinates":[[[103.6382762,1.3267625],[103.6383911,1.3266477],[103.638315,1.3265716],[103.6385724,1.3263146],[103.6383994,1.3261413],[103.638027,1.3265131],[103.6382762,1.3267625]]]}},{"type":"Feature","id":"way/117803254-0","properties":{"addr:city":"Singapore","addr:country":"SG","addr:housenumber":"33","addr:street":"Tuas Avenue 11","building":"industrial","name":"BASF","source":"Kaart Ground Survey 2017"},"geometry":{"type":"Polygon","coordinates":[[[103.6391215,1.3267918],[103.638795,1.3264529],[103.638466,1.3267697],[103.6390576,1.3273838],[103.6393776,1.3270758],[103.6391756,1.3268662],[103.6389344,1.3270985],[103.6388712,1.3270329],[103.6391215,1.3267918]]]}},{"type":"Feature","id":"way/117803256-0","properties":{"addr:city":"Singapore","addr:country":"SG","addr:housenumber":"11A","addr:street":"Tuas Avenue 20","building":"yes"},"geometry":{"type":"Polygon","coordinates":[[[103.638739,1.3253727],[103.6384196,1.3256815],[103.6385049,1.3257697],[103.6383941,1.3258769],[103.6384706,1.325956],[103.6389008,1.32554],[103.638739,1.3253727]]]}},{"type":"Feature","id":"way/117803262-0","properties":{"building":"yes"},"geometry":{"type":"Polygon","coordinates":[[[103.6393389,1.3264111],[103.6392365,1.3263068],[103.6390594,1.3264805],[103.6391618,1.3265848],[103.6393389,1.3264111]]]}},{"type":"Feature","id":"way/117803266-0","properties":{"building":"service"},"geometry":{"type":"Polygon","coordinates":[[[103.6375519,1.3259524],[103.6377232,1.3257781],[103.637595,1.3256522],[103.6374237,1.3258265],[103.6375519,1.3259524]]]}},{"type":"Feature","id":"way/117803267-0","properties":{"building":"yes"},"geometry":{"type":"Polygon","coordinates":[[[103.638578,1.3253064],[103.6383405,1.3250695],[103.6380937,1.3253168],[103.6382762,1.325499],[103.6382382,1.325537],[103.6382931,1.3255918],[103.638578,1.3253064]]]}},{"type":"Feature","id":"way/117803268-0","properties":{"addr:city":"Singapore","addr:country":"SG","addr:housenumber":"30","addr:street":"Tuas Avenue 13","building":"yes"},"geometry":{"type":"Polygon","coordinates":[[[103.6400293,1.3248501],[103.6391619,1.3239591],[103.638852,1.3242606],[103.6397194,1.3251516],[103.6400293,1.3248501]]]}},{"type":"Feature","id":"way/117804026-0","properties":{"addr:city":"Singapore","addr:country":"SG","addr:housenumber":"94","addr:street":"Tuas Avenue 11","building":"yes","name":"Aksa","source":"Kaart Ground Survey 2017"},"geometry":{"type":"Polygon","coordinates":[[[103.6398321,1.3278903],[103.639573,1.3276261],[103.6394582,1.3277381],[103.6397188,1.3280028],[103.6398321,1.3278903]]]}},{"type":"Feature","id":"way/117804032-0","properties":{"addr:city":"Singapore","addr:country":"SG","addr:housenumber":"92","addr:street":"Tuas Avenue 11","building":"yes"},"geometry":{"type":"Polygon","coordinates":[[[103.6399432,1.3277792],[103.6396895,1.3275133],[103.639573,1.3276261],[103.6398321,1.3278903],[103.6399432,1.3277792]]]}},{"type":"Feature","id":"way/117804038-0","properties":{"addr:city":"Singapore","addr:country":"SG","addr:housenumber":"96","addr:street":"Tuas Avenue 11","building":"industrial","name":"Koon Hui Engineering Works","source":"Kaart Ground Survey 2017"},"geometry":{"type":"Polygon","coordinates":[[[103.6397188,1.3280028],[103.6394582,1.3277381],[103.6393463,1.3278482],[103.6396069,1.3281129],[103.6397188,1.3280028]]]}},{"type":"Feature","id":"way/70588306-0-0-0","properties":{"highway":"unclassified","lanes":"2","lanes:backward":"1","lanes:forward":"1","maxspeed":"50","name":"Tuas Avenue 20","surface":"asphalt","turn:lanes:backward":"left;through"},"geometry":{"type":"LineString","coordinates":[[103.639113,1.327846],[103.6394917,1.3282478]]}},{"type":"Feature","id":"way/75435086-0-1-3","properties":{"highway":"primary","lanes":"3","maxspeed":"70","name":"Tuas West Road","name:en":"Tuas West Road","name:zh":"\u5927\u58eb\u897f\u8def","oneway":"yes","sidewalk":"left","surface":"asphalt","turn:lanes":"through|through|through"},"geometry":{"type":"LineString","coordinates":[[103.6355997,1.327343],[103.6364948,1.3283006]]}},{"type":"Feature","id":"way/75435086-0-1-4","properties":{"highway":"primary","lanes":"3","maxspeed":"70","name":"Tuas West Road","name:en":"Tuas West Road","name:zh":"\u5927\u58eb\u897f\u8def","oneway":"yes","sidewalk":"left","surface":"asphalt","turn:lanes":"through|through|through"},"geometry":{"type":"LineString","coordinates":[[103.6364948,1.3283006],[103.6373899,1.3292583]]}},{"type":"Feature","id":"way/141381439-0-7-1","properties":{"bicycle":"no","bridge":"viaduct","expressway":"yes","highway":"primary","lanes":"2","layer":"1","maxspeed":"70","name":"Tuas Viaduct","name:ms":"Jejambat Tuas","name:ta":"\u0ba4\u0bc1\u0bb5\u0bbe\u0bb8\u0bcd \u0bae\u0bc7\u0bae\u0bcd\u0baa\u0bbe\u0bb2\u0bae\u0bcd","name:zh":"\u5927\u58eb\u9ad8\u67b6\u6865","oneway":"yes","surface":"asphalt"},"geometry":{"type":"LineString","coordinates":[[103.6350616,1.3267838],[103.6360428,1.3277778]]}},{"type":"Feature","id":"way/141381439-0-7-2","properties":{"bicycle":"no","bridge":"viaduct","expressway":"yes","highway":"primary","lanes":"2","layer":"1","maxspeed":"70","name":"Tuas Viaduct","name:ms":"Jejambat Tuas","name:ta":"\u0ba4\u0bc1\u0bb5\u0bbe\u0bb8\u0bcd \u0bae\u0bc7\u0bae\u0bcd\u0baa\u0bbe\u0bb2\u0bae\u0bcd","name:zh":"\u5927\u58eb\u9ad8\u67b6\u6865","oneway":"yes","surface":"asphalt"},"geometry":{"type":"LineString","coordinates":[[103.6360428,1.3277778],[103.6370239,1.3287719]]}},{"type":"Feature","id":"way/175959555-0-0-0","properties":{"highway":"unclassified","lanes":"2","lanes:backward":"1","lanes:forward":"1","maxspeed":"50","name":"Tuas Avenue 20","surface":"asphalt"},"geometry":{"type":"LineString","coordinates":[[103.6357626,1.3242907],[103.6363868,1.3249531]]}},{"type":"Feature","id":"way/175959555-0-1-0","properties":{"highway":"unclassified","lanes":"2","lanes:backward":"1","lanes:forward":"1","maxspeed":"50","name":"Tuas Avenue 20","surface":"asphalt"},"geometry":{"type":"LineString","coordinates":[[103.6363868,1.3249531],[103.6364932,1.325066]]}},{"type":"Feature","id":"way/465687403-0-0-0","properties":{"highway":"service","surface":"asphalt"},"geometry":{"type":"LineString","coordinates":[[103.6392072,1.32915],[103.6397147,1.3286541]]}},{"type":"Feature","id":"way/465687403-0-1-0","properties":{"highway":"service","surface":"asphalt"},"geometry":{"type":"LineString","coordinates":[[103.6397147,1.3286541],[103.6397981,1.328573]]}},{"type":"Feature","id":"way/465687435-0-0-0","properties":{"highway":"service","surface":"asphalt"},"geometry":{"type":"LineString","coordinates":[[103.6391068,1.3286218],[103.6393766,1.3283595]]}},{"type":"Feature","id":"way/470533681-0-17-0","properties":{"bicycle":"no","bridge":"viaduct","expressway":"yes","highway":"primary","lanes":"2","layer":"1","maxspeed":"70","name":"Tuas Viaduct","name:ms":"Jejambat Tuas","name:ta":"\u0ba4\u0bc1\u0bb5\u0bbe\u0bb8\u0bcd \u0bae\u0bc7\u0bae\u0bcd\u0baa\u0bbe\u0bb2\u0bae\u0bcd","name:zh":"\u5927\u58eb\u9ad8\u67b6\u6865","oneway":"yes","surface":"asphalt"},"geometry":{"type":"LineString","coordinates":[[103.6374517,1.3289422],[103.6370426,1.3286151]]}},{"type":"Feature","id":"way/470533681-0-18-0","properties":{"bicycle":"no","bridge":"viaduct","expressway":"yes","highway":"primary","lanes":"2","layer":"1","maxspeed":"70","name":"Tuas Viaduct","name:ms":"Jejambat Tuas","name:ta":"\u0ba4\u0bc1\u0bb5\u0bbe\u0bb8\u0bcd \u0bae\u0bc7\u0bae\u0bcd\u0baa\u0bbe\u0bb2\u0bae\u0bcd","name:zh":"\u5927\u58eb\u9ad8\u67b6\u6865","oneway":"yes","surface":"asphalt"},"geometry":{"type":"LineString","coordinates":[[103.6370426,1.3286151],[103.6359811,1.3274641]]}},{"type":"Feature","id":"way/470533681-0-18-1","properties":{"bicycle":"no","bridge":"viaduct","expressway":"yes","highway":"primary","lanes":"2","layer":"1","maxspeed":"70","name":"Tuas Viaduct","name:ms":"Jejambat Tuas","name:ta":"\u0ba4\u0bc1\u0bb5\u0bbe\u0bb8\u0bcd \u0bae\u0bc7\u0bae\u0bcd\u0baa\u0bbe\u0bb2\u0bae\u0bcd","name:zh":"\u5927\u58eb\u9ad8\u67b6\u6865","oneway":"yes","surface":"asphalt"},"geometry":{"type":"LineString","coordinates":[[103.6359811,1.3274641],[103.6349197,1.326313]]}},{"type":"Feature","id":"way/480875431-0-0-0","properties":{"highway":"unclassified","lanes":"2","lanes:backward":"1","lanes:forward":"1","maxspeed":"50","name":"Tuas Avenue 20","surface":"asphalt","turn:lanes:forward":"left;through"},"geometry":{"type":"LineString","coordinates":[[103.6395986,1.3283613],[103.6397195,1.3284896]]}},{"type":"Feature","id":"way/480875431-0-1-0","properties":{"highway":"unclassified","lanes":"2","lanes:backward":"1","lanes:forward":"1","maxspeed":"50","name":"Tuas Avenue 20","surface":"asphalt","turn:lanes:forward":"left;through"},"geometry":{"type":"LineString","coordinates":[[103.6397195,1.3284896],[103.6397981,1.328573]]}},{"type":"Feature","id":"way/539505826-0-0-0","properties":{"highway":"primary","lanes":"3","maxspeed":"70","name":"Tuas West Road","name:en":"Tuas West Road","name:zh":"\u5927\u58eb\u897f\u8def","oneway":"yes","sidewalk":"left","surface":"asphalt"},"geometry":{"type":"LineString","coordinates":[[103.6375175,1.3291517],[103.6367788,1.3283628]]}},{"type":"Feature","id":"way/539505826-0-0-1","properties":{"highway":"primary","lanes":"3","maxspeed":"70","name":"Tuas West Road","name:en":"Tuas West Road","name:zh":"\u5927\u58eb\u897f\u8def","oneway":"yes","sidewalk":"left","surface":"asphalt"},"geometry":{"type":"LineString","coordinates":[[103.6367788,1.3283628],[103.6360401,1.327574]]}},{"type":"Feature","id":"way/545333974-0-0-0","properties":{"highway":"service"},"geometry":{"type":"LineString","coordinates":[[103.6360447,1.3250812],[103.6360525,1.3250705]]}},{"type":"Feature","id":"way/545333974-0-1-0","properties":{"highway":"service"},"geometry":{"type":"LineString","coordinates":[[103.6360525,1.3250705],[103.6360556,1.3250563]]}},{"type":"Feature","id":"way/545333974-0-2-0","properties":{"highway":"service"},"geometry":{"type":"LineString","coordinates":[[103.6360556,1.3250563],[103.6360464,1.325038]]}},{"type":"Feature","id":"way/545333974-0-3-0","properties":{"highway":"service"},"geometry":{"type":"LineString","coordinates":[[103.6360464,1.325038],[103.6350089,1.323915]]}},{"type":"Feature","id":"way/545334855-0-0-0","properties":{"highway":"service"},"geometry":{"type":"LineString","coordinates":[[103.6389971,1.327964],[103.6391602,1.3281378]]}},{"type":"Feature","id":"way/545334856-0-0-0","properties":{"highway":"service"},"geometry":{"type":"LineString","coordinates":[[103.639113,1.327846],[103.6390411,1.3279193]]}},{"type":"Feature","id":"way/545334856-0-1-0","properties":{"highway":"service"},"geometry":{"type":"LineString","coordinates":[[103.6390411,1.3279193],[103.6389971,1.327964]]}},{"type":"Feature","id":"way/545334858-0-0-0","properties":{"highway":"service","service":"parking_aisle"},"geometry":{"type":"LineString","coordinates":[[103.6393766,1.3283595],[103.6395639,1.3285708]]}},{"type":"Feature","id":"way/545334860-0-0-0","properties":{"highway":"service"},"geometry":{"type":"LineString","coordinates":[[103.637143,1.3260024],[103.6372975,1.3261669]]}},{"type":"Feature","id":"way/545334861-0-0-0","properties":{"highway":"service"},"geometry":{"type":"LineString","coordinates":[[103.6367845,1.3263573],[103.637143,1.3260024]]}},{"type":"Feature","id":"way/545334863-0-0-0","properties":{"highway":"service"},"geometry":{"type":"LineString","coordinates":[[103.6375032,1.326395],[103.6377183,1.3266171]]}},{"type":"Feature","id":"way/545334865-0-0-0","properties":{"highway":"service"},"geometry":{"type":"LineString","coordinates":[[103.637068,1.3268085],[103.6375032,1.326395]]}},{"type":"Feature","id":"way/545334866-0-0-0","properties":{"highway":"service","service":"parking_aisle"},"geometry":{"type":"LineString","coordinates":[[103.6378873,1.3267919],[103.6381176,1.3270362]]}},{"type":"Feature","id":"way/545334868-0-0-0","properties":{"highway":"service","service":"parking_aisle"},"geometry":{"type":"LineString","coordinates":[[103.6374719,1.3271926],[103.6378873,1.3267919]]}},{"type":"Feature","id":"way/545334870-0-0-0","properties":{"highway":"service"},"geometry":{"type":"LineString","coordinates":[[103.6368107,1.3261726],[103.6367924,1.3261726]]}},{"type":"Feature","id":"way/545334870-0-1-0","properties":{"highway":"service"},"geometry":{"type":"LineString","coordinates":[[103.6367924,1.3261726],[103.6367751,1.3261655]]}},{"type":"Feature","id":"way/545334870-0-2-0","properties":{"highway":"service"},"geometry":{"type":"LineString","coordinates":[[103.6367751,1.3261655],[103.6365612,1.3259313]]}},{"type":"Feature","id":"way/545334872-0-0-0","properties":{"highway":"service"},"geometry":{"type":"LineString","coordinates":[[103.6370942,1.3259064],[103.6370851,1.3259237]]}},{"type":"Feature","id":"way/545334872-0-1-0","properties":{"highway":"service"},"geometry":{"type":"LineString","coordinates":[[103.6370851,1.3259237],[103.636831,1.3261635]]}},{"type":"Feature","id":"way/545334872-0-2-0","properties":{"highway":"service"},"geometry":{"type":"LineString","coordinates":[[103.636831,1.3261635],[103.6368107,1.3261726]]}},{"type":"Feature","id":"way/545334873-0-0-0","properties":{"highway":"service"},"geometry":{"type":"LineString","coordinates":[[103.636872,1.3256383],[103.6370851,1.3258719]]}},{"type":"Feature","id":"way/545334873-0-1-0","properties":{"highway":"service"},"geometry":{"type":"LineString","coordinates":[[103.6370851,1.3258719],[103.6370922,1.3258881]]}},{"type":"Feature","id":"way/545334873-0-2-0","properties":{"highway":"service"},"geometry":{"type":"LineString","coordinates":[[103.6370922,1.3258881],[103.6370942,1.3259064]]}},{"type":"Feature","id":"way/545334875-0-0-0","properties":{"highway":"service"},"geometry":{"type":"LineString","coordinates":[[103.6364602,1.3271185],[103.6362608,1.3273078]]}},{"type":"Feature","id":"way/545334875-0-1-0","properties":{"highway":"service"},"geometry":{"type":"LineString","coordinates":[[103.6362608,1.3273078],[103.6362541,1.3273239]]}},{"type":"Feature","id":"way/545334875-0-2-0","properties":{"highway":"service"},"geometry":{"type":"LineString","coordinates":[[103.6362541,1.3273239],[103.6362179,1.3274057]]}},{"type":"Feature","id":"way/545334875-0-3-0","properties":{"highway":"service"},"geometry":{"type":"LineString","coordinates":[[103.6362179,1.3274057],[103.6362071,1.3274205]]}},{"type":"Feature","id":"way/545334875-0-4-0","properties":{"highway":"service"},"geometry":{"type":"LineString","coordinates":[[103.6362071,1.3274205],[103.6360401,1.327574]]}},{"type":"Feature","id":"way/545334877-0-0-0","properties":{"highway":"service"},"geometry":{"type":"LineString","coordinates":[[103.6365612,1.3259313],[103.6363722,1.3261094]]}},{"type":"Feature","id":"way/545334877-0-1-0","properties":{"highway":"service"},"geometry":{"type":"LineString","coordinates":[[103.6363722,1.3261094],[103.6363652,1.3261269]]}},{"type":"Feature","id":"way/545334877-0-2-0","properties":{"highway":"service"},"geometry":{"type":"LineString","coordinates":[[103.6363652,1.3261269],[103.6363652,1.3261479]]}},{"type":"Feature","id":"way/545334879-0-0-0","properties":{"highway":"service"},"geometry":{"type":"LineString","coordinates":[[103.6363652,1.3261479],[103.6364924,1.3263055]]}},{"type":"Feature","id":"way/545334879-0-1-0","properties":{"highway":"service"},"geometry":{"type":"LineString","coordinates":[[103.6364924,1.3263055],[103.6364994,1.3263183]]}},{"type":"Feature","id":"way/545334879-0-2-0","properties":{"highway":"service"},"geometry":{"type":"LineString","coordinates":[[103.6364994,1.3263183],[103.6365181,1.3264234]]}},{"type":"Feature","id":"way/545334879-0-3-0","properties":{"highway":"service"},"geometry":{"type":"LineString","coordinates":[[103.6365181,1.3264234],[103.6365239,1.3264386]]}},{"type":"Feature","id":"way/545334879-0-4-0","properties":{"highway":"service"},"geometry":{"type":"LineString","coordinates":[[103.6365239,1.3264386],[103.6367838,1.3267394]]}},{"type":"Feature","id":"way/545334879-0-5-0","properties":{"highway":"service"},"geometry":{"type":"LineString","coordinates":[[103.6367838,1.3267394],[103.6367972,1.3267608]]}},{"type":"Feature","id":"way/545334879-0-6-0","properties":{"highway":"service"},"geometry":{"type":"LineString","coordinates":[[103.6367972,1.3267608],[103.6367972,1.3267823]]}},{"type":"Feature","id":"way/545341493-0-0-0","properties":{"highway":"service"},"geometry":{"type":"LineString","coordinates":[[103.6398227,1.3283121],[103.6398241,1.3282933]]}},{"type":"Feature","id":"way/545341493-0-1-0","properties":{"highway":"service"},"geometry":{"type":"LineString","coordinates":[[103.6398241,1.3282933],[103.6398348,1.3282732]]}},{"type":"Feature","id":"way/545344704-0-0-0","properties":{"highway":"service","service":"parking_aisle"},"geometry":{"type":"LineString","coordinates":[[103.6376259,1.3259762],[103.6377825,1.3261398]]}},{"type":"Feature","id":"way/545344705-0-0-0","properties":{"highway":"service"},"geometry":{"type":"LineString","coordinates":[[103.6386218,1.3253343],[103.6386239,1.3253183]]}},{"type":"Feature","id":"way/545344705-0-1-0","properties":{"highway":"service"},"geometry":{"type":"LineString","coordinates":[[103.6386239,1.3253183],[103.6386188,1.3253039]]}},{"type":"Feature","id":"way/545344705-0-2-0","properties":{"highway":"service"},"geometry":{"type":"LineString","coordinates":[[103.6386188,1.3253039],[103.6382061,1.3248598]]}},{"type":"Feature","id":"way/545344705-0-3-0","properties":{"highway":"service"},"geometry":{"type":"LineString","coordinates":[[103.6382061,1.3248598],[103.6381888,1.3248499]]}},{"type":"Feature","id":"way/545344705-0-4-0","properties":{"highway":"service"},"geometry":{"type":"LineString","coordinates":[[103.6381888,1.3248499],[103.6381755,1.3248462]]}},{"type":"Feature","id":"way/545344706-0-0-0","properties":{"highway":"service"},"geometry":{"type":"LineString","coordinates":[[103.6379822,1.3259334],[103.6379982,1.3259299]]}},{"type":"Feature","id":"way/545344706-0-1-0","properties":{"highway":"service"},"geometry":{"type":"LineString","coordinates":[[103.6379982,1.3259299],[103.6386091,1.3253544]]}},{"type":"Feature","id":"way/545344706-0-2-0","properties":{"highway":"service"},"geometry":{"type":"LineString","coordinates":[[103.6386091,1.3253544],[103.6386218,1.3253343]]}},{"type":"Feature","id":"way/545344707-0-0-0","properties":{"highway":"service"},"geometry":{"type":"LineString","coordinates":[[103.6381755,1.3248462],[103.6381623,1.324848]]}},{"type":"Feature","id":"way/545344707-0-1-0","properties":{"highway":"service"},"geometry":{"type":"LineString","coordinates":[[103.6381623,1.324848],[103.6381431,1.3248558]]}},{"type":"Feature","id":"way/545344707-0-2-0","properties":{"highway":"service"},"geometry":{"type":"LineString","coordinates":[[103.6381431,1.3248558],[103.6375414,1.3254146]]}},{"type":"Feature","id":"way/545344707-0-3-0","properties":{"highway":"service"},"geometry":{"type":"LineString","coordinates":[[103.6375414,1.3254146],[103.6375333,1.3254278]]}},{"type":"Feature","id":"way/545344707-0-4-0","properties":{"highway":"service"},"geometry":{"type":"LineString","coordinates":[[103.6375333,1.3254278],[103.6375313,1.3254441]]}},{"type":"Feature","id":"way/545344708-0-0-0","properties":{"highway":"service"},"geometry":{"type":"LineString","coordinates":[[103.6378312,1.3257847],[103.6379559,1.3259202]]}},{"type":"Feature","id":"way/545344708-0-1-0","properties":{"highway":"service"},"geometry":{"type":"LineString","coordinates":[[103.6379559,1.3259202],[103.6379681,1.3259317]]}},{"type":"Feature","id":"way/545344708-0-2-0","properties":{"highway":"service"},"geometry":{"type":"LineString","coordinates":[[103.6379681,1.3259317],[103.6379822,1.3259334]]}},{"type":"Feature","id":"way/545344709-0-0-0","properties":{"highway":"service"},"geometry":{"type":"LineString","coordinates":[[103.6374796,1.3261127],[103.6375834,1.3260158]]}},{"type":"Feature","id":"way/545344709-0-1-0","properties":{"highway":"service"},"geometry":{"type":"LineString","coordinates":[[103.6375834,1.3260158],[103.6376259,1.3259762]]}},{"type":"Feature","id":"way/545344710-0-0-0","properties":{"highway":"service","lanes":"2","lanes:backward":"1","lanes:forward":"1"},"geometry":{"type":"LineString","coordinates":[[103.6398108,1.3267738],[103.6398268,1.3267593]]}},{"type":"Feature","id":"way/545344710-0-1-0","properties":{"highway":"service","lanes":"2","lanes:backward":"1","lanes:forward":"1"},"geometry":{"type":"LineString","coordinates":[[103.6398268,1.3267593],[103.6398375,1.3267415]]}},{"type":"Feature","id":"way/545344710-0-2-0","properties":{"highway":"service","lanes":"2","lanes:backward":"1","lanes:forward":"1"},"geometry":{"type":"LineString","coordinates":[[103.6398375,1.3267415],[103.639838,1.3267229]]}},{"type":"Feature","id":"way/545344710-0-3-0","properties":{"highway":"service","lanes":"2","lanes:backward":"1","lanes:forward":"1"},"geometry":{"type":"LineString","coordinates":[[103.639838,1.3267229],[103.6398297,1.3267037]]}},{"type":"Feature","id":"way/545344710-0-4-0","properties":{"highway":"service","lanes":"2","lanes:backward":"1","lanes:forward":"1"},"geometry":{"type":"LineString","coordinates":[[103.6398297,1.3267037],[103.6393532,1.3262087]]}},{"type":"Feature","id":"way/545344711-0-0-0","properties":{"highway":"service","lanes":"2","lanes:backward":"1","lanes:forward":"1","turn:lanes:backward":"through","turn:lanes:forward":"through"},"geometry":{"type":"LineString","coordinates":[[103.6388063,1.3271874],[103.6390261,1.3274352]]}},{"type":"Feature","id":"way/545344711-0-1-0","properties":{"highway":"service","lanes":"2","lanes:backward":"1","lanes:forward":"1","turn:lanes:backward":"through","turn:lanes:forward":"through"},"geometry":{"type":"LineString","coordinates":[[103.6390261,1.3274352],[103.6390395,1.3274473]]}},{"type":"Feature","id":"way/545344712-0-0-0","properties":{"highway":"service","lanes":"2","lanes:backward":"1","lanes:forward":"1","turn:lanes:backward":"through","turn:lanes:forward":"through"},"geometry":{"type":"LineString","coordinates":[[103.6386332,1.3273368],[103.6386924,1.3272855]]}},{"type":"Feature","id":"way/545344712-0-1-0","properties":{"highway":"service","lanes":"2","lanes:backward":"1","lanes:forward":"1","turn:lanes:backward":"through","turn:lanes:forward":"through"},"geometry":{"type":"LineString","coordinates":[[103.6386924,1.3272855],[103.6388063,1.3271874]]}},{"type":"Feature","id":"way/545346196-0-0-0","properties":{"highway":"service","service":"parking_aisle"},"geometry":{"type":"LineString","coordinates":[[103.6374216,1.3250273],[103.6376431,1.3248243]]}},{"type":"Feature","id":"way/545346197-0-0-0","properties":{"highway":"service"},"geometry":{"type":"LineString","coordinates":[[103.6375498,1.3251588],[103.6375151,1.3251232]]}},{"type":"Feature","id":"way/545346197-0-1-0","properties":{"highway":"service"},"geometry":{"type":"LineString","coordinates":[[103.6375151,1.3251232],[103.6374216,1.3250273]]}},{"type":"Feature","id":"way/545346199-0-0-0","properties":{"highway":"service"},"geometry":{"type":"LineString","coordinates":[[103.6366642,1.3248969],[103.6359435,1.3241167]]}},{"type":"Feature","id":"way/545346200-0-0-0","properties":{"highway":"service"},"geometry":{"type":"LineString","coordinates":[[103.6364932,1.325066],[103.6365914,1.324969]]}},{"type":"Feature","id":"way/545346200-0-1-0","properties":{"highway":"service"},"geometry":{"type":"LineString","coordinates":[[103.6365914,1.324969],[103.6366642,1.3248969]]}},{"type":"Feature","id":"way/545346204-0-0-0","properties":{"highway":"service","lanes":"2","lanes:backward":"1","lanes:forward":"1","turn:lanes:backward":"left;right"},"geometry":{"type":"LineString","coordinates":[[103.6384471,1.3260564],[103.6385668,1.3261798]]}},{"type":"Feature","id":"way/632745644-0-0-0","properties":{"highway":"service","lanes":"2","lanes:backward":"1","lanes:forward":"1","surface":"asphalt"},"geometry":{"type":"LineString","coordinates":[[103.6393766,1.3283595],[103.6394085,1.3283285]]}},{"type":"Feature","id":"way/632745644-0-1-0","properties":{"highway":"service","lanes":"2","lanes:backward":"1","lanes:forward":"1","surface":"asphalt"},"geometry":{"type":"LineString","coordinates":[[103.6394085,1.3283285],[103.6394917,1.3282478]]}},{"type":"Feature","id":"way/632745646-0-0-0","properties":{"highway":"unclassified","lanes":"2","lanes:backward":"1","lanes:forward":"1","maxspeed":"50","name":"Tuas Avenue 20","surface":"asphalt"},"geometry":{"type":"LineString","coordinates":[[103.6394917,1.3282478],[103.6395986,1.3283613]]}},{"type":"Feature","id":"way/632745649-0-0-0","properties":{"highway":"unclassified","lanes":"2","lanes:backward":"1","lanes:forward":"1","maxspeed":"50","name":"Tuas Avenue 20","surface":"asphalt","turn:lanes:backward":"left;through"},"geometry":{"type":"LineString","coordinates":[[103.6390523,1.3277816],[103.639113,1.327846]]}},{"type":"Feature","id":"way/633564476-0-0-0","properties":{"highway":"service","lanes":"2","lanes:backward":"1","lanes:forward":"1","surface":"asphalt","turn:lanes:backward":"through","turn:lanes:forward":"through"},"geometry":{"type":"LineString","coordinates":[[103.6384471,1.3260564],[103.638314,1.3261696]]}},{"type":"Feature","id":"way/635299428-0-0-0","properties":{"highway":"primary","lanes":"3","maxspeed":"70","name":"Tuas West Road","name:en":"Tuas West Road","name:zh":"\u5927\u58eb\u897f\u8def","oneway":"yes","sidewalk":"left","surface":"asphalt"},"geometry":{"type":"LineString","coordinates":[[103.6360401,1.327574],[103.6352167,1.3266748]]}},{"type":"Feature","id":"way/639901602-0-0-0","properties":{"highway":"unclassified","lanes":"2","lanes:backward":"1","lanes:forward":"1","maxspeed":"50","name":"Tuas Avenue 11","surface":"asphalt"},"geometry":{"type":"LineString","coordinates":[[103.6396706,1.3271813],[103.6399341,1.326911]]}},{"type":"Feature","id":"way/639901605-0-0-0","properties":{"highway":"unclassified","lanes":"2","lanes:backward":"1","lanes:forward":"1","maxspeed":"50","name":"Tuas Avenue 11","surface":"asphalt","turn:lanes:backward":"left;right"},"geometry":{"type":"LineString","coordinates":[[103.6390523,1.3277816],[103.6391007,1.3277348]]}},{"type":"Feature","id":"way/639901605-0-1-0","properties":{"highway":"unclassified","lanes":"2","lanes:backward":"1","lanes:forward":"1","maxspeed":"50","name":"Tuas Avenue 11","surface":"asphalt","turn:lanes:backward":"left;right"},"geometry":{"type":"LineString","coordinates":[[103.6391007,1.3277348],[103.6396706,1.3271813]]}},{"type":"Feature","id":"way/639902688-0-0-0","properties":{"highway":"service"},"geometry":{"type":"LineString","coordinates":[[103.6376259,1.3259762],[103.6378312,1.3257847]]}},{"type":"Feature","id":"way/639902689-0-0-0","properties":{"highway":"unclassified","lanes":"2","lanes:backward":"1","lanes:forward":"1","maxspeed":"50","name":"Tuas Avenue 20","surface":"asphalt"},"geometry":{"type":"LineString","coordinates":[[103.637631,1.3262734],[103.6378984,1.3265571]]}},{"type":"Feature","id":"way/639902691-0-0-0","properties":{"highway":"unclassified","lanes":"2","lanes:backward":"1","lanes:forward":"1","maxspeed":"50","name":"Tuas Avenue 20","surface":"asphalt"},"geometry":{"type":"LineString","coordinates":[[103.6374796,1.3261127],[103.6375437,1.3261807]]}},{"type":"Feature","id":"way/639902691-0-1-0","properties":{"highway":"unclassified","lanes":"2","lanes:backward":"1","lanes:forward":"1","maxspeed":"50","name":"Tuas Avenue 20","surface":"asphalt"},"geometry":{"type":"LineString","coordinates":[[103.6375437,1.3261807],[103.637631,1.3262734]]}},{"type":"Feature","id":"way/639902692-0-0-0","properties":{"highway":"unclassified","lanes":"2","lanes:backward":"1","lanes:forward":"1","maxspeed":"50","name":"Tuas Avenue 20","surface":"asphalt"},"geometry":{"type":"LineString","coordinates":[[103.6372632,1.3258831],[103.6374796,1.3261127]]}},{"type":"Feature","id":"way/639902983-0-0-0","properties":{"highway":"unclassified","lanes":"2","lanes:backward":"1","lanes:forward":"1","maxspeed":"50","name":"Tuas Avenue 20","surface":"asphalt","turn:lanes:forward":"through;right"},"geometry":{"type":"LineString","coordinates":[[103.6383471,1.3270333],[103.6386332,1.3273368]]}},{"type":"Feature","id":"way/639902984-0-0-0","properties":{"highway":"service"},"geometry":{"type":"LineString","coordinates":[[103.6383471,1.3270333],[103.6382809,1.3270966]]}},{"type":"Feature","id":"way/639902984-0-1-0","properties":{"highway":"service"},"geometry":{"type":"LineString","coordinates":[[103.6382809,1.3270966],[103.6382179,1.3271567]]}},{"type":"Feature","id":"way/639902984-0-2-0","properties":{"highway":"service"},"geometry":{"type":"LineString","coordinates":[[103.6382179,1.3271567],[103.6377292,1.3276068]]}},{"type":"Feature","id":"way/639902984-0-3-0","properties":{"highway":"service"},"geometry":{"type":"LineString","coordinates":[[103.6377292,1.3276068],[103.6377333,1.3276511]]}},{"type":"Feature","id":"way/639902984-0-4-0","properties":{"highway":"service"},"geometry":{"type":"LineString","coordinates":[[103.6377333,1.3276511],[103.6377574,1.3276886]]}},{"type":"Feature","id":"way/639902984-0-5-0","properties":{"highway":"service"},"geometry":{"type":"LineString","coordinates":[[103.6377574,1.3276886],[103.6382543,1.3281924]]}},{"type":"Feature","id":"way/639902985-0-0-0","properties":{"highway":"unclassified","lanes":"2","lanes:backward":"1","lanes:forward":"1","maxspeed":"50","name":"Tuas Avenue 20","surface":"asphalt","turn:lanes:forward":"through;right"},"geometry":{"type":"LineString","coordinates":[[103.6386332,1.3273368],[103.6389817,1.3277067]]}},{"type":"Feature","id":"way/639902986-0-0-0","properties":{"highway":"unclassified","lanes":"2","lanes:backward":"1","lanes:forward":"1","maxspeed":"50","name":"Tuas Avenue 20","surface":"asphalt"},"geometry":{"type":"LineString","coordinates":[[103.638009,1.3266745],[103.6383471,1.3270333]]}},{"type":"Feature","id":"way/639957050-0-0-0","properties":{"highway":"unclassified","lanes":"2","lanes:backward":"1","lanes:forward":"1","maxspeed":"50","name":"Tuas Avenue 20","surface":"asphalt","turn:lanes:forward":"left;through"},"geometry":{"type":"LineString","coordinates":[[103.6369569,1.3255581],[103.6370446,1.3256511]]}},{"type":"Feature","id":"way/639957051-0-0-0","properties":{"highway":"unclassified","lanes":"2","lanes:backward":"1","lanes:forward":"1","maxspeed":"50","name":"Tuas Avenue 20","surface":"asphalt","turn:lanes:backward":"left;through"},"geometry":{"type":"LineString","coordinates":[[103.6370446,1.3256511],[103.6372632,1.3258831]]}},{"type":"Feature","id":"way/639959680-0-0-0","properties":{"highway":"unclassified","lanes":"2","lanes:backward":"1","lanes:forward":"1","maxspeed":"50","name":"Tuas Avenue 20","surface":"asphalt"},"geometry":{"type":"LineString","coordinates":[[103.6378984,1.3265571],[103.6379268,1.3265873]]}},{"type":"Feature","id":"way/639959680-0-1-0","properties":{"highway":"unclassified","lanes":"2","lanes:backward":"1","lanes:forward":"1","maxspeed":"50","name":"Tuas Avenue 20","surface":"asphalt"},"geometry":{"type":"LineString","coordinates":[[103.6379268,1.3265873],[103.638009,1.3266745]]}},{"type":"Feature","id":"way/639963349-0-0-0","properties":{"highway":"unclassified","lanes":"2","lanes:backward":"1","lanes:forward":"1","maxspeed":"50","name":"Tuas Avenue 20","surface":"asphalt","turn:lanes:forward":"through;right"},"geometry":{"type":"LineString","coordinates":[[103.6364932,1.325066],[103.6369569,1.3255581]]}},{"type":"Feature","id":"way/641121026-0-0-0","properties":{"highway":"service","lanes":"2","lanes:backward":"1","lanes:forward":"1","noname":"yes","surface":"asphalt"},"geometry":{"type":"LineString","coordinates":[[103.6395284,1.3270293],[103.6396237,1.3271312]]}},{"type":"Feature","id":"way/641121026-0-1-0","properties":{"highway":"service","lanes":"2","lanes:backward":"1","lanes:forward":"1","noname":"yes","surface":"asphalt"},"geometry":{"type":"LineString","coordinates":[[103.6396237,1.3271312],[103.6396706,1.3271813]]}},{"type":"Feature","id":"way/644078449-0-0-0","properties":{"highway":"service"},"geometry":{"type":"LineString","coordinates":[[103.6364602,1.3271185],[103.6367878,1.3275425]]}},{"type":"Feature","id":"way/644078449-0-1-0","properties":{"highway":"service"},"geometry":{"type":"LineString","coordinates":[[103.6367878,1.3275425],[103.6368415,1.327572]]}},{"type":"Feature","id":"way/644078449-0-2-0","properties":{"highway":"service"},"geometry":{"type":"LineString","coordinates":[[103.6368415,1.327572],[103.6369568,1.3275639]]}},{"type":"Feature","id":"way/644078449-0-3-0","properties":{"highway":"service"},"geometry":{"type":"LineString","coordinates":[[103.6369568,1.3275639],[103.6370346,1.327513]]}},{"type":"Feature","id":"way/644078449-0-4-0","properties":{"highway":"service"},"geometry":{"type":"LineString","coordinates":[[103.6370346,1.327513],[103.6372545,1.3273172]]}},{"type":"Feature","id":"way/644078451-0-0-0","properties":{"highway":"service"},"geometry":{"type":"LineString","coordinates":[[103.6388692,1.3278267],[103.638916,1.327777]]}},{"type":"Feature","id":"way/644078451-0-1-0","properties":{"highway":"service"},"geometry":{"type":"LineString","coordinates":[[103.638916,1.327777],[103.6389817,1.3277067]]}},{"type":"Feature","id":"way/644078453-0-0-0","properties":{"highway":"service"},"geometry":{"type":"LineString","coordinates":[[103.6382179,1.3271567],[103.6388692,1.3278267]]}},{"type":"Feature","id":"way/644078453-0-1-0","properties":{"highway":"service"},"geometry":{"type":"LineString","coordinates":[[103.6388692,1.3278267],[103.6388907,1.3278884]]}},{"type":"Feature","id":"way/644078453-0-2-0","properties":{"highway":"service"},"geometry":{"type":"LineString","coordinates":[[103.6388907,1.3278884],[103.6388773,1.3279393]]}},{"type":"Feature","id":"way/644078453-0-3-0","properties":{"highway":"service"},"geometry":{"type":"LineString","coordinates":[[103.6388773,1.3279393],[103.6385963,1.3282326]]}},{"type":"Feature","id":"way/644078453-0-4-0","properties":{"highway":"service"},"geometry":{"type":"LineString","coordinates":[[103.6385963,1.3282326],[103.6384562,1.3283657]]}},{"type":"Feature","id":"way/644459288-0-0-0","properties":{"highway":"unclassified","lanes":"2","lanes:backward":"1","lanes:forward":"1","maxspeed":"50","name":"Tuas Avenue 13","surface":"asphalt","turn:lanes:forward":"left;right"},"geometry":{"type":"LineString","coordinates":[[103.6375498,1.3251588],[103.6371294,1.3255686]]}},{"type":"Feature","id":"way/644459288-0-1-0","properties":{"highway":"unclassified","lanes":"2","lanes:backward":"1","lanes:forward":"1","maxspeed":"50","name":"Tuas Avenue 13","surface":"asphalt","turn:lanes:forward":"left;right"},"geometry":{"type":"LineString","coordinates":[[103.6371294,1.3255686],[103.6370446,1.3256511]]}},{"type":"Feature","id":"way/644462438-0-0-0","properties":{"highway":"unclassified","lanes":"2","lanes:backward":"1","lanes:forward":"1","maxspeed":"50","name":"Tuas Avenue 20","surface":"asphalt","turn:lanes:forward":"through;right"},"geometry":{"type":"LineString","coordinates":[[103.6389817,1.3277067],[103.6390523,1.3277816]]}},{"type":"Feature","id":"way/645363084-0-0-0","properties":{"highway":"service"},"geometry":{"type":"LineString","coordinates":[[103.6367972,1.3267823],[103.6367919,1.3268037]]}},{"type":"Feature","id":"way/645363084-0-1-0","properties":{"highway":"service"},"geometry":{"type":"LineString","coordinates":[[103.6367919,1.3268037],[103.6364602,1.3271185]]}},{"type":"Feature","id":"way/646260693-0-0-0","properties":{"highway":"service"},"geometry":{"type":"LineString","coordinates":[[103.637143,1.3260024],[103.6372116,1.3259282]]}},{"type":"Feature","id":"way/646260693-0-1-0","properties":{"highway":"service"},"geometry":{"type":"LineString","coordinates":[[103.6372116,1.3259282],[103.6372632,1.3258831]]}},{"type":"Feature","id":"way/646261682-0-0-0","properties":{"highway":"service"},"geometry":{"type":"LineString","coordinates":[[103.636872,1.3256383],[103.6365612,1.3259313]]}},{"type":"Feature","id":"way/646815646-0-1-0","properties":{"highway":"service"},"geometry":{"type":"LineString","coordinates":[[103.6398281,1.3283255],[103.6398227,1.3283121]]}},{"type":"Feature","id":"way/646819193-0-0-0","properties":{"highway":"service","oneway":"yes"},"geometry":{"type":"LineString","coordinates":[[103.639604,1.3250895],[103.6388943,1.3243386]]}},{"type":"Feature","id":"way/646819456-0-1-0","properties":{"highway":"unclassified","lanes":"2","lanes:backward":"1","lanes:forward":"1","maxspeed":"50","name":"Tuas Avenue 13","surface":"asphalt","turn:lanes:backward":"through;right"},"geometry":{"type":"LineString","coordinates":[[103.6385665,1.3241677],[103.6375498,1.3251588]]}},{"type":"Feature","id":"way/646819624-0-0-0","properties":{"highway":"service"},"geometry":{"type":"LineString","coordinates":[[103.6375313,1.3254441],[103.6375375,1.3254657]]}},{"type":"Feature","id":"way/646819624-0-1-0","properties":{"highway":"service"},"geometry":{"type":"LineString","coordinates":[[103.6375375,1.3254657],[103.6378312,1.3257847]]}},{"type":"Feature","id":"way/646819892-0-0-0","properties":{"highway":"service"},"geometry":{"type":"LineString","coordinates":[[103.6385715,1.3269378],[103.6388063,1.3271874]]}},{"type":"Feature","id":"way/646829316-0-0-0","properties":{"highway":"service","lanes":"2","lanes:backward":"1","lanes:forward":"1","turn:lanes:backward":"through","turn:lanes:forward":"through"},"geometry":{"type":"LineString","coordinates":[[103.6390395,1.3274473],[103.6390556,1.3274459]]}},{"type":"Feature","id":"way/646829316-0-1-0","properties":{"highway":"service","lanes":"2","lanes:backward":"1","lanes:forward":"1","turn:lanes:backward":"through","turn:lanes:forward":"through"},"geometry":{"type":"LineString","coordinates":[[103.6390556,1.3274459],[103.6390717,1.3274379]]}},{"type":"Feature","id":"way/646829316-0-2-0","properties":{"highway":"service","lanes":"2","lanes:backward":"1","lanes:forward":"1","turn:lanes:backward":"through","turn:lanes:forward":"through"},"geometry":{"type":"LineString","coordinates":[[103.6390717,1.3274379],[103.6395284,1.3270293]]}},{"type":"Feature","id":"way/646833889-0-0-0","properties":{"highway":"service"},"geometry":{"type":"LineString","coordinates":[[103.6374216,1.3250273],[103.6372355,1.3248365]]}},{"type":"Feature","id":"way/646837025-0-0-0","properties":{"highway":"service"},"geometry":{"type":"LineString","coordinates":[[103.6366642,1.3248969],[103.636805,1.3247575]]}},{"type":"Feature","id":"way/646837026-0-0-0","properties":{"highway":"service"},"geometry":{"type":"LineString","coordinates":[[103.636805,1.3247575],[103.6369816,1.3245827]]}},{"type":"Feature","id":"way/673647956-0-0-0","properties":{"highway":"service","lanes":"2","lanes:backward":"1","lanes:forward":"1","surface":"asphalt","turn:lanes:backward":"through","turn:lanes:forward":"through"},"geometry":{"type":"LineString","coordinates":[[103.6381678,1.3263144],[103.6379809,1.3264867]]}},{"type":"Feature","id":"way/673647956-0-1-0","properties":{"highway":"service","lanes":"2","lanes:backward":"1","lanes:forward":"1","surface":"asphalt","turn:lanes:backward":"through","turn:lanes:forward":"through"},"geometry":{"type":"LineString","coordinates":[[103.6379809,1.3264867],[103.6379478,1.3265124]]}},{"type":"Feature","id":"way/673647956-0-2-0","properties":{"highway":"service","lanes":"2","lanes:backward":"1","lanes:forward":"1","surface":"asphalt","turn:lanes:backward":"through","turn:lanes:forward":"through"},"geometry":{"type":"LineString","coordinates":[[103.6379478,1.3265124],[103.6378984,1.3265571]]}},{"type":"Feature","id":"way/673647957-0-0-0","properties":{"highway":"service","lanes":"2","lanes:backward":"1","lanes:forward":"1","surface":"asphalt","turn:lanes:backward":"left;through"},"geometry":{"type":"LineString","coordinates":[[103.638314,1.3261696],[103.6381678,1.3263144]]}},{"type":"Feature","id":"way/673647958-0-0-0","properties":{"highway":"service"},"geometry":{"type":"LineString","coordinates":[[103.638314,1.3261696],[103.6381839,1.3260221]]}},{"type":"Feature","id":"way/676573785-0-0-0","properties":{"highway":"service","lanes":"2","lanes:backward":"1","lanes:forward":"1","turn:lanes:backward":"through","turn:lanes:forward":"through"},"geometry":{"type":"LineString","coordinates":[[103.6385668,1.3261798],[103.6387391,1.3263573]]}},{"type":"Feature","id":"way/692149131-0-0-0","properties":{"highway":"service"},"geometry":{"type":"LineString","coordinates":[[103.638306,1.328418],[103.638306,1.3283872]]}},{"type":"Feature","id":"way/692149131-0-1-0","properties":{"highway":"service"},"geometry":{"type":"LineString","coordinates":[[103.638306,1.3283872],[103.6374021,1.3274138]]}},{"type":"Feature","id":"way/692149131-0-2-0","properties":{"highway":"service"},"geometry":{"type":"LineString","coordinates":[[103.6374021,1.3274138],[103.6373726,1.327403]]}},{"type":"Feature","id":"way/692149131-0-3-0","properties":{"highway":"service"},"geometry":{"type":"LineString","coordinates":[[103.6373726,1.327403],[103.637335,1.3274111]]}},{"type":"Feature","id":"way/692149131-0-4-0","properties":{"highway":"service"},"geometry":{"type":"LineString","coordinates":[[103.637335,1.3274111],[103.6368495,1.3278803]]}},{"type":"Feature","id":"way/692149131-0-5-0","properties":{"highway":"service"},"geometry":{"type":"LineString","coordinates":[[103.6368495,1.3278803],[103.6368576,1.3279125]]}},{"type":"Feature","id":"way/692149131-0-6-0","properties":{"highway":"service"},"geometry":{"type":"LineString","coordinates":[[103.6368576,1.3279125],[103.6369735,1.3280218]]}},{"type":"Feature","id":"way/1218171603-0-0-0","properties":{"highway":"service","oneway":"yes"},"geometry":{"type":"LineString","coordinates":[[103.638726,1.3243301],[103.6382336,1.3247999]]}},{"type":"Feature","id":"way/1218171603-0-1-0","properties":{"highway":"service","oneway":"yes"},"geometry":{"type":"LineString","coordinates":[[103.6382336,1.3247999],[103.6388521,1.3254537]]}},{"type":"Feature","id":"way/1218171603-0-1-1","properties":{"highway":"service","oneway":"yes"},"geometry":{"type":"LineString","coordinates":[[103.6388521,1.3254537],[103.6394706,1.3261075]]}},{"type":"Feature","id":"way/1218171603-0-5-0","properties":{"highway":"service","oneway":"yes"},"geometry":{"type":"LineString","coordinates":[[103.6397948,1.3252811],[103.639604,1.3250895]]}}]}