{"type":"FeatureCollection","features":[{"type":"Feature","id":"way/1004233083-0-1-12","properties":{"access":"permissive","bicycle":"no","highway":"tertiary","name":"Tuas F2 Drive 2"},"geometry":{"type":"LineString","coordinates":[[103.6359111,1.2535377],[103.637462,1.2535307]]}},{"type":"Feature","id":"way/1004233083-0-1-13","properties":{"access":"permissive","bicycle":"no","highway":"tertiary","name":"Tuas F2 Drive 2"},"geometry":{"type":"LineString","coordinates":[[103.637462,1.2535307],[103.6390128,1.2535237]]}},{"type":"Feature","id":"way/1004233083-0-1-14","properties":{"access":"permissive","bicycle":"no","highway":"tertiary","name":"Tuas F2 Drive 2"},"geometry":{"type":"LineString","coordinates":[[103.6390128,1.2535237],[103.6405636,1.2535167]]}}]}