{"type":"FeatureCollection","features":[{"type":"Feature","id":"way/357265786-0","properties":{"building":"yes","clearanceGeometry":{"type":"Polygon","coordinates":[[[103.8350389,1.4592453],[103.8349919,1.4591714],[103.8348962,1.4592322],[103.8349431,1.4593061],[103.8350389,1.4592453]]]},"clearanceHeight":1.7,"clearancePrepared":true},"geometry":{"type":"Polygon","coordinates":[[[103.8349431,1.4593061],[103.8350389,1.4592453],[103.8349919,1.4591714],[103.8348962,1.4592322],[103.8349431,1.4593061]]]}},{"type":"Feature","id":"way/426547269-0","properties":{"addr:city":"Singapore","addr:housenumber":"117","addr:postcode":"759837","addr:street":"Beaulieau Road","air_conditioning":"yes","amenity":"restaurant","building":"retail","cuisine":"chinese","diet:vegetarian":"no","name":"Beaulieu House","opening_hours":"Mo, Tu, Th-Su 11:00-14:30, 18:00-23:00","reservation":"yes","toilets":"yes","wikipedia":"en:Beaulieau House, Singapore","clearanceGeometry":{"type":"Polygon","coordinates":[[[103.8367704,1.4633197],[103.8367002,1.4633338],[103.8367254,1.4634587],[103.8368025,1.4634432],[103.8368153,1.4635069],[103.836903,1.4634893],[103.8368907,1.4634282],[103.8369634,1.4634135],[103.8369711,1.4634516],[103.8370781,1.4634301],[103.8370503,1.4632924],[103.8370039,1.4633018],[103.8369873,1.4632193],[103.8368991,1.463237],[103.836888,1.4631819],[103.8367483,1.46321],[103.8367704,1.4633197]]]},"clearanceHeight":1.7,"clearancePrepared":true},"geometry":{"type":"Polygon","coordinates":[[[103.8367483,1.46321],[103.8367704,1.4633197],[103.8367002,1.4633338],[103.8367254,1.4634587],[103.8368025,1.4634432],[103.8368153,1.4635069],[103.836903,1.4634893],[103.8368907,1.4634282],[103.8369634,1.4634135],[103.8369711,1.4634516],[103.8370781,1.4634301],[103.8370503,1.4632924],[103.8370039,1.4633018],[103.8369873,1.4632193],[103.8368991,1.463237],[103.836888,1.4631819],[103.8367483,1.46321]]]}},{"type":"Feature","id":"way/453488581-0","properties":{"building":"yes","clearanceGeometry":{"type":"Polygon","coordinates":[[[103.8348273,1.4630694],[103.8352519,1.4638416],[103.8352215,1.4638583],[103.8353554,1.4641018],[103.8354901,1.4640278],[103.8355126,1.4640686],[103.8359585,1.4638235],[103.8359281,1.4637681],[103.8360276,1.4637134],[103.8358929,1.4634684],[103.8358047,1.4635169],[103.8353889,1.4627607],[103.8348273,1.4630694]]]},"clearanceHeight":1.7,"clearancePrepared":true},"geometry":{"type":"Polygon","coordinates":[[[103.8353889,1.4627607],[103.8348273,1.4630694],[103.8352519,1.4638416],[103.8352215,1.4638583],[103.8353554,1.4641018],[103.8354901,1.4640278],[103.8355126,1.4640686],[103.8359585,1.4638235],[103.8359281,1.4637681],[103.8360276,1.4637134],[103.8358929,1.4634684],[103.8358047,1.4635169],[103.8353889,1.4627607]]]}},{"type":"Feature","id":"way/453488599-0","properties":{"building":"yes","clearanceGeometry":{"type":"Polygon","coordinates":[[[103.8332479,1.4630706],[103.8330064,1.4632107],[103.8330298,1.4632511],[103.8331879,1.4631593],[103.8332199,1.4632145],[103.8332913,1.4631731],[103.8332593,1.4631179],[103.8332713,1.4631109],[103.8332479,1.4630706]]]},"clearanceHeight":1.7,"clearancePrepared":true},"geometry":{"type":"Polygon","coordinates":[[[103.8332713,1.4631109],[103.8332479,1.4630706],[103.8330064,1.4632107],[103.8330298,1.4632511],[103.8331879,1.4631593],[103.8332199,1.4632145],[103.8332913,1.4631731],[103.8332593,1.4631179],[103.8332713,1.4631109]]]}},{"type":"Feature","id":"way/453702672-0","properties":{"building":"yes","clearanceGeometry":{"type":"Polygon","coordinates":[[[103.8374697,1.4593685],[103.837507,1.4594168],[103.8375648,1.4593721],[103.8375275,1.4593238],[103.83751,1.4593374],[103.8374792,1.459251],[103.8374416,1.4592644],[103.8374768,1.459363],[103.8374697,1.4593685]]]},"clearanceHeight":1.7,"clearancePrepared":true},"geometry":{"type":"Polygon","coordinates":[[[103.8374768,1.459363],[103.8374697,1.4593685],[103.837507,1.4594168],[103.8375648,1.4593721],[103.8375275,1.4593238],[103.83751,1.4593374],[103.8374792,1.459251],[103.8374416,1.4592644],[103.8374768,1.459363]]]}},{"type":"Feature","id":"way/508677293-0","properties":{"building":"industrial","clearanceGeometry":{"type":"Polygon","coordinates":[[[103.8335166,1.4594771],[103.8329802,1.4597854],[103.8336722,1.4609886],[103.8342086,1.4606802],[103.8335166,1.4594771]]]},"clearanceHeight":1.7,"clearancePrepared":true},"geometry":{"type":"Polygon","coordinates":[[[103.8342086,1.4606802],[103.8335166,1.4594771],[103.8329802,1.4597854],[103.8336722,1.4609886],[103.8342086,1.4606802]]]}},{"type":"Feature","id":"way/975143511-0","properties":{"amenity":"toilets","building":"yes","fee":"no","clearanceGeometry":{"type":"Polygon","coordinates":[[[103.8366781,1.461393],[103.8366659,1.461347],[103.8366393,1.4612998],[103.8365853,1.4613398],[103.8366037,1.4613691],[103.8366124,1.4614012],[103.8366118,1.4614326],[103.8366765,1.4614442],[103.8366781,1.461393]]]},"clearanceHeight":1.7,"clearancePrepared":true},"geometry":{"type":"Polygon","coordinates":[[[103.8366765,1.4614442],[103.8366781,1.461393],[103.8366659,1.461347],[103.8366393,1.4612998],[103.8365853,1.4613398],[103.8366037,1.4613691],[103.8366124,1.4614012],[103.8366118,1.4614326],[103.8366765,1.4614442]]]}},{"type":"Feature","id":"way/975203631-0","properties":{"amenity":"shelter","building":"roof","clearanceGeometry":{"type":"Polygon","coordinates":[[[103.83658,1.4615442],[103.8365473,1.4615318],[103.8365134,1.4616211],[103.8365461,1.4616335],[103.83658,1.4615442]]]},"clearanceHeight":1.7,"clearancePrepared":true},"geometry":{"type":"Polygon","coordinates":[[[103.8365461,1.4616335],[103.83658,1.4615442],[103.8365473,1.4615318],[103.8365134,1.4616211],[103.8365461,1.4616335]]]}},{"type":"Feature","id":"way/975204912-0","properties":{"amenity":"shelter","building":"roof","clearanceGeometry":{"type":"Polygon","coordinates":[[[103.8362812,1.460454],[103.8362214,1.4604547],[103.8362221,1.4605154],[103.836282,1.4605147],[103.8362812,1.460454]]]},"clearanceHeight":1.7,"clearancePrepared":true},"geometry":{"type":"Polygon","coordinates":[[[103.836282,1.4605147],[103.8362812,1.460454],[103.8362214,1.4604547],[103.8362221,1.4605154],[103.836282,1.4605147]]]}},{"type":"Feature","id":"way/995990593-0","properties":{"amenity":"shelter","building":"roof","shelter_type":"weather_shelter","clearanceGeometry":{"type":"Polygon","coordinates":[[[103.8360485,1.46114],[103.8360045,1.4611661],[103.836033,1.461214],[103.836077,1.4611879],[103.8360485,1.46114]]]},"clearanceHeight":1.7,"clearancePrepared":true},"geometry":{"type":"Polygon","coordinates":[[[103.836077,1.4611879],[103.8360485,1.46114],[103.8360045,1.4611661],[103.836033,1.461214],[103.836077,1.4611879]]]}},{"type":"Feature","id":"way/995990594-0","properties":{"amenity":"shelter","building":"roof","shelter_type":"weather_shelter","clearanceGeometry":{"type":"Polygon","coordinates":[[[103.8351945,1.4607967],[103.8351388,1.4608115],[103.835154,1.4608684],[103.8352096,1.4608537],[103.8351945,1.4607967]]]},"clearanceHeight":1.7,"clearancePrepared":true},"geometry":{"type":"Polygon","coordinates":[[[103.8352096,1.4608537],[103.8351945,1.4607967],[103.8351388,1.4608115],[103.835154,1.4608684],[103.8352096,1.4608537]]]}},{"type":"Feature","id":"way/995990595-0","properties":{"building":"toilets","building:levels":"1","clearanceGeometry":{"type":"Polygon","coordinates":[[[103.8373413,1.4630102],[103.8373453,1.4630705],[103.83745,1.4630201],[103.8374171,1.4629807],[103.8373413,1.4630102]]]},"clearanceHeight":1.7,"clearancePrepared":true},"geometry":{"type":"Polygon","coordinates":[[[103.8374171,1.4629807],[103.8373413,1.4630102],[103.8373453,1.4630705],[103.83745,1.4630201],[103.8374171,1.4629807]]]}},{"type":"Feature","id":"way/1078245453-0","properties":{"amenity":"shelter","building":"roof","shelter_type":"gazebo","clearanceGeometry":{"type":"Polygon","coordinates":[[[103.8348166,1.4598904],[103.8347644,1.4598672],[103.8347426,1.4599163],[103.8347948,1.4599394],[103.8348166,1.4598904]]]},"clearanceHeight":1.7,"clearancePrepared":true},"geometry":{"type":"Polygon","coordinates":[[[103.8347948,1.4599394],[103.8348166,1.4598904],[103.8347644,1.4598672],[103.8347426,1.4599163],[103.8347948,1.4599394]]]}},{"type":"Feature","id":"way/1441723741-0","properties":{"building":"yes","clearanceGeometry":{"type":"Polygon","coordinates":[[[103.8335211,1.4635438],[103.8334474,1.4634167],[103.8334131,1.4634366],[103.8334418,1.4634859],[103.8333174,1.4635581],[103.8333624,1.4636358],[103.8335211,1.4635438]]]},"clearanceHeight":1.7,"clearancePrepared":true},"geometry":{"type":"Polygon","coordinates":[[[103.8333624,1.4636358],[103.8335211,1.4635438],[103.8334474,1.4634167],[103.8334131,1.4634366],[103.8334418,1.4634859],[103.8333174,1.4635581],[103.8333624,1.4636358]]]}},{"type":"Feature","id":"node/905266230","properties":{"highway":"traffic_signals"},"geometry":{"type":"Point","coordinates":[103.8336474,1.4610448]}},{"type":"Feature","id":"node/8099167981","properties":{"highway":"crossing"},"geometry":{"type":"Point","coordinates":[103.8374559,1.4608243]}},{"type":"Feature","id":"way/48581167-0-1-0","properties":{"highway":"tertiary","lanes":"2","lanes:backward":"1","lanes:forward":"1","maxspeed":"60","name":"Sembawang Road","surface":"asphalt","startNodeId":"617035633","endNodeId":"4606486915"},"geometry":{"type":"LineString","coordinates":[[103.8372557,1.4592123],[103.8373458,1.4593275]]}},{"type":"Feature","id":"way/48581167-0-2-0","properties":{"highway":"tertiary","lanes":"2","lanes:backward":"1","lanes:forward":"1","maxspeed":"60","name":"Sembawang Road","surface":"asphalt","startNodeId":"4606486915","endNodeId":"617035634"},"geometry":{"type":"LineString","coordinates":[[103.8373458,1.4593275],[103.8373856,1.459493]]}},{"type":"Feature","id":"way/48581167-0-3-0","properties":{"highway":"tertiary","lanes":"2","lanes:backward":"1","lanes:forward":"1","maxspeed":"60","name":"Sembawang Road","surface":"asphalt","startNodeId":"617035634","endNodeId":"617035635"},"geometry":{"type":"LineString","coordinates":[[103.8373856,1.459493],[103.8374087,1.459782]]}},{"type":"Feature","id":"way/48581167-0-4-0","properties":{"highway":"tertiary","lanes":"2","lanes:backward":"1","lanes:forward":"1","maxspeed":"60","name":"Sembawang Road","surface":"asphalt","startNodeId":"617035635","endNodeId":"2375711378"},"geometry":{"type":"LineString","coordinates":[[103.8374087,1.459782],[103.8374248,1.4608248]]}},{"type":"Feature","id":"way/228919426-0-0-0","properties":{"highway":"service","lanes":"1","name":"Tuah Road","oneway":"yes","smoothness":"good","surface":"asphalt","turn:lanes":"through;right","startNodeId":"2375704296","endNodeId":"4606905865"},"geometry":{"type":"LineString","coordinates":[[103.8352591,1.4594524],[103.8352534,1.4594306]]}},{"type":"Feature","id":"way/228919426-0-1-0","properties":{"highway":"service","lanes":"1","name":"Tuah Road","oneway":"yes","smoothness":"good","surface":"asphalt","turn:lanes":"through;right","startNodeId":"4606905865","endNodeId":"4606905869"},"geometry":{"type":"LineString","coordinates":[[103.8352534,1.4594306],[103.8352528,1.4593985]]}},{"type":"Feature","id":"way/228919426-0-2-0","properties":{"highway":"service","lanes":"1","name":"Tuah Road","oneway":"yes","smoothness":"good","surface":"asphalt","turn:lanes":"through;right","startNodeId":"4606905869","endNodeId":"4606905863"},"geometry":{"type":"LineString","coordinates":[[103.8352528,1.4593985],[103.8352675,1.459375]]}},{"type":"Feature","id":"way/228919426-0-3-0","properties":{"highway":"service","lanes":"1","name":"Tuah Road","oneway":"yes","smoothness":"good","surface":"asphalt","turn:lanes":"through;right","startNodeId":"4606905863","endNodeId":"4606905868"},"geometry":{"type":"LineString","coordinates":[[103.8352675,1.459375],[103.8353047,1.4593492]]}},{"type":"Feature","id":"way/228919426-0-4-0","properties":{"highway":"service","lanes":"1","name":"Tuah Road","oneway":"yes","smoothness":"good","surface":"asphalt","turn:lanes":"through;right","startNodeId":"4606905868","endNodeId":"2375704298"},"geometry":{"type":"LineString","coordinates":[[103.8353047,1.4593492],[103.8355799,1.4592288]]}},{"type":"Feature","id":"way/228920209-0-0-0","properties":{"highway":"residential","lanes":"2","lanes:backward":"1","lanes:forward":"1","maxspeed":"50","name":"Wak Hassan Place","surface":"asphalt","turn:lanes:backward":"left;right","turn:lanes:forward":"through","startNodeId":"2375711378","endNodeId":"8099167981"},"geometry":{"type":"LineString","coordinates":[[103.8374248,1.4608248],[103.8374559,1.4608243]]}},{"type":"Feature","id":"way/452425846-0-0-0","properties":{"bicycle":"yes","highway":"service","lanes":"1","oneway":"yes","service":"parking_aisle","sidewalk":"right","startNodeId":"2375704294","endNodeId":"5178966678"},"geometry":{"type":"LineString","coordinates":[[103.8363153,1.4590167],[103.8356439,1.4593407]]}},{"type":"Feature","id":"way/452425846-0-1-0","properties":{"bicycle":"yes","highway":"service","lanes":"1","oneway":"yes","service":"parking_aisle","sidewalk":"right","startNodeId":"5178966678","endNodeId":"4606905866"},"geometry":{"type":"LineString","coordinates":[[103.8356439,1.4593407],[103.8353597,1.4594779]]}},{"type":"Feature","id":"way/452425846-0-2-0","properties":{"bicycle":"yes","highway":"service","lanes":"1","oneway":"yes","service":"parking_aisle","sidewalk":"right","startNodeId":"4606905866","endNodeId":"5266285323"},"geometry":{"type":"LineString","coordinates":[[103.8353597,1.4594779],[103.8353457,1.4594836]]}},{"type":"Feature","id":"way/452425846-0-3-0","properties":{"bicycle":"yes","highway":"service","lanes":"1","oneway":"yes","service":"parking_aisle","sidewalk":"right","startNodeId":"5266285323","endNodeId":"4606905862"},"geometry":{"type":"LineString","coordinates":[[103.8353457,1.4594836],[103.8353286,1.4594873]]}},{"type":"Feature","id":"way/452425846-0-4-0","properties":{"bicycle":"yes","highway":"service","lanes":"1","oneway":"yes","service":"parking_aisle","sidewalk":"right","startNodeId":"4606905862","endNodeId":"4606905867"},"geometry":{"type":"LineString","coordinates":[[103.8353286,1.4594873],[103.8353141,1.4594869]]}},{"type":"Feature","id":"way/452425846-0-5-0","properties":{"bicycle":"yes","highway":"service","lanes":"1","oneway":"yes","service":"parking_aisle","sidewalk":"right","startNodeId":"4606905867","endNodeId":"5266285324"},"geometry":{"type":"LineString","coordinates":[[103.8353141,1.4594869],[103.8352983,1.4594835]]}},{"type":"Feature","id":"way/452425846-0-6-0","properties":{"bicycle":"yes","highway":"service","lanes":"1","oneway":"yes","service":"parking_aisle","sidewalk":"right","startNodeId":"5266285324","endNodeId":"4606905864"},"geometry":{"type":"LineString","coordinates":[[103.8352983,1.4594835],[103.8352856,1.4594785]]}},{"type":"Feature","id":"way/452425846-0-7-0","properties":{"bicycle":"yes","highway":"service","lanes":"1","oneway":"yes","service":"parking_aisle","sidewalk":"right","startNodeId":"4606905864","endNodeId":"5266285325"},"geometry":{"type":"LineString","coordinates":[[103.8352856,1.4594785],[103.8352736,1.4594705]]}},{"type":"Feature","id":"way/452425846-0-8-0","properties":{"bicycle":"yes","highway":"service","lanes":"1","oneway":"yes","service":"parking_aisle","sidewalk":"right","startNodeId":"5266285325","endNodeId":"5266285326"},"geometry":{"type":"LineString","coordinates":[[103.8352736,1.4594705],[103.8352672,1.4594636]]}},{"type":"Feature","id":"way/452425846-0-9-0","properties":{"bicycle":"yes","highway":"service","lanes":"1","oneway":"yes","service":"parking_aisle","sidewalk":"right","startNodeId":"5266285326","endNodeId":"2375704296"},"geometry":{"type":"LineString","coordinates":[[103.8352672,1.4594636],[103.8352591,1.4594524]]}},{"type":"Feature","id":"way/639863283-0-0-0","properties":{"highway":"tertiary","lanes":"2","lanes:backward":"1","lanes:forward":"1","maxspeed":"60","name":"Sembawang Road","surface":"asphalt","turn:lanes:forward":"left;through","startNodeId":"617035638","endNodeId":"6141982038"},"geometry":{"type":"LineString","coordinates":[[103.8374303,1.4611366],[103.8374412,1.4612351]]}},{"type":"Feature","id":"way/639863283-0-1-0","properties":{"highway":"tertiary","lanes":"2","lanes:backward":"1","lanes:forward":"1","maxspeed":"60","name":"Sembawang Road","surface":"asphalt","turn:lanes:forward":"left;through","startNodeId":"6141982038","endNodeId":"617035639"},"geometry":{"type":"LineString","coordinates":[[103.8374412,1.4612351],[103.8374677,1.461337]]}},{"type":"Feature","id":"way/639863283-0-2-0","properties":{"highway":"tertiary","lanes":"2","lanes:backward":"1","lanes:forward":"1","maxspeed":"60","name":"Sembawang Road","surface":"asphalt","turn:lanes:forward":"left;through","startNodeId":"617035639","endNodeId":"6544551974"},"geometry":{"type":"LineString","coordinates":[[103.8374677,1.461337],[103.8374955,1.4614194]]}},{"type":"Feature","id":"way/639863283-0-3-0","properties":{"highway":"tertiary","lanes":"2","lanes:backward":"1","lanes:forward":"1","maxspeed":"60","name":"Sembawang Road","surface":"asphalt","turn:lanes:forward":"left;through","startNodeId":"6544551974","endNodeId":"617035640"},"geometry":{"type":"LineString","coordinates":[[103.8374955,1.4614194],[103.8375369,1.4614941]]}},{"type":"Feature","id":"way/655558117-0-0-0","properties":{"highway":"tertiary","lanes":"2","lanes:backward":"1","lanes:forward":"1","maxspeed":"60","name":"Sembawang Road","surface":"asphalt","turn:lanes:backward":"through","turn:lanes:forward":"through","startNodeId":"2375711378","endNodeId":"617035638"},"geometry":{"type":"LineString","coordinates":[[103.8374248,1.4608248],[103.8374303,1.4611366]]}},{"type":"Feature","id":"way/681135941-0-0-0","properties":{"highway":"residential","lanes":"2","lanes:backward":"1","lanes:forward":"1","maxspeed":"50","name":"Tuah Road","sidewalk":"no","surface":"asphalt","turn:lanes:backward":"left","startNodeId":"2375704298","endNodeId":"6378424447"},"geometry":{"type":"LineString","coordinates":[[103.8355799,1.4592288],[103.8358071,1.4591259]]}}]}