{"type":"FeatureCollection","features":[{"type":"Feature","id":"way/453447466-0","properties":{"building":"yes","clearanceGeometry":{"type":"Polygon","coordinates":[[[103.6225952,1.2773997],[103.6227234,1.2773851],[103.6227199,1.2773541],[103.6225917,1.2773686],[103.6225952,1.2773997]]]},"clearanceHeight":1.7,"clearancePrepared":true},"geometry":{"type":"Polygon","coordinates":[[[103.6225917,1.2773686],[103.6225952,1.2773997],[103.6227234,1.2773851],[103.6227199,1.2773541],[103.6225917,1.2773686]]]}},{"type":"Feature","id":"way/453447467-0","properties":{"addr:city":"Singapore","addr:country":"SG","addr:housenumber":"19","addr:street":"Tuas South Avenue 14","building":"industrial","clearanceGeometry":{"type":"Polygon","coordinates":[[[103.6220212,1.276521],[103.6221493,1.2765065],[103.6221587,1.2765892],[103.6222288,1.2765813],[103.6222419,1.2766965],[103.6230085,1.2766095],[103.6229258,1.2758813],[103.6229153,1.2757886],[103.6230197,1.2757767],[103.6230068,1.2756627],[103.6229581,1.2756682],[103.6229339,1.2754549],[103.6228781,1.2754613],[103.6228719,1.2754066],[103.6222338,1.2754791],[103.6222762,1.2758523],[103.6219495,1.2758893],[103.6220212,1.276521]]]},"clearanceHeight":1.7,"clearancePrepared":true},"geometry":{"type":"Polygon","coordinates":[[[103.6219495,1.2758893],[103.6220212,1.276521],[103.6221493,1.2765065],[103.6221587,1.2765892],[103.6222288,1.2765813],[103.6222419,1.2766965],[103.6230085,1.2766095],[103.6229258,1.2758813],[103.6229153,1.2757886],[103.6230197,1.2757767],[103.6230068,1.2756627],[103.6229581,1.2756682],[103.6229339,1.2754549],[103.6228781,1.2754613],[103.6228719,1.2754066],[103.6222338,1.2754791],[103.6222762,1.2758523],[103.6219495,1.2758893]]]}},{"type":"Feature","id":"way/453447469-0","properties":{"building":"yes","clearanceGeometry":{"type":"Polygon","coordinates":[[[103.62320678093383,1.2770089442109998],[103.62319876493906,1.2769215241974405],[103.6230317,1.2769404],[103.6230416,1.2770277],[103.62320678093383,1.2770089442109998]]]},"clearanceHeight":1.7,"clearancePrepared":true},"geometry":{"type":"Polygon","coordinates":[[[103.6230416,1.2770277],[103.6232195,1.2770075],[103.6232096,1.2769203],[103.6230317,1.2769404],[103.6230416,1.2770277]]]}},{"type":"Feature","id":"way/453447470-0","properties":{"building":"yes","clearanceGeometry":{"type":"Polygon","coordinates":[[[103.6229835,1.2772421],[103.622742,1.2772695],[103.6227568,1.2774003],[103.6229983,1.2773729],[103.6229835,1.2772421]]]},"clearanceHeight":1.7,"clearancePrepared":true},"geometry":{"type":"Polygon","coordinates":[[[103.6229983,1.2773729],[103.6229835,1.2772421],[103.622742,1.2772695],[103.6227568,1.2774003],[103.6229983,1.2773729]]]}},{"type":"Feature","id":"way/453447471-0","properties":{"building":"yes","clearanceGeometry":{"type":"Polygon","coordinates":[[[103.6224734,1.277437],[103.6224319,1.277071],[103.6220581,1.2771134],[103.6220702,1.2772204],[103.621983,1.2772303],[103.6219977,1.2773601],[103.622085,1.2773502],[103.6220996,1.2774794],[103.6224734,1.277437]]]},"clearanceHeight":1.7,"clearancePrepared":true},"geometry":{"type":"Polygon","coordinates":[[[103.6220996,1.2774794],[103.6224734,1.277437],[103.6224319,1.277071],[103.6220581,1.2771134],[103.6220702,1.2772204],[103.621983,1.2772303],[103.6219977,1.2773601],[103.622085,1.2773502],[103.6220996,1.2774794]]]}},{"type":"Feature","id":"way/453449330-0","properties":{"building":"yes","clearanceGeometry":{"type":"Polygon","coordinates":[[[103.6239208,1.276181],[103.6237984,1.2761908],[103.6237955,1.2761548],[103.6236707,1.2761647],[103.623677,1.2762441],[103.6239243,1.2762245],[103.6239208,1.276181]]]},"clearanceHeight":1.7,"clearancePrepared":true},"geometry":{"type":"Polygon","coordinates":[[[103.6239243,1.2762245],[103.6239208,1.276181],[103.6237984,1.2761908],[103.6237955,1.2761548],[103.6236707,1.2761647],[103.623677,1.2762441],[103.6239243,1.2762245]]]}},{"type":"Feature","id":"way/453449332-0","properties":{"building":"yes","clearanceGeometry":{"type":"Polygon","coordinates":[[[103.6236212,1.2757096],[103.6238999,1.2756875],[103.6238787,1.27542],[103.6235999,1.2754422],[103.6236212,1.2757096]]]},"clearanceHeight":1.7,"clearancePrepared":true},"geometry":{"type":"Polygon","coordinates":[[[103.6235999,1.2754422],[103.6236212,1.2757096],[103.6238999,1.2756875],[103.6238787,1.27542],[103.6235999,1.2754422]]]}},{"type":"Feature","id":"way/453449333-0","properties":{"building":"yes","clearanceGeometry":{"type":"Polygon","coordinates":[[[103.6240289,1.2756949],[103.6236177,1.2757276],[103.623648,1.2761079],[103.6240591,1.2760752],[103.6240289,1.2756949]]]},"clearanceHeight":1.7,"clearancePrepared":true},"geometry":{"type":"Polygon","coordinates":[[[103.6240591,1.2760752],[103.6240289,1.2756949],[103.6236177,1.2757276],[103.623648,1.2761079],[103.6240591,1.2760752]]]}},{"type":"Feature","id":"way/453449335-0","properties":{"building":"yes","clearanceGeometry":{"type":"Polygon","coordinates":[[[103.6240162,1.2754417],[103.6239625,1.2754459],[103.6239716,1.2755603],[103.623931,1.2755635],[103.6239403,1.2756815],[103.6240346,1.275674],[103.6240162,1.2754417]]]},"clearanceHeight":1.7,"clearancePrepared":true},"geometry":{"type":"Polygon","coordinates":[[[103.6240346,1.275674],[103.6240162,1.2754417],[103.6239625,1.2754459],[103.6239716,1.2755603],[103.623931,1.2755635],[103.6239403,1.2756815],[103.6240346,1.275674]]]}},{"type":"Feature","id":"way/453449336-0","properties":{"building":"yes","clearanceGeometry":{"type":"Polygon","coordinates":[[[103.6233146,1.275415],[103.6233052,1.2752943],[103.6232403,1.2752994],[103.6232497,1.27542],[103.6233146,1.275415]]]},"clearanceHeight":1.7,"clearancePrepared":true},"geometry":{"type":"Polygon","coordinates":[[[103.6232497,1.27542],[103.6233146,1.275415],[103.6233052,1.2752943],[103.6232403,1.2752994],[103.6232497,1.27542]]]}},{"type":"Feature","id":"way/503503804-0","properties":{"addr:city":"Singapore","addr:country":"SG","addr:housenumber":"11","addr:street":"Tuas South Avenue 12","building":"industrial","clearanceGeometry":{"type":"Polygon","coordinates":[[[103.627274,1.279243],[103.6270068,1.2792868],[103.6268983,1.2786246],[103.6270026,1.2786076],[103.6269798,1.2784684],[103.624821,1.278822],[103.6249722,1.2797445],[103.6249215,1.2797528],[103.6249456,1.2799],[103.6248889,1.2799093],[103.624935,1.2801906],[103.6251265,1.2801592],[103.6251749,1.2804542],[103.6258663,1.2803409],[103.6258112,1.2800049],[103.6270902,1.2797954],[103.6270333,1.2794486],[103.6273005,1.2794048],[103.627274,1.279243]]]},"clearanceHeight":1.7,"clearancePrepared":true},"geometry":{"type":"Polygon","coordinates":[[[103.6273005,1.2794048],[103.627274,1.279243],[103.6270068,1.2792868],[103.6268983,1.2786246],[103.6270026,1.2786076],[103.6269798,1.2784684],[103.624821,1.278822],[103.6249722,1.2797445],[103.6249215,1.2797528],[103.6249456,1.2799],[103.6248889,1.2799093],[103.624935,1.2801906],[103.6251265,1.2801592],[103.6251749,1.2804542],[103.6258663,1.2803409],[103.6258112,1.2800049],[103.6270902,1.2797954],[103.6270333,1.2794486],[103.6273005,1.2794048]]]}},{"type":"Feature","id":"node/4488744021","properties":{"highway":"crossing"},"geometry":{"type":"Point","coordinates":[103.6230545,1.2752754]}},{"type":"Feature","id":"node/5218933412","properties":{"highway":"crossing"},"geometry":{"type":"Point","coordinates":[103.6223833,1.2753476]}},{"type":"Feature","id":"node/8396225195","properties":{"highway":"crossing"},"geometry":{"type":"Point","coordinates":[103.6234363,1.275221]}},{"type":"Feature","id":"way/452241674-0-0-0","properties":{"highway":"service","lanes":"2","lanes:backward":"1","lanes:forward":"1","turn:lanes:backward":"left;right","turn:lanes:forward":"through","startNodeId":"4490308157","endNodeId":"6098205104"},"geometry":{"type":"LineString","coordinates":[[103.6219273,1.2770243],[103.6221379,1.2769997]]}},{"type":"Feature","id":"way/452241675-0-4-0","properties":{"highway":"service","lanes":"2","lanes:backward":"1","lanes:forward":"1","turn:lanes:backward":"through","turn:lanes:forward":"through","startNodeId":"4490308140","endNodeId":"5152114014"},"geometry":{"type":"LineString","coordinates":[[103.6218647,1.2755412],[103.6218898,1.2755129]]}},{"type":"Feature","id":"way/452241675-0-5-0","properties":{"highway":"service","lanes":"2","lanes:backward":"1","lanes:forward":"1","turn:lanes:backward":"through","turn:lanes:forward":"through","startNodeId":"5152114014","endNodeId":"5152114013"},"geometry":{"type":"LineString","coordinates":[[103.6218898,1.2755129],[103.6219167,1.275489]]}},{"type":"Feature","id":"way/452241675-0-6-0","properties":{"highway":"service","lanes":"2","lanes:backward":"1","lanes:forward":"1","turn:lanes:backward":"through","turn:lanes:forward":"through","startNodeId":"5152114013","endNodeId":"4490308139"},"geometry":{"type":"LineString","coordinates":[[103.6219167,1.275489],[103.6219491,1.2754736]]}},{"type":"Feature","id":"way/452241675-0-7-0","properties":{"highway":"service","lanes":"2","lanes:backward":"1","lanes:forward":"1","turn:lanes:backward":"through","turn:lanes:forward":"through","startNodeId":"4490308139","endNodeId":"5218933413"},"geometry":{"type":"LineString","coordinates":[[103.6219491,1.2754736],[103.6223908,1.2754182]]}},{"type":"Feature","id":"way/452241676-0-3-0","properties":{"highway":"service","lanes":"1","oneway":"yes","startNodeId":"4490308155","endNodeId":"4490308152"},"geometry":{"type":"LineString","coordinates":[[103.6218741,1.2766576],[103.6219082,1.2766445]]}},{"type":"Feature","id":"way/452241676-0-4-0","properties":{"highway":"service","lanes":"1","oneway":"yes","startNodeId":"4490308152","endNodeId":"5152114008"},"geometry":{"type":"LineString","coordinates":[[103.6219082,1.2766445],[103.6219333,1.276618]]}},{"type":"Feature","id":"way/452241676-0-5-0","properties":{"highway":"service","lanes":"1","oneway":"yes","startNodeId":"5152114008","endNodeId":"5152114009"},"geometry":{"type":"LineString","coordinates":[[103.6219333,1.276618],[103.6219445,1.2765833]]}},{"type":"Feature","id":"way/452241676-0-6-0","properties":{"highway":"service","lanes":"1","oneway":"yes","startNodeId":"5152114009","endNodeId":"5152114010"},"geometry":{"type":"LineString","coordinates":[[103.6219445,1.2765833],[103.6219396,1.2765471]]}},{"type":"Feature","id":"way/452241676-0-7-0","properties":{"highway":"service","lanes":"1","oneway":"yes","startNodeId":"5152114010","endNodeId":"5152114011"},"geometry":{"type":"LineString","coordinates":[[103.6219396,1.2765471],[103.6219195,1.2765166]]}},{"type":"Feature","id":"way/452241676-0-8-0","properties":{"highway":"service","lanes":"1","oneway":"yes","startNodeId":"5152114011","endNodeId":"5152114012"},"geometry":{"type":"LineString","coordinates":[[103.6219195,1.2765166],[103.6218883,1.2764977]]}},{"type":"Feature","id":"way/465770447-0-1-0","properties":{"highway":"service","lanes":"2","lanes:backward":"1","lanes:forward":"1","surface":"asphalt","turn:lanes:backward":"left","turn:lanes:forward":"left;through","startNodeId":"8396225193","endNodeId":"5218828788"},"geometry":{"type":"LineString","coordinates":[[103.6251906,1.2750142],[103.6252167,1.2752315]]}},{"type":"Feature","id":"way/465770474-0-0-0","properties":{"highway":"service","oneway":"yes","startNodeId":"4490308162","endNodeId":"6381209013"},"geometry":{"type":"LineString","coordinates":[[103.6219592,1.2775265],[103.6219794,1.2775496]]}},{"type":"Feature","id":"way/465770474-0-1-0","properties":{"highway":"service","oneway":"yes","startNodeId":"6381209013","endNodeId":"6381209014"},"geometry":{"type":"LineString","coordinates":[[103.6219794,1.2775496],[103.622033,1.2775577]]}},{"type":"Feature","id":"way/465770474-0-2-0","properties":{"highway":"service","oneway":"yes","startNodeId":"6381209014","endNodeId":"6381209015"},"geometry":{"type":"LineString","coordinates":[[103.622033,1.2775577],[103.6220893,1.2775577]]}},{"type":"Feature","id":"way/465770474-0-3-0","properties":{"highway":"service","oneway":"yes","startNodeId":"6381209015","endNodeId":"6973932875"},"geometry":{"type":"LineString","coordinates":[[103.6220893,1.2775577],[103.6226687,1.277492]]}},{"type":"Feature","id":"way/465770475-0-0-0","properties":{"highway":"service","lanes":"2","lanes:backward":"1","lanes:forward":"1","surface":"asphalt","turn:lanes:backward":"through","turn:lanes:forward":"through","startNodeId":"4490308137","endNodeId":"4488744021"},"geometry":{"type":"LineString","coordinates":[[103.6230449,1.2751577],[103.6230545,1.2752754]]}},{"type":"Feature","id":"way/465770475-0-1-0","properties":{"highway":"service","lanes":"2","lanes:backward":"1","lanes:forward":"1","surface":"asphalt","turn:lanes:backward":"through","turn:lanes:forward":"through","startNodeId":"4488744021","endNodeId":"4490308138"},"geometry":{"type":"LineString","coordinates":[[103.6230545,1.2752754],[103.623061,1.2753342]]}},{"type":"Feature","id":"way/478304029-0-3-0","properties":{"highway":"tertiary","lanes":"3","maxspeed":"50","name":"Tuas View Avenue 14","oneway":"yes","surface":"asphalt","startNodeId":"8654444729","endNodeId":"6968819125"},"geometry":{"type":"LineString","coordinates":[[103.6227457,1.2750409],[103.6221202,1.2751094]]}},{"type":"Feature","id":"way/530597530-0-0-0","properties":{"highway":"service","lanes":"1","oneway":"yes","turn:lanes":"through","startNodeId":"4490308157","endNodeId":"6381209012"},"geometry":{"type":"LineString","coordinates":[[103.6219273,1.2770243],[103.6219472,1.2773539]]}},{"type":"Feature","id":"way/539309485-0-0-0","properties":{"highway":"service","lanes":"2","lanes:backward":"1","lanes:forward":"1","startNodeId":"5218812194","endNodeId":"5218812193"},"geometry":{"type":"LineString","coordinates":[[103.624251,1.2796337],[103.6241197,1.2788218]]}},{"type":"Feature","id":"way/539309513-0-0-0","properties":{"highway":"service","lanes":"1","oneway":"yes","startNodeId":"5218812193","endNodeId":"5218814373"},"geometry":{"type":"LineString","coordinates":[[103.6241197,1.2788218],[103.6238326,1.2788644]]}},{"type":"Feature","id":"way/539309513-0-1-0","properties":{"highway":"service","lanes":"1","oneway":"yes","startNodeId":"5218814373","endNodeId":"5218814374"},"geometry":{"type":"LineString","coordinates":[[103.6238326,1.2788644],[103.6237777,1.278893]]}},{"type":"Feature","id":"way/539309513-0-2-0","properties":{"highway":"service","lanes":"1","oneway":"yes","startNodeId":"5218814374","endNodeId":"5218814375"},"geometry":{"type":"LineString","coordinates":[[103.6237777,1.278893],[103.6237484,1.2789267]]}},{"type":"Feature","id":"way/539309513-0-3-0","properties":{"highway":"service","lanes":"1","oneway":"yes","startNodeId":"5218814375","endNodeId":"5218814376"},"geometry":{"type":"LineString","coordinates":[[103.6237484,1.2789267],[103.6237297,1.2789733]]}},{"type":"Feature","id":"way/539309513-0-4-0","properties":{"highway":"service","lanes":"1","oneway":"yes","startNodeId":"5218814376","endNodeId":"5218814377"},"geometry":{"type":"LineString","coordinates":[[103.6237297,1.2789733],[103.6237311,1.2790375]]}},{"type":"Feature","id":"way/539309513-0-5-0","properties":{"highway":"service","lanes":"1","oneway":"yes","startNodeId":"5218814377","endNodeId":"6973932868"},"geometry":{"type":"LineString","coordinates":[[103.6237311,1.2790375],[103.6237992,1.2794294]]}},{"type":"Feature","id":"way/539311502-0-0-0","properties":{"highway":"service","lanes":"2","lanes:backward":"1","lanes:forward":"1","parking:condition:both:vehicles":"hgv_articulated","parking:lane:both":"perpendicular","startNodeId":"5218828787","endNodeId":"5218828786"},"geometry":{"type":"LineString","coordinates":[[103.6246535,1.2752891],[103.6246256,1.2753108]]}},{"type":"Feature","id":"way/539311502-0-1-0","properties":{"highway":"service","lanes":"2","lanes:backward":"1","lanes:forward":"1","parking:condition:both:vehicles":"hgv_articulated","parking:lane:both":"perpendicular","startNodeId":"5218828786","endNodeId":"5218828785"},"geometry":{"type":"LineString","coordinates":[[103.6246256,1.2753108],[103.6246076,1.2753372]]}},{"type":"Feature","id":"way/539311502-0-2-0","properties":{"highway":"service","lanes":"2","lanes:backward":"1","lanes:forward":"1","parking:condition:both:vehicles":"hgv_articulated","parking:lane:both":"perpendicular","startNodeId":"5218828785","endNodeId":"5218828784"},"geometry":{"type":"LineString","coordinates":[[103.6246076,1.2753372],[103.6245986,1.2753655]]}},{"type":"Feature","id":"way/539318227-0-0-0","properties":{"highway":"service","lanes":"2","lanes:backward":"1","lanes:forward":"1","startNodeId":"5218896887","endNodeId":"5218896886"},"geometry":{"type":"LineString","coordinates":[[103.6234533,1.275374],[103.6239266,1.2753347]]}},{"type":"Feature","id":"way/539318228-0-0-0","properties":{"highway":"service","lanes":"2","lanes:backward":"1","lanes:forward":"1","startNodeId":"5218896889","endNodeId":"8396225195"},"geometry":{"type":"LineString","coordinates":[[103.6234245,1.2751153],[103.6234363,1.275221]]}},{"type":"Feature","id":"way/539318228-0-1-0","properties":{"highway":"service","lanes":"2","lanes:backward":"1","lanes:forward":"1","startNodeId":"8396225195","endNodeId":"5218896887"},"geometry":{"type":"LineString","coordinates":[[103.6234363,1.275221],[103.6234533,1.275374]]}},{"type":"Feature","id":"way/539322614-0-0-0","properties":{"highway":"service","startNodeId":"5218933413","endNodeId":"5218933412"},"geometry":{"type":"LineString","coordinates":[[103.6223908,1.2754182],[103.6223833,1.2753476]]}},{"type":"Feature","id":"way/545103189-0-0-0","properties":{"highway":"tertiary","lanes":"3","maxspeed":"50","name":"Tuas View Avenue 14","oneway":"yes","surface":"asphalt","startNodeId":"4490308137","endNodeId":"5218896889"},"geometry":{"type":"LineString","coordinates":[[103.6230449,1.2751577],[103.6234245,1.2751153]]}},{"type":"Feature","id":"way/545103189-0-1-0","properties":{"highway":"tertiary","lanes":"3","maxspeed":"50","name":"Tuas View Avenue 14","oneway":"yes","surface":"asphalt","startNodeId":"5218896889","endNodeId":"6137339104"},"geometry":{"type":"LineString","coordinates":[[103.6234245,1.2751153],[103.6248788,1.2749512]]}},{"type":"Feature","id":"way/545363434-0-0-0","properties":{"highway":"service","lanes":"2","lanes:backward":"1","lanes:forward":"1","startNodeId":"5218812193","endNodeId":"4606959581"},"geometry":{"type":"LineString","coordinates":[[103.6241197,1.2788218],[103.6248339,1.2787157]]}},{"type":"Feature","id":"way/635730638-0-0-0","properties":{"highway":"tertiary","lanes":"3","maxspeed":"50","name":"Tuas View Avenue 14","oneway":"yes","surface":"asphalt","startNodeId":"4606934121","endNodeId":"5218933411"},"geometry":{"type":"LineString","coordinates":[[103.6214735,1.2753172],[103.6223705,1.2752262]]}},{"type":"Feature","id":"way/635730638-0-1-0","properties":{"highway":"tertiary","lanes":"3","maxspeed":"50","name":"Tuas View Avenue 14","oneway":"yes","surface":"asphalt","startNodeId":"5218933411","endNodeId":"4490308137"},"geometry":{"type":"LineString","coordinates":[[103.6223705,1.2752262],[103.6230449,1.2751577]]}},{"type":"Feature","id":"way/644210897-0-10-0","properties":{"highway":"service","startNodeId":"6059405023","endNodeId":"6059405022"},"geometry":{"type":"LineString","coordinates":[[103.6235082,1.2795273],[103.6235404,1.2794468]]}},{"type":"Feature","id":"way/644210897-0-11-0","properties":{"highway":"service","startNodeId":"6059405022","endNodeId":"6059405021"},"geometry":{"type":"LineString","coordinates":[[103.6235404,1.2794468],[103.6235136,1.2792752]]}},{"type":"Feature","id":"way/644210897-0-12-0","properties":{"highway":"service","startNodeId":"6059405021","endNodeId":"6059405020"},"geometry":{"type":"LineString","coordinates":[[103.6235136,1.2792752],[103.6235028,1.2791196]]}},{"type":"Feature","id":"way/644210897-0-13-0","properties":{"highway":"service","startNodeId":"6059405020","endNodeId":"6537354807"},"geometry":{"type":"LineString","coordinates":[[103.6235028,1.2791196],[103.6234224,1.2790285]]}},{"type":"Feature","id":"way/644210897-0-14-0","properties":{"highway":"service","startNodeId":"6537354807","endNodeId":"6059405019"},"geometry":{"type":"LineString","coordinates":[[103.6234224,1.2790285],[103.6231112,1.2790339]]}},{"type":"Feature","id":"way/644778499-0-0-0","properties":{"highway":"service","lanes":"2","lanes:backward":"1","lanes:forward":"1","surface":"asphalt","turn:lanes:backward":"through","turn:lanes:forward":"through","startNodeId":"4490308156","endNodeId":"4490308158"},"geometry":{"type":"LineString","coordinates":[[103.6232348,1.2768717],[103.6232857,1.2774268]]}},{"type":"Feature","id":"way/644778504-0-0-0","properties":{"highway":"service","lanes":"2","lanes:backward":"1","lanes:forward":"1","turn:lanes:backward":"through","turn:lanes:forward":"through","startNodeId":"5218933413","endNodeId":"4490308138"},"geometry":{"type":"LineString","coordinates":[[103.6223908,1.2754182],[103.623061,1.2753342]]}},{"type":"Feature","id":"way/644778508-0-0-0","properties":{"highway":"service","lanes":"2","lanes:backward":"1","lanes:forward":"1","surface":"asphalt","turn:lanes:backward":"through","turn:lanes:forward":"through","startNodeId":"4490308138","endNodeId":"4490308156"},"geometry":{"type":"LineString","coordinates":[[103.623061,1.2753342],[103.6232348,1.2768717]]}},{"type":"Feature","id":"way/644780673-0-0-0","properties":{"highway":"service","lanes":"2","lanes:backward":"1","lanes:forward":"1","turn:lanes:backward":"through;right","turn:lanes:forward":"through","startNodeId":"4490308157","endNodeId":"6369391766"},"geometry":{"type":"LineString","coordinates":[[103.6219273,1.2770243],[103.621907,1.2768618]]}},{"type":"Feature","id":"way/644813675-0-0-0","properties":{"highway":"service","startNodeId":"5218896887","endNodeId":"5218896888"},"geometry":{"type":"LineString","coordinates":[[103.6234533,1.275374],[103.6235417,1.27617]]}},{"type":"Feature","id":"way/644817857-0-0-0","properties":{"highway":"service","startNodeId":"5218933412","endNodeId":"5218933411"},"geometry":{"type":"LineString","coordinates":[[103.6223833,1.2753476],[103.6223705,1.2752262]]}},{"type":"Feature","id":"way/645334518-0-0-0","properties":{"highway":"service","lanes":"2","lanes:backward":"1","lanes:forward":"1","parking:condition:both:vehicles":"hgv_articulated","parking:lane:both":"perpendicular","surface":"asphalt","turn:lanes:backward":"through;right","turn:lanes:forward":"through","startNodeId":"5218828788","endNodeId":"6972493436"},"geometry":{"type":"LineString","coordinates":[[103.6252167,1.2752315],[103.6252423,1.2754661]]}},{"type":"Feature","id":"way/646362917-0-0-1","properties":{"highway":"service","lanes":"2","lanes:backward":"1","lanes:forward":"1","turn:lanes:backward":"through","turn:lanes:forward":"through","startNodeId":"way/646362917-0:0:1","endNodeId":"4606959581"},"geometry":{"type":"LineString","coordinates":[[103.626088,1.2785176],[103.6248339,1.2787157]]}},{"type":"Feature","id":"way/649818051-0-0-0","properties":{"highway":"service","lanes":"2","lanes:backward":"1","lanes:forward":"1","startNodeId":"6098205104","endNodeId":"6098220717"},"geometry":{"type":"LineString","coordinates":[[103.6221379,1.2769997],[103.6223041,1.2769803]]}},{"type":"Feature","id":"way/649818053-0-0-0","properties":{"highway":"service","lanes":"2","lanes:backward":"1","lanes:forward":"1","turn:lanes:backward":"through","turn:lanes:forward":"left;right","startNodeId":"6098205103","endNodeId":"4490308156"},"geometry":{"type":"LineString","coordinates":[[103.6230536,1.2768903],[103.6232348,1.2768717]]}},{"type":"Feature","id":"way/649819098-0-0-0","properties":{"highway":"service","lanes":"2","lanes:backward":"1","lanes:forward":"1","turn:lanes:backward":"through","turn:lanes:forward":"through;right","startNodeId":"6098220717","endNodeId":"6098220720"},"geometry":{"type":"LineString","coordinates":[[103.6223041,1.2769803],[103.6224692,1.2769611]]}},{"type":"Feature","id":"way/649819099-0-0-0","properties":{"highway":"service","lanes":"2","lanes:backward":"1","lanes:forward":"1","turn:lanes:backward":"through","turn:lanes:forward":"through","startNodeId":"6098220718","endNodeId":"6098205103"},"geometry":{"type":"LineString","coordinates":[[103.6227519,1.2769257],[103.6230536,1.2768903]]}},{"type":"Feature","id":"way/649819100-0-0-0","properties":{"highway":"service","lanes":"2","lanes:backward":"1","lanes:forward":"1","turn:lanes:backward":"left;through","turn:lanes:forward":"through","startNodeId":"6098220719","endNodeId":"6098220718"},"geometry":{"type":"LineString","coordinates":[[103.6226212,1.2769433],[103.6227519,1.2769257]]}},{"type":"Feature","id":"way/649819101-0-0-0","properties":{"highway":"service","lanes":"2","lanes:backward":"1","lanes:forward":"1","turn:lanes:backward":"left;through","turn:lanes:forward":"through","startNodeId":"6098220720","endNodeId":"6098220719"},"geometry":{"type":"LineString","coordinates":[[103.6224692,1.2769611],[103.6226212,1.2769433]]}},{"type":"Feature","id":"way/680253329-0-0-0","properties":{"highway":"service","lanes":"2","lanes:backward":"1","lanes:forward":"1","turn:lanes:backward":"through","turn:lanes:forward":"through","startNodeId":"6369391766","endNodeId":"4490308155"},"geometry":{"type":"LineString","coordinates":[[103.621907,1.2768618],[103.6218741,1.2766576]]}},{"type":"Feature","id":"way/681414339-0-0-0","properties":{"highway":"service","lanes":"1","oneway":"yes","turn:lanes":"right","startNodeId":"6381209012","endNodeId":"4490308162"},"geometry":{"type":"LineString","coordinates":[[103.6219472,1.2773539],[103.6219592,1.2775265]]}},{"type":"Feature","id":"way/744596069-0-0-0","properties":{"highway":"tertiary","lanes":"3","maxspeed":"50","name":"Tuas View Avenue 14","oneway":"yes","surface":"asphalt","turn:lanes":"through|through|through","startNodeId":"6968819125","endNodeId":"4715365576"},"geometry":{"type":"LineString","coordinates":[[103.6221202,1.2751094],[103.6220124,1.2751218]]}},{"type":"Feature","id":"way/744894357-0-0-0","properties":{"highway":"service","lanes":"2","lanes:backward":"1","lanes:forward":"1","parking:condition:both:vehicles":"hgv_articulated","parking:lane:both":"perpendicular","turn:lanes:backward":"through","turn:lanes:forward":"through","startNodeId":"6972493431","endNodeId":"6972493432"},"geometry":{"type":"LineString","coordinates":[[103.6250009,1.2752542],[103.6248171,1.2752743]]}},{"type":"Feature","id":"way/744894358-0-0-0","properties":{"highway":"service","lanes":"2","lanes:backward":"1","lanes:forward":"1","parking:condition:both:vehicles":"hgv_articulated","parking:lane:both":"perpendicular","turn:lanes:backward":"through","turn:lanes:forward":"right","startNodeId":"6972493432","endNodeId":"5218828787"},"geometry":{"type":"LineString","coordinates":[[103.6248171,1.2752743],[103.6246535,1.2752891]]}},{"type":"Feature","id":"way/744894359-0-0-0","properties":{"highway":"service","lanes":"2","lanes:backward":"1","lanes:forward":"1","parking:condition:both:vehicles":"hgv_articulated","parking:lane:both":"perpendicular","turn:lanes:backward":"left;right","turn:lanes:forward":"through","startNodeId":"5218828788","endNodeId":"6972493431"},"geometry":{"type":"LineString","coordinates":[[103.6252167,1.2752315],[103.6250009,1.2752542]]}},{"type":"Feature","id":"way/744894360-0-0-0","properties":{"highway":"service","lanes":"2","lanes:backward":"1","lanes:forward":"1","parking:condition:both:vehicles":"hgv_articulated","parking:lane:both":"perpendicular","turn:lanes:backward":"through","turn:lanes:forward":"right","startNodeId":"6972493433","endNodeId":"5218828783"},"geometry":{"type":"LineString","coordinates":[[103.6246173,1.2755626],[103.624639,1.27574]]}},{"type":"Feature","id":"way/744894361-0-0-0","properties":{"highway":"service","lanes":"2","lanes:backward":"1","lanes:forward":"1","parking:condition:both:vehicles":"hgv_articulated","parking:lane:both":"perpendicular","startNodeId":"5218828783","endNodeId":"5218828782"},"geometry":{"type":"LineString","coordinates":[[103.624639,1.27574],[103.6246672,1.2757768]]}},{"type":"Feature","id":"way/744894361-0-1-0","properties":{"highway":"service","lanes":"2","lanes:backward":"1","lanes:forward":"1","parking:condition:both:vehicles":"hgv_articulated","parking:lane:both":"perpendicular","startNodeId":"5218828782","endNodeId":"5218828781"},"geometry":{"type":"LineString","coordinates":[[103.6246672,1.2757768],[103.6246921,1.27579]]}},{"type":"Feature","id":"way/744894361-0-2-0","properties":{"highway":"service","lanes":"2","lanes:backward":"1","lanes:forward":"1","parking:condition:both:vehicles":"hgv_articulated","parking:lane:both":"perpendicular","startNodeId":"5218828781","endNodeId":"5218828780"},"geometry":{"type":"LineString","coordinates":[[103.6246921,1.27579],[103.6247364,1.275793]]}},{"type":"Feature","id":"way/744894362-0-0-0","properties":{"highway":"service","lanes":"2","lanes:backward":"1","lanes:forward":"1","parking:condition:both:vehicles":"hgv_articulated","parking:lane:both":"perpendicular","turn:lanes:backward":"left","turn:lanes:forward":"through","startNodeId":"5218828784","endNodeId":"6972493433"},"geometry":{"type":"LineString","coordinates":[[103.6245986,1.2753655],[103.6246173,1.2755626]]}},{"type":"Feature","id":"way/744894363-0-0-0","properties":{"highway":"service","lanes":"2","lanes:backward":"1","lanes:forward":"1","parking:condition:both:vehicles":"hgv_articulated","parking:lane:both":"perpendicular","turn:lanes:backward":"through","turn:lanes:forward":"right","startNodeId":"6972493435","endNodeId":"5218828779"},"geometry":{"type":"LineString","coordinates":[[103.6250518,1.275761],[103.625194,1.2757448]]}},{"type":"Feature","id":"way/744894364-0-0-0","properties":{"highway":"service","lanes":"2","lanes:backward":"1","lanes:forward":"1","parking:condition:both:vehicles":"hgv_articulated","parking:lane:both":"perpendicular","turn:lanes:backward":"through","turn:lanes:forward":"through","startNodeId":"6972493434","endNodeId":"6972493435"},"geometry":{"type":"LineString","coordinates":[[103.6248761,1.2757771],[103.6250518,1.275761]]}},{"type":"Feature","id":"way/744894365-0-0-0","properties":{"highway":"service","lanes":"2","lanes:backward":"1","lanes:forward":"1","parking:condition:both:vehicles":"hgv_articulated","parking:lane:both":"perpendicular","turn:lanes:backward":"left","turn:lanes:forward":"through","startNodeId":"5218828780","endNodeId":"6972493434"},"geometry":{"type":"LineString","coordinates":[[103.6247364,1.275793],[103.6248761,1.2757771]]}},{"type":"Feature","id":"way/744894366-0-0-0","properties":{"highway":"service","lanes":"2","lanes:backward":"1","lanes:forward":"1","parking:condition:both:vehicles":"hgv_articulated","parking:lane:both":"perpendicular","startNodeId":"5218828779","endNodeId":"5218828778"},"geometry":{"type":"LineString","coordinates":[[103.625194,1.2757448],[103.6252356,1.2757289]]}},{"type":"Feature","id":"way/744894366-0-1-0","properties":{"highway":"service","lanes":"2","lanes:backward":"1","lanes:forward":"1","parking:condition:both:vehicles":"hgv_articulated","parking:lane:both":"perpendicular","startNodeId":"5218828778","endNodeId":"5218828777"},"geometry":{"type":"LineString","coordinates":[[103.6252356,1.2757289],[103.6252556,1.2757087]]}},{"type":"Feature","id":"way/744894366-0-2-0","properties":{"highway":"service","lanes":"2","lanes:backward":"1","lanes:forward":"1","parking:condition:both:vehicles":"hgv_articulated","parking:lane:both":"perpendicular","startNodeId":"5218828777","endNodeId":"4606908258"},"geometry":{"type":"LineString","coordinates":[[103.6252556,1.2757087],[103.62527,1.2756746]]}},{"type":"Feature","id":"way/744894367-0-0-0","properties":{"highway":"service","lanes":"2","lanes:backward":"1","lanes:forward":"1","parking:condition:both:vehicles":"hgv_articulated","parking:lane:both":"perpendicular","surface":"asphalt","turn:lanes:backward":"through","turn:lanes:forward":"left","startNodeId":"6972493436","endNodeId":"4606908258"},"geometry":{"type":"LineString","coordinates":[[103.6252423,1.2754661],[103.62527,1.2756746]]}},{"type":"Feature","id":"way/744961898-0-0-0","properties":{"highway":"service","lanes":"2","lanes:backward":"1","lanes:forward":"1","startNodeId":"4490308158","endNodeId":"6973932875"},"geometry":{"type":"LineString","coordinates":[[103.6232857,1.2774268],[103.6226687,1.277492]]}}]}