{"type":"FeatureCollection","features":[{"type":"Feature","id":"way/1005320519-0-3-2","properties":{"bicycle":"no","highway":"secondary","name":"Tuas South Boulevard","oneway":"yes","startNodeId":"way/1005320519-0:3:2","endNodeId":"9275480579"},"geometry":{"type":"LineString","coordinates":[[103.6149185,1.2300162],[103.6148971,1.2284765]]}},{"type":"Feature","id":"way/1005320519-0-4-0","properties":{"bicycle":"no","highway":"secondary","name":"Tuas South Boulevard","oneway":"yes","startNodeId":"9275480579","endNodeId":"9275480580"},"geometry":{"type":"LineString","coordinates":[[103.6148971,1.2284765],[103.6148767,1.2272846]]}},{"type":"Feature","id":"way/1005320519-0-5-0","properties":{"bicycle":"no","highway":"secondary","name":"Tuas South Boulevard","oneway":"yes","startNodeId":"9275480580","endNodeId":"way/1005320519-0:5:1"},"geometry":{"type":"LineString","coordinates":[[103.6148767,1.2272846],[103.6148596,1.2262471]]}},{"type":"Feature","id":"way/1005320519-0-5-1","properties":{"bicycle":"no","highway":"secondary","name":"Tuas South Boulevard","oneway":"yes","startNodeId":"way/1005320519-0:5:1","endNodeId":"9275480581"},"geometry":{"type":"LineString","coordinates":[[103.6148596,1.2262471],[103.6148426,1.2252097]]}},{"type":"Feature","id":"way/1005320520-0-1-0","properties":{"bicycle":"no","highway":"secondary","name":"Tuas South Boulevard","oneway":"yes","startNodeId":"9275480585","endNodeId":"way/1005320520-0:1:1"},"geometry":{"type":"LineString","coordinates":[[103.6148097,1.2258275],[103.6148242,1.2268912]]}},{"type":"Feature","id":"way/1005320520-0-1-1","properties":{"bicycle":"no","highway":"secondary","name":"Tuas South Boulevard","oneway":"yes","startNodeId":"way/1005320520-0:1:1","endNodeId":"9275480584"},"geometry":{"type":"LineString","coordinates":[[103.6148242,1.2268912],[103.6148388,1.2279549]]}},{"type":"Feature","id":"way/1005320520-0-2-0","properties":{"bicycle":"no","highway":"secondary","name":"Tuas South Boulevard","oneway":"yes","startNodeId":"9275480584","endNodeId":"way/1005320520-0:2:1"},"geometry":{"type":"LineString","coordinates":[[103.6148388,1.2279549],[103.6148577,1.2292502]]}},{"type":"Feature","id":"way/1005320520-0-2-1","properties":{"bicycle":"no","highway":"secondary","name":"Tuas South Boulevard","oneway":"yes","startNodeId":"way/1005320520-0:2:1","endNodeId":"9275480583"},"geometry":{"type":"LineString","coordinates":[[103.6148577,1.2292502],[103.6148767,1.2305456]]}}]}