{"type":"FeatureCollection","features":[{"type":"Feature","id":"way/465779421-0-0-0","properties":{"bicycle":"no","highway":"service","startNodeId":"4488743856","endNodeId":"4606995006"},"geometry":{"type":"LineString","coordinates":[[103.6174462,1.2772834],[103.6165304,1.2776562]]}},{"type":"Feature","id":"way/646320152-0-0-0","properties":{"bicycle":"no","highway":"service","startNodeId":"4606995006","endNodeId":"4606995054"},"geometry":{"type":"LineString","coordinates":[[103.6165304,1.2776562],[103.6162294,1.2777801]]}},{"type":"Feature","id":"way/646320152-0-1-0","properties":{"bicycle":"no","highway":"service","startNodeId":"4606995054","endNodeId":"4606995053"},"geometry":{"type":"LineString","coordinates":[[103.6162294,1.2777801],[103.6159871,1.2778583]]}},{"type":"Feature","id":"way/646320152-0-2-0","properties":{"bicycle":"no","highway":"service","startNodeId":"4606995053","endNodeId":"4606995052"},"geometry":{"type":"LineString","coordinates":[[103.6159871,1.2778583],[103.615657,1.2779166]]}},{"type":"Feature","id":"way/646320152-0-3-0","properties":{"bicycle":"no","highway":"service","startNodeId":"4606995052","endNodeId":"4606995051"},"geometry":{"type":"LineString","coordinates":[[103.615657,1.2779166],[103.6154833,1.2779802]]}},{"type":"Feature","id":"way/646320152-0-4-0","properties":{"bicycle":"no","highway":"service","startNodeId":"4606995051","endNodeId":"4606995050"},"geometry":{"type":"LineString","coordinates":[[103.6154833,1.2779802],[103.615363,1.278024]]}},{"type":"Feature","id":"way/646320152-0-5-0","properties":{"bicycle":"no","highway":"service","startNodeId":"4606995050","endNodeId":"4606995049"},"geometry":{"type":"LineString","coordinates":[[103.615363,1.278024],[103.6153101,1.2781508]]}},{"type":"Feature","id":"way/646320152-0-6-0","properties":{"bicycle":"no","highway":"service","startNodeId":"4606995049","endNodeId":"4606995048"},"geometry":{"type":"LineString","coordinates":[[103.6153101,1.2781508],[103.61537,1.2782495]]}},{"type":"Feature","id":"way/646320152-0-7-0","properties":{"bicycle":"no","highway":"service","startNodeId":"4606995048","endNodeId":"4606995047"},"geometry":{"type":"LineString","coordinates":[[103.61537,1.2782495],[103.6156238,1.2784847]]}},{"type":"Feature","id":"way/646320152-0-8-0","properties":{"bicycle":"no","highway":"service","startNodeId":"4606995047","endNodeId":"4606995046"},"geometry":{"type":"LineString","coordinates":[[103.6156238,1.2784847],[103.615843,1.278638]]}},{"type":"Feature","id":"way/646320152-0-9-0","properties":{"bicycle":"no","highway":"service","startNodeId":"4606995046","endNodeId":"4606995045"},"geometry":{"type":"LineString","coordinates":[[103.615843,1.278638],[103.6159559,1.2786848]]}},{"type":"Feature","id":"way/1426814371-0-1-1","properties":{"highway":"secondary","startNodeId":"way/1426814371-0:1:1","endNodeId":"13116078086"},"geometry":{"type":"LineString","coordinates":[[103.6134605,1.2748918],[103.613891,1.276008]]}},{"type":"Feature","id":"way/1426814371-0-2-0","properties":{"highway":"secondary","startNodeId":"13116078086","endNodeId":"13116078087"},"geometry":{"type":"LineString","coordinates":[[103.613891,1.276008],[103.6142551,1.2765893]]}},{"type":"Feature","id":"way/1426814371-0-3-0","properties":{"highway":"secondary","startNodeId":"13116078087","endNodeId":"13116078088"},"geometry":{"type":"LineString","coordinates":[[103.6142551,1.2765893],[103.6147731,1.2769838]]}},{"type":"Feature","id":"way/1426814371-0-4-0","properties":{"highway":"secondary","startNodeId":"13116078088","endNodeId":"13116078099"},"geometry":{"type":"LineString","coordinates":[[103.6147731,1.2769838],[103.6155465,1.2774472]]}},{"type":"Feature","id":"way/1426814371-0-5-0","properties":{"highway":"secondary","startNodeId":"13116078099","endNodeId":"13116078089"},"geometry":{"type":"LineString","coordinates":[[103.6155465,1.2774472],[103.6156607,1.2775156]]}},{"type":"Feature","id":"way/1426814372-0-0-0","properties":{"highway":"secondary","name":"Tuas View Avenue 14","oneway":"yes","startNodeId":"13116078089","endNodeId":"13116078092"},"geometry":{"type":"LineString","coordinates":[[103.6156607,1.2775156],[103.6160971,1.2769722]]}},{"type":"Feature","id":"way/1426814372-0-1-0","properties":{"highway":"secondary","name":"Tuas View Avenue 14","oneway":"yes","startNodeId":"13116078092","endNodeId":"13116078090"},"geometry":{"type":"LineString","coordinates":[[103.6160971,1.2769722],[103.6163631,1.2767387]]}},{"type":"Feature","id":"way/1426814372-0-2-0","properties":{"highway":"secondary","name":"Tuas View Avenue 14","oneway":"yes","startNodeId":"13116078090","endNodeId":"13116078091"},"geometry":{"type":"LineString","coordinates":[[103.6163631,1.2767387],[103.616769,1.2765381]]}},{"type":"Feature","id":"way/1426814372-0-3-0","properties":{"highway":"secondary","name":"Tuas View Avenue 14","oneway":"yes","startNodeId":"13116078091","endNodeId":"13116078100"},"geometry":{"type":"LineString","coordinates":[[103.616769,1.2765381],[103.6176624,1.2762051]]}},{"type":"Feature","id":"way/1426814373-0-2-0","properties":{"highway":"secondary","name":"Tuas View Avenue 14","oneway":"yes","startNodeId":"13116098408","endNodeId":"13116078095"},"geometry":{"type":"LineString","coordinates":[[103.6175765,1.2760529],[103.6165708,1.2764434]]}},{"type":"Feature","id":"way/1426814373-0-3-0","properties":{"highway":"secondary","name":"Tuas View Avenue 14","oneway":"yes","startNodeId":"13116078095","endNodeId":"13116078096"},"geometry":{"type":"LineString","coordinates":[[103.6165708,1.2764434],[103.6162582,1.2766482]]}},{"type":"Feature","id":"way/1426814373-0-4-0","properties":{"highway":"secondary","name":"Tuas View Avenue 14","oneway":"yes","startNodeId":"13116078096","endNodeId":"13116078097"},"geometry":{"type":"LineString","coordinates":[[103.6162582,1.2766482],[103.6160183,1.27685]]}},{"type":"Feature","id":"way/1426814373-0-5-0","properties":{"highway":"secondary","name":"Tuas View Avenue 14","oneway":"yes","startNodeId":"13116078097","endNodeId":"13116078098"},"geometry":{"type":"LineString","coordinates":[[103.6160183,1.27685],[103.6157903,1.2770862]]}},{"type":"Feature","id":"way/1426814373-0-6-0","properties":{"highway":"secondary","name":"Tuas View Avenue 14","oneway":"yes","startNodeId":"13116078098","endNodeId":"13116078099"},"geometry":{"type":"LineString","coordinates":[[103.6157903,1.2770862],[103.6155465,1.2774472]]}},{"type":"Feature","id":"way/1426814378-0-0-0","properties":{"highway":"secondary","startNodeId":"13116078087","endNodeId":"13116098444"},"geometry":{"type":"LineString","coordinates":[[103.6142551,1.2765893],[103.6134901,1.277467]]}},{"type":"Feature","id":"way/1552472420-0-0-0","properties":{"highway":"secondary","oneway":"yes","startNodeId":"13116078096","endNodeId":"14124408554"},"geometry":{"type":"LineString","coordinates":[[103.6162582,1.2766482],[103.6162307,1.2767181]]}},{"type":"Feature","id":"way/1552472420-0-1-0","properties":{"highway":"secondary","oneway":"yes","startNodeId":"14124408554","endNodeId":"14124408555"},"geometry":{"type":"LineString","coordinates":[[103.6162307,1.2767181],[103.6162531,1.2767534]]}},{"type":"Feature","id":"way/1552472420-0-2-0","properties":{"highway":"secondary","oneway":"yes","startNodeId":"14124408555","endNodeId":"14124408556"},"geometry":{"type":"LineString","coordinates":[[103.6162531,1.2767534],[103.6162929,1.2767631]]}},{"type":"Feature","id":"way/1552472420-0-3-0","properties":{"highway":"secondary","oneway":"yes","startNodeId":"14124408556","endNodeId":"13116078090"},"geometry":{"type":"LineString","coordinates":[[103.6162929,1.2767631],[103.6163631,1.2767387]]}}]}