{"type":"FeatureCollection","features":[{"type":"Feature","id":"way/455075460-0","properties":{"building":"yes"},"geometry":{"type":"Polygon","coordinates":[[[103.8325352,1.3958206],[103.8325745,1.3958805],[103.8327154,1.395788],[103.832676,1.3957281],[103.8325352,1.3958206]]]}},{"type":"Feature","id":"way/22789070-0-0-0","properties":{"destination:ref":"SLE","destination:ref:to":"CTE;TPE","highway":"motorway_link","lanes":"2","lit":"yes","maxspeed":"50","oneway":"yes","source":"Yahoo aerial images","surface":"asphalt"},"geometry":{"type":"LineString","coordinates":[[103.8307333,1.3964178],[103.831152,1.3961413]]}},{"type":"Feature","id":"way/22789070-0-1-0","properties":{"destination:ref":"SLE","destination:ref:to":"CTE;TPE","highway":"motorway_link","lanes":"2","lit":"yes","maxspeed":"50","oneway":"yes","source":"Yahoo aerial images","surface":"asphalt"},"geometry":{"type":"LineString","coordinates":[[103.831152,1.3961413],[103.8313744,1.3960044]]}},{"type":"Feature","id":"way/22789070-0-2-0","properties":{"destination:ref":"SLE","destination:ref:to":"CTE;TPE","highway":"motorway_link","lanes":"2","lit":"yes","maxspeed":"50","oneway":"yes","source":"Yahoo aerial images","surface":"asphalt"},"geometry":{"type":"LineString","coordinates":[[103.8313744,1.3960044],[103.8318325,1.3957256]]}},{"type":"Feature","id":"way/37583811-0-0-0","properties":{"destination":"Lentor Avenue","highway":"motorway_link","lanes":"2","maxspeed":"50","name":"Seletar Expressway","oneway":"yes"},"geometry":{"type":"LineString","coordinates":[[103.8303023,1.3934894],[103.830381,1.3935632]]}},{"type":"Feature","id":"way/37583811-0-1-0","properties":{"destination":"Lentor Avenue","highway":"motorway_link","lanes":"2","maxspeed":"50","name":"Seletar Expressway","oneway":"yes"},"geometry":{"type":"LineString","coordinates":[[103.830381,1.3935632],[103.8304108,1.393582]]}},{"type":"Feature","id":"way/37583811-0-2-0","properties":{"destination":"Lentor Avenue","highway":"motorway_link","lanes":"2","maxspeed":"50","name":"Seletar Expressway","oneway":"yes"},"geometry":{"type":"LineString","coordinates":[[103.8304108,1.393582],[103.8304366,1.3935934]]}},{"type":"Feature","id":"way/37583811-0-3-0","properties":{"destination":"Lentor Avenue","highway":"motorway_link","lanes":"2","maxspeed":"50","name":"Seletar Expressway","oneway":"yes"},"geometry":{"type":"LineString","coordinates":[[103.8304366,1.3935934],[103.8304749,1.3936072]]}},{"type":"Feature","id":"way/37583811-0-4-0","properties":{"destination":"Lentor Avenue","highway":"motorway_link","lanes":"2","maxspeed":"50","name":"Seletar Expressway","oneway":"yes"},"geometry":{"type":"LineString","coordinates":[[103.8304749,1.3936072],[103.8308028,1.3937181]]}},{"type":"Feature","id":"way/37583811-0-5-0","properties":{"destination":"Lentor Avenue","highway":"motorway_link","lanes":"2","maxspeed":"50","name":"Seletar Expressway","oneway":"yes"},"geometry":{"type":"LineString","coordinates":[[103.8308028,1.3937181],[103.8308933,1.3937519]]}},{"type":"Feature","id":"way/37583811-0-6-0","properties":{"destination":"Lentor Avenue","highway":"motorway_link","lanes":"2","maxspeed":"50","name":"Seletar Expressway","oneway":"yes"},"geometry":{"type":"LineString","coordinates":[[103.8308933,1.3937519],[103.8315028,1.3939483]]}},{"type":"Feature","id":"way/37583811-0-7-0","properties":{"destination":"Lentor Avenue","highway":"motorway_link","lanes":"2","maxspeed":"50","name":"Seletar Expressway","oneway":"yes"},"geometry":{"type":"LineString","coordinates":[[103.8315028,1.3939483],[103.8320018,1.3941198]]}},{"type":"Feature","id":"way/37583811-0-8-0","properties":{"destination":"Lentor Avenue","highway":"motorway_link","lanes":"2","maxspeed":"50","name":"Seletar Expressway","oneway":"yes"},"geometry":{"type":"LineString","coordinates":[[103.8320018,1.3941198],[103.8322679,1.3942042]]}},{"type":"Feature","id":"way/37583812-0-0-0","properties":{"destination":"Lentor Avenue;Yishun","highway":"motorway_link","lanes":"1","maxspeed":"50","oneway":"yes"},"geometry":{"type":"LineString","coordinates":[[103.8324282,1.3942528],[103.8325034,1.394326]]}},{"type":"Feature","id":"way/37583812-0-1-0","properties":{"destination":"Lentor Avenue;Yishun","highway":"motorway_link","lanes":"1","maxspeed":"50","oneway":"yes"},"geometry":{"type":"LineString","coordinates":[[103.8325034,1.394326],[103.8325687,1.3944041]]}},{"type":"Feature","id":"way/37583812-0-2-0","properties":{"destination":"Lentor Avenue;Yishun","highway":"motorway_link","lanes":"1","maxspeed":"50","oneway":"yes"},"geometry":{"type":"LineString","coordinates":[[103.8325687,1.3944041],[103.8325987,1.3944459]]}},{"type":"Feature","id":"way/37583812-0-3-0","properties":{"destination":"Lentor Avenue;Yishun","highway":"motorway_link","lanes":"1","maxspeed":"50","oneway":"yes"},"geometry":{"type":"LineString","coordinates":[[103.8325987,1.3944459],[103.8326221,1.3945104]]}},{"type":"Feature","id":"way/37583812-0-4-0","properties":{"destination":"Lentor Avenue;Yishun","highway":"motorway_link","lanes":"1","maxspeed":"50","oneway":"yes"},"geometry":{"type":"LineString","coordinates":[[103.8326221,1.3945104],[103.8326334,1.3945722]]}},{"type":"Feature","id":"way/37583812-0-5-0","properties":{"destination":"Lentor Avenue;Yishun","highway":"motorway_link","lanes":"1","maxspeed":"50","oneway":"yes"},"geometry":{"type":"LineString","coordinates":[[103.8326334,1.3945722],[103.832627,1.3946334]]}},{"type":"Feature","id":"way/37583812-0-6-0","properties":{"destination":"Lentor Avenue;Yishun","highway":"motorway_link","lanes":"1","maxspeed":"50","oneway":"yes"},"geometry":{"type":"LineString","coordinates":[[103.832627,1.3946334],[103.8326081,1.3946892]]}},{"type":"Feature","id":"way/37583812-0-7-0","properties":{"destination":"Lentor Avenue;Yishun","highway":"motorway_link","lanes":"1","maxspeed":"50","oneway":"yes"},"geometry":{"type":"LineString","coordinates":[[103.8326081,1.3946892],[103.83258,1.3947347]]}},{"type":"Feature","id":"way/37583812-0-8-0","properties":{"destination":"Lentor Avenue;Yishun","highway":"motorway_link","lanes":"1","maxspeed":"50","oneway":"yes"},"geometry":{"type":"LineString","coordinates":[[103.83258,1.3947347],[103.8325511,1.3947722]]}},{"type":"Feature","id":"way/37583812-0-9-0","properties":{"destination":"Lentor Avenue;Yishun","highway":"motorway_link","lanes":"1","maxspeed":"50","oneway":"yes"},"geometry":{"type":"LineString","coordinates":[[103.8325511,1.3947722],[103.8325067,1.3948103]]}},{"type":"Feature","id":"way/37583813-0-14-0","properties":{"bridge":"yes","destination":"Lentor Avenue;Yishun","highway":"motorway_link","lanes":"2","layer":"1","maxspeed":"50","name":"Lentor Interchange","name:zh":"\u4f26\u591a\u7acb\u4ea4","oneway":"yes","source":"Yahoo aerial images"},"geometry":{"type":"LineString","coordinates":[[103.8329643,1.3934034],[103.8328303,1.3934724]]}},{"type":"Feature","id":"way/37583813-0-15-0","properties":{"bridge":"yes","destination":"Lentor Avenue;Yishun","highway":"motorway_link","lanes":"2","layer":"1","maxspeed":"50","name":"Lentor Interchange","name:zh":"\u4f26\u591a\u7acb\u4ea4","oneway":"yes","source":"Yahoo aerial images"},"geometry":{"type":"LineString","coordinates":[[103.8328303,1.3934724],[103.8326887,1.3935524]]}},{"type":"Feature","id":"way/37583813-0-16-0","properties":{"bridge":"yes","destination":"Lentor Avenue;Yishun","highway":"motorway_link","lanes":"2","layer":"1","maxspeed":"50","name":"Lentor Interchange","name:zh":"\u4f26\u591a\u7acb\u4ea4","oneway":"yes","source":"Yahoo aerial images"},"geometry":{"type":"LineString","coordinates":[[103.8326887,1.3935524],[103.832533,1.3936589]]}},{"type":"Feature","id":"way/37583813-0-17-0","properties":{"bridge":"yes","destination":"Lentor Avenue;Yishun","highway":"motorway_link","lanes":"2","layer":"1","maxspeed":"50","name":"Lentor Interchange","name:zh":"\u4f26\u591a\u7acb\u4ea4","oneway":"yes","source":"Yahoo aerial images"},"geometry":{"type":"LineString","coordinates":[[103.832533,1.3936589],[103.8324233,1.3937616]]}},{"type":"Feature","id":"way/37583817-0-0-2","properties":{"bridge":"yes","highway":"motorway","lanes":"4","layer":"1","maxheight":"4.5","maxspeed":"90","name":"Seletar Expressway","name:ms":"Lebuhraya Seletar","name:ta":"\u0b9a\u0bc6\u0bb2\u0bc7\u0ba4\u0bcd\u0ba4\u0bbe\u0bb0\u0bcd \u0bb5\u0bbf\u0bb0\u0bc8\u0bb5\u0bc1\u0b9a\u0bcd\u0b9a\u0bbe\u0bb2\u0bc8","name:zh":"\u5b9e\u91cc\u8fbe\u9ad8\u901f\u516c\u8def","oneway":"yes","ref":"SLE","ref:ta":"\u0b8e\u0bb8\u0bcd\u0b8e\u0bb2\u0bcd\u0b87","short_name:ta":"\u0b8e\u0bb8\u0bcd\u0b8e\u0bb2\u0bcd\u0b87","surface":"asphalt","wikidata":"Q1575163","wikipedia":"en:Seletar Expressway"},"geometry":{"type":"LineString","coordinates":[[103.8331376,1.3940316],[103.8317813,1.3936906]]}},{"type":"Feature","id":"way/37583818-0-0-0","properties":{"highway":"motorway","lanes":"4","maxspeed":"90","name":"Seletar Expressway","name:ms":"Lebuhraya Seletar","name:ta":"\u0b9a\u0bc6\u0bb2\u0bc7\u0ba4\u0bcd\u0ba4\u0bbe\u0bb0\u0bcd \u0bb5\u0bbf\u0bb0\u0bc8\u0bb5\u0bc1\u0b9a\u0bcd\u0b9a\u0bbe\u0bb2\u0bc8","name:zh":"\u5b9e\u91cc\u8fbe\u9ad8\u901f\u516c\u8def","oneway":"yes","ref":"SLE","ref:ta":"\u0b8e\u0bb8\u0bcd\u0b8e\u0bb2\u0bcd\u0b87","short_name:ta":"\u0b8e\u0bb8\u0bcd\u0b8e\u0bb2\u0bcd\u0b87","surface":"asphalt","wikidata":"Q1575163","wikipedia":"en:Seletar Expressway"},"geometry":{"type":"LineString","coordinates":[[103.8317813,1.3936906],[103.8309532,1.3934466]]}},{"type":"Feature","id":"way/37583818-0-1-0","properties":{"highway":"motorway","lanes":"4","maxspeed":"90","name":"Seletar Expressway","name:ms":"Lebuhraya Seletar","name:ta":"\u0b9a\u0bc6\u0bb2\u0bc7\u0ba4\u0bcd\u0ba4\u0bbe\u0bb0\u0bcd \u0bb5\u0bbf\u0bb0\u0bc8\u0bb5\u0bc1\u0b9a\u0bcd\u0b9a\u0bbe\u0bb2\u0bc8","name:zh":"\u5b9e\u91cc\u8fbe\u9ad8\u901f\u516c\u8def","oneway":"yes","ref":"SLE","ref:ta":"\u0b8e\u0bb8\u0bcd\u0b8e\u0bb2\u0bcd\u0b87","short_name:ta":"\u0b8e\u0bb8\u0bcd\u0b8e\u0bb2\u0bcd\u0b87","surface":"asphalt","wikidata":"Q1575163","wikipedia":"en:Seletar Expressway"},"geometry":{"type":"LineString","coordinates":[[103.8309532,1.3934466],[103.8306432,1.3933697]]}},{"type":"Feature","id":"way/37583818-0-2-0","properties":{"highway":"motorway","lanes":"4","maxspeed":"90","name":"Seletar Expressway","name:ms":"Lebuhraya Seletar","name:ta":"\u0b9a\u0bc6\u0bb2\u0bc7\u0ba4\u0bcd\u0ba4\u0bbe\u0bb0\u0bcd \u0bb5\u0bbf\u0bb0\u0bc8\u0bb5\u0bc1\u0b9a\u0bcd\u0b9a\u0bbe\u0bb2\u0bc8","name:zh":"\u5b9e\u91cc\u8fbe\u9ad8\u901f\u516c\u8def","oneway":"yes","ref":"SLE","ref:ta":"\u0b8e\u0bb8\u0bcd\u0b8e\u0bb2\u0bcd\u0b87","short_name:ta":"\u0b8e\u0bb8\u0bcd\u0b8e\u0bb2\u0bcd\u0b87","surface":"asphalt","wikidata":"Q1575163","wikipedia":"en:Seletar Expressway"},"geometry":{"type":"LineString","coordinates":[[103.8306432,1.3933697],[103.8304391,1.3933149]]}},{"type":"Feature","id":"way/37583819-0-0-0","properties":{"bridge":"yes","highway":"motorway","lanes":"4","layer":"1","maxheight":"4.5","maxspeed":"90","name":"Seletar Expressway","name:ms":"Lebuhraya Seletar","name:ta":"\u0b9a\u0bc6\u0bb2\u0bc7\u0ba4\u0bcd\u0ba4\u0bbe\u0bb0\u0bcd \u0bb5\u0bbf\u0bb0\u0bc8\u0bb5\u0bc1\u0b9a\u0bcd\u0b9a\u0bbe\u0bb2\u0bc8","name:zh":"\u5b9e\u91cc\u8fbe\u9ad8\u901f\u516c\u8def","oneway":"yes","ref":"SLE","ref:ta":"\u0b8e\u0bb8\u0bcd\u0b8e\u0bb2\u0bcd\u0b87","short_name:ta":"\u0b8e\u0bb8\u0bcd\u0b8e\u0bb2\u0bcd\u0b87","surface":"asphalt","wikidata":"Q1575163","wikipedia":"en:Seletar Expressway"},"geometry":{"type":"LineString","coordinates":[[103.8317275,1.3938371],[103.833091,1.3941799]]}},{"type":"Feature","id":"way/37583821-0-0-0","properties":{"highway":"service","lanes":"2","lanes:backward":"1","lanes:forward":"1","maxspeed":"50","name":"Lower Seletar Close","surface":"asphalt","turn:lanes:backward":"through","turn:lanes:forward":"through"},"geometry":{"type":"LineString","coordinates":[[103.8321651,1.396165],[103.8321525,1.3962648]]}},{"type":"Feature","id":"way/37583822-0-0-0","properties":{"bridge":"viaduct","destination:ref":"SLE","destination:ref:to":"CTE;TPE","highway":"motorway_link","lanes":"2","layer":"1","maxspeed":"50","oneway":"yes","source":"Yahoo aerial images","surface":"asphalt"},"geometry":{"type":"LineString","coordinates":[[103.8321057,1.3955594],[103.8328799,1.3950705]]}},{"type":"Feature","id":"way/75616377-0-0-0","properties":{"bicycle":"no","highway":"primary","lanes":"2","lit":"yes","maxspeed":"70","name":"Lentor Avenue","name:zh":"\u4f26\u591a\u9053","note":"Lentor Avenue should be a motorway_link as it links to Seletar Expressway (SLE) (Note migrated from point feature added in changeset https://www.openstreetmap.org/changeset/112146144)","oneway":"yes","surface":"asphalt"},"geometry":{"type":"LineString","coordinates":[[103.8307333,1.3964178],[103.8311295,1.3960909]]}},{"type":"Feature","id":"way/75616377-0-1-0","properties":{"bicycle":"no","highway":"primary","lanes":"2","lit":"yes","maxspeed":"70","name":"Lentor Avenue","name:zh":"\u4f26\u591a\u9053","note":"Lentor Avenue should be a motorway_link as it links to Seletar Expressway (SLE) (Note migrated from point feature added in changeset https://www.openstreetmap.org/changeset/112146144)","oneway":"yes","surface":"asphalt"},"geometry":{"type":"LineString","coordinates":[[103.8311295,1.3960909],[103.8316155,1.3957925]]}},{"type":"Feature","id":"way/75616377-0-2-0","properties":{"bicycle":"no","highway":"primary","lanes":"2","lit":"yes","maxspeed":"70","name":"Lentor Avenue","name:zh":"\u4f26\u591a\u9053","note":"Lentor Avenue should be a motorway_link as it links to Seletar Expressway (SLE) (Note migrated from point feature added in changeset https://www.openstreetmap.org/changeset/112146144)","oneway":"yes","surface":"asphalt"},"geometry":{"type":"LineString","coordinates":[[103.8316155,1.3957925],[103.831796,1.3956793]]}},{"type":"Feature","id":"way/479788161-0-0-0","properties":{"bicycle":"no","highway":"primary","lanes":"2","maxspeed":"70","name":"Lentor Avenue","name:zh":"\u4f26\u591a\u9053","oneway":"yes","surface":"asphalt"},"geometry":{"type":"LineString","coordinates":[[103.83148,1.3952255],[103.8313854,1.3952878]]}},{"type":"Feature","id":"way/479788161-0-1-0","properties":{"bicycle":"no","highway":"primary","lanes":"2","maxspeed":"70","name":"Lentor Avenue","name:zh":"\u4f26\u591a\u9053","oneway":"yes","surface":"asphalt"},"geometry":{"type":"LineString","coordinates":[[103.8313854,1.3952878],[103.8310763,1.395487]]}},{"type":"Feature","id":"way/479788161-0-2-0","properties":{"bicycle":"no","highway":"primary","lanes":"2","maxspeed":"70","name":"Lentor Avenue","name:zh":"\u4f26\u591a\u9053","oneway":"yes","surface":"asphalt"},"geometry":{"type":"LineString","coordinates":[[103.8310763,1.395487],[103.8308784,1.3956242]]}},{"type":"Feature","id":"way/479788161-0-3-0","properties":{"bicycle":"no","highway":"primary","lanes":"2","maxspeed":"70","name":"Lentor Avenue","name:zh":"\u4f26\u591a\u9053","oneway":"yes","surface":"asphalt"},"geometry":{"type":"LineString","coordinates":[[103.8308784,1.3956242],[103.8306834,1.395776]]}},{"type":"Feature","id":"way/479788161-0-4-0","properties":{"bicycle":"no","highway":"primary","lanes":"2","maxspeed":"70","name":"Lentor Avenue","name:zh":"\u4f26\u591a\u9053","oneway":"yes","surface":"asphalt"},"geometry":{"type":"LineString","coordinates":[[103.8306834,1.395776],[103.8305259,1.3959217]]}},{"type":"Feature","id":"way/479788161-0-5-0","properties":{"bicycle":"no","highway":"primary","lanes":"2","maxspeed":"70","name":"Lentor Avenue","name:zh":"\u4f26\u591a\u9053","oneway":"yes","surface":"asphalt"},"geometry":{"type":"LineString","coordinates":[[103.8305259,1.3959217],[103.8303566,1.3960903]]}},{"type":"Feature","id":"way/479788161-0-6-0","properties":{"bicycle":"no","highway":"primary","lanes":"2","maxspeed":"70","name":"Lentor Avenue","name:zh":"\u4f26\u591a\u9053","oneway":"yes","surface":"asphalt"},"geometry":{"type":"LineString","coordinates":[[103.8303566,1.3960903],[103.8301163,1.3963626]]}},{"type":"Feature","id":"way/479789545-0-2-0","properties":{"highway":"motorway_link","lanes":"2","maxheight":"4.5","maxspeed":"50","oneway":"yes","surface":"asphalt"},"geometry":{"type":"LineString","coordinates":[[103.8328174,1.3936697],[103.8322958,1.39362]]}},{"type":"Feature","id":"way/479789545-0-3-0","properties":{"highway":"motorway_link","lanes":"2","maxheight":"4.5","maxspeed":"50","oneway":"yes","surface":"asphalt"},"geometry":{"type":"LineString","coordinates":[[103.8322958,1.39362],[103.8318131,1.3935337]]}},{"type":"Feature","id":"way/479789545-0-4-0","properties":{"highway":"motorway_link","lanes":"2","maxheight":"4.5","maxspeed":"50","oneway":"yes","surface":"asphalt"},"geometry":{"type":"LineString","coordinates":[[103.8318131,1.3935337],[103.8313844,1.3934445]]}},{"type":"Feature","id":"way/479789545-0-5-0","properties":{"highway":"motorway_link","lanes":"2","maxheight":"4.5","maxspeed":"50","oneway":"yes","surface":"asphalt"},"geometry":{"type":"LineString","coordinates":[[103.8313844,1.3934445],[103.8309358,1.3933259]]}},{"type":"Feature","id":"way/479789545-0-6-0","properties":{"highway":"motorway_link","lanes":"2","maxheight":"4.5","maxspeed":"50","oneway":"yes","surface":"asphalt"},"geometry":{"type":"LineString","coordinates":[[103.8309358,1.3933259],[103.8307883,1.3932966]]}},{"type":"Feature","id":"way/479789545-0-7-0","properties":{"highway":"motorway_link","lanes":"2","maxheight":"4.5","maxspeed":"50","oneway":"yes","surface":"asphalt"},"geometry":{"type":"LineString","coordinates":[[103.8307883,1.3932966],[103.8305882,1.393281]]}},{"type":"Feature","id":"way/479789545-0-8-0","properties":{"highway":"motorway_link","lanes":"2","maxheight":"4.5","maxspeed":"50","oneway":"yes","surface":"asphalt"},"geometry":{"type":"LineString","coordinates":[[103.8305882,1.393281],[103.8304391,1.3933149]]}},{"type":"Feature","id":"way/479789547-0-0-0","properties":{"highway":"motorway","lanes":"5","maxspeed":"90","name":"Seletar Expressway","name:ms":"Lebuhraya Seletar","name:ta":"\u0b9a\u0bc6\u0bb2\u0bc7\u0ba4\u0bcd\u0ba4\u0bbe\u0bb0\u0bcd \u0bb5\u0bbf\u0bb0\u0bc8\u0bb5\u0bc1\u0b9a\u0bcd\u0b9a\u0bbe\u0bb2\u0bc8","name:zh":"\u5b9e\u91cc\u8fbe\u9ad8\u901f\u516c\u8def","oneway":"yes","ref":"SLE","ref:ta":"\u0b8e\u0bb8\u0bcd\u0b8e\u0bb2\u0bcd\u0b87","short_name:ta":"\u0b8e\u0bb8\u0bcd\u0b8e\u0bb2\u0bcd\u0b87","surface":"asphalt","wikidata":"Q1575163","wikipedia":"en:Seletar Expressway"},"geometry":{"type":"LineString","coordinates":[[103.8304391,1.3933149],[103.8295422,1.3931477]]}},{"type":"Feature","id":"way/479789547-0-0-1","properties":{"highway":"motorway","lanes":"5","maxspeed":"90","name":"Seletar Expressway","name:ms":"Lebuhraya Seletar","name:ta":"\u0b9a\u0bc6\u0bb2\u0bc7\u0ba4\u0bcd\u0ba4\u0bbe\u0bb0\u0bcd \u0bb5\u0bbf\u0bb0\u0bc8\u0bb5\u0bc1\u0b9a\u0bcd\u0b9a\u0bbe\u0bb2\u0bc8","name:zh":"\u5b9e\u91cc\u8fbe\u9ad8\u901f\u516c\u8def","oneway":"yes","ref":"SLE","ref:ta":"\u0b8e\u0bb8\u0bcd\u0b8e\u0bb2\u0bcd\u0b87","short_name:ta":"\u0b8e\u0bb8\u0bcd\u0b8e\u0bb2\u0bcd\u0b87","surface":"asphalt","wikidata":"Q1575163","wikipedia":"en:Seletar Expressway"},"geometry":{"type":"LineString","coordinates":[[103.8295422,1.3931477],[103.8286453,1.3929805]]}},{"type":"Feature","id":"way/633590185-0-0-0","properties":{"destination":"Lentor Avenue;Yio Chu Kang Road;Ang Mo Kio;City","highway":"motorway_link","lanes":"2","maxspeed":"50","oneway":"yes"},"geometry":{"type":"LineString","coordinates":[[103.8324282,1.3942528],[103.8330826,1.3944313]]}},{"type":"Feature","id":"way/633593798-0-4-0","properties":{"busway:left":"lane","highway":"primary","lanes":"3","lanes:bus":"1","lanes:bus:conditional":"1 @ (Mo-Fr 07:30-09:30,17:00-20:00)","maxspeed":"70","name":"Lentor Avenue","name:zh":"\u4f26\u591a\u9053","oneway":"yes","surface":"asphalt"},"geometry":{"type":"LineString","coordinates":[[103.832975,1.3947058],[103.8328807,1.3947285]]}},{"type":"Feature","id":"way/633593798-0-5-0","properties":{"busway:left":"lane","highway":"primary","lanes":"3","lanes:bus":"1","lanes:bus:conditional":"1 @ (Mo-Fr 07:30-09:30,17:00-20:00)","maxspeed":"70","name":"Lentor Avenue","name:zh":"\u4f26\u591a\u9053","oneway":"yes","surface":"asphalt"},"geometry":{"type":"LineString","coordinates":[[103.8328807,1.3947285],[103.8327497,1.3947578]]}},{"type":"Feature","id":"way/633593798-0-6-0","properties":{"busway:left":"lane","highway":"primary","lanes":"3","lanes:bus":"1","lanes:bus:conditional":"1 @ (Mo-Fr 07:30-09:30,17:00-20:00)","maxspeed":"70","name":"Lentor Avenue","name:zh":"\u4f26\u591a\u9053","oneway":"yes","surface":"asphalt"},"geometry":{"type":"LineString","coordinates":[[103.8327497,1.3947578],[103.8325067,1.3948103]]}},{"type":"Feature","id":"way/635161211-0-0-0","properties":{"highway":"motorway","lanes":"5","maxspeed":"90","name":"Seletar Expressway","name:ms":"Lebuhraya Seletar","name:ta":"\u0b9a\u0bc6\u0bb2\u0bc7\u0ba4\u0bcd\u0ba4\u0bbe\u0bb0\u0bcd \u0bb5\u0bbf\u0bb0\u0bc8\u0bb5\u0bc1\u0b9a\u0bcd\u0b9a\u0bbe\u0bb2\u0bc8","name:zh":"\u5b9e\u91cc\u8fbe\u9ad8\u901f\u516c\u8def","oneway":"yes","ref":"SLE","ref:ta":"\u0b8e\u0bb8\u0bcd\u0b8e\u0bb2\u0bcd\u0b87","short_name:ta":"\u0b8e\u0bb8\u0bcd\u0b8e\u0bb2\u0bcd\u0b87","surface":"asphalt","turn:lanes":"left|left;through|through|through|through","wikidata":"Q1575163","wikipedia":"en:Seletar Expressway"},"geometry":{"type":"LineString","coordinates":[[103.8287723,1.3931979],[103.8303023,1.3934894]]}},{"type":"Feature","id":"way/635161212-0-0-0","properties":{"highway":"motorway","lanes":"4","maxspeed":"90","name":"Seletar Expressway","name:ms":"Lebuhraya Seletar","name:ta":"\u0b9a\u0bc6\u0bb2\u0bc7\u0ba4\u0bcd\u0ba4\u0bbe\u0bb0\u0bcd \u0bb5\u0bbf\u0bb0\u0bc8\u0bb5\u0bc1\u0b9a\u0bcd\u0b9a\u0bbe\u0bb2\u0bc8","name:zh":"\u5b9e\u91cc\u8fbe\u9ad8\u901f\u516c\u8def","oneway":"yes","ref":"SLE","ref:ta":"\u0b8e\u0bb8\u0bcd\u0b8e\u0bb2\u0bcd\u0b87","short_name:ta":"\u0b8e\u0bb8\u0bcd\u0b8e\u0bb2\u0bcd\u0b87","surface":"asphalt","wikidata":"Q1575163","wikipedia":"en:Seletar Expressway"},"geometry":{"type":"LineString","coordinates":[[103.8307448,1.3935843],[103.8313378,1.3937482]]}},{"type":"Feature","id":"way/635161212-0-1-0","properties":{"highway":"motorway","lanes":"4","maxspeed":"90","name":"Seletar Expressway","name:ms":"Lebuhraya Seletar","name:ta":"\u0b9a\u0bc6\u0bb2\u0bc7\u0ba4\u0bcd\u0ba4\u0bbe\u0bb0\u0bcd \u0bb5\u0bbf\u0bb0\u0bc8\u0bb5\u0bc1\u0b9a\u0bcd\u0b9a\u0bbe\u0bb2\u0bc8","name:zh":"\u5b9e\u91cc\u8fbe\u9ad8\u901f\u516c\u8def","oneway":"yes","ref":"SLE","ref:ta":"\u0b8e\u0bb8\u0bcd\u0b8e\u0bb2\u0bcd\u0b87","short_name:ta":"\u0b8e\u0bb8\u0bcd\u0b8e\u0bb2\u0bcd\u0b87","surface":"asphalt","wikidata":"Q1575163","wikipedia":"en:Seletar Expressway"},"geometry":{"type":"LineString","coordinates":[[103.8313378,1.3937482],[103.8317275,1.3938371]]}},{"type":"Feature","id":"way/655503139-0-0-0","properties":{"destination":"Lentor Avenue","highway":"motorway_link","lanes":"2","maxspeed":"50","name":"Seletar Expressway","oneway":"yes","turn:lanes":"left;right|right"},"geometry":{"type":"LineString","coordinates":[[103.8322679,1.3942042],[103.8324282,1.3942528]]}},{"type":"Feature","id":"way/680527351-0-0-0","properties":{"bridge":"yes","destination:ref":"SLE","destination:ref:to":"CTE;TPE","highway":"motorway_link","lanes":"2","layer":"1","maxspeed":"50","oneway":"yes","source":"Yahoo aerial images","surface":"asphalt"},"geometry":{"type":"LineString","coordinates":[[103.8318325,1.3957256],[103.8320267,1.3956075]]}},{"type":"Feature","id":"way/680527352-0-0-0","properties":{"bridge":"yes","destination:ref":"SLE","destination:ref:to":"CTE;TPE","highway":"motorway_link","lanes":"2","layer":"1","maxspeed":"50","oneway":"yes","source":"Yahoo aerial images","surface":"asphalt"},"geometry":{"type":"LineString","coordinates":[[103.8320267,1.3956075],[103.8321057,1.3955594]]}},{"type":"Feature","id":"way/680527353-0-0-0","properties":{"bridge":"yes","highway":"primary","lanes":"2","layer":"1","maxspeed":"70","name":"Lentor Avenue","name:zh":"\u4f26\u591a\u9053","oneway":"yes","surface":"asphalt"},"geometry":{"type":"LineString","coordinates":[[103.831796,1.3956793],[103.8320499,1.39552]]}},{"type":"Feature","id":"way/680527354-0-0-0","properties":{"highway":"primary","lanes":"2","lit":"yes","maxspeed":"70","name":"Lentor Avenue","name:zh":"\u4f26\u591a\u9053","oneway":"yes","surface":"asphalt"},"geometry":{"type":"LineString","coordinates":[[103.8320499,1.39552],[103.8328125,1.3950417]]}},{"type":"Feature","id":"way/681383725-0-0-0","properties":{"bridge":"yes","highway":"service","lanes":"2","lanes:backward":"1","lanes:forward":"1","layer":"1","maxspeed":"50","name":"Lower Seletar Close","surface":"asphalt"},"geometry":{"type":"LineString","coordinates":[[103.8322493,1.3959671],[103.8321988,1.3960623]]}},{"type":"Feature","id":"way/681383725-0-1-0","properties":{"bridge":"yes","highway":"service","lanes":"2","lanes:backward":"1","lanes:forward":"1","layer":"1","maxspeed":"50","name":"Lower Seletar Close","surface":"asphalt"},"geometry":{"type":"LineString","coordinates":[[103.8321988,1.3960623],[103.8321651,1.396165]]}},{"type":"Feature","id":"way/681383726-0-1-0","properties":{"highway":"service","lanes":"2","lanes:backward":"1","lanes:forward":"1","maxspeed":"50","name":"Lower Seletar Close","surface":"asphalt","turn:lanes:backward":"left;through","turn:lanes:forward":"through"},"geometry":{"type":"LineString","coordinates":[[103.8332814,1.3951965],[103.8325996,1.395619]]}},{"type":"Feature","id":"way/681383726-0-2-0","properties":{"highway":"service","lanes":"2","lanes:backward":"1","lanes:forward":"1","maxspeed":"50","name":"Lower Seletar Close","surface":"asphalt","turn:lanes:backward":"left;through","turn:lanes:forward":"through"},"geometry":{"type":"LineString","coordinates":[[103.8325996,1.395619],[103.8323647,1.3957879]]}},{"type":"Feature","id":"way/681383726-0-3-0","properties":{"highway":"service","lanes":"2","lanes:backward":"1","lanes:forward":"1","maxspeed":"50","name":"Lower Seletar Close","surface":"asphalt","turn:lanes:backward":"left;through","turn:lanes:forward":"through"},"geometry":{"type":"LineString","coordinates":[[103.8323647,1.3957879],[103.8323252,1.3958451]]}},{"type":"Feature","id":"way/681383726-0-4-0","properties":{"highway":"service","lanes":"2","lanes:backward":"1","lanes:forward":"1","maxspeed":"50","name":"Lower Seletar Close","surface":"asphalt","turn:lanes:backward":"left;through","turn:lanes:forward":"through"},"geometry":{"type":"LineString","coordinates":[[103.8323252,1.3958451],[103.8322659,1.3959352]]}},{"type":"Feature","id":"way/681383726-0-5-0","properties":{"highway":"service","lanes":"2","lanes:backward":"1","lanes:forward":"1","maxspeed":"50","name":"Lower Seletar Close","surface":"asphalt","turn:lanes:backward":"left;through","turn:lanes:forward":"through"},"geometry":{"type":"LineString","coordinates":[[103.8322659,1.3959352],[103.8322493,1.3959671]]}},{"type":"Feature","id":"way/692895633-0-0-0","properties":{"bridge":"yes","highway":"primary","lanes":"2","layer":"1","maxspeed":"70","name":"Lentor Avenue","name:zh":"\u4f26\u591a\u9053","oneway":"yes","surface":"asphalt"},"geometry":{"type":"LineString","coordinates":[[103.8319821,1.3949563],[103.8319155,1.3949838]]}},{"type":"Feature","id":"way/692895633-0-1-0","properties":{"bridge":"yes","highway":"primary","lanes":"2","layer":"1","maxspeed":"70","name":"Lentor Avenue","name:zh":"\u4f26\u591a\u9053","oneway":"yes","surface":"asphalt"},"geometry":{"type":"LineString","coordinates":[[103.8319155,1.3949838],[103.831844,1.3950163]]}},{"type":"Feature","id":"way/692895633-0-2-0","properties":{"bridge":"yes","highway":"primary","lanes":"2","layer":"1","maxspeed":"70","name":"Lentor Avenue","name:zh":"\u4f26\u591a\u9053","oneway":"yes","surface":"asphalt"},"geometry":{"type":"LineString","coordinates":[[103.831844,1.3950163],[103.8317862,1.395043]]}},{"type":"Feature","id":"way/692895633-0-3-0","properties":{"bridge":"yes","highway":"primary","lanes":"2","layer":"1","maxspeed":"70","name":"Lentor Avenue","name:zh":"\u4f26\u591a\u9053","oneway":"yes","surface":"asphalt"},"geometry":{"type":"LineString","coordinates":[[103.8317862,1.395043],[103.83148,1.3952255]]}},{"type":"Feature","id":"way/692895634-0-0-0","properties":{"highway":"primary","lanes":"3","maxspeed":"70","name":"Lentor Avenue","name:zh":"\u4f26\u591a\u9053","oneway":"yes","surface":"asphalt"},"geometry":{"type":"LineString","coordinates":[[103.8325067,1.3948103],[103.832416,1.3948299]]}},{"type":"Feature","id":"way/720094147-0-0-0","properties":{"highway":"motorway","lanes":"4","maxspeed":"90","name":"Seletar Expressway","name:ms":"Lebuhraya Seletar","name:ta":"\u0b9a\u0bc6\u0bb2\u0bc7\u0ba4\u0bcd\u0ba4\u0bbe\u0bb0\u0bcd \u0bb5\u0bbf\u0bb0\u0bc8\u0bb5\u0bc1\u0b9a\u0bcd\u0b9a\u0bbe\u0bb2\u0bc8","name:zh":"\u5b9e\u91cc\u8fbe\u9ad8\u901f\u516c\u8def","oneway":"yes","ref":"SLE","ref:ta":"\u0b8e\u0bb8\u0bcd\u0b8e\u0bb2\u0bcd\u0b87","short_name:ta":"\u0b8e\u0bb8\u0bcd\u0b8e\u0bb2\u0bcd\u0b87","surface":"asphalt","turn:lanes":"through|through|through|through","wikidata":"Q1575163","wikipedia":"en:Seletar Expressway"},"geometry":{"type":"LineString","coordinates":[[103.8303023,1.3934894],[103.8307448,1.3935843]]}},{"type":"Feature","id":"way/720101856-0-0-0","properties":{"highway":"primary","lanes":"2","maxspeed":"70","name":"Lentor Avenue","name:zh":"\u4f26\u591a\u9053","oneway":"yes","surface":"asphalt"},"geometry":{"type":"LineString","coordinates":[[103.832416,1.3948299],[103.8323019,1.3948517]]}},{"type":"Feature","id":"way/720101856-0-1-0","properties":{"highway":"primary","lanes":"2","maxspeed":"70","name":"Lentor Avenue","name:zh":"\u4f26\u591a\u9053","oneway":"yes","surface":"asphalt"},"geometry":{"type":"LineString","coordinates":[[103.8323019,1.3948517],[103.8321784,1.3948827]]}},{"type":"Feature","id":"way/720101856-0-2-0","properties":{"highway":"primary","lanes":"2","maxspeed":"70","name":"Lentor Avenue","name:zh":"\u4f26\u591a\u9053","oneway":"yes","surface":"asphalt"},"geometry":{"type":"LineString","coordinates":[[103.8321784,1.3948827],[103.8320787,1.3949138]]}},{"type":"Feature","id":"way/720101856-0-3-0","properties":{"highway":"primary","lanes":"2","maxspeed":"70","name":"Lentor Avenue","name:zh":"\u4f26\u591a\u9053","oneway":"yes","surface":"asphalt"},"geometry":{"type":"LineString","coordinates":[[103.8320787,1.3949138],[103.8319821,1.3949563]]}},{"type":"Feature","id":"way/780755652-0-0-0","properties":{"bridge":"yes","destination":"Lentor Avenue;Yishun","highway":"motorway_link","lanes":"2","layer":"2","maxspeed":"50","name":"Lentor Interchange","name:zh":"\u4f26\u591a\u7acb\u4ea4","oneway":"yes","source":"Yahoo aerial images"},"geometry":{"type":"LineString","coordinates":[[103.8324233,1.3937616],[103.8320389,1.3943053]]}},{"type":"Feature","id":"way/780755653-0-0-0","properties":{"bridge":"viaduct","destination":"Lentor Avenue;Yishun","highway":"motorway_link","lanes":"2","layer":"1","maxspeed":"50","name":"Lentor Interchange","name:zh":"\u4f26\u591a\u7acb\u4ea4","oneway":"yes","source":"Yahoo aerial images"},"geometry":{"type":"LineString","coordinates":[[103.8320389,1.3943053],[103.8319039,1.3944964]]}},{"type":"Feature","id":"way/780755653-0-1-0","properties":{"bridge":"viaduct","destination":"Lentor Avenue;Yishun","highway":"motorway_link","lanes":"2","layer":"1","maxspeed":"50","name":"Lentor Interchange","name:zh":"\u4f26\u591a\u7acb\u4ea4","oneway":"yes","source":"Yahoo aerial images"},"geometry":{"type":"LineString","coordinates":[[103.8319039,1.3944964],[103.8317646,1.3946715]]}},{"type":"Feature","id":"way/780755653-0-2-0","properties":{"bridge":"viaduct","destination":"Lentor Avenue;Yishun","highway":"motorway_link","lanes":"2","layer":"1","maxspeed":"50","name":"Lentor Interchange","name:zh":"\u4f26\u591a\u7acb\u4ea4","oneway":"yes","source":"Yahoo aerial images"},"geometry":{"type":"LineString","coordinates":[[103.8317646,1.3946715],[103.8316916,1.3947679]]}},{"type":"Feature","id":"way/780755653-0-3-0","properties":{"bridge":"viaduct","destination":"Lentor Avenue;Yishun","highway":"motorway_link","lanes":"2","layer":"1","maxspeed":"50","name":"Lentor Interchange","name:zh":"\u4f26\u591a\u7acb\u4ea4","oneway":"yes","source":"Yahoo aerial images"},"geometry":{"type":"LineString","coordinates":[[103.8316916,1.3947679],[103.8316093,1.3948618]]}},{"type":"Feature","id":"way/780755653-0-4-0","properties":{"bridge":"viaduct","destination":"Lentor Avenue;Yishun","highway":"motorway_link","lanes":"2","layer":"1","maxspeed":"50","name":"Lentor Interchange","name:zh":"\u4f26\u591a\u7acb\u4ea4","oneway":"yes","source":"Yahoo aerial images"},"geometry":{"type":"LineString","coordinates":[[103.8316093,1.3948618],[103.8314821,1.3949905]]}},{"type":"Feature","id":"way/780755653-0-5-0","properties":{"bridge":"viaduct","destination":"Lentor Avenue;Yishun","highway":"motorway_link","lanes":"2","layer":"1","maxspeed":"50","name":"Lentor Interchange","name:zh":"\u4f26\u591a\u7acb\u4ea4","oneway":"yes","source":"Yahoo aerial images"},"geometry":{"type":"LineString","coordinates":[[103.8314821,1.3949905],[103.8313305,1.3951253]]}},{"type":"Feature","id":"way/780755653-0-6-0","properties":{"bridge":"viaduct","destination":"Lentor Avenue;Yishun","highway":"motorway_link","lanes":"2","layer":"1","maxspeed":"50","name":"Lentor Interchange","name:zh":"\u4f26\u591a\u7acb\u4ea4","oneway":"yes","source":"Yahoo aerial images"},"geometry":{"type":"LineString","coordinates":[[103.8313305,1.3951253],[103.8311622,1.3952625]]}},{"type":"Feature","id":"way/780755653-0-7-0","properties":{"bridge":"viaduct","destination":"Lentor Avenue;Yishun","highway":"motorway_link","lanes":"2","layer":"1","maxspeed":"50","name":"Lentor Interchange","name:zh":"\u4f26\u591a\u7acb\u4ea4","oneway":"yes","source":"Yahoo aerial images"},"geometry":{"type":"LineString","coordinates":[[103.8311622,1.3952625],[103.8309939,1.395391]]}},{"type":"Feature","id":"way/780755653-0-8-0","properties":{"bridge":"viaduct","destination":"Lentor Avenue;Yishun","highway":"motorway_link","lanes":"2","layer":"1","maxspeed":"50","name":"Lentor Interchange","name:zh":"\u4f26\u591a\u7acb\u4ea4","oneway":"yes","source":"Yahoo aerial images"},"geometry":{"type":"LineString","coordinates":[[103.8309939,1.395391],[103.8308134,1.3955314]]}},{"type":"Feature","id":"way/780755653-0-9-0","properties":{"bridge":"viaduct","destination":"Lentor Avenue;Yishun","highway":"motorway_link","lanes":"2","layer":"1","maxspeed":"50","name":"Lentor Interchange","name:zh":"\u4f26\u591a\u7acb\u4ea4","oneway":"yes","source":"Yahoo aerial images"},"geometry":{"type":"LineString","coordinates":[[103.8308134,1.3955314],[103.8306646,1.3956538]]}},{"type":"Feature","id":"way/780755653-0-10-0","properties":{"bridge":"viaduct","destination":"Lentor Avenue;Yishun","highway":"motorway_link","lanes":"2","layer":"1","maxspeed":"50","name":"Lentor Interchange","name:zh":"\u4f26\u591a\u7acb\u4ea4","oneway":"yes","source":"Yahoo aerial images"},"geometry":{"type":"LineString","coordinates":[[103.8306646,1.3956538],[103.8305132,1.395788]]}},{"type":"Feature","id":"way/780755653-0-11-0","properties":{"bridge":"viaduct","destination":"Lentor Avenue;Yishun","highway":"motorway_link","lanes":"2","layer":"1","maxspeed":"50","name":"Lentor Interchange","name:zh":"\u4f26\u591a\u7acb\u4ea4","oneway":"yes","source":"Yahoo aerial images"},"geometry":{"type":"LineString","coordinates":[[103.8305132,1.395788],[103.8302789,1.3960112]]}},{"type":"Feature","id":"way/780755653-0-12-0","properties":{"bridge":"viaduct","destination":"Lentor Avenue;Yishun","highway":"motorway_link","lanes":"2","layer":"1","maxspeed":"50","name":"Lentor Interchange","name:zh":"\u4f26\u591a\u7acb\u4ea4","oneway":"yes","source":"Yahoo aerial images"},"geometry":{"type":"LineString","coordinates":[[103.8302789,1.3960112],[103.8301561,1.3961354]]}},{"type":"Feature","id":"way/780755653-0-13-0","properties":{"bridge":"viaduct","destination":"Lentor Avenue;Yishun","highway":"motorway_link","lanes":"2","layer":"1","maxspeed":"50","name":"Lentor Interchange","name:zh":"\u4f26\u591a\u7acb\u4ea4","oneway":"yes","source":"Yahoo aerial images"},"geometry":{"type":"LineString","coordinates":[[103.8301561,1.3961354],[103.8300406,1.3962668]]}}]}