{"type":"FeatureCollection","features":[{"type":"Feature","id":"relation/3885393-0","properties":{"building":"yes","type":"multipolygon"},"geometry":{"type":"Polygon","coordinates":[[[103.8303998,1.4179448],[103.8303938,1.417885],[103.8306658,1.4178576],[103.8306242,1.4174458],[103.8304573,1.4174626],[103.8304472,1.417363],[103.8305077,1.4173569],[103.8304705,1.4169885],[103.8303998,1.4169956],[103.830394,1.4169374],[103.8300182,1.4169753],[103.8300249,1.4170425],[103.8299856,1.4170465],[103.8300821,1.4180023],[103.8301833,1.4179921],[103.8301807,1.4179669],[103.8303998,1.4179448]],[[103.830293,1.4170871],[103.8303142,1.4172972],[103.8300665,1.4173222],[103.8300453,1.4171121],[103.830293,1.4170871]],[[103.8303041,1.4176502],[103.8301018,1.4176707],[103.8300805,1.4174606],[103.8302828,1.4174402],[103.8303041,1.4176502]],[[103.8301175,1.4178265],[103.8301071,1.4177236],[103.8303095,1.4177031],[103.8303199,1.417806],[103.8301175,1.4178265]]]}},{"type":"Feature","id":"relation/7782185-0","properties":{"addr:city":"Singapore","addr:housenumber":"813B","addr:postcode":"761813","addr:street":"Yishun Ring Road","building":"residential","building:levels":"14","residential":"hdb","type":"multipolygon"},"geometry":{"type":"Polygon","coordinates":[[[103.8323126,1.4177806],[103.8323074,1.4177832],[103.8323336,1.4178353],[103.8323484,1.4178278],[103.8323547,1.4178403],[103.8324141,1.4178105],[103.8323892,1.417761],[103.8323754,1.4177679],[103.8323678,1.4177528],[103.8323222,1.4177757],[103.8323042,1.41774],[103.8323319,1.4177261],[103.8323433,1.4177488],[103.8323712,1.4177347],[103.8323287,1.4176503],[103.8323232,1.4176531],[103.8323012,1.4176094],[103.8323064,1.4176068],[103.8322787,1.4175518],[103.8322833,1.4175531],[103.8322935,1.4175152],[103.8322795,1.4175115],[103.8322904,1.417471],[103.8323133,1.4174772],[103.8323229,1.4174418],[103.8323,1.4174356],[103.8323028,1.4174254],[103.8323467,1.4174037],[103.8323626,1.4174359],[103.8323443,1.4174449],[103.8323537,1.4174639],[103.8323913,1.4174454],[103.8323865,1.4174356],[103.8323925,1.4174326],[103.8323953,1.4174384],[103.8324116,1.4174304],[103.8324155,1.4174383],[103.8324899,1.4174016],[103.8324724,1.4173662],[103.8324527,1.4173759],[103.832443,1.4173562],[103.8324776,1.4173391],[103.8325086,1.4173915],[103.832527,1.4173807],[103.8325303,1.4173862],[103.8325723,1.4173613],[103.832552,1.4173271],[103.8325439,1.4173319],[103.8325171,1.4172867],[103.8325335,1.417277],[103.8325073,1.4172326],[103.8324268,1.4172802],[103.8324531,1.4173246],[103.8324649,1.4173176],[103.8324684,1.4173235],[103.8324272,1.4173439],[103.8324215,1.4173323],[103.8324303,1.4173279],[103.8324087,1.4172842],[103.8323324,1.4173219],[103.8323288,1.4173145],[103.8322639,1.4173466],[103.8322767,1.4173726],[103.8323026,1.4173598],[103.8323115,1.4173777],[103.8322883,1.4173891],[103.8322937,1.4174],[103.8321901,1.4173721],[103.8321559,1.4174988],[103.8322266,1.4175178],[103.8322105,1.4175777],[103.8323126,1.4177806]],[[103.8322697,1.4175862],[103.8322355,1.4176034],[103.832222,1.4175766],[103.8322371,1.4175207],[103.8322446,1.4175227],[103.8322396,1.4175413],[103.8322568,1.4175459],[103.8322509,1.4175489],[103.8322697,1.4175862]]]}},{"type":"Feature","id":"relation/7782186-0","properties":{"addr:city":"Singapore","addr:housenumber":"813A","addr:postcode":"761813","addr:street":"Yishun Ring Road","building":"residential","building:levels":"14","residential":"hdb","type":"multipolygon"},"geometry":{"type":"Polygon","coordinates":[[[103.8325286,1.4180488],[103.832453,1.4180846],[103.83248,1.4181416],[103.8324879,1.4181378],[103.8325851,1.4183427],[103.8326269,1.4183582],[103.8326025,1.4184238],[103.8327494,1.4184783],[103.8327738,1.4184127],[103.8327801,1.418415],[103.832797,1.4184507],[103.8329486,1.4183788],[103.8329323,1.4183443],[103.8329509,1.4183355],[103.8329613,1.4183575],[103.8330375,1.4183213],[103.8330156,1.418275],[103.8330017,1.4182816],[103.8329844,1.4182451],[103.8329975,1.4182389],[103.832974,1.4181892],[103.8329062,1.4182213],[103.8329274,1.4182661],[103.8329106,1.418274],[103.8328942,1.4182395],[103.8328588,1.4182563],[103.8328572,1.4182528],[103.8327792,1.4182898],[103.8327795,1.4182905],[103.8327641,1.4182978],[103.8327756,1.4183221],[103.8327911,1.4183148],[103.8327989,1.4183312],[103.8327929,1.418334],[103.8327963,1.418341],[103.8327869,1.4183454],[103.8327934,1.4183591],[103.832755,1.4183765],[103.8327715,1.418332],[103.8326775,1.4182972],[103.832687,1.4182717],[103.8326239,1.4182483],[103.8326191,1.4182614],[103.8325727,1.4181638],[103.8325851,1.4181579],[103.832565,1.4181155],[103.8325314,1.4181314],[103.8325435,1.4181569],[103.832519,1.4181685],[103.8325014,1.4181314],[103.8325556,1.4181058],[103.8325286,1.4180488]],[[103.83264,1.4183014],[103.8326247,1.4183427],[103.8325967,1.4183323],[103.8325769,1.4182906],[103.8326149,1.4182727],[103.8326085,1.4182898],[103.83264,1.4183014]]]}},{"type":"Feature","id":"way/172136886-0","properties":{"addr:housenumber":"811","addr:postcode":"760811","addr:street":"Yishun Ring Road","building":"residential","building:levels":"4","residential":"hdb","roof:colour":"#f1817d"},"geometry":{"type":"Polygon","coordinates":[[[103.8321046,1.4161576],[103.8320434,1.4161549],[103.8320411,1.4162093],[103.8320503,1.4162221],[103.8320589,1.4162225],[103.8320581,1.4162424],[103.8320783,1.4162433],[103.8320768,1.416278],[103.8320861,1.4162891],[103.8320966,1.4162895],[103.8320956,1.4163127],[103.8321118,1.4163134],[103.8321106,1.4163413],[103.8321375,1.4163424],[103.8321354,1.4163923],[103.832149,1.4164086],[103.8321481,1.4164291],[103.8321693,1.41643],[103.8321682,1.4164577],[103.8321794,1.4164768],[103.8321889,1.4164773],[103.8321879,1.4164988],[103.8322005,1.4164993],[103.8321993,1.4165271],[103.8322293,1.4165284],[103.8322272,1.416577],[103.8322403,1.4165924],[103.8322394,1.4166132],[103.8322603,1.4166141],[103.832259,1.4166441],[103.8322706,1.41666],[103.8322804,1.4166605],[103.8322794,1.4166849],[103.832358,1.4166883],[103.8323589,1.4166663],[103.832391,1.4166676],[103.832152,1.4161844],[103.8321196,1.416183],[103.8321046,1.4161576]]]}},{"type":"Feature","id":"way/173131874-0","properties":{"building":"train_station"},"geometry":{"type":"Polygon","coordinates":[[[103.8327893,1.4171161],[103.8327759,1.4171234],[103.8327629,1.4170977],[103.8326519,1.4171539],[103.8326827,1.4172149],[103.8327465,1.4173425],[103.8329133,1.4176716],[103.8330082,1.4176233],[103.8329936,1.4175965],[103.8330482,1.4175687],[103.8332353,1.4179514],[103.8332726,1.4179327],[103.8333573,1.4178901],[103.8327866,1.4167547],[103.832668,1.4168143],[103.8328105,1.4171046],[103.8327893,1.4171161]]]}},{"type":"Feature","id":"way/173900440-0","properties":{"addr:city":"Singapore","addr:housenumber":"825","addr:postcode":"760825","addr:street":"Yishun Street 81","building":"residential","building:levels":"12","residential":"hdb","roof:colour":"#f1817d"},"geometry":{"type":"Polygon","coordinates":[[[103.8327494,1.4145265],[103.8328276,1.4144872],[103.8328167,1.4144655],[103.8328902,1.4144286],[103.832901,1.4144501],[103.8329783,1.4144113],[103.8329674,1.4143896],[103.832979,1.4143838],[103.8329594,1.4143449],[103.8329814,1.4143338],[103.8330012,1.4143731],[103.8330123,1.4143676],[103.8330395,1.4143539],[103.8330504,1.4143755],[103.8331284,1.4143363],[103.8331176,1.4143148],[103.8331906,1.4142782],[103.8332014,1.4142997],[103.8332799,1.4142603],[103.8332691,1.4142389],[103.8333135,1.4142166],[103.8333242,1.4142379],[103.8334023,1.4141987],[103.8333915,1.4141772],[103.8334147,1.4141656],[103.8334255,1.4141871],[103.8334426,1.4141785],[103.8334074,1.4141084],[103.8333882,1.4141181],[103.8333718,1.4140855],[103.8333473,1.4140978],[103.833338,1.4140793],[103.8332576,1.4141197],[103.8332445,1.4140937],[103.8332148,1.4141086],[103.8332279,1.4141347],[103.8329675,1.4142653],[103.8326795,1.4144099],[103.8326665,1.4143839],[103.8326367,1.4143988],[103.8326498,1.4144248],[103.8325694,1.4144651],[103.8325787,1.4144837],[103.8325542,1.414496],[103.8325705,1.4145285],[103.8325514,1.4145381],[103.8325865,1.4146081],[103.8326035,1.4145996],[103.8325926,1.414578],[103.832616,1.4145663],[103.8326269,1.4145879],[103.8327048,1.4145488],[103.8326941,1.4145274],[103.8327386,1.414505],[103.8327494,1.4145265]]]}},{"type":"Feature","id":"way/173900442-0","properties":{"addr:city":"Singapore","addr:housenumber":"827","addr:postcode":"760827","addr:street":"Yishun Street 81","building":"residential","building:levels":"4","residential":"hdb","roof:colour":"#f1817d"},"geometry":{"type":"Polygon","coordinates":[[[103.8325604,1.4150976],[103.8326259,1.4150649],[103.8326554,1.4150502],[103.8325845,1.4149081],[103.8326083,1.4148962],[103.8325974,1.4148746],[103.832574,1.4148863],[103.8323708,1.4144795],[103.8322624,1.4145336],[103.8322769,1.4145626],[103.8322803,1.4145609],[103.8323386,1.4146775],[103.832355,1.4146693],[103.832366,1.4146911],[103.8323493,1.4146995],[103.8324681,1.4149373],[103.8325022,1.4149203],[103.832513,1.4149417],[103.8324785,1.4149589],[103.8325503,1.4151026],[103.8325604,1.4150976]]]}},{"type":"Feature","id":"way/173900443-0","properties":{"addr:city":"Singapore","addr:housenumber":"828","addr:postcode":"760828","addr:street":"Yishun Street 81","building":"residential","building:levels":"11"},"geometry":{"type":"Polygon","coordinates":[[[103.8327223,1.4153465],[103.832716,1.4153341],[103.8327408,1.4153216],[103.8327619,1.4153109],[103.8327684,1.4153237],[103.8328008,1.4153073],[103.8327928,1.4152915],[103.8328146,1.4152805],[103.8328221,1.4152954],[103.8330586,1.4151764],[103.833047,1.4151533],[103.8330925,1.4151304],[103.8331043,1.4151538],[103.8331367,1.4151375],[103.8331291,1.4151224],[103.8331771,1.4150983],[103.8331849,1.4151136],[103.8332237,1.4150941],[103.8331816,1.4150104],[103.8331187,1.4150421],[103.8331021,1.415009],[103.8331666,1.4149766],[103.8331248,1.4148937],[103.8331059,1.4149032],[103.8330854,1.4149135],[103.8330932,1.4149289],[103.8330452,1.4149531],[103.8330381,1.414939],[103.833007,1.4149547],[103.8330555,1.415051],[103.8327802,1.4151896],[103.8327607,1.4151509],[103.8327428,1.41516],[103.8327621,1.4151985],[103.8327499,1.4152047],[103.832701,1.4151078],[103.8326679,1.4151245],[103.8326747,1.4151379],[103.8326292,1.4151608],[103.8326227,1.415148],[103.8325918,1.4151635],[103.8325806,1.4151691],[103.8326217,1.4152506],[103.8326876,1.4152174],[103.8327052,1.4152524],[103.8326381,1.4152863],[103.8326793,1.4153681],[103.8327223,1.4153465]]]}},{"type":"Feature","id":"way/453382075-0","properties":{"building":"yes"},"geometry":{"type":"Polygon","coordinates":[[[103.8312162,1.4157691],[103.8312955,1.4157423],[103.8312803,1.4156973],[103.831201,1.4157241],[103.8312162,1.4157691]]]}},{"type":"Feature","id":"way/544580094-0","properties":{"addr:city":"Singapore","addr:housenumber":"813","addr:street":"Yishun Ring Road","amenity":"parking","building":"yes","building:levels":"4","parking":"multi-storey"},"geometry":{"type":"Polygon","coordinates":[[[103.8327065,1.4175496],[103.8326885,1.4175141],[103.8325292,1.4175951],[103.8325398,1.4176159],[103.8324303,1.4176716],[103.8326519,1.418107],[103.8327078,1.4180785],[103.8327223,1.4181071],[103.8328683,1.4180329],[103.8328528,1.4180026],[103.8329197,1.4179686],[103.8327065,1.4175496]]]}},{"type":"Feature","id":"way/545120821-0","properties":{"building":"yes"},"geometry":{"type":"Polygon","coordinates":[[[103.8309422,1.418277],[103.8309295,1.4180357],[103.830866,1.4180414],[103.8305039,1.4180857],[103.8305312,1.4183085],[103.8308349,1.4182715],[103.8308363,1.4182864],[103.8309422,1.418277]]]}},{"type":"Feature","id":"way/837505922-0","properties":{"building":"yes","club":"yes"},"geometry":{"type":"Polygon","coordinates":[[[103.8312219,1.4148789],[103.831235,1.4148723],[103.8313901,1.4151798],[103.8317449,1.415001],[103.8313671,1.4142519],[103.8310206,1.4144266],[103.8305665,1.4146555],[103.8307891,1.415097],[103.8312219,1.4148789]]]}},{"type":"Feature","id":"way/1240743578-0","properties":{"building":"yes"},"geometry":{"type":"Polygon","coordinates":[[[103.8319427,1.4166968],[103.8319754,1.4167641],[103.8320747,1.4167158],[103.83201,1.4165826],[103.8319229,1.4166249],[103.831902,1.4165819],[103.8318252,1.4166192],[103.8318782,1.4167281],[103.8319427,1.4166968]]]}},{"type":"Feature","id":"way/1240743579-0","properties":{"building":"yes"},"geometry":{"type":"Polygon","coordinates":[[[103.8318155,1.4168801],[103.8318814,1.4168456],[103.8317759,1.4166442],[103.83171,1.4166787],[103.8318155,1.4168801]]]}},{"type":"Feature","id":"way/1293992623-0","properties":{"addr:city":"Singapore","addr:housenumber":"807","addr:postcode":"760807","addr:street":"Yishun Ring Road","building":"residential","building:levels":"13","residential":"hdb","roof:colour":"#f1817d"},"geometry":{"type":"Polygon","coordinates":[[[103.8316329,1.416536],[103.8316651,1.416601],[103.8316772,1.416595],[103.8317049,1.4166511],[103.8318063,1.416601],[103.8317985,1.4165851],[103.8317783,1.416595],[103.8317674,1.4165728],[103.831788,1.4165627],[103.8317518,1.4164891],[103.8317323,1.4164988],[103.8317221,1.4164781],[103.8317773,1.416451],[103.8317654,1.416427],[103.8317311,1.4164439],[103.8317302,1.4164421],[103.831705,1.4163912],[103.8316339,1.4164263],[103.8316493,1.4164575],[103.8316051,1.4164793],[103.8315897,1.416448],[103.8314618,1.4165111],[103.8314776,1.4165432],[103.8314334,1.416565],[103.8314176,1.4165329],[103.8313532,1.4165646],[103.8313791,1.416617],[103.8313447,1.4166339],[103.8313565,1.416658],[103.8314109,1.4166312],[103.8314195,1.4166487],[103.8313993,1.4166586],[103.8314382,1.4167374],[103.8314588,1.4167273],[103.831468,1.416746],[103.8314479,1.4167559],[103.8314647,1.4167899],[103.8314853,1.4167798],[103.831495,1.4167994],[103.8314748,1.4168094],[103.8315109,1.4168826],[103.8315317,1.4168723],[103.8315546,1.4169187],[103.8315351,1.4169283],[103.8315714,1.4170018],[103.831592,1.4169916],[103.8316029,1.4170138],[103.8315828,1.4170238],[103.8315907,1.4170397],[103.8316923,1.4169896],[103.8316647,1.4169336],[103.8316768,1.4169276],[103.8316448,1.4168628],[103.8316788,1.416846],[103.8316669,1.416822],[103.8316326,1.4168389],[103.8315994,1.4167718],[103.8315808,1.416781],[103.8315263,1.4166707],[103.8315452,1.4166614],[103.8315126,1.4165954],[103.8316329,1.416536]]]}},{"type":"Feature","id":"way/1294590744-0","properties":{"addr:city":"Singapore","addr:housenumber":"806","addr:postcode":"760806","addr:street":"Yishun Ring Road","building":"residential","building:levels":"13","residential":"hdb","roof:colour":"#f1817d"},"geometry":{"type":"Polygon","coordinates":[[[103.8312558,1.4172148],[103.8312662,1.4172357],[103.831284,1.4172268],[103.8312791,1.417217],[103.8313152,1.4171989],[103.8313201,1.4172087],[103.8313379,1.4171998],[103.8313274,1.417179],[103.8313547,1.4171653],[103.8313652,1.4171862],[103.8313832,1.4171772],[103.8313783,1.4171674],[103.8314151,1.4171489],[103.8314196,1.4171578],[103.8314356,1.4171498],[103.8314251,1.4171289],[103.8314477,1.4171176],[103.8314583,1.4171387],[103.8314733,1.4171312],[103.8314233,1.4170314],[103.8313672,1.4170595],[103.8313563,1.4170378],[103.8310677,1.4171823],[103.8310774,1.4172014],[103.830964,1.4172582],[103.8309546,1.4172395],[103.8308879,1.4172729],[103.8308707,1.4172386],[103.8308486,1.4172497],[103.8308655,1.4172833],[103.8308006,1.4173159],[103.8308113,1.4173372],[103.8307553,1.4173653],[103.8308061,1.4174667],[103.8308226,1.4174585],[103.8308125,1.4174384],[103.8308341,1.4174276],[103.8308441,1.4174476],[103.8308612,1.417439],[103.8308562,1.4174292],[103.8308931,1.4174107],[103.830898,1.4174205],[103.8309149,1.417412],[103.8309044,1.4173912],[103.8309597,1.4173635],[103.8309702,1.4173843],[103.8309877,1.4173755],[103.8309827,1.4173657],[103.8310192,1.4173474],[103.8310241,1.4173572],[103.8310414,1.4173486],[103.8310309,1.4173277],[103.8310496,1.4173183],[103.8310604,1.4173398],[103.8310919,1.417324],[103.831081,1.4173024],[103.8311056,1.4172901],[103.8311161,1.4173109],[103.8311333,1.4173023],[103.8311284,1.4172925],[103.8311651,1.4172741],[103.83117,1.4172839],[103.8311871,1.4172753],[103.8311766,1.4172544],[103.8312558,1.4172148]]]}},{"type":"Feature","id":"way/1294590745-0","properties":{"addr:city":"Singapore","addr:housenumber":"808","addr:postcode":"760808","addr:street":"Yishun Ring Road","building":"residential","building:levels":"13","residential":"hdb","roof:colour":"#f1817d"},"geometry":{"type":"Polygon","coordinates":[[[103.8308079,1.4169411],[103.8307975,1.4169202],[103.8307796,1.4169291],[103.8307845,1.4169389],[103.8307485,1.416957],[103.8307435,1.4169472],[103.8307258,1.4169561],[103.8307362,1.4169769],[103.830709,1.4169906],[103.8306985,1.4169697],[103.8306805,1.4169787],[103.8306854,1.4169885],[103.8306485,1.417007],[103.8306441,1.4169981],[103.8306281,1.4170061],[103.8306386,1.417027],[103.8306159,1.4170383],[103.8306053,1.4170171],[103.8305904,1.4170246],[103.8306404,1.4171244],[103.8306965,1.4170963],[103.8307074,1.4171181],[103.8309959,1.4169736],[103.8309863,1.4169545],[103.8310997,1.4168977],[103.8311091,1.4169164],[103.8311758,1.4168829],[103.831193,1.4169173],[103.831215,1.4169062],[103.8311982,1.4168725],[103.8312631,1.41684],[103.8312523,1.4168187],[103.8313084,1.4167906],[103.8312575,1.4166892],[103.8312411,1.4166974],[103.8312511,1.4167175],[103.8312296,1.4167283],[103.8312196,1.4167083],[103.8312025,1.4167169],[103.8312074,1.4167267],[103.8311706,1.4167452],[103.8311656,1.4167354],[103.8311488,1.4167438],[103.8311592,1.4167647],[103.831104,1.4167924],[103.8310935,1.4167716],[103.831076,1.4167804],[103.8310809,1.4167902],[103.8310445,1.4168084],[103.8310396,1.4167986],[103.8310222,1.4168073],[103.8310327,1.4168282],[103.8310111,1.416839],[103.8310003,1.4168175],[103.8309689,1.4168333],[103.8309797,1.416855],[103.8309581,1.4168658],[103.8309476,1.416845],[103.8309304,1.4168536],[103.8309353,1.4168634],[103.8308986,1.4168818],[103.8308937,1.416872],[103.8308766,1.4168806],[103.830887,1.4169014],[103.8308079,1.4169411]]]}},{"type":"Feature","id":"way/1294590746-0","properties":{"addr:city":"Singapore","addr:housenumber":"802","addr:postcode":"760802","addr:street":"Yishun Ring Road","building":"residential","building:levels":"13","residential":"hdb","roof:colour":"#f1817d"},"geometry":{"type":"Polygon","coordinates":[[[103.8319134,1.4185196],[103.8319238,1.4185405],[103.8319417,1.4185316],[103.8319368,1.4185218],[103.8319728,1.4185037],[103.8319778,1.4185135],[103.8319955,1.4185046],[103.8319851,1.4184838],[103.8320123,1.4184701],[103.8320228,1.418491],[103.8320408,1.418482],[103.8320359,1.4184722],[103.8320728,1.4184537],[103.8320772,1.4184626],[103.8320932,1.4184546],[103.8320827,1.4184337],[103.8321054,1.4184224],[103.832116,1.4184436],[103.8321309,1.4184361],[103.8320809,1.4183362],[103.8320248,1.4183643],[103.8320139,1.4183426],[103.8317253,1.4184871],[103.831735,1.4185062],[103.8316216,1.418563],[103.8316122,1.4185443],[103.8315455,1.4185778],[103.8315283,1.4185434],[103.8315062,1.4185545],[103.8315231,1.4185882],[103.8314582,1.4186207],[103.831469,1.418642],[103.8314129,1.4186701],[103.8314637,1.4187715],[103.8314802,1.4187633],[103.8314702,1.4187432],[103.8314917,1.4187324],[103.8315017,1.4187524],[103.8315188,1.4187438],[103.8315139,1.418734],[103.8315507,1.4187155],[103.8315557,1.4187253],[103.8315725,1.4187169],[103.8315621,1.418696],[103.8316173,1.4186683],[103.8316278,1.4186891],[103.8316453,1.4186803],[103.8316404,1.4186705],[103.8316768,1.4186523],[103.8316817,1.4186621],[103.831699,1.4186534],[103.8316886,1.4186325],[103.8317073,1.4186231],[103.831718,1.4186446],[103.8317495,1.4186288],[103.8317387,1.4186072],[103.8317632,1.4185949],[103.8317737,1.4186157],[103.8317909,1.4186071],[103.831786,1.4185973],[103.8318227,1.4185789],[103.8318276,1.4185887],[103.8318447,1.4185801],[103.8318343,1.4185593],[103.8319134,1.4185196]]]}},{"type":"Feature","id":"way/1294590747-0","properties":{"addr:city":"Singapore","addr:housenumber":"803","addr:postcode":"760803","addr:street":"Yishun Ring Road","building":"residential","building:levels":"13","residential":"hdb","roof:colour":"#f1817d"},"geometry":{"type":"Polygon","coordinates":[[[103.8314655,1.4182459],[103.8314551,1.418225],[103.8314372,1.4182339],[103.8314422,1.4182437],[103.8314061,1.4182618],[103.8314012,1.418252],[103.8313834,1.4182609],[103.8313939,1.4182817],[103.8313666,1.4182954],[103.8313561,1.4182745],[103.8313381,1.4182835],[103.831343,1.4182933],[103.8313061,1.4183118],[103.8313017,1.4183029],[103.8312857,1.4183109],[103.8312962,1.4183318],[103.8312736,1.4183431],[103.831263,1.418322],[103.831248,1.4183295],[103.831298,1.4184293],[103.8313541,1.4184012],[103.831365,1.4184229],[103.8316536,1.4182784],[103.831644,1.4182593],[103.8317573,1.4182025],[103.8317667,1.4182212],[103.8318334,1.4181878],[103.8318506,1.4182221],[103.8318727,1.418211],[103.8318558,1.4181773],[103.8319207,1.4181448],[103.83191,1.4181235],[103.831966,1.4180954],[103.8319152,1.417994],[103.8318987,1.4180022],[103.8319088,1.4180223],[103.8318872,1.4180331],[103.8318772,1.4180131],[103.8318601,1.4180217],[103.8318651,1.4180315],[103.8318282,1.41805],[103.8318233,1.4180402],[103.8318064,1.4180487],[103.8318169,1.4180695],[103.8317616,1.4180972],[103.8317511,1.4180764],[103.8317336,1.4180852],[103.8317385,1.418095],[103.8317021,1.4181133],[103.8316972,1.4181035],[103.8316799,1.4181121],[103.8316903,1.418133],[103.8316687,1.4181439],[103.8316579,1.4181224],[103.8316265,1.4181381],[103.8316373,1.4181598],[103.8316157,1.4181706],[103.8316052,1.4181498],[103.831588,1.4181584],[103.8315929,1.4181682],[103.8315562,1.4181866],[103.8315513,1.4181768],[103.8315342,1.4181854],[103.8315447,1.4182063],[103.8314655,1.4182459]]]}},{"type":"Feature","id":"way/1294674115-0","properties":{"addr:city":"Singapore","addr:housenumber":"804","addr:postcode":"760804","addr:street":"Yishun Ring Road","area":"yes","building":"residential","building:levels":"13","residential":"hdb"},"geometry":{"type":"Polygon","coordinates":[[[103.8312545,1.4180087],[103.8312664,1.4180327],[103.8313372,1.4179976],[103.8313253,1.4179736],[103.8313648,1.4179541],[103.8313766,1.4179781],[103.8313991,1.417967],[103.8313872,1.417943],[103.8314265,1.4179236],[103.8314384,1.4179476],[103.8315093,1.4179126],[103.8314973,1.4178884],[103.8315198,1.4178773],[103.8315316,1.4179013],[103.8315671,1.4178837],[103.8316025,1.4178662],[103.831609,1.417863],[103.8315971,1.4178391],[103.8316195,1.4178279],[103.8316315,1.4178521],[103.8317023,1.4178169],[103.8316904,1.4177929],[103.8317296,1.4177734],[103.8317416,1.4177974],[103.831764,1.4177862],[103.8317521,1.4177622],[103.8317915,1.4177427],[103.8318034,1.4177666],[103.8318742,1.4177315],[103.8318623,1.4177075],[103.8318963,1.4176905],[103.8319273,1.4177001],[103.8319448,1.4177357],[103.8319208,1.4177476],[103.8319559,1.4178185],[103.8319799,1.4178066],[103.8319993,1.4178458],[103.8319753,1.4178577],[103.8319824,1.417872],[103.8320967,1.4178149],[103.8319915,1.417602],[103.831951,1.4175897],[103.8319642,1.4175488],[103.831937,1.4175403],[103.8319238,1.4175811],[103.8319068,1.4175758],[103.8316066,1.4177246],[103.8316113,1.417734],[103.8315152,1.4177817],[103.8314275,1.417825],[103.8314229,1.4178155],[103.8311227,1.4179644],[103.8311167,1.4179807],[103.8310763,1.4179663],[103.8310665,1.4179931],[103.8311069,1.4180075],[103.8310923,1.4180477],[103.8311981,1.4182602],[103.8313128,1.4182038],[103.8313057,1.4181895],[103.8312817,1.4182015],[103.8312622,1.4181622],[103.8312862,1.4181503],[103.831251,1.4180795],[103.831227,1.4180914],[103.8312092,1.4180559],[103.8312203,1.4180254],[103.8312545,1.4180087]]]}},{"type":"Feature","id":"way/1294674116-0","properties":{"addr:city":"Singapore","addr:housenumber":"805","addr:postcode":"760805","addr:street":"Yishun Ring Road","area":"yes","building":"residential","building:levels":"13","residential":"hdb"},"geometry":{"type":"Polygon","coordinates":[[[103.8310097,1.4176433],[103.8309922,1.4176076],[103.8310163,1.4175957],[103.8309812,1.4175248],[103.8309572,1.4175367],[103.8309378,1.4174974],[103.8309619,1.4174855],[103.8309548,1.4174713],[103.8308404,1.4175282],[103.8309453,1.4177412],[103.8309862,1.4177539],[103.8309731,1.4177948],[103.8310004,1.4178033],[103.8310134,1.4177624],[103.8310301,1.4177675],[103.8313304,1.4176191],[103.8313257,1.4176097],[103.8314133,1.4175662],[103.8315095,1.4175187],[103.8315141,1.4175282],[103.8318145,1.4173797],[103.8318206,1.417363],[103.8318611,1.4173772],[103.8318708,1.4173504],[103.8318303,1.4173361],[103.831845,1.4172964],[103.8317394,1.4170838],[103.8316247,1.4171401],[103.8316318,1.4171543],[103.8316558,1.4171424],[103.8316752,1.4171817],[103.8316512,1.4171936],[103.8316863,1.4172644],[103.8317104,1.4172525],[103.8317281,1.4172881],[103.8317169,1.4173185],[103.8316827,1.4173353],[103.8316709,1.4173112],[103.8316,1.4173462],[103.8316119,1.4173702],[103.8315724,1.4173897],[103.8315606,1.4173656],[103.8315381,1.4173767],[103.8315499,1.4174008],[103.8315106,1.4174201],[103.8314988,1.4173961],[103.8314279,1.4174311],[103.8314398,1.4174552],[103.8314173,1.4174663],[103.8314055,1.4174423],[103.831399,1.4174455],[103.8313636,1.4174631],[103.8313282,1.4174807],[103.8313401,1.4175047],[103.8313176,1.4175158],[103.8313056,1.4174916],[103.8312348,1.4175267],[103.8312467,1.4175507],[103.8312074,1.4175702],[103.8311955,1.4175462],[103.8311731,1.4175573],[103.831185,1.4175813],[103.8311455,1.4176008],[103.8311336,1.4175768],[103.8310628,1.4176119],[103.8310747,1.4176359],[103.8310407,1.4176529],[103.8310097,1.4176433]]]}},{"type":"Feature","id":"way/1294674117-0","properties":{"addr:city":"Singapore","addr:housenumber":"812","addr:postcode":"760812","addr:street":"Yishun Ring Road","building":"residential","building:levels":"13","layer":"1","residential":"hdb"},"geometry":{"type":"Polygon","coordinates":[[[103.8324938,1.4169486],[103.8325079,1.4169101],[103.8324211,1.4167346],[103.8323065,1.4167913],[103.8323134,1.4168054],[103.8323374,1.4167935],[103.8323569,1.4168329],[103.832333,1.4168447],[103.832368,1.4169155],[103.832392,1.4169036],[103.8324097,1.4169393],[103.8323985,1.4169697],[103.8323644,1.4169866],[103.8323524,1.4169625],[103.8322817,1.4169975],[103.8322936,1.4170215],[103.8322543,1.417041],[103.8322424,1.417017],[103.8322199,1.4170281],[103.8322318,1.4170521],[103.8321924,1.4170716],[103.8321805,1.4170477],[103.8321098,1.4170827],[103.8321217,1.4171067],[103.8320875,1.4171237],[103.8320566,1.417114],[103.8320389,1.4170783],[103.832063,1.4170665],[103.832028,1.4169957],[103.832004,1.4170075],[103.8319846,1.4169682],[103.8320086,1.4169563],[103.8320016,1.4169421],[103.8318869,1.4169988],[103.8319923,1.4172116],[103.8320167,1.4172184],[103.832008,1.4172501],[103.8320371,1.4172586],[103.8320462,1.4172269],[103.8320801,1.4172366],[103.8324565,1.4170506],[103.8324938,1.4169486]]]}},{"type":"Feature","id":"way/1294923139-0","properties":{"addr:city":"Singapore","addr:housenumber":"800","addr:postcode":"760800","addr:street":"Yishun Ring Road","building":"residential","building:levels":"13","residential":"hdb"},"geometry":{"type":"Polygon","coordinates":[[[103.832036,1.4187034],[103.832059,1.4187492],[103.8320247,1.4187664],[103.8320205,1.4187728],[103.8320021,1.4187605],[103.8319894,1.4187795],[103.8319672,1.4187647],[103.8319576,1.4187791],[103.8319799,1.418794],[103.8319654,1.4188158],[103.8319432,1.4188009],[103.8318961,1.4188714],[103.8319183,1.4188863],[103.8318971,1.4189181],[103.8318655,1.4189253],[103.8318322,1.4189031],[103.8318471,1.4188808],[103.8317763,1.4188336],[103.8317615,1.4188558],[103.8317401,1.4188416],[103.831755,1.4188193],[103.8317402,1.4188094],[103.8316691,1.418916],[103.8318587,1.4190422],[103.8319453,1.4190226],[103.8320834,1.4188155],[103.8324395,1.4186387],[103.8324455,1.4186221],[103.832486,1.4186367],[103.8324957,1.4186099],[103.8324554,1.4185954],[103.8324699,1.4185553],[103.8323685,1.4183514],[103.8322538,1.4184084],[103.8322617,1.4184243],[103.8322857,1.4184124],[103.8322972,1.4184354],[103.8322733,1.4184473],[103.8323112,1.4185235],[103.8323352,1.4185115],[103.832353,1.4185472],[103.8323419,1.4185777],[103.8323077,1.4185946],[103.8322958,1.4185706],[103.8322192,1.4186085],[103.832231,1.4186323],[103.8322086,1.4186433],[103.8321967,1.4186192],[103.8321709,1.4186319],[103.8321829,1.4186561],[103.8321602,1.4186673],[103.8321485,1.4186435],[103.8320723,1.4186811],[103.8320842,1.4187052],[103.8320631,1.4187156],[103.832053,1.4186949],[103.832036,1.4187034]]]}},{"type":"Feature","id":"way/1295011468-0","properties":{"addr:city":"Singapore","addr:housenumber":"810","addr:postcode":"760810","addr:street":"Yishun Ring Road","building":"residential","building:levels":"13","residential":"hdb"},"geometry":{"type":"Polygon","coordinates":[[[103.8320389,1.4159797],[103.8318494,1.416075],[103.8318238,1.4160241],[103.8317946,1.4160388],[103.83182,1.4160892],[103.8315551,1.4162224],[103.831546,1.4162044],[103.8315919,1.4161813],[103.8315459,1.4160898],[103.8314581,1.4161339],[103.8314836,1.4161847],[103.8314548,1.4161991],[103.8314292,1.4161483],[103.8313416,1.4161923],[103.8313878,1.416284],[103.8314052,1.4162753],[103.8314146,1.4162939],[103.8313971,1.4163026],[103.8314437,1.4163953],[103.8315315,1.4163512],[103.8315059,1.4163003],[103.8315346,1.4162859],[103.8315601,1.4163366],[103.8317398,1.4162463],[103.8317143,1.4161956],[103.8317539,1.4161756],[103.8317794,1.4162264],[103.8319592,1.416136],[103.8319337,1.4160852],[103.8319731,1.4160653],[103.8319987,1.4161161],[103.8320855,1.4160724],[103.8320389,1.4159797]]]}},{"type":"Feature","id":"way/1295011478-0","properties":{"addr:city":"Singapore","addr:housenumber":"809","addr:postcode":"760809","addr:street":"Yishun Ring Road","building":"residential","building:levels":"13","residential":"hdb"},"geometry":{"type":"Polygon","coordinates":[[[103.8307049,1.4167121],[103.8306794,1.4166613],[103.8307188,1.4166415],[103.8307444,1.4166923],[103.8309242,1.416602],[103.8308987,1.4165512],[103.8309383,1.4165313],[103.8309638,1.4165821],[103.8311435,1.4164918],[103.831118,1.416441],[103.8311467,1.4164266],[103.8311723,1.4164774],[103.8312601,1.4164333],[103.8312135,1.4163407],[103.831196,1.4163495],[103.8311866,1.4163309],[103.8312041,1.4163221],[103.8311579,1.4162303],[103.8310704,1.4162744],[103.831096,1.4163252],[103.8310672,1.4163397],[103.8310416,1.416289],[103.8309538,1.4163331],[103.8309999,1.4164246],[103.8310457,1.4164016],[103.8310548,1.4164196],[103.8307899,1.4165527],[103.8307645,1.4165023],[103.8307353,1.4165169],[103.8307609,1.4165679],[103.8305714,1.4166631],[103.830618,1.4167558],[103.8307049,1.4167121]]]}},{"type":"Feature","id":"way/1442600402-0","properties":{"addr:city":"Singapore","addr:country":"SG","addr:housenumber":"971B","addr:postcode":"762971","addr:street":"Bah Soon Pah Road","building":"construction","construction":"residential","residential":"hdb"},"geometry":{"type":"Polygon","coordinates":[[[103.8296398,1.4169855],[103.8296623,1.4170245],[103.8296717,1.417019],[103.8296838,1.4170399],[103.8297072,1.4170264],[103.8297142,1.4170387],[103.8297509,1.4170175],[103.8297074,1.4169422],[103.8296965,1.4169485],[103.8296656,1.416895],[103.8296764,1.4168887],[103.8296463,1.4168366],[103.8296305,1.4168457],[103.8295863,1.4168712],[103.8295992,1.4168935],[103.8295882,1.4168998],[103.8296024,1.4169243],[103.8295898,1.4169316],[103.829617,1.4169786],[103.8295975,1.4169898],[103.8295636,1.4169926],[103.8295674,1.41704],[103.8295418,1.4170421],[103.8295405,1.4170265],[103.829507,1.4170292],[103.8295139,1.4171136],[103.8293272,1.4171288],[103.829323,1.4170762],[103.8293746,1.417072],[103.8293733,1.4170558],[103.8294361,1.4170507],[103.8294352,1.417039],[103.8294587,1.4170371],[103.8294566,1.4170118],[103.8294716,1.4170105],[103.829468,1.4169653],[103.8293816,1.4169723],[103.8293822,1.4169799],[103.8292808,1.4169881],[103.8292802,1.4169806],[103.8291937,1.4169876],[103.8291953,1.4170064],[103.8291974,1.4170328],[103.8292128,1.4170316],[103.8292149,1.4170569],[103.8292395,1.4170549],[103.8292404,1.4170666],[103.8293043,1.4170614],[103.8293066,1.4170907],[103.8292513,1.4170952],[103.8292535,1.4171217],[103.8293088,1.4171173],[103.8293111,1.4171461],[103.8292473,1.4171513],[103.8292483,1.4171637],[103.8292237,1.4171657],[103.8292259,1.4171923],[103.8292105,1.4171935],[103.8292122,1.4172143],[103.8292139,1.4172355],[103.8293004,1.4172284],[103.8293,1.4172236],[103.8294014,1.4172153],[103.8294018,1.4172202],[103.8294881,1.4172132],[103.8294868,1.4171968],[103.8294847,1.4171712],[103.8294697,1.4171725],[103.8294675,1.4171459],[103.829444,1.4171478],[103.829443,1.4171354],[103.8295072,1.4171302],[103.8295125,1.4171947],[103.8295138,1.4172111],[103.8295453,1.4172085],[103.8295444,1.4171967],[103.8296,1.4171922],[103.829601,1.417204],[103.829632,1.4172015],[103.8296254,1.4171206],[103.8296568,1.417118],[103.8296722,1.4173072],[103.829693,1.4173055],[103.8296922,1.4172951],[103.8297041,1.4172941],[103.829706,1.4173173],[103.8297334,1.4173151],[103.8297345,1.4173287],[103.8297757,1.4173254],[103.8297689,1.4172415],[103.8297591,1.4172423],[103.8297537,1.4171764],[103.8297636,1.4171756],[103.8297565,1.4170891],[103.8297153,1.4170924],[103.8297165,1.4171068],[103.829689,1.417109],[103.829691,1.4171329],[103.8296791,1.4171339],[103.8296763,1.4171004],[103.8296555,1.4171021],[103.8296508,1.4170442],[103.8296194,1.4170467],[103.8296155,1.4169995],[103.8296398,1.4169855]]]}},{"type":"Feature","id":"way/1442600407-0","properties":{"addr:city":"Singapore","addr:country":"SG","addr:housenumber":"971","addr:postcode":"760971","addr:street":"Bah Soon Pah Road","amenity":"shelter","building":"construction","building:levels":"1","construction":"roof","layer":"1","shelter_type":"pavilion"},"geometry":{"type":"Polygon","coordinates":[[[103.8295554,1.4174642],[103.8295446,1.4173307],[103.8293769,1.4173443],[103.8293878,1.4174778],[103.8295554,1.4174642]]]}},{"type":"Feature","id":"way/1442600408-0","properties":{"addr:city":"Singapore","addr:country":"SG","addr:housenumber":"971A","addr:postcode":"761971","addr:street":"Bah Soon Pah Road","building":"construction","construction":"residential","residential":"hdb"},"geometry":{"type":"Polygon","coordinates":[[[103.8296757,1.417642],[103.829732,1.4176374],[103.8297339,1.4176609],[103.8297614,1.4176587],[103.8297624,1.4176716],[103.8298036,1.4176682],[103.8297968,1.4175843],[103.8297869,1.4175851],[103.8297815,1.4175185],[103.8297914,1.4175177],[103.8297844,1.4174313],[103.8297431,1.4174346],[103.8297444,1.4174502],[103.829717,1.4174524],[103.8297189,1.4174767],[103.829707,1.4174777],[103.8297104,1.4175187],[103.8296946,1.41752],[103.829703,1.4176236],[103.8296617,1.417627],[103.8296563,1.4175606],[103.8296039,1.4175649],[103.8296027,1.4175498],[103.8295427,1.4175547],[103.829544,1.4175709],[103.8295484,1.4176248],[103.8295715,1.4176229],[103.8295724,1.4176342],[103.8294841,1.4176414],[103.8294831,1.4176301],[103.8295066,1.4176282],[103.8295045,1.4176014],[103.8295195,1.4176002],[103.8295173,1.4175731],[103.829516,1.4175569],[103.8294296,1.4175639],[103.8294301,1.4175701],[103.8293287,1.4175784],[103.8293282,1.4175722],[103.8292417,1.4175792],[103.8292437,1.4176031],[103.8292453,1.4176224],[103.8292606,1.4176212],[103.8292628,1.417648],[103.8292874,1.417646],[103.8292883,1.4176573],[103.8293522,1.4176521],[103.8293543,1.4176786],[103.8292998,1.417683],[103.8293019,1.417709],[103.8293565,1.4177046],[103.8293586,1.4177316],[103.8292948,1.4177368],[103.8292958,1.4177492],[103.8292712,1.4177512],[103.8292734,1.4177777],[103.829258,1.417779],[103.8292597,1.4177998],[103.8292614,1.4178209],[103.8293479,1.4178139],[103.8293475,1.4178091],[103.8294489,1.4178008],[103.8294493,1.4178057],[103.8295356,1.4177986],[103.8295322,1.4177567],[103.8295172,1.4177579],[103.829515,1.4177314],[103.8294915,1.4177333],[103.8294905,1.4177209],[103.8294256,1.4177261],[103.8294243,1.4177103],[103.829374,1.4177144],[103.8293701,1.4176668],[103.8295584,1.4176515],[103.8295652,1.4177356],[103.8295981,1.4177329],[103.8295967,1.4177158],[103.8296232,1.4177137],[103.8296237,1.4177202],[103.8296632,1.417717],[103.8296685,1.417783],[103.8296361,1.4178665],[103.8296605,1.4178759],[103.8296644,1.4178658],[103.8296719,1.4178687],[103.8296641,1.4178889],[103.8296908,1.4178993],[103.8296859,1.417912],[103.8297239,1.4179267],[103.8297538,1.4178497],[103.829743,1.4178455],[103.8297676,1.4177821],[103.8297784,1.4177863],[103.8298092,1.4177067],[103.8297712,1.417692],[103.8297669,1.4177031],[103.8297402,1.4176928],[103.8297303,1.4177182],[103.8297228,1.4177152],[103.8297061,1.4177582],[103.8296845,1.4177499],[103.8296757,1.417642]]]}},{"type":"Feature","id":"way/1442600415-0","properties":{"addr:city":"Singapore","addr:country":"SG","addr:housenumber":"970","addr:postcode":"760970","addr:street":"Bah Soon Pah Road","amenity":"shelter","building":"construction","building:levels":"1","construction":"roof","layer":"1","shelter_type":"pavilion"},"geometry":{"type":"Polygon","coordinates":[[[103.8296529,1.4186724],[103.8296421,1.4185389],[103.8294744,1.4185525],[103.8294853,1.418686],[103.8296529,1.4186724]]]}},{"type":"Feature","id":"way/1442600416-0","properties":{"addr:city":"Singapore","addr:country":"SG","addr:housenumber":"970B","addr:postcode":"762970","addr:street":"Bah Soon Pah Road","building":"construction","construction":"residential","residential":"hdb"},"geometry":{"type":"Polygon","coordinates":[[[103.8297373,1.4181937],[103.8297598,1.4182327],[103.8297692,1.4182273],[103.8297813,1.4182481],[103.8298047,1.4182346],[103.8298118,1.4182469],[103.8298484,1.4182258],[103.8298049,1.4181504],[103.829794,1.4181567],[103.8297631,1.4181032],[103.829774,1.4180969],[103.8297439,1.4180448],[103.8296838,1.4180794],[103.8296967,1.4181017],[103.8296858,1.4181081],[103.8296999,1.4181325],[103.8296874,1.4181398],[103.8297145,1.4181868],[103.829695,1.418198],[103.8296611,1.4182008],[103.829665,1.4182482],[103.8296393,1.4182503],[103.829638,1.4182347],[103.8296046,1.4182374],[103.8296114,1.4183218],[103.8294248,1.418337],[103.8294205,1.4182844],[103.8294721,1.4182802],[103.8294708,1.418264],[103.8295336,1.4182589],[103.8295327,1.4182472],[103.8295562,1.4182453],[103.8295541,1.41822],[103.8295692,1.4182187],[103.8295655,1.4181735],[103.8294791,1.4181805],[103.8294798,1.4181881],[103.8293784,1.4181963],[103.8293777,1.4181888],[103.8292913,1.4181958],[103.8292928,1.4182152],[103.8292949,1.418241],[103.8293103,1.4182398],[103.8293124,1.4182651],[103.829337,1.4182631],[103.8293379,1.4182748],[103.8294018,1.4182696],[103.8294042,1.4182989],[103.8293488,1.4183034],[103.829351,1.41833],[103.8294063,1.4183255],[103.8294087,1.4183543],[103.8293448,1.4183595],[103.8293458,1.4183719],[103.8293212,1.4183739],[103.8293234,1.4184005],[103.829308,1.4184017],[103.8293094,1.4184191],[103.8293114,1.4184437],[103.8293979,1.4184366],[103.8293975,1.4184318],[103.8294989,1.4184235],[103.8294993,1.4184284],[103.8295856,1.4184214],[103.8295843,1.418405],[103.8295822,1.4183794],[103.8295672,1.4183807],[103.829565,1.4183541],[103.8295415,1.418356],[103.8295405,1.4183436],[103.8296047,1.4183384],[103.82961,1.4184029],[103.8296113,1.4184193],[103.8296428,1.4184167],[103.8296419,1.4184049],[103.8296975,1.4184004],[103.8296985,1.4184122],[103.8297295,1.4184097],[103.8297229,1.4183288],[103.8297543,1.4183262],[103.8297697,1.4185154],[103.8297905,1.4185137],[103.8297897,1.4185033],[103.8298016,1.4185023],[103.8298035,1.4185256],[103.8298309,1.4185233],[103.8298321,1.4185369],[103.8298733,1.4185336],[103.8298664,1.4184497],[103.8298566,1.4184505],[103.8298512,1.4183846],[103.8298611,1.4183838],[103.829854,1.4182973],[103.8298128,1.4183006],[103.829814,1.418315],[103.8297865,1.4183172],[103.8297885,1.4183412],[103.8297766,1.4183421],[103.8297739,1.4183086],[103.829753,1.4183103],[103.8297483,1.4182524],[103.8297169,1.418255],[103.8297131,1.4182077],[103.8297373,1.4181937]]]}},{"type":"Feature","id":"way/1442600418-0","properties":{"addr:city":"Singapore","addr:country":"SG","addr:housenumber":"969C","addr:postcode":"763969","addr:street":"Bah Soon Pah Road","building":"construction","building:levels":"15","construction":"residential","residential":"hdb"},"geometry":{"type":"Polygon","coordinates":[[[103.8288016,1.4172557],[103.8287797,1.4171863],[103.8286686,1.4172214],[103.8286905,1.4172908],[103.8286472,1.4173045],[103.8286341,1.4173086],[103.8286081,1.4172264],[103.8285798,1.4172353],[103.8285839,1.4172481],[103.8285302,1.417265],[103.8285262,1.4172523],[103.828469,1.4172703],[103.8284904,1.417338],[103.828512,1.4173312],[103.8285148,1.4173401],[103.8285473,1.4173298],[103.828555,1.4173543],[103.8285117,1.417368],[103.8285161,1.4173821],[103.8284927,1.4173895],[103.8284999,1.4174123],[103.8284845,1.4174171],[103.8284969,1.4174561],[103.828579,1.4174302],[103.8285771,1.4174242],[103.8286436,1.4174032],[103.828689,1.4173889],[103.8286662,1.4173165],[103.828699,1.4173061],[103.8287238,1.4173845],[103.8287505,1.4173761],[103.8287456,1.4173606],[103.8287995,1.4173436],[103.8288044,1.4173591],[103.8288376,1.4173486],[103.8288136,1.4172727],[103.8288842,1.4172504],[103.82896,1.4172442],[103.8289644,1.4172979],[103.828937,1.4173002],[103.8289384,1.4173168],[103.8288971,1.4173201],[103.8288982,1.4173325],[103.8288736,1.4173345],[103.8288757,1.4173611],[103.8288603,1.4173623],[103.8288638,1.4174043],[103.8289502,1.4173972],[103.8289494,1.417387],[103.8290154,1.4173816],[103.8290162,1.4173919],[103.8291015,1.417385],[103.8290996,1.4173622],[103.8290981,1.417343],[103.8290834,1.4173442],[103.8290812,1.4173177],[103.8290573,1.4173196],[103.8290563,1.4173072],[103.8290122,1.4173108],[103.8290109,1.4172942],[103.8289816,1.4172965],[103.8289779,1.417251],[103.8290621,1.4172441],[103.8290593,1.4172106],[103.8290836,1.4172087],[103.8290814,1.4171818],[103.8290968,1.4171806],[103.8290934,1.4171388],[103.8290065,1.4171459],[103.8290069,1.4171511],[103.8289254,1.4171577],[103.8289245,1.4171468],[103.8288381,1.4171538],[103.8288414,1.417195],[103.8288561,1.4171939],[103.8288584,1.4172218],[103.8288817,1.4172199],[103.8288826,1.4172301],[103.8288016,1.4172557]]]}},{"type":"Feature","id":"way/1442600420-0","properties":{"addr:city":"Singapore","addr:country":"SG","addr:housenumber":"969B","addr:postcode":"762969","addr:street":"Bah Soon Pah Road","building":"construction","building:levels":"12","construction":"residential","residential":"hdb"},"geometry":{"type":"Polygon","coordinates":[[[103.8290366,1.417826],[103.8290552,1.4178234],[103.8290704,1.4178213],[103.8290767,1.417868],[103.8290783,1.4178797],[103.8291028,1.4178763],[103.8291012,1.4178646],[103.8290991,1.4178495],[103.8291559,1.4178418],[103.8291516,1.4178103],[103.8291357,1.4178124],[103.8291334,1.4177954],[103.8291492,1.4177932],[103.8291444,1.417758],[103.8289404,1.4177859],[103.8289452,1.4178211],[103.8289182,1.4178248],[103.82891,1.4177647],[103.8287519,1.4177862],[103.8287446,1.4177322],[103.8289026,1.4177107],[103.8288951,1.4176558],[103.8289221,1.4176522],[103.8289264,1.4176832],[103.8291304,1.4176554],[103.8291262,1.4176243],[103.8291103,1.4176265],[103.8291079,1.4176086],[103.8291238,1.4176065],[103.8291189,1.417571],[103.8290622,1.4175788],[103.8290586,1.4175524],[103.8290341,1.4175557],[103.8290426,1.4176175],[103.8290088,1.4176221],[103.8290039,1.4175867],[103.8287723,1.4176183],[103.8287772,1.4176537],[103.8287302,1.4176601],[103.8286041,1.4176773],[103.8286164,1.4177674],[103.8286301,1.4177655],[103.8286374,1.4178188],[103.8286698,1.4178144],[103.8286757,1.4178578],[103.8286434,1.4178622],[103.8286457,1.4178793],[103.8286319,1.4178811],[103.8286362,1.4179126],[103.8287491,1.4178972],[103.8287448,1.4178657],[103.8287745,1.4178617],[103.828805,1.4178575],[103.8288093,1.417889],[103.8290409,1.4178574],[103.8290366,1.417826]]]}},{"type":"Feature","id":"way/1442600421-0","properties":{"addr:city":"Singapore","addr:country":"SG","addr:housenumber":"969","addr:postcode":"760969","addr:street":"Bah Soon Pah Road","amenity":"parking","building":"construction","building:levels":"6","construction":"parking","parking":"multi-storey","roof:levels":"1","roof:material":"grass","roof:shape":"flat"},"geometry":{"type":"Polygon","coordinates":[[[103.8285861,1.4180449],[103.828603,1.4181683],[103.8286197,1.418291],[103.8286806,1.418737],[103.828839,1.4187154],[103.8290629,1.4186849],[103.8289751,1.4180415],[103.8289684,1.4179927],[103.8285861,1.4180449]]]}},{"type":"Feature","id":"way/1488746836-0","properties":{"addr:city":"Singapore","addr:housenumber":"801","addr:postcode":"760801","addr:street":"Yishun Ring Road","building":"residential","building:levels":"4","roof:colour":"#f1817d"},"geometry":{"type":"Polygon","coordinates":[[[103.8323135,1.4182469],[103.832238,1.4180948],[103.832261,1.4180835],[103.832247,1.4180552],[103.8322236,1.4180668],[103.8321383,1.417895],[103.8321261,1.417901],[103.8320986,1.4178455],[103.8319936,1.4178975],[103.8320028,1.417916],[103.8320231,1.4179059],[103.8320331,1.4179261],[103.8320125,1.4179363],[103.8320495,1.4180109],[103.8320691,1.4180012],[103.832079,1.4180213],[103.8320587,1.4180314],[103.8320963,1.4181073],[103.8321183,1.4180964],[103.8321406,1.4181415],[103.8321204,1.4181515],[103.8321578,1.4182271],[103.8321783,1.4182169],[103.8321889,1.4182383],[103.8321686,1.4182483],[103.8322047,1.4183211],[103.8322251,1.418311],[103.8322356,1.4183324],[103.8322153,1.4183424],[103.8322241,1.4183601],[103.8323287,1.4183083],[103.8323013,1.4182529],[103.8323135,1.4182469]]]}},{"type":"Feature","id":"way/1552566373-0","properties":{"addr:city":"Singapore","addr:housenumber":"11","addr:postcode":"769287","addr:street":"Chencharu Close","building":"yes","name":"Live Turtle Museum","tourism":"museum"},"geometry":{"type":"Polygon","coordinates":[[[103.8294658,1.414931],[103.8292842,1.4149935],[103.8294174,1.4153798],[103.8296405,1.4154379],[103.8294658,1.414931]]]}},{"type":"Feature","id":"way/1552566377-0","properties":{"building":"yes"},"geometry":{"type":"Polygon","coordinates":[[[103.8299339,1.4154327],[103.8298827,1.4152911],[103.8297208,1.4153496],[103.8297453,1.4154175],[103.829772,1.4154912],[103.8299339,1.4154327]]]}},{"type":"Feature","id":"way/1552566378-0","properties":{"building":"yes"},"geometry":{"type":"Polygon","coordinates":[[[103.8299179,1.4151852],[103.8298728,1.4150597],[103.8297101,1.4151182],[103.8297552,1.4152437],[103.8299179,1.4151852]]]}},{"type":"Feature","id":"way/1552566379-0","properties":{"building":"yes"},"geometry":{"type":"Polygon","coordinates":[[[103.8304823,1.4153251],[103.8303745,1.4152663],[103.8302911,1.4154188],[103.8303989,1.4154777],[103.8304823,1.4153251]]]}},{"type":"Feature","id":"way/1552566381-0","properties":{"building":"yes"},"geometry":{"type":"Polygon","coordinates":[[[103.830016,1.414933],[103.82997,1.4148196],[103.8298784,1.4148568],[103.8299244,1.4149701],[103.830016,1.414933]]]}},{"type":"Feature","id":"way/1552566382-0","properties":{"building":"yes"},"geometry":{"type":"Polygon","coordinates":[[[103.8301919,1.4148628],[103.8301487,1.4147542],[103.8299941,1.4148157],[103.8300373,1.4149243],[103.8301919,1.4148628]]]}},{"type":"Feature","id":"way/1552566383-0","properties":{"building":"yes"},"geometry":{"type":"Polygon","coordinates":[[[103.8300312,1.4154712],[103.8300403,1.4155008],[103.8301318,1.4154727],[103.8301195,1.4154325],[103.8300357,1.4154582],[103.8300241,1.4154203],[103.8299748,1.4154354],[103.8299897,1.4154839],[103.8300312,1.4154712]]]}},{"type":"Feature","id":"way/1552566384-0","properties":{"building":"yes"},"geometry":{"type":"Polygon","coordinates":[[[103.830062,1.4153317],[103.8300089,1.4153217],[103.829973,1.4153616],[103.8300248,1.4153685],[103.830062,1.4153317]]]}},{"type":"Feature","id":"way/1552566385-0","properties":{"building":"yes"},"geometry":{"type":"Polygon","coordinates":[[[103.8299746,1.4152928],[103.8299547,1.4152384],[103.8299073,1.4152558],[103.8299272,1.4153101],[103.8299746,1.4152928]]]}},{"type":"Feature","id":"way/194619434-0-0-0","properties":{"foot":"no","highway":"service","lanes":"3","lanes:backward":"1","lanes:forward":"2","service":"parking_aisle","sidewalk":"left","surface":"asphalt","turn:lanes:backward":"through","turn:lanes:forward":"left|right"},"geometry":{"type":"LineString","coordinates":[[103.8326641,1.4186166],[103.832695,1.4186831]]}},{"type":"Feature","id":"way/429794457-0-0-0","properties":{"highway":"service","lanes":"2","lanes:backward":"1","lanes:forward":"1","service":"parking_aisle","sidewalk":"both","surface":"asphalt"},"geometry":{"type":"LineString","coordinates":[[103.8309502,1.4178299],[103.8307008,1.4173287]]}},{"type":"Feature","id":"way/429794457-0-1-0","properties":{"highway":"service","lanes":"2","lanes:backward":"1","lanes:forward":"1","service":"parking_aisle","sidewalk":"both","surface":"asphalt"},"geometry":{"type":"LineString","coordinates":[[103.8307008,1.4173287],[103.8307088,1.4172536]]}},{"type":"Feature","id":"way/464994181-0-0-0","properties":{"highway":"service","oneway":"no","service":"parking_aisle"},"geometry":{"type":"LineString","coordinates":[[103.8320786,1.4169638],[103.8322236,1.4168907]]}},{"type":"Feature","id":"way/464994181-0-1-0","properties":{"highway":"service","oneway":"no","service":"parking_aisle"},"geometry":{"type":"LineString","coordinates":[[103.8322236,1.4168907],[103.8322392,1.4168796]]}},{"type":"Feature","id":"way/464994181-0-2-0","properties":{"highway":"service","oneway":"no","service":"parking_aisle"},"geometry":{"type":"LineString","coordinates":[[103.8322392,1.4168796],[103.8322448,1.4168634]]}},{"type":"Feature","id":"way/464994181-0-3-0","properties":{"highway":"service","oneway":"no","service":"parking_aisle"},"geometry":{"type":"LineString","coordinates":[[103.8322448,1.4168634],[103.8322403,1.4168472]]}},{"type":"Feature","id":"way/464994181-0-4-0","properties":{"highway":"service","oneway":"no","service":"parking_aisle"},"geometry":{"type":"LineString","coordinates":[[103.8322403,1.4168472],[103.8322044,1.416777]]}},{"type":"Feature","id":"way/464994181-0-5-0","properties":{"highway":"service","oneway":"no","service":"parking_aisle"},"geometry":{"type":"LineString","coordinates":[[103.8322044,1.416777],[103.832028,1.4164251]]}},{"type":"Feature","id":"way/464994182-0-0-0","properties":{"highway":"service","oneway":"yes","service":"parking_aisle"},"geometry":{"type":"LineString","coordinates":[[103.832028,1.4164251],[103.8319501,1.4162613]]}},{"type":"Feature","id":"way/464994182-0-1-0","properties":{"highway":"service","oneway":"yes","service":"parking_aisle"},"geometry":{"type":"LineString","coordinates":[[103.8319501,1.4162613],[103.8318043,1.4163355]]}},{"type":"Feature","id":"way/464994182-0-2-0","properties":{"highway":"service","oneway":"yes","service":"parking_aisle"},"geometry":{"type":"LineString","coordinates":[[103.8318043,1.4163355],[103.8318827,1.4164943]]}},{"type":"Feature","id":"way/464994182-0-3-0","properties":{"highway":"service","oneway":"yes","service":"parking_aisle"},"geometry":{"type":"LineString","coordinates":[[103.8318827,1.4164943],[103.832028,1.4164251]]}},{"type":"Feature","id":"way/464994183-0-0-0","properties":{"highway":"service","service":"parking_aisle"},"geometry":{"type":"LineString","coordinates":[[103.8303877,1.4166155],[103.8305415,1.4169004]]}},{"type":"Feature","id":"way/464994183-0-1-0","properties":{"highway":"service","service":"parking_aisle"},"geometry":{"type":"LineString","coordinates":[[103.8305415,1.4169004],[103.831189,1.4165967]]}},{"type":"Feature","id":"way/464994183-0-2-0","properties":{"highway":"service","service":"parking_aisle"},"geometry":{"type":"LineString","coordinates":[[103.831189,1.4165967],[103.8313123,1.4166101]]}},{"type":"Feature","id":"way/464994184-0-0-0","properties":{"highway":"service","service":"parking_aisle","sidewalk":"right"},"geometry":{"type":"LineString","coordinates":[[103.8314588,1.4188522],[103.8321707,1.4185112]]}},{"type":"Feature","id":"way/464994184-0-1-0","properties":{"highway":"service","service":"parking_aisle","sidewalk":"right"},"geometry":{"type":"LineString","coordinates":[[103.8321707,1.4185112],[103.8322082,1.4184361]]}},{"type":"Feature","id":"way/464994185-0-0-0","properties":{"highway":"service","lanes":"2","lanes:backward":"1","lanes:forward":"1","service":"parking_aisle","turn:lanes:backward":"left;right"},"geometry":{"type":"LineString","coordinates":[[103.8309951,1.4179202],[103.8314854,1.4176759]]}},{"type":"Feature","id":"way/464994187-0-0-0","properties":{"highway":"service","lanes":"2","lanes:backward":"1","lanes:forward":"1","service":"parking_aisle"},"geometry":{"type":"LineString","coordinates":[[103.8329461,1.4149342],[103.8327965,1.4150073]]}},{"type":"Feature","id":"way/464994187-0-1-0","properties":{"highway":"service","lanes":"2","lanes:backward":"1","lanes:forward":"1","service":"parking_aisle"},"geometry":{"type":"LineString","coordinates":[[103.8327965,1.4150073],[103.8327631,1.4150076]]}},{"type":"Feature","id":"way/464994187-0-2-0","properties":{"highway":"service","lanes":"2","lanes:backward":"1","lanes:forward":"1","service":"parking_aisle"},"geometry":{"type":"LineString","coordinates":[[103.8327631,1.4150076],[103.8327389,1.4150007]]}},{"type":"Feature","id":"way/464994187-0-3-0","properties":{"highway":"service","lanes":"2","lanes:backward":"1","lanes:forward":"1","service":"parking_aisle"},"geometry":{"type":"LineString","coordinates":[[103.8327389,1.4150007],[103.8327244,1.4149836]]}},{"type":"Feature","id":"way/464994187-0-4-0","properties":{"highway":"service","lanes":"2","lanes:backward":"1","lanes:forward":"1","service":"parking_aisle"},"geometry":{"type":"LineString","coordinates":[[103.8327244,1.4149836],[103.8325975,1.4147259]]}},{"type":"Feature","id":"way/478142478-0-0-0","properties":{"highway":"secondary","lanes":"2","maxspeed":"50","name":"Yishun Ring Road","oneway":"yes","surface":"asphalt","turn:lanes":"left;through|through;right"},"geometry":{"type":"LineString","coordinates":[[103.8328265,1.4187096],[103.8331779,1.4185303]]}},{"type":"Feature","id":"way/478948725-0-0-0","properties":{"busway:left":"lane","highway":"primary","lanes":"3","lanes:bus":"1","lanes:bus:conditional":"1 @ (Mo-Fr 07:30-09:30,17:00-20:00)","maxspeed":"60","name":"Yishun Avenue 2","name:zh":"\u4e49\u987a2\u9053","oneway":"yes","sidewalk:left":"separate","sidewalk:right":"no","source":"Yahoo aerial images","surface":"asphalt"},"geometry":{"type":"LineString","coordinates":[[103.8324219,1.4153873],[103.8320273,1.4146064]]}},{"type":"Feature","id":"way/478949924-0-1-0","properties":{"busway:left":"lane","highway":"primary","lanes":"3","lanes:bus":"1","lanes:bus:conditional":"1 @ (Mo-Fr 07:30-09:30,17:00-20:00)","maxspeed":"60","name":"Yishun Avenue 2","name:zh":"\u4e49\u987a2\u9053","oneway":"yes","sidewalk":"left","source":"Yahoo aerial images","surface":"asphalt"},"geometry":{"type":"LineString","coordinates":[[103.8315738,1.4139673],[103.8320444,1.4148946]]}},{"type":"Feature","id":"way/543939616-0-0-0","properties":{"highway":"service","lanes":"2","lanes:backward":"1","lanes:forward":"1","service":"parking_aisle","turn:lanes:backward":"through","turn:lanes:forward":"through"},"geometry":{"type":"LineString","coordinates":[[103.8305614,1.418526],[103.831124,1.4184744]]}},{"type":"Feature","id":"way/543939616-0-1-0","properties":{"highway":"service","lanes":"2","lanes:backward":"1","lanes:forward":"1","service":"parking_aisle","turn:lanes:backward":"through","turn:lanes:forward":"through"},"geometry":{"type":"LineString","coordinates":[[103.831124,1.4184744],[103.8311736,1.4184908]]}},{"type":"Feature","id":"way/543939616-0-2-0","properties":{"highway":"service","lanes":"2","lanes:backward":"1","lanes:forward":"1","service":"parking_aisle","turn:lanes:backward":"through","turn:lanes:forward":"through"},"geometry":{"type":"LineString","coordinates":[[103.8311736,1.4184908],[103.831187,1.4185076]]}},{"type":"Feature","id":"way/543939616-0-3-0","properties":{"highway":"service","lanes":"2","lanes:backward":"1","lanes:forward":"1","service":"parking_aisle","turn:lanes:backward":"through","turn:lanes:forward":"through"},"geometry":{"type":"LineString","coordinates":[[103.831187,1.4185076],[103.8312386,1.4186122]]}},{"type":"Feature","id":"way/543939618-0-0-0","properties":{"highway":"service","service":"parking_aisle"},"geometry":{"type":"LineString","coordinates":[[103.8315544,1.4170798],[103.8316087,1.4172031]]}},{"type":"Feature","id":"way/543939618-0-1-0","properties":{"highway":"service","service":"parking_aisle"},"geometry":{"type":"LineString","coordinates":[[103.8316087,1.4172031],[103.8316047,1.4172219]]}},{"type":"Feature","id":"way/543939618-0-2-0","properties":{"highway":"service","service":"parking_aisle"},"geometry":{"type":"LineString","coordinates":[[103.8316047,1.4172219],[103.831596,1.4172333]]}},{"type":"Feature","id":"way/543939618-0-3-0","properties":{"highway":"service","service":"parking_aisle"},"geometry":{"type":"LineString","coordinates":[[103.831596,1.4172333],[103.8310817,1.417492]]}},{"type":"Feature","id":"way/543939624-0-0-0","properties":{"highway":"service","service":"parking_aisle"},"geometry":{"type":"LineString","coordinates":[[103.8313137,1.4185606],[103.831254,1.4185921]]}},{"type":"Feature","id":"way/543939624-0-1-0","properties":{"highway":"service","service":"parking_aisle"},"geometry":{"type":"LineString","coordinates":[[103.831254,1.4185921],[103.8312386,1.4186122]]}},{"type":"Feature","id":"way/579413977-0-0-0","properties":{"foot":"no","highway":"service","lanes":"2","lanes:backward":"1","lanes:forward":"1","service":"parking_aisle","surface":"asphalt"},"geometry":{"type":"LineString","coordinates":[[103.832695,1.4186831],[103.8327356,1.4187569]]}},{"type":"Feature","id":"way/596276403-0-0-0","properties":{"highway":"service"},"geometry":{"type":"LineString","coordinates":[[103.8309502,1.4178299],[103.8307491,1.4178212]]}},{"type":"Feature","id":"way/596276403-0-1-0","properties":{"highway":"service"},"geometry":{"type":"LineString","coordinates":[[103.8307491,1.4178212],[103.8306096,1.4174351]]}},{"type":"Feature","id":"way/596276403-0-2-0","properties":{"highway":"service"},"geometry":{"type":"LineString","coordinates":[[103.8306096,1.4174351],[103.8304822,1.4169765]]}},{"type":"Feature","id":"way/596276403-0-3-0","properties":{"highway":"service"},"geometry":{"type":"LineString","coordinates":[[103.8304822,1.4169765],[103.830395,1.4168706]]}},{"type":"Feature","id":"way/596276403-0-4-0","properties":{"highway":"service"},"geometry":{"type":"LineString","coordinates":[[103.830395,1.4168706],[103.8302515,1.4168505]]}},{"type":"Feature","id":"way/596276403-0-5-0","properties":{"highway":"service"},"geometry":{"type":"LineString","coordinates":[[103.8302515,1.4168505],[103.829935,1.4169162]]}},{"type":"Feature","id":"way/596276403-0-6-0","properties":{"highway":"service"},"geometry":{"type":"LineString","coordinates":[[103.829935,1.4169162],[103.8299189,1.4170141]]}},{"type":"Feature","id":"way/596276403-0-7-0","properties":{"highway":"service"},"geometry":{"type":"LineString","coordinates":[[103.8299189,1.4170141],[103.8299324,1.4173063]]}},{"type":"Feature","id":"way/596276403-0-8-0","properties":{"highway":"service"},"geometry":{"type":"LineString","coordinates":[[103.8299324,1.4173063],[103.8299431,1.417478]]}},{"type":"Feature","id":"way/596693319-0-0-0","properties":{"highway":"service","lanes":"1","oneway":"yes"},"geometry":{"type":"LineString","coordinates":[[103.8323456,1.4180368],[103.8323724,1.4180243]]}},{"type":"Feature","id":"way/596693320-0-0-0","properties":{"highway":"service","lanes":"2","lanes:backward":"1","lanes:forward":"1","sidewalk":"both"},"geometry":{"type":"LineString","coordinates":[[103.8327044,1.4182127],[103.8325556,1.4179391]]}},{"type":"Feature","id":"way/618478229-0-0-0","properties":{"highway":"secondary","lanes":"2","maxspeed":"50","name":"Yishun Ring Road","oneway":"yes","surface":"asphalt"},"geometry":{"type":"LineString","coordinates":[[103.8327356,1.4187569],[103.8328265,1.4187096]]}},{"type":"Feature","id":"way/618478230-0-0-0","properties":{"highway":"secondary","lanes":"2","maxspeed":"50","name":"Yishun Ring Road","oneway":"yes","surface":"asphalt","turn:lanes":"left;through|through;right"},"geometry":{"type":"LineString","coordinates":[[103.832695,1.4186831],[103.8325485,1.4187573]]}},{"type":"Feature","id":"way/618478231-0-0-0","properties":{"highway":"secondary","lanes":"2","maxspeed":"50","name":"Yishun Ring Road","oneway":"yes","surface":"asphalt","turn:lanes":"left;through|through"},"geometry":{"type":"LineString","coordinates":[[103.8327853,1.4186371],[103.832695,1.4186831]]}},{"type":"Feature","id":"way/618478232-0-0-0","properties":{"highway":"secondary","lanes":"2","maxspeed":"50","name":"Yishun Ring Road","oneway":"yes","surface":"asphalt","turn:lanes":"left;through|through;right"},"geometry":{"type":"LineString","coordinates":[[103.8332511,1.4183964],[103.8327853,1.4186371]]}},{"type":"Feature","id":"way/630813383-0-0-0","properties":{"busway:left":"lane","highway":"primary","lanes":"3","lanes:bus":"1","lanes:bus:conditional":"1 @ (Mo-Fr 07:30-09:30,17:00-20:00)","maxspeed":"60","name":"Yishun Avenue 2","name:zh":"\u4e49\u987a2\u9053","oneway":"yes","sidewalk":"left","source":"Yahoo aerial images","surface":"asphalt"},"geometry":{"type":"LineString","coordinates":[[103.8330919,1.4167023],[103.8326135,1.4157726]]}},{"type":"Feature","id":"way/630813383-0-1-0","properties":{"busway:left":"lane","highway":"primary","lanes":"3","lanes:bus":"1","lanes:bus:conditional":"1 @ (Mo-Fr 07:30-09:30,17:00-20:00)","maxspeed":"60","name":"Yishun Avenue 2","name:zh":"\u4e49\u987a2\u9053","oneway":"yes","sidewalk":"left","source":"Yahoo aerial images","surface":"asphalt"},"geometry":{"type":"LineString","coordinates":[[103.8326135,1.4157726],[103.8324219,1.4153873]]}},{"type":"Feature","id":"way/630813387-0-0-0","properties":{"busway:left":"lane","highway":"primary","lanes":"3","lanes:bus":"1","lanes:bus:conditional":"1 @ (Mo-Fr 07:30-09:30,17:00-20:00)","maxspeed":"60","name":"Yishun Avenue 2","name:zh":"\u4e49\u987a2\u9053","oneway":"yes","sidewalk":"left","source":"Yahoo aerial images","surface":"asphalt"},"geometry":{"type":"LineString","coordinates":[[103.8323012,1.4154148],[103.832446,1.4156935]]}},{"type":"Feature","id":"way/630813387-0-1-0","properties":{"busway:left":"lane","highway":"primary","lanes":"3","lanes:bus":"1","lanes:bus:conditional":"1 @ (Mo-Fr 07:30-09:30,17:00-20:00)","maxspeed":"60","name":"Yishun Avenue 2","name:zh":"\u4e49\u987a2\u9053","oneway":"yes","sidewalk":"left","source":"Yahoo aerial images","surface":"asphalt"},"geometry":{"type":"LineString","coordinates":[[103.832446,1.4156935],[103.8326695,1.4161743]]}},{"type":"Feature","id":"way/644857814-0-1-0","properties":{"highway":"service","lanes":"2","lanes:backward":"1","lanes:forward":"1","service":"parking_aisle"},"geometry":{"type":"LineString","coordinates":[[103.8330608,1.4144916],[103.8325975,1.4147259]]}},{"type":"Feature","id":"way/644998592-0-0-0","properties":{"highway":"service","lanes":"2","lanes:backward":"1","lanes:forward":"1","service":"parking_aisle","surface":"asphalt","turn:lanes:forward":"left;right"},"geometry":{"type":"LineString","coordinates":[[103.8320135,1.4174015],[103.8319557,1.4172992]]}},{"type":"Feature","id":"way/644998592-0-1-0","properties":{"highway":"service","lanes":"2","lanes:backward":"1","lanes:forward":"1","service":"parking_aisle","surface":"asphalt","turn:lanes:forward":"left;right"},"geometry":{"type":"LineString","coordinates":[[103.8319557,1.4172992],[103.8318019,1.4169777]]}},{"type":"Feature","id":"way/644998594-0-0-0","properties":{"highway":"service","lanes":"2","lanes:backward":"1","lanes:forward":"1","service":"parking_aisle","sidewalk":"both"},"geometry":{"type":"LineString","coordinates":[[103.8315544,1.4170798],[103.831594,1.4170793]]}},{"type":"Feature","id":"way/644998594-0-1-0","properties":{"highway":"service","lanes":"2","lanes:backward":"1","lanes:forward":"1","service":"parking_aisle","sidewalk":"both"},"geometry":{"type":"LineString","coordinates":[[103.831594,1.4170793],[103.8318019,1.4169777]]}},{"type":"Feature","id":"way/645156350-0-0-0","properties":{"highway":"service","lanes":"2","lanes:backward":"1","lanes:forward":"1","service":"parking_aisle","sidewalk":"right","surface":"asphalt"},"geometry":{"type":"LineString","coordinates":[[103.8312036,1.4183394],[103.8309951,1.4179202]]}},{"type":"Feature","id":"way/645156351-0-0-0","properties":{"highway":"service","lanes":"2","lanes:backward":"1","lanes:forward":"1","service":"parking_aisle","sidewalk":"right","surface":"asphalt"},"geometry":{"type":"LineString","coordinates":[[103.8313137,1.4185606],[103.8312036,1.4183394]]}},{"type":"Feature","id":"way/645156914-0-0-0","properties":{"highway":"service","lanes":"2","lanes:backward":"1","lanes:forward":"1","turn:lanes:backward":"through","turn:lanes:forward":"through"},"geometry":{"type":"LineString","coordinates":[[103.8325556,1.4179391],[103.8325105,1.4178527]]}},{"type":"Feature","id":"way/645156952-0-0-0","properties":{"highway":"service","lanes":"2","lanes:backward":"1","lanes:forward":"1","service":"parking_aisle","surface":"asphalt"},"geometry":{"type":"LineString","coordinates":[[103.8323456,1.4180368],[103.8323025,1.4179543]]}},{"type":"Feature","id":"way/645163596-0-0-0","properties":{"highway":"service","lanes":"2","lanes:backward":"1","lanes:forward":"1","service":"parking_aisle","sidewalk":"right","surface":"asphalt"},"geometry":{"type":"LineString","coordinates":[[103.8314588,1.4188522],[103.8313137,1.4185606]]}},{"type":"Feature","id":"way/645163894-0-0-0","properties":{"highway":"service","lanes":"2","lanes:backward":"1","lanes:forward":"1","service":"parking_aisle","sidewalk":"right","surface":"asphalt"},"geometry":{"type":"LineString","coordinates":[[103.8309951,1.4179202],[103.8309502,1.4178299]]}},{"type":"Feature","id":"way/645164207-0-0-0","properties":{"highway":"service","service":"parking_aisle","sidewalk":"left"},"geometry":{"type":"LineString","coordinates":[[103.8314277,1.4168702],[103.8315108,1.4170471]]}},{"type":"Feature","id":"way/645164207-0-1-0","properties":{"highway":"service","service":"parking_aisle","sidewalk":"left"},"geometry":{"type":"LineString","coordinates":[[103.8315108,1.4170471],[103.8315544,1.4170798]]}},{"type":"Feature","id":"way/645265331-0-0-0","properties":{"highway":"service","service":"parking_aisle"},"geometry":{"type":"LineString","coordinates":[[103.8325975,1.4147259],[103.8324573,1.4144501]]}},{"type":"Feature","id":"way/645265331-0-1-0","properties":{"highway":"service","service":"parking_aisle"},"geometry":{"type":"LineString","coordinates":[[103.8324573,1.4144501],[103.8324527,1.4144277]]}},{"type":"Feature","id":"way/645265331-0-2-0","properties":{"highway":"service","service":"parking_aisle"},"geometry":{"type":"LineString","coordinates":[[103.8324527,1.4144277],[103.8324589,1.4144124]]}},{"type":"Feature","id":"way/645265331-0-3-0","properties":{"highway":"service","service":"parking_aisle"},"geometry":{"type":"LineString","coordinates":[[103.8324589,1.4144124],[103.8324735,1.4143986]]}},{"type":"Feature","id":"way/645265331-0-4-0","properties":{"highway":"service","service":"parking_aisle"},"geometry":{"type":"LineString","coordinates":[[103.8324735,1.4143986],[103.8324966,1.414387]]}},{"type":"Feature","id":"way/645265331-0-5-0","properties":{"highway":"service","service":"parking_aisle"},"geometry":{"type":"LineString","coordinates":[[103.8324966,1.414387],[103.8326107,1.4143298]]}},{"type":"Feature","id":"way/646845090-0-0-0","properties":{"highway":"service","service":"parking_aisle"},"geometry":{"type":"LineString","coordinates":[[103.8312386,1.4186122],[103.8312359,1.418637]]}},{"type":"Feature","id":"way/646845090-0-1-0","properties":{"highway":"service","service":"parking_aisle"},"geometry":{"type":"LineString","coordinates":[[103.8312359,1.418637],[103.8312533,1.4187717]]}},{"type":"Feature","id":"way/652138446-0-0-0","properties":{"highway":"service","lanes":"3","lanes:backward":"1","lanes:forward":"2","service":"parking_aisle","sidewalk":"left","surface":"asphalt","turn:lanes:backward":"through","turn:lanes:forward":"left|right"},"geometry":{"type":"LineString","coordinates":[[103.8324536,1.4182502],[103.8326641,1.4186166]]}},{"type":"Feature","id":"way/660423942-0-0-0","properties":{"busway:left":"lane","highway":"primary","lanes":"3","lanes:bus":"1","lanes:bus:conditional":"1 @ (Mo-Fr 07:30-09:30,17:00-20:00)","maxspeed":"60","name":"Yishun Avenue 2","name:zh":"\u4e49\u987a2\u9053","oneway":"yes","sidewalk":"left","source":"Yahoo aerial images","surface":"asphalt"},"geometry":{"type":"LineString","coordinates":[[103.8320444,1.4148946],[103.8323012,1.4154148]]}},{"type":"Feature","id":"way/690161178-0-0-0","properties":{"highway":"service","oneway":"no","service":"parking_aisle"},"geometry":{"type":"LineString","coordinates":[[103.8320799,1.4181815],[103.8319279,1.4178976]]}},{"type":"Feature","id":"way/690161178-0-1-0","properties":{"highway":"service","oneway":"no","service":"parking_aisle"},"geometry":{"type":"LineString","coordinates":[[103.8319279,1.4178976],[103.8318783,1.4178641]]}},{"type":"Feature","id":"way/690161178-0-2-0","properties":{"highway":"service","oneway":"no","service":"parking_aisle"},"geometry":{"type":"LineString","coordinates":[[103.8318783,1.4178641],[103.8318259,1.4178717]]}},{"type":"Feature","id":"way/690161178-0-3-0","properties":{"highway":"service","oneway":"no","service":"parking_aisle"},"geometry":{"type":"LineString","coordinates":[[103.8318259,1.4178717],[103.8314773,1.4180488]]}},{"type":"Feature","id":"way/696439868-0-0-0","properties":{"busway:left":"lane","highway":"primary","lanes":"3","lanes:bus":"1","lanes:bus:conditional":"1 @ (Mo-Fr 07:30-09:30,17:00-20:00)","maxspeed":"60","name":"Yishun Avenue 2","name:zh":"\u4e49\u987a2\u9053","oneway":"yes","sidewalk":"left","source":"Yahoo aerial images","surface":"asphalt"},"geometry":{"type":"LineString","coordinates":[[103.832791,1.4164214],[103.832972,1.4167758]]}},{"type":"Feature","id":"way/696439869-0-0-0","properties":{"busway:left":"lane","highway":"primary","lanes":"3","lanes:bus":"1","lanes:bus:conditional":"1 @ (Mo-Fr 07:30-09:30,17:00-20:00)","maxspeed":"60","name":"Yishun Avenue 2","name:zh":"\u4e49\u987a2\u9053","oneway":"yes","sidewalk":"left","source":"Yahoo aerial images","surface":"asphalt","turn:lanes":"through|through|through"},"geometry":{"type":"LineString","coordinates":[[103.8326695,1.4161743],[103.832791,1.4164214]]}},{"type":"Feature","id":"way/725434439-0-0-0","properties":{"highway":"service","lanes":"2","lanes:backward":"1","lanes:forward":"1","service":"parking_aisle","turn:lanes:forward":"left;right"},"geometry":{"type":"LineString","coordinates":[[103.831705,1.4175639],[103.8320135,1.4174015]]}},{"type":"Feature","id":"way/725434440-0-0-0","properties":{"highway":"service","lanes":"2","lanes:backward":"1","lanes:forward":"1","service":"parking_aisle"},"geometry":{"type":"LineString","coordinates":[[103.8314854,1.4176759],[103.831705,1.4175639]]}},{"type":"Feature","id":"way/725434441-0-0-0","properties":{"highway":"service","lanes":"2","lanes:backward":"1","lanes:forward":"1","service":"parking_aisle","surface":"asphalt"},"geometry":{"type":"LineString","coordinates":[[103.8307088,1.4172536],[103.8312914,1.4169429]]}},{"type":"Feature","id":"way/725434442-0-0-0","properties":{"highway":"service","lanes":"2","lanes:backward":"1","lanes:forward":"1","service":"parking_aisle","surface":"asphalt","turn:lanes:forward":"left;right"},"geometry":{"type":"LineString","coordinates":[[103.8312914,1.4169429],[103.8314277,1.4168702]]}},{"type":"Feature","id":"way/725434444-0-0-0","properties":{"highway":"service","lanes":"2","lanes:backward":"1","lanes:forward":"1","service":"parking_aisle"},"geometry":{"type":"LineString","coordinates":[[103.8309127,1.4163821],[103.8303877,1.4166155]]}},{"type":"Feature","id":"way/779800463-0-0-0","properties":{"highway":"service","lanes":"2","lanes:backward":"1","lanes:forward":"1","service":"parking_aisle","turn:lanes:forward":"left;right"},"geometry":{"type":"LineString","coordinates":[[103.8318019,1.4169777],[103.8322044,1.416777]]}},{"type":"Feature","id":"way/780449517-0-0-0","properties":{"highway":"service","lanes":"2","lanes:backward":"1","lanes:forward":"1","service":"parking_aisle","surface":"asphalt","turn:lanes:backward":"through;right"},"geometry":{"type":"LineString","coordinates":[[103.8323025,1.4179543],[103.8320135,1.4174015]]}},{"type":"Feature","id":"way/780449518-0-0-0","properties":{"highway":"service","lanes":"2","lanes:backward":"1","lanes:forward":"1","turn:lanes:backward":"slight_left;through","turn:lanes:forward":"through"},"geometry":{"type":"LineString","coordinates":[[103.8325105,1.4178527],[103.8323946,1.4176093]]}},{"type":"Feature","id":"way/780449519-0-0-0","properties":{"highway":"service","lanes":"1","oneway":"yes","turn:lanes":"left;right"},"geometry":{"type":"LineString","coordinates":[[103.8323724,1.4180243],[103.8325556,1.4179391]]}},{"type":"Feature","id":"way/780449520-0-0-0","properties":{"highway":"service","lanes":"1","oneway":"yes","turn:lanes":"left;right"},"geometry":{"type":"LineString","coordinates":[[103.8323299,1.417941],[103.8323025,1.4179543]]}},{"type":"Feature","id":"way/780449521-0-0-0","properties":{"highway":"service","lanes":"1","oneway":"yes","turn:lanes":"through"},"geometry":{"type":"LineString","coordinates":[[103.8323724,1.4180243],[103.8323299,1.417941]]}},{"type":"Feature","id":"way/780449522-0-0-0","properties":{"highway":"service","lanes":"1","oneway":"yes"},"geometry":{"type":"LineString","coordinates":[[103.8325105,1.4178527],[103.8323299,1.417941]]}},{"type":"Feature","id":"way/780449523-0-0-0","properties":{"highway":"service","lanes":"3","lanes:backward":"1","lanes:forward":"2","service":"parking_aisle","surface":"asphalt","turn:lanes:backward":"left","turn:lanes:forward":"through|through"},"geometry":{"type":"LineString","coordinates":[[103.8323456,1.4180368],[103.8324536,1.4182502]]}},{"type":"Feature","id":"way/837505925-0-2-0","properties":{"highway":"residential","name":"Yishun Walk","name:en":"Yishun Walk","name:zh":"\u4e49\u987a\u5f84"},"geometry":{"type":"LineString","coordinates":[[103.8308454,1.4142425],[103.8303633,1.4144267]]}},{"type":"Feature","id":"way/864575702-0-0-0","properties":{"highway":"service","service":"parking_aisle"},"geometry":{"type":"LineString","coordinates":[[103.8322082,1.4184361],[103.8320799,1.4181815]]}},{"type":"Feature","id":"way/864575702-0-1-0","properties":{"highway":"service","service":"parking_aisle"},"geometry":{"type":"LineString","coordinates":[[103.8320799,1.4181815],[103.8316879,1.4183695]]}},{"type":"Feature","id":"way/870048209-0-0-0","properties":{"highway":"service","service":"parking_aisle","sidewalk":"left"},"geometry":{"type":"LineString","coordinates":[[103.8313123,1.4166101],[103.8314277,1.4168702]]}},{"type":"Feature","id":"way/1084415542-0-0-0","properties":{"highway":"service","service":"driveway"},"geometry":{"type":"LineString","coordinates":[[103.8304447,1.4146576],[103.8304327,1.4147001]]}},{"type":"Feature","id":"way/1084415542-0-1-0","properties":{"highway":"service","service":"driveway"},"geometry":{"type":"LineString","coordinates":[[103.8304327,1.4147001],[103.8306116,1.4150753]]}},{"type":"Feature","id":"way/1234634653-0-0-0","properties":{"highway":"primary_link","oneway":"yes"},"geometry":{"type":"LineString","coordinates":[[103.832446,1.4156935],[103.8325045,1.4157626]]}},{"type":"Feature","id":"way/1234634653-0-1-0","properties":{"highway":"primary_link","oneway":"yes"},"geometry":{"type":"LineString","coordinates":[[103.8325045,1.4157626],[103.8325318,1.4157944]]}},{"type":"Feature","id":"way/1234634653-0-2-0","properties":{"highway":"primary_link","oneway":"yes"},"geometry":{"type":"LineString","coordinates":[[103.8325318,1.4157944],[103.8325736,1.4158228]]}},{"type":"Feature","id":"way/1234634653-0-3-0","properties":{"highway":"primary_link","oneway":"yes"},"geometry":{"type":"LineString","coordinates":[[103.8325736,1.4158228],[103.832601,1.4158145]]}},{"type":"Feature","id":"way/1234634653-0-4-0","properties":{"highway":"primary_link","oneway":"yes"},"geometry":{"type":"LineString","coordinates":[[103.832601,1.4158145],[103.8326135,1.4157726]]}},{"type":"Feature","id":"way/1263001894-0-0-0","properties":{"construction":"residential","highway":"service","name":"Chencharu Close","name:en":"Chencharu Close","name:zh":"\u771f\u67e5\u9c81\u5f04","oneway":"yes"},"geometry":{"type":"LineString","coordinates":[[103.8290402,1.4149165],[103.8293337,1.4157421]]}},{"type":"Feature","id":"way/1263001894-0-1-0","properties":{"construction":"residential","highway":"service","name":"Chencharu Close","name:en":"Chencharu Close","name:zh":"\u771f\u67e5\u9c81\u5f04","oneway":"yes"},"geometry":{"type":"LineString","coordinates":[[103.8293337,1.4157421],[103.8294043,1.4158076]]}},{"type":"Feature","id":"way/1263001894-0-2-0","properties":{"construction":"residential","highway":"service","name":"Chencharu Close","name:en":"Chencharu Close","name:zh":"\u771f\u67e5\u9c81\u5f04","oneway":"yes"},"geometry":{"type":"LineString","coordinates":[[103.8294043,1.4158076],[103.8294811,1.4158114]]}},{"type":"Feature","id":"way/1263001894-0-3-0","properties":{"construction":"residential","highway":"service","name":"Chencharu Close","name:en":"Chencharu Close","name:zh":"\u771f\u67e5\u9c81\u5f04","oneway":"yes"},"geometry":{"type":"LineString","coordinates":[[103.8294811,1.4158114],[103.8295381,1.4157858]]}},{"type":"Feature","id":"way/1263001894-0-4-0","properties":{"construction":"residential","highway":"service","name":"Chencharu Close","name:en":"Chencharu Close","name:zh":"\u771f\u67e5\u9c81\u5f04","oneway":"yes"},"geometry":{"type":"LineString","coordinates":[[103.8295381,1.4157858],[103.8295738,1.4157456]]}},{"type":"Feature","id":"way/1263001894-0-5-0","properties":{"construction":"residential","highway":"service","name":"Chencharu Close","name:en":"Chencharu Close","name:zh":"\u771f\u67e5\u9c81\u5f04","oneway":"yes"},"geometry":{"type":"LineString","coordinates":[[103.8295738,1.4157456],[103.8295769,1.4156739]]}},{"type":"Feature","id":"way/1263001894-0-6-0","properties":{"construction":"residential","highway":"service","name":"Chencharu Close","name:en":"Chencharu Close","name:zh":"\u771f\u67e5\u9c81\u5f04","oneway":"yes"},"geometry":{"type":"LineString","coordinates":[[103.8295769,1.4156739],[103.8295561,1.4156123]]}},{"type":"Feature","id":"way/1263001894-0-7-0","properties":{"construction":"residential","highway":"service","name":"Chencharu Close","name:en":"Chencharu Close","name:zh":"\u771f\u67e5\u9c81\u5f04","oneway":"yes"},"geometry":{"type":"LineString","coordinates":[[103.8295561,1.4156123],[103.8295087,1.415563]]}},{"type":"Feature","id":"way/1263001894-0-8-0","properties":{"construction":"residential","highway":"service","name":"Chencharu Close","name:en":"Chencharu Close","name:zh":"\u771f\u67e5\u9c81\u5f04","oneway":"yes"},"geometry":{"type":"LineString","coordinates":[[103.8295087,1.415563],[103.8294451,1.4155374]]}},{"type":"Feature","id":"way/1263001894-0-9-0","properties":{"construction":"residential","highway":"service","name":"Chencharu Close","name:en":"Chencharu Close","name:zh":"\u771f\u67e5\u9c81\u5f04","oneway":"yes"},"geometry":{"type":"LineString","coordinates":[[103.8294451,1.4155374],[103.8293712,1.4155147]]}},{"type":"Feature","id":"way/1263001894-0-10-0","properties":{"construction":"residential","highway":"service","name":"Chencharu Close","name:en":"Chencharu Close","name:zh":"\u771f\u67e5\u9c81\u5f04","oneway":"yes"},"geometry":{"type":"LineString","coordinates":[[103.8293712,1.4155147],[103.8293181,1.4154692]]}},{"type":"Feature","id":"way/1263001894-0-11-0","properties":{"construction":"residential","highway":"service","name":"Chencharu Close","name:en":"Chencharu Close","name:zh":"\u771f\u67e5\u9c81\u5f04","oneway":"yes"},"geometry":{"type":"LineString","coordinates":[[103.8293181,1.4154692],[103.8291023,1.4148944]]}},{"type":"Feature","id":"way/1263001897-0-0-0","properties":{"highway":"service","oneway":"no","service":"driveway"},"geometry":{"type":"LineString","coordinates":[[103.8303633,1.4144267],[103.830395,1.4145214]]}},{"type":"Feature","id":"way/1263001897-0-1-0","properties":{"highway":"service","oneway":"no","service":"driveway"},"geometry":{"type":"LineString","coordinates":[[103.830395,1.4145214],[103.8304447,1.4146576]]}},{"type":"Feature","id":"way/1263001897-0-2-0","properties":{"highway":"service","oneway":"no","service":"driveway"},"geometry":{"type":"LineString","coordinates":[[103.8304447,1.4146576],[103.8308555,1.4144591]]}},{"type":"Feature","id":"way/1470047089-0-0-0","properties":{"highway":"residential","name":"Yishun Walk","name:en":"Yishun Walk","name:zh":"\u4e49\u987a\u5f84","oneway":"no"},"geometry":{"type":"LineString","coordinates":[[103.8290402,1.4149165],[103.8291023,1.4148944]]}},{"type":"Feature","id":"way/1470047089-0-1-0","properties":{"highway":"residential","name":"Yishun Walk","name:en":"Yishun Walk","name:zh":"\u4e49\u987a\u5f84","oneway":"no"},"geometry":{"type":"LineString","coordinates":[[103.8291023,1.4148944],[103.8297087,1.4146785]]}},{"type":"Feature","id":"way/1470047089-0-2-0","properties":{"highway":"residential","name":"Yishun Walk","name:en":"Yishun Walk","name:zh":"\u4e49\u987a\u5f84","oneway":"no"},"geometry":{"type":"LineString","coordinates":[[103.8297087,1.4146785],[103.8302713,1.4144621]]}},{"type":"Feature","id":"way/1470047089-0-3-0","properties":{"highway":"residential","name":"Yishun Walk","name:en":"Yishun Walk","name:zh":"\u4e49\u987a\u5f84","oneway":"no"},"geometry":{"type":"LineString","coordinates":[[103.8302713,1.4144621],[103.8303633,1.4144267]]}},{"type":"Feature","id":"way/1470047090-0-0-0","properties":{"highway":"service","oneway":"yes","service":"driveway"},"geometry":{"type":"LineString","coordinates":[[103.8308555,1.4144591],[103.8308886,1.4144277]]}},{"type":"Feature","id":"way/1470047090-0-1-0","properties":{"highway":"service","oneway":"yes","service":"driveway"},"geometry":{"type":"LineString","coordinates":[[103.8308886,1.4144277],[103.8308602,1.4143548]]}},{"type":"Feature","id":"way/1470047090-0-2-0","properties":{"highway":"service","oneway":"yes","service":"driveway"},"geometry":{"type":"LineString","coordinates":[[103.8308602,1.4143548],[103.8308454,1.4142425]]}},{"type":"Feature","id":"way/1552566371-0-0-0","properties":{"construction":"yes","highway":"service","name":"Chencharu Close","name:en":"Chencharu Close","name:zh":"\u771f\u67e5\u9c81\u5f04","oneway":"yes"},"geometry":{"type":"LineString","coordinates":[[103.8291023,1.4148944],[103.8290607,1.4147809]]}},{"type":"Feature","id":"way/1552566372-0-0-0","properties":{"construction":"yes","highway":"service","name":"Chencharu Close","name:en":"Chencharu Close","name:zh":"\u771f\u67e5\u9c81\u5f04","oneway":"yes"},"geometry":{"type":"LineString","coordinates":[[103.8289985,1.4148011],[103.8290402,1.4149165]]}},{"type":"Feature","id":"way/1552566374-0-0-0","properties":{"highway":"service","oneway":"yes"},"geometry":{"type":"LineString","coordinates":[[103.8295381,1.4157858],[103.8297174,1.4157283]]}},{"type":"Feature","id":"way/1552566374-0-1-0","properties":{"highway":"service","oneway":"yes"},"geometry":{"type":"LineString","coordinates":[[103.8297174,1.4157283],[103.8296839,1.4157295]]}},{"type":"Feature","id":"way/1552566374-0-2-0","properties":{"highway":"service","oneway":"yes"},"geometry":{"type":"LineString","coordinates":[[103.8296839,1.4157295],[103.829639,1.415731]]}},{"type":"Feature","id":"way/1552566374-0-3-0","properties":{"highway":"service","oneway":"yes"},"geometry":{"type":"LineString","coordinates":[[103.829639,1.415731],[103.8296044,1.4157155]]}},{"type":"Feature","id":"way/1552566374-0-4-0","properties":{"highway":"service","oneway":"yes"},"geometry":{"type":"LineString","coordinates":[[103.8296044,1.4157155],[103.8295769,1.4156739]]}},{"type":"Feature","id":"way/1552566375-0-0-0","properties":{"highway":"service","layer":"1","oneway":"yes"},"geometry":{"type":"LineString","coordinates":[[103.8297174,1.4157283],[103.8298637,1.4156814]]}},{"type":"Feature","id":"way/1552566375-0-1-0","properties":{"highway":"service","layer":"1","oneway":"yes"},"geometry":{"type":"LineString","coordinates":[[103.8298637,1.4156814],[103.829889,1.4156553]]}},{"type":"Feature","id":"way/1552566375-0-2-0","properties":{"highway":"service","layer":"1","oneway":"yes"},"geometry":{"type":"LineString","coordinates":[[103.829889,1.4156553],[103.829887,1.4156112]]}},{"type":"Feature","id":"way/1552566375-0-3-0","properties":{"highway":"service","layer":"1","oneway":"yes"},"geometry":{"type":"LineString","coordinates":[[103.829887,1.4156112],[103.8298684,1.4155714]]}},{"type":"Feature","id":"way/1552566375-0-4-0","properties":{"highway":"service","layer":"1","oneway":"yes"},"geometry":{"type":"LineString","coordinates":[[103.8298684,1.4155714],[103.8298342,1.4155547]]}},{"type":"Feature","id":"way/1552566375-0-5-0","properties":{"highway":"service","layer":"1","oneway":"yes"},"geometry":{"type":"LineString","coordinates":[[103.8298342,1.4155547],[103.8297731,1.4155723]]}},{"type":"Feature","id":"way/1552566376-0-0-0","properties":{"highway":"service"},"geometry":{"type":"LineString","coordinates":[[103.8297174,1.4157283],[103.8297528,1.4156992]]}},{"type":"Feature","id":"way/1552566376-0-1-0","properties":{"highway":"service"},"geometry":{"type":"LineString","coordinates":[[103.8297528,1.4156992],[103.8297764,1.4156704]]}},{"type":"Feature","id":"way/1552566376-0-2-0","properties":{"highway":"service"},"geometry":{"type":"LineString","coordinates":[[103.8297764,1.4156704],[103.8297837,1.4156387]]}},{"type":"Feature","id":"way/1552566376-0-3-0","properties":{"highway":"service"},"geometry":{"type":"LineString","coordinates":[[103.8297837,1.4156387],[103.8297731,1.4155723]]}},{"type":"Feature","id":"way/1552566376-0-4-0","properties":{"highway":"service"},"geometry":{"type":"LineString","coordinates":[[103.8297731,1.4155723],[103.8297205,1.4154268]]}},{"type":"Feature","id":"way/1552566376-0-5-0","properties":{"highway":"service"},"geometry":{"type":"LineString","coordinates":[[103.8297205,1.4154268],[103.8296078,1.4151147]]}},{"type":"Feature","id":"way/1552566380-0-0-0","properties":{"highway":"service"},"geometry":{"type":"LineString","coordinates":[[103.829887,1.4156112],[103.8301585,1.4155144]]}},{"type":"Feature","id":"way/1552566380-0-1-0","properties":{"highway":"service"},"geometry":{"type":"LineString","coordinates":[[103.8301585,1.4155144],[103.8302108,1.4154794]]}},{"type":"Feature","id":"way/1552566380-0-2-0","properties":{"highway":"service"},"geometry":{"type":"LineString","coordinates":[[103.8302108,1.4154794],[103.8303581,1.4152244]]}},{"type":"Feature","id":"way/1552566380-0-3-0","properties":{"highway":"service"},"geometry":{"type":"LineString","coordinates":[[103.8303581,1.4152244],[103.8303663,1.4151738]]}},{"type":"Feature","id":"way/1552566380-0-4-0","properties":{"highway":"service"},"geometry":{"type":"LineString","coordinates":[[103.8303663,1.4151738],[103.8303596,1.4151194]]}},{"type":"Feature","id":"way/1552566380-0-5-0","properties":{"highway":"service"},"geometry":{"type":"LineString","coordinates":[[103.8303596,1.4151194],[103.8303338,1.4150598]]}},{"type":"Feature","id":"way/1552566380-0-6-0","properties":{"highway":"service"},"geometry":{"type":"LineString","coordinates":[[103.8303338,1.4150598],[103.8302889,1.415004]]}},{"type":"Feature","id":"way/1552566380-0-7-0","properties":{"highway":"service"},"geometry":{"type":"LineString","coordinates":[[103.8302889,1.415004],[103.8302348,1.4149656]]}},{"type":"Feature","id":"way/1552566380-0-8-0","properties":{"highway":"service"},"geometry":{"type":"LineString","coordinates":[[103.8302348,1.4149656],[103.8301877,1.4149474]]}},{"type":"Feature","id":"way/1552566380-0-9-0","properties":{"highway":"service"},"geometry":{"type":"LineString","coordinates":[[103.8301877,1.4149474],[103.8301221,1.4149391]]}},{"type":"Feature","id":"way/1552566380-0-10-0","properties":{"highway":"service"},"geometry":{"type":"LineString","coordinates":[[103.8301221,1.4149391],[103.8296078,1.4151147]]}}]}