{"type":"FeatureCollection","features":[{"type":"Feature","id":"way/159567854-0","properties":{"building":"yes","clearanceGeometry":{"type":"Polygon","coordinates":[[[103.83148231801705,1.248197071773576],[103.8315581263688,1.2481905698701246],[103.8315523,1.2481264],[103.8314766,1.2481333],[103.83148231801705,1.248197071773576]]]},"clearanceHeight":1.7,"clearancePrepared":true},"geometry":{"type":"Polygon","coordinates":[[[103.8314766,1.2481333],[103.8314838,1.2482136],[103.8315596,1.2482068],[103.8315523,1.2481264],[103.8314766,1.2481333]]]}},{"type":"Feature","id":"way/159567855-0","properties":{"building":"yes","clearanceGeometry":{"type":"Polygon","coordinates":[[[103.8315036,1.2484514],[103.8319112,1.2484156],[103.8318974,1.2482588],[103.8314898,1.2482946],[103.8315036,1.2484514]]]},"clearanceHeight":1.7,"clearancePrepared":true},"geometry":{"type":"Polygon","coordinates":[[[103.8314898,1.2482946],[103.8315036,1.2484514],[103.8319112,1.2484156],[103.8318974,1.2482588],[103.8314898,1.2482946]]]}},{"type":"Feature","id":"way/159567860-0","properties":{"building":"yes","clearanceGeometry":{"type":"Polygon","coordinates":[[[103.8316044,1.2481221],[103.83160933518543,1.248186177810756],[103.83168568362474,1.2481796295852692],[103.8316808,1.2481163],[103.8316044,1.2481221]]]},"clearanceHeight":1.7,"clearancePrepared":true},"geometry":{"type":"Polygon","coordinates":[[[103.8316808,1.2481163],[103.8316044,1.2481221],[103.8316106,1.2482026],[103.831687,1.2481967],[103.8316808,1.2481163]]]}},{"type":"Feature","id":"way/159567863-0","properties":{"building":"yes","clearanceGeometry":{"type":"Polygon","coordinates":[[[103.8321909,1.2480623],[103.8319523,1.2480875],[103.83195957980445,1.2481561381562238],[103.83219857619169,1.2481356400000287],[103.8321909,1.2480623]]]},"clearanceHeight":1.7,"clearancePrepared":true},"geometry":{"type":"Polygon","coordinates":[[[103.8319607,1.2481667],[103.8321992,1.2481416],[103.8321909,1.2480623],[103.8319523,1.2480875],[103.8319607,1.2481667]]]}},{"type":"Feature","id":"way/159567864-0","properties":{"building":"yes","clearanceGeometry":{"type":"Polygon","coordinates":[[[103.8322488,1.2482808],[103.8322421,1.2482032],[103.83223631670295,1.2482036938903827],[103.8322371561183,1.2482134760630215],[103.831952540891,1.2482378868394866],[103.8319583,1.2483056],[103.8322488,1.2482808]]]},"clearanceHeight":1.7,"clearancePrepared":true},"geometry":{"type":"Polygon","coordinates":[[[103.8319583,1.2483056],[103.8322488,1.2482808],[103.8322421,1.2482032],[103.8319517,1.248228],[103.8319583,1.2483056]]]}},{"type":"Feature","id":"way/159567872-0","properties":{"building":"yes","clearanceGeometry":{"type":"Polygon","coordinates":[[[103.8318141,1.2481091],[103.8317397,1.2481151],[103.83174457659533,1.2481745784741465],[103.8318189455664,1.2481682000229792],[103.8318141,1.2481091]]]},"clearanceHeight":1.7,"clearancePrepared":true},"geometry":{"type":"Polygon","coordinates":[[[103.8317458,1.2481895],[103.8318202,1.2481835],[103.8318141,1.2481091],[103.8317397,1.2481151],[103.8317458,1.2481895]]]}},{"type":"Feature","id":"way/163029039-0","properties":{"building":"yes","clearanceGeometry":{"type":"Polygon","coordinates":[[[103.8301258,1.2484264],[103.8301524,1.2486672],[103.8304641,1.2486329],[103.83044755749799,1.248482855035814],[103.83025734719024,1.248497701366918],[103.83025643136655,1.248485973780242],[103.8302136,1.2484907],[103.8302074,1.2484347],[103.8302520434759,1.2484297846152324],[103.83025105280976,1.2484170986330818],[103.83065026333091,1.2483859393775865],[103.83067308517248,1.248383426622247],[103.83069151470156,1.2483732721480822],[103.8306718,1.2481945],[103.8300011,1.2482684],[103.8300198,1.2484381],[103.8301258,1.2484264]]]},"clearanceHeight":1.7,"clearancePrepared":true},"geometry":{"type":"Polygon","coordinates":[[[103.8300198,1.2484381],[103.8301258,1.2484264],[103.8301524,1.2486672],[103.8304641,1.2486329],[103.8304456,1.2484651],[103.8302136,1.2484907],[103.8302074,1.2484347],[103.8306924,1.2483813],[103.8306718,1.2481945],[103.8300011,1.2482684],[103.8300198,1.2484381]]]}},{"type":"Feature","id":"way/163029087-0","properties":{"building":"yes","clearanceGeometry":{"type":"Polygon","coordinates":[[[103.8294823,1.2486892],[103.82944563449769,1.2486900504258325],[103.82943821288733,1.2486967520292183],[103.8293314,1.2487227859973677],[103.8293314,1.2487347],[103.8293205,1.2487358],[103.8293026,1.2487427],[103.8292906,1.2487508],[103.8292791,1.2487657],[103.8292693,1.2487836],[103.8292629,1.2488083],[103.8292687,1.2488302],[103.8292808,1.248852],[103.8292986,1.2488664],[103.829328,1.2488776],[103.8293567,1.2488732],[103.8293775,1.2488621],[103.8293934,1.2488509],[103.8294069,1.2488466],[103.8297493,1.2488385],[103.8297516,1.2489029],[103.8299761,1.2488989],[103.8299746,1.2488257],[103.8299457,1.2488274],[103.8299416,1.2486984],[103.8298911,1.2486996],[103.8298915,1.2486544],[103.8297503,1.2486581],[103.8297507,1.2487216],[103.8295106,1.2487269],[103.8295097,1.248647],[103.8294892223468,1.248647],[103.8294821386923,1.248655164074275],[103.8294823,1.2486892]]]},"clearanceHeight":1.7,"clearancePrepared":true},"geometry":{"type":"Polygon","coordinates":[[[103.8294821,1.248647],[103.8294823,1.2486892],[103.8293314,1.2486927],[103.8293314,1.2487347],[103.8293205,1.2487358],[103.8293026,1.2487427],[103.8292906,1.2487508],[103.8292791,1.2487657],[103.8292693,1.2487836],[103.8292629,1.2488083],[103.8292687,1.2488302],[103.8292808,1.248852],[103.8292986,1.2488664],[103.829328,1.2488776],[103.8293567,1.2488732],[103.8293775,1.2488621],[103.8293934,1.2488509],[103.8294069,1.2488466],[103.8297493,1.2488385],[103.8297516,1.2489029],[103.8299761,1.2488989],[103.8299746,1.2488257],[103.8299457,1.2488274],[103.8299416,1.2486984],[103.8298911,1.2486996],[103.8298915,1.2486544],[103.8297503,1.2486581],[103.8297507,1.2487216],[103.8295106,1.2487269],[103.8295097,1.248647],[103.8294821,1.248647]]]}},{"type":"Feature","id":"way/163029096-0","properties":{"building":"yes","clearanceGeometry":{"type":"Polygon","coordinates":[[[103.8297314,1.2485347],[103.8298299,1.248524],[103.8298227,1.2484581],[103.8297242,1.2484688],[103.8297314,1.2485347]]]},"clearanceHeight":1.7,"clearancePrepared":true},"geometry":{"type":"Polygon","coordinates":[[[103.8297242,1.2484688],[103.8297314,1.2485347],[103.8298299,1.248524],[103.8298227,1.2484581],[103.8297242,1.2484688]]]}},{"type":"Feature","id":"node/3662339238","properties":{"highway":"crossing"},"geometry":{"type":"Point","coordinates":[103.8303038,1.2490219]}},{"type":"Feature","id":"node/5838809246","properties":{"highway":"crossing"},"geometry":{"type":"Point","coordinates":[103.8287956,1.2486574]}},{"type":"Feature","id":"way/596300770-0-0-0","properties":{"cycleway:left":"lane","foot":"no","highway":"tertiary","lanes":"2","maxspeed":"50","name":"Allanbrooke Road","name:en":"Allanbrooke Road","name:zh":"\u7231\u5170\u5e03\u9c81\u8def","oneway":"yes","psv":"yes","surface":"asphalt","startNodeId":"5681276576","endNodeId":"1779428306"},"geometry":{"type":"LineString","coordinates":[[103.8287429,1.2486148],[103.8289461,1.248395]]}},{"type":"Feature","id":"way/596300770-0-1-0","properties":{"cycleway:left":"lane","foot":"no","highway":"tertiary","lanes":"2","maxspeed":"50","name":"Allanbrooke Road","name:en":"Allanbrooke Road","name:zh":"\u7231\u5170\u5e03\u9c81\u8def","oneway":"yes","psv":"yes","surface":"asphalt","startNodeId":"1779428306","endNodeId":"1779428301"},"geometry":{"type":"LineString","coordinates":[[103.8289461,1.248395],[103.8290851,1.2482921]]}},{"type":"Feature","id":"way/596300770-0-2-0","properties":{"cycleway:left":"lane","foot":"no","highway":"tertiary","lanes":"2","maxspeed":"50","name":"Allanbrooke Road","name:en":"Allanbrooke Road","name:zh":"\u7231\u5170\u5e03\u9c81\u8def","oneway":"yes","psv":"yes","surface":"asphalt","startNodeId":"1779428301","endNodeId":"1779428299"},"geometry":{"type":"LineString","coordinates":[[103.8290851,1.2482921],[103.8292492,1.2481988]]}},{"type":"Feature","id":"way/596300770-0-3-0","properties":{"cycleway:left":"lane","foot":"no","highway":"tertiary","lanes":"2","maxspeed":"50","name":"Allanbrooke Road","name:en":"Allanbrooke Road","name:zh":"\u7231\u5170\u5e03\u9c81\u8def","oneway":"yes","psv":"yes","surface":"asphalt","startNodeId":"1779428299","endNodeId":"1779428298"},"geometry":{"type":"LineString","coordinates":[[103.8292492,1.2481988],[103.8294271,1.2481472]]}},{"type":"Feature","id":"way/596300770-0-4-0","properties":{"cycleway:left":"lane","foot":"no","highway":"tertiary","lanes":"2","maxspeed":"50","name":"Allanbrooke Road","name:en":"Allanbrooke Road","name:zh":"\u7231\u5170\u5e03\u9c81\u8def","oneway":"yes","psv":"yes","surface":"asphalt","startNodeId":"1779428298","endNodeId":"1779428297"},"geometry":{"type":"LineString","coordinates":[[103.8294271,1.2481472],[103.8296795,1.2481181]]}},{"type":"Feature","id":"way/596300771-0-3-0","properties":{"cycleway:left":"lane","foot":"no","highway":"tertiary","lanes":"2","maxspeed":"50","name":"Allanbrooke Road","name:en":"Allanbrooke Road","name:zh":"\u7231\u5170\u5e03\u9c81\u8def","oneway":"yes","psv":"yes","surface":"asphalt","startNodeId":"1779428295","endNodeId":"1779428296"},"geometry":{"type":"LineString","coordinates":[[103.8293956,1.248079],[103.8292153,1.2481276]]}},{"type":"Feature","id":"way/596300771-0-4-0","properties":{"cycleway:left":"lane","foot":"no","highway":"tertiary","lanes":"2","maxspeed":"50","name":"Allanbrooke Road","name:en":"Allanbrooke Road","name:zh":"\u7231\u5170\u5e03\u9c81\u8def","oneway":"yes","psv":"yes","surface":"asphalt","startNodeId":"1779428296","endNodeId":"1779428300"},"geometry":{"type":"LineString","coordinates":[[103.8292153,1.2481276],[103.8290444,1.2482153]]}},{"type":"Feature","id":"way/596300771-0-5-0","properties":{"cycleway:left":"lane","foot":"no","highway":"tertiary","lanes":"2","maxspeed":"50","name":"Allanbrooke Road","name:en":"Allanbrooke Road","name:zh":"\u7231\u5170\u5e03\u9c81\u8def","oneway":"yes","psv":"yes","surface":"asphalt","startNodeId":"1779428300","endNodeId":"1779428303"},"geometry":{"type":"LineString","coordinates":[[103.8290444,1.2482153],[103.8288943,1.2483346]]}},{"type":"Feature","id":"way/596300771-0-6-0","properties":{"cycleway:left":"lane","foot":"no","highway":"tertiary","lanes":"2","maxspeed":"50","name":"Allanbrooke Road","name:en":"Allanbrooke Road","name:zh":"\u7231\u5170\u5e03\u9c81\u8def","oneway":"yes","psv":"yes","surface":"asphalt","startNodeId":"1779428303","endNodeId":"6947442427"},"geometry":{"type":"LineString","coordinates":[[103.8288943,1.2483346],[103.8286849,1.2485651]]}},{"type":"Feature","id":"way/596342380-0-0-0","properties":{"golf_cart":"designated","highway":"service","startNodeId":"5222479370","endNodeId":"5222479369"},"geometry":{"type":"LineString","coordinates":[[103.8295569,1.2485205],[103.8295327,1.2485352]]}},{"type":"Feature","id":"way/596342380-0-1-0","properties":{"golf_cart":"designated","highway":"service","startNodeId":"5222479369","endNodeId":"5222479368"},"geometry":{"type":"LineString","coordinates":[[103.8295327,1.2485352],[103.8294455,1.2486357]]}},{"type":"Feature","id":"way/596342380-0-2-0","properties":{"golf_cart":"designated","highway":"service","startNodeId":"5222479368","endNodeId":"5222479367"},"geometry":{"type":"LineString","coordinates":[[103.8294455,1.2486357],[103.8294187,1.2486599]]}},{"type":"Feature","id":"way/596342380-0-3-0","properties":{"golf_cart":"designated","highway":"service","startNodeId":"5222479367","endNodeId":"5222479366"},"geometry":{"type":"LineString","coordinates":[[103.8294187,1.2486599],[103.8292591,1.2486988]]}},{"type":"Feature","id":"way/596342380-0-4-0","properties":{"golf_cart":"designated","highway":"service","startNodeId":"5222479366","endNodeId":"5222479345"},"geometry":{"type":"LineString","coordinates":[[103.8292591,1.2486988],[103.8290818,1.2487992]]}},{"type":"Feature","id":"way/596342382-0-0-0","properties":{"highway":"service","startNodeId":"5222479370","endNodeId":"5681276572"},"geometry":{"type":"LineString","coordinates":[[103.8295569,1.2485205],[103.8295703,1.2484789]]}},{"type":"Feature","id":"way/596342382-0-1-0","properties":{"highway":"service","startNodeId":"5681276572","endNodeId":"5681276574"},"geometry":{"type":"LineString","coordinates":[[103.8295703,1.2484789],[103.8295562,1.2484192]]}},{"type":"Feature","id":"way/596342382-0-2-0","properties":{"highway":"service","startNodeId":"5681276574","endNodeId":"5681276573"},"geometry":{"type":"LineString","coordinates":[[103.8295562,1.2484192],[103.8294596,1.2483468]]}},{"type":"Feature","id":"way/596342382-0-3-0","properties":{"highway":"service","startNodeId":"5681276573","endNodeId":"2596273166"},"geometry":{"type":"LineString","coordinates":[[103.8294596,1.2483468],[103.8292635,1.2482644]]}},{"type":"Feature","id":"way/596342383-0-0-0","properties":{"highway":"service","startNodeId":"5681276576","endNodeId":"5838809246"},"geometry":{"type":"LineString","coordinates":[[103.8287429,1.2486148],[103.8287956,1.2486574]]}},{"type":"Feature","id":"way/596342383-0-1-0","properties":{"highway":"service","startNodeId":"5838809246","endNodeId":"13851832182"},"geometry":{"type":"LineString","coordinates":[[103.8287956,1.2486574],[103.8288192,1.248677]]}},{"type":"Feature","id":"way/596342383-0-2-0","properties":{"highway":"service","startNodeId":"13851832182","endNodeId":"5681276575"},"geometry":{"type":"LineString","coordinates":[[103.8288192,1.248677],[103.8289413,1.2487779]]}},{"type":"Feature","id":"way/596342383-0-3-0","properties":{"highway":"service","startNodeId":"5681276575","endNodeId":"5222479345"},"geometry":{"type":"LineString","coordinates":[[103.8289413,1.2487779],[103.8290818,1.2487992]]}},{"type":"Feature","id":"way/643634882-0-0-0","properties":{"highway":"service","startNodeId":"6056573448","endNodeId":"6056573447"},"geometry":{"type":"LineString","coordinates":[[103.8310602,1.2482074],[103.8311863,1.2482509]]}},{"type":"Feature","id":"way/643634882-0-1-0","properties":{"highway":"service","startNodeId":"6056573447","endNodeId":"6056573446"},"geometry":{"type":"LineString","coordinates":[[103.8311863,1.2482509],[103.8312963,1.2482576]]}},{"type":"Feature","id":"way/643634882-0-2-0","properties":{"highway":"service","startNodeId":"6056573446","endNodeId":"6056573445"},"geometry":{"type":"LineString","coordinates":[[103.8312963,1.2482576],[103.831484,1.2482375]]}},{"type":"Feature","id":"way/643634882-0-3-0","properties":{"highway":"service","startNodeId":"6056573445","endNodeId":"6056573444"},"geometry":{"type":"LineString","coordinates":[[103.831484,1.2482375],[103.8322337,1.2481732]]}},{"type":"Feature","id":"way/643634883-0-0-0","properties":{"highway":"service","startNodeId":"6056573455","endNodeId":"6056573454"},"geometry":{"type":"LineString","coordinates":[[103.831098,1.248161],[103.8307706,1.2482054]]}},{"type":"Feature","id":"way/643634883-0-1-0","properties":{"highway":"service","startNodeId":"6056573454","endNodeId":"6056573453"},"geometry":{"type":"LineString","coordinates":[[103.8307706,1.2482054],[103.8307531,1.2482295]]}},{"type":"Feature","id":"way/643634883-0-2-0","properties":{"highway":"service","startNodeId":"6056573453","endNodeId":"6056573452"},"geometry":{"type":"LineString","coordinates":[[103.8307531,1.2482295],[103.8307545,1.2483327]]}},{"type":"Feature","id":"way/643634883-0-3-0","properties":{"highway":"service","startNodeId":"6056573452","endNodeId":"6056573451"},"geometry":{"type":"LineString","coordinates":[[103.8307545,1.2483327],[103.8307491,1.2483877]]}},{"type":"Feature","id":"way/643634883-0-4-0","properties":{"highway":"service","startNodeId":"6056573451","endNodeId":"6056573450"},"geometry":{"type":"LineString","coordinates":[[103.8307491,1.2483877],[103.8306834,1.2484239]]}},{"type":"Feature","id":"way/643634883-0-5-0","properties":{"highway":"service","startNodeId":"6056573450","endNodeId":"6056573449"},"geometry":{"type":"LineString","coordinates":[[103.8306834,1.2484239],[103.8302542,1.2484574]]}},{"type":"Feature","id":"way/643824886-0-2-0","properties":{"highway":"service","name":"Serapong Course Road","name:en":"Serapong Course Road","name:zh":"\u5b9e\u62c9\u84ec\u8def","surface":"asphalt","startNodeId":"5248349287","endNodeId":"6056573455"},"geometry":{"type":"LineString","coordinates":[[103.8311373,1.2480661],[103.831098,1.248161]]}},{"type":"Feature","id":"way/742087624-0-1-0","properties":{"cycleway:left":"lane","foot":"no","highway":"tertiary","lanes":"2","maxspeed":"50","name":"Allanbrooke Road","name:en":"Allanbrooke Road","name:zh":"\u7231\u5170\u5e03\u9c81\u8def","oneway":"yes","psv":"yes","surface":"asphalt","startNodeId":"1779428322","endNodeId":"5681276576"},"geometry":{"type":"LineString","coordinates":[[103.8284563,1.2489504],[103.8287429,1.2486148]]}},{"type":"Feature","id":"way/742087625-0-0-0","properties":{"highway":"service","oneway":"yes","startNodeId":"5681276576","endNodeId":"6947442427"},"geometry":{"type":"LineString","coordinates":[[103.8287429,1.2486148],[103.8286849,1.2485651]]}}]}