{"type":"FeatureCollection","features":[{"type":"Feature","id":"way/453418355-0","properties":{"building":"yes"},"geometry":{"type":"Polygon","coordinates":[[[103.8240166,1.4600041],[103.8241898,1.4599065],[103.8241146,1.4597732],[103.8239414,1.4598708],[103.8240166,1.4600041]]]}},{"type":"Feature","id":"way/453418356-0","properties":{"building":"yes"},"geometry":{"type":"Polygon","coordinates":[[[103.8247437,1.4601368],[103.8248352,1.4600853],[103.8247162,1.4598742],[103.8246247,1.4599257],[103.8247437,1.4601368]]]}},{"type":"Feature","id":"way/453418358-0","properties":{"building":"yes"},"geometry":{"type":"Polygon","coordinates":[[[103.8247897,1.4603021],[103.8249009,1.4602394],[103.8248391,1.4601299],[103.8247279,1.4601925],[103.8247897,1.4603021]]]}},{"type":"Feature","id":"way/453418361-0","properties":{"building":"yes"},"geometry":{"type":"Polygon","coordinates":[[[103.824452,1.4602173],[103.8246273,1.4601185],[103.8245754,1.4600263],[103.8244,1.4601252],[103.824452,1.4602173]]]}},{"type":"Feature","id":"way/453418362-0","properties":{"building":"yes"},"geometry":{"type":"Polygon","coordinates":[[[103.8243632,1.4601177],[103.82463,1.4599673],[103.8245535,1.4598317],[103.8242867,1.459982],[103.8243632,1.4601177]]]}},{"type":"Feature","id":"way/453419640-0","properties":{"building":"yes"},"geometry":{"type":"Polygon","coordinates":[[[103.8283424,1.4609208],[103.828455,1.4608507],[103.8284406,1.4608277],[103.82852,1.4607782],[103.8285343,1.4608013],[103.8286429,1.4607337],[103.8285567,1.4605952],[103.8284815,1.4606421],[103.8284537,1.4605975],[103.8283416,1.4606673],[103.8283694,1.4607119],[103.8282562,1.4607824],[103.8283424,1.4609208]]]}},{"type":"Feature","id":"way/453419641-0","properties":{"addr:city":"Singapore","addr:country":"SG","addr:housenumber":"77","addr:street":"Auckland Road West","building":"detached"},"geometry":{"type":"Polygon","coordinates":[[[103.8277539,1.4601272],[103.8276994,1.4601255],[103.8276945,1.4602849],[103.827749,1.4602866],[103.8277464,1.460371],[103.8278963,1.4603756],[103.8278989,1.4602918],[103.8278676,1.4602908],[103.8278717,1.4601596],[103.827903,1.4601605],[103.8279057,1.4600713],[103.8277558,1.4600667],[103.8277539,1.4601272]]]}},{"type":"Feature","id":"way/453419647-0","properties":{"addr:city":"Singapore","addr:country":"SG","addr:housenumber":"73","addr:street":"Auckland Road West","building":"detached"},"geometry":{"type":"Polygon","coordinates":[[[103.8275749,1.4597435],[103.8275407,1.4597638],[103.8276125,1.4598848],[103.8276467,1.4598645],[103.8276887,1.4599353],[103.8277981,1.4598704],[103.8276532,1.4596264],[103.8275439,1.4596913],[103.8275749,1.4597435]]]}},{"type":"Feature","id":"way/453419648-0","properties":{"addr:city":"Singapore","addr:country":"SG","addr:housenumber":"81","addr:street":"Auckland Road West","building":"detached"},"geometry":{"type":"Polygon","coordinates":[[[103.8277776,1.460626],[103.8277347,1.4606368],[103.8277708,1.4607796],[103.8278136,1.4607688],[103.8278275,1.4608238],[103.8279414,1.4607951],[103.8278757,1.460535],[103.8277618,1.4605637],[103.8277776,1.460626]]]}},{"type":"Feature","id":"way/453419649-0","properties":{"addr:city":"Singapore","addr:country":"SG","addr:housenumber":"74","addr:street":"Auckland Road East","building":"detached"},"geometry":{"type":"Polygon","coordinates":[[[103.8279268,1.4595429],[103.8279565,1.4595253],[103.8280217,1.4596351],[103.827992,1.4596527],[103.8280417,1.4597365],[103.8281689,1.4596611],[103.8280063,1.4593873],[103.8278792,1.4594627],[103.8279268,1.4595429]]]}},{"type":"Feature","id":"way/453419650-0","properties":{"addr:city":"Singapore","addr:country":"SG","addr:housenumber":"66","addr:street":"Falkland Road","building":"detached"},"geometry":{"type":"Polygon","coordinates":[[[103.8273832,1.4603644],[103.8274184,1.4603602],[103.8274344,1.4604968],[103.8273992,1.460501],[103.8274099,1.4605919],[103.8275704,1.4605731],[103.8275352,1.4602721],[103.8273746,1.4602909],[103.8273832,1.4603644]]]}},{"type":"Feature","id":"way/453963901-0","properties":{"building":"yes"},"geometry":{"type":"Polygon","coordinates":[[[103.8239361,1.4605417],[103.8242101,1.4603928],[103.8242647,1.4604932],[103.8243286,1.4604585],[103.8241937,1.4602103],[103.8238557,1.460394],[103.8239361,1.4605417]]]}},{"type":"Feature","id":"way/453963906-0","properties":{"building":"yes"},"geometry":{"type":"Polygon","coordinates":[[[103.8242963,1.4597223],[103.8242714,1.459677],[103.8241882,1.4597225],[103.8242131,1.4597679],[103.8242963,1.4597223]]]}},{"type":"Feature","id":"way/453963910-0","properties":{"building":"yes"},"geometry":{"type":"Polygon","coordinates":[[[103.8242178,1.4605669],[103.8241531,1.4604551],[103.8239237,1.4605879],[103.8239885,1.4606996],[103.8242178,1.4605669]]]}},{"type":"Feature","id":"way/453963920-0","properties":{"building":"yes"},"geometry":{"type":"Polygon","coordinates":[[[103.824506,1.4598453],[103.8244148,1.4596764],[103.8243123,1.4597317],[103.8244035,1.4599006],[103.824506,1.4598453]]]}},{"type":"Feature","id":"way/453963926-0","properties":{"building":"yes"},"geometry":{"type":"Polygon","coordinates":[[[103.8246553,1.4609346],[103.8245888,1.4609713],[103.8244948,1.4608011],[103.8243547,1.4608784],[103.8244953,1.4611333],[103.8247021,1.4610193],[103.8246553,1.4609346]]]}},{"type":"Feature","id":"way/453963928-0","properties":{"building":"yes"},"geometry":{"type":"Polygon","coordinates":[[[103.8244076,1.4613703],[103.8252191,1.4608563],[103.8251637,1.460769],[103.8244151,1.4612432],[103.8241779,1.460869],[103.824936,1.4603888],[103.824885,1.4603083],[103.8240641,1.4608283],[103.8244076,1.4613703]]]}},{"type":"Feature","id":"way/455163312-0","properties":{"building":"yes"},"geometry":{"type":"Polygon","coordinates":[[[103.824225,1.4600943],[103.8243073,1.4600406],[103.8242758,1.4599923],[103.8241935,1.4600461],[103.824225,1.4600943]]]}},{"type":"Feature","id":"way/455163313-0","properties":{"building":"yes"},"geometry":{"type":"Polygon","coordinates":[[[103.8249507,1.4594605],[103.8250656,1.459399],[103.825036,1.4593437],[103.8249211,1.4594053],[103.8249507,1.4594605]]]}},{"type":"Feature","id":"way/508677290-0","properties":{"building":"industrial"},"geometry":{"type":"Polygon","coordinates":[[[103.8296237,1.4616061],[103.8296077,1.461578],[103.8297015,1.4615248],[103.8296225,1.4613858],[103.8295228,1.4614424],[103.8294902,1.4613849],[103.8295928,1.4613266],[103.8294812,1.4611302],[103.829384,1.4611854],[103.8293784,1.4611756],[103.826689,1.4627028],[103.8269338,1.4631335],[103.8296237,1.4616061]]]}},{"type":"Feature","id":"way/902887615-0","properties":{"addr:city":"Singapore","addr:country":"SG","addr:housenumber":"78","addr:street":"Auckland Road East","building":"detached"},"geometry":{"type":"Polygon","coordinates":[[[103.8285283,1.4599168],[103.8285548,1.4598691],[103.8284153,1.4597917],[103.8283888,1.4598394],[103.828315,1.4597984],[103.8282422,1.4599295],[103.8283155,1.4599702],[103.8283307,1.4599428],[103.8284455,1.4600066],[103.8284304,1.460034],[103.8285084,1.4600773],[103.8285812,1.4599462],[103.8285283,1.4599168]]]}},{"type":"Feature","id":"way/996002234-0","properties":{"addr:city":"Singapore","addr:country":"SG","addr:housenumber":"103","addr:street":"Wellington Road","building":"yes"},"geometry":{"type":"Polygon","coordinates":[[[103.8285644,1.4596665],[103.8286215,1.4595782],[103.8284739,1.459483],[103.8284169,1.4595713],[103.8285644,1.4596665]]]}},{"type":"Feature","id":"way/996002235-0","properties":{"addr:city":"Singapore","addr:country":"SG","addr:housenumber":"101","addr:street":"Wellington Road","building":"yes"},"geometry":{"type":"Polygon","coordinates":[[[103.8283685,1.4594958],[103.8284558,1.459444],[103.8283742,1.4593064],[103.8282868,1.4593582],[103.8283685,1.4594958]]]}},{"type":"Feature","id":"way/996002236-0","properties":{"addr:city":"Singapore","addr:country":"SG","addr:housenumber":"62","addr:street":"Falkland Road","building":"detached"},"geometry":{"type":"Polygon","coordinates":[[[103.8273709,1.4601313],[103.8275207,1.4600479],[103.8274689,1.4599551],[103.8275594,1.4599046],[103.8274904,1.4597809],[103.8274198,1.4598203],[103.8273866,1.4597607],[103.8272169,1.4598553],[103.8273709,1.4601313]]]}},{"type":"Feature","id":"way/996002237-0","properties":{"addr:housenumber":"93","addr:street":"Fiji Road","building":"detached"},"geometry":{"type":"Polygon","coordinates":[[[103.8278108,1.4612526],[103.8277966,1.4612267],[103.8279054,1.4611674],[103.82792,1.4611942],[103.8279959,1.4611529],[103.8279254,1.4610236],[103.827892,1.4610418],[103.8278576,1.4609786],[103.8277926,1.461014],[103.8278274,1.4610778],[103.8277729,1.4611075],[103.8277312,1.4610309],[103.8276434,1.4610787],[103.8276874,1.4611594],[103.8276435,1.4611833],[103.8277109,1.461307],[103.8278108,1.4612526]]]}},{"type":"Feature","id":"way/996002238-0","properties":{"addr:city":"Singapore","addr:country":"SG","addr:housenumber":"70","addr:street":"Falkland Road","building":"detached"},"geometry":{"type":"Polygon","coordinates":[[[103.8276216,1.4610421],[103.8276008,1.4609471],[103.827686,1.4609284],[103.8276549,1.4607867],[103.8275585,1.4608079],[103.8275387,1.460718],[103.827394,1.4607498],[103.8274146,1.4608438],[103.8274474,1.4608366],[103.8274798,1.4609838],[103.8274594,1.4609883],[103.8274781,1.4610736],[103.8276216,1.4610421]]]}},{"type":"Feature","id":"way/1078245435-0","properties":{"building":"yes"},"geometry":{"type":"Polygon","coordinates":[[[103.8269948,1.4617555],[103.8270331,1.461734],[103.8270433,1.4617522],[103.8271229,1.4617074],[103.8271115,1.4616872],[103.8271476,1.461667],[103.8270839,1.4615536],[103.8270107,1.4615947],[103.8269962,1.4615689],[103.8269543,1.4615921],[103.826968,1.4616166],[103.8269291,1.4616385],[103.8269948,1.4617555]]]}},{"type":"Feature","id":"way/1078245440-0","properties":{"building":"industrial"},"geometry":{"type":"Polygon","coordinates":[[[103.8245376,1.4619909],[103.8241442,1.4622098],[103.824204,1.4623174],[103.8245974,1.4620985],[103.8245376,1.4619909]]]}},{"type":"Feature","id":"way/1078245441-0","properties":{"building":"industrial"},"geometry":{"type":"Polygon","coordinates":[[[103.824632,1.462818],[103.8243225,1.4622621],[103.824206,1.4623269],[103.8245155,1.4628828],[103.824632,1.462818]]]}},{"type":"Feature","id":"way/1078245442-0","properties":{"building":"industrial"},"geometry":{"type":"Polygon","coordinates":[[[103.8249784,1.4627675],[103.824918,1.4626589],[103.824632,1.462818],[103.8245155,1.4628828],[103.824576,1.4629914],[103.8249784,1.4627675]]]}},{"type":"Feature","id":"way/1078245443-0","properties":{"building":"industrial"},"geometry":{"type":"Polygon","coordinates":[[[103.8260262,1.4635771],[103.826205,1.4634776],[103.826242,1.4635441],[103.8263761,1.4634695],[103.8261802,1.4631177],[103.8259298,1.463257],[103.8258674,1.4632918],[103.8259196,1.4633855],[103.8260262,1.4635771]]]}},{"type":"Feature","id":"way/1078245444-0","properties":{"building":"industrial"},"geometry":{"type":"Polygon","coordinates":[[[103.8257042,1.4635054],[103.8259196,1.4633855],[103.8258674,1.4632918],[103.825652,1.4634116],[103.8257042,1.4635054]]]}},{"type":"Feature","id":"way/1078245445-0","properties":{"building":"industrial"},"geometry":{"type":"Polygon","coordinates":[[[103.8255772,1.4634532],[103.825652,1.4634116],[103.8258674,1.4632918],[103.8259298,1.463257],[103.8258245,1.4630678],[103.8260534,1.4629404],[103.8260121,1.4628663],[103.8254306,1.4631898],[103.8255772,1.4634532]]]}},{"type":"Feature","id":"way/1078245446-0","properties":{"building":"industrial"},"geometry":{"type":"Polygon","coordinates":[[[103.8254306,1.4631898],[103.8260121,1.4628663],[103.8262129,1.4627546],[103.826001,1.4623741],[103.8252188,1.4628093],[103.8254306,1.4631898]]]}},{"type":"Feature","id":"way/1078245447-0","properties":{"building":"industrial"},"geometry":{"type":"Polygon","coordinates":[[[103.8250838,1.4625724],[103.8259078,1.4621122],[103.8252879,1.4610027],[103.8244638,1.4614628],[103.8250838,1.4625724]]]}},{"type":"Feature","id":"way/1387951859-0","properties":{"building":"yes"},"geometry":{"type":"Polygon","coordinates":[[[103.8267588,1.4621761],[103.8268489,1.462121],[103.826867,1.4621506],[103.8269047,1.4621275],[103.8269336,1.4621747],[103.8270531,1.4621017],[103.827026,1.4620574],[103.8270705,1.4620301],[103.8270536,1.4620025],[103.8271395,1.46195],[103.827105,1.4618936],[103.8267273,1.4621245],[103.8267588,1.4621761]]]}},{"type":"Feature","id":"way/1387951860-0","properties":{"building":"yes"},"geometry":{"type":"Polygon","coordinates":[[[103.8272326,1.4619158],[103.8273227,1.4618607],[103.8273408,1.4618903],[103.8273786,1.4618672],[103.8274075,1.4619145],[103.8275269,1.4618415],[103.8274998,1.4617971],[103.8275444,1.4617699],[103.8275275,1.4617422],[103.8276133,1.4616898],[103.8275788,1.4616334],[103.8272011,1.4618643],[103.8272326,1.4619158]]]}},{"type":"Feature","id":"way/1510574237-0","properties":{"building":"yes"},"geometry":{"type":"Polygon","coordinates":[[[103.8250016,1.4596058],[103.8250453,1.4595825],[103.825006,1.4595091],[103.8249624,1.4595325],[103.8250016,1.4596058]]]}},{"type":"Feature","id":"way/1510574240-0","properties":{"building":"yes"},"geometry":{"type":"Polygon","coordinates":[[[103.8264424,1.4608877],[103.8264868,1.4608405],[103.8264541,1.4608097],[103.8264097,1.4608569],[103.8264424,1.4608877]]]}},{"type":"Feature","id":"way/76848621-0-0-0","properties":{"foot":"no","highway":"residential","lanes":"2","maxspeed":"50","name":"Auckland Road West","surface":"asphalt"},"geometry":{"type":"LineString","coordinates":[[103.8276551,1.4592604],[103.8277185,1.4593939]]}},{"type":"Feature","id":"way/76848666-0-0-0","properties":{"highway":"residential","lanes":"2","lanes:backward":"1","lanes:forward":"1","lit":"yes","maxspeed":"50","name":"Auckland Road West","surface":"asphalt"},"geometry":{"type":"LineString","coordinates":[[103.8280428,1.4599558],[103.8280279,1.4603782]]}},{"type":"Feature","id":"way/76848666-0-1-0","properties":{"highway":"residential","lanes":"2","lanes:backward":"1","lanes:forward":"1","lit":"yes","maxspeed":"50","name":"Auckland Road West","surface":"asphalt"},"geometry":{"type":"LineString","coordinates":[[103.8280279,1.4603782],[103.8280586,1.4606515]]}},{"type":"Feature","id":"way/76848666-0-2-0","properties":{"highway":"residential","lanes":"2","lanes:backward":"1","lanes:forward":"1","lit":"yes","maxspeed":"50","name":"Auckland Road West","surface":"asphalt"},"geometry":{"type":"LineString","coordinates":[[103.8280586,1.4606515],[103.8280918,1.4607946]]}},{"type":"Feature","id":"way/76848666-0-3-0","properties":{"highway":"residential","lanes":"2","lanes:backward":"1","lanes:forward":"1","lit":"yes","maxspeed":"50","name":"Auckland Road West","surface":"asphalt"},"geometry":{"type":"LineString","coordinates":[[103.8280918,1.4607946],[103.8282579,1.4611675]]}},{"type":"Feature","id":"way/76848667-0-0-0","properties":{"highway":"residential","lanes":"2","lanes:backward":"1","lanes:forward":"1","lit":"yes","maxspeed":"50","name":"Falkland Road","surface":"asphalt"},"geometry":{"type":"LineString","coordinates":[[103.8275496,1.461399],[103.8274418,1.4612085]]}},{"type":"Feature","id":"way/76848667-0-1-0","properties":{"highway":"residential","lanes":"2","lanes:backward":"1","lanes:forward":"1","lit":"yes","maxspeed":"50","name":"Falkland Road","surface":"asphalt"},"geometry":{"type":"LineString","coordinates":[[103.8274418,1.4612085],[103.8273496,1.460954]]}},{"type":"Feature","id":"way/76848667-0-2-0","properties":{"highway":"residential","lanes":"2","lanes:backward":"1","lanes:forward":"1","lit":"yes","maxspeed":"50","name":"Falkland Road","surface":"asphalt"},"geometry":{"type":"LineString","coordinates":[[103.8273496,1.460954],[103.8272756,1.4605877]]}},{"type":"Feature","id":"way/76848667-0-3-0","properties":{"highway":"residential","lanes":"2","lanes:backward":"1","lanes:forward":"1","lit":"yes","maxspeed":"50","name":"Falkland Road","surface":"asphalt"},"geometry":{"type":"LineString","coordinates":[[103.8272756,1.4605877],[103.8272772,1.4604345]]}},{"type":"Feature","id":"way/76848667-0-4-0","properties":{"highway":"residential","lanes":"2","lanes:backward":"1","lanes:forward":"1","lit":"yes","maxspeed":"50","name":"Falkland Road","surface":"asphalt"},"geometry":{"type":"LineString","coordinates":[[103.8272772,1.4604345],[103.8272703,1.4602102]]}},{"type":"Feature","id":"way/76848667-0-5-0","properties":{"highway":"residential","lanes":"2","lanes:backward":"1","lanes:forward":"1","lit":"yes","maxspeed":"50","name":"Falkland Road","surface":"asphalt"},"geometry":{"type":"LineString","coordinates":[[103.8272703,1.4602102],[103.827252,1.4601282]]}},{"type":"Feature","id":"way/76848667-0-6-0","properties":{"highway":"residential","lanes":"2","lanes:backward":"1","lanes:forward":"1","lit":"yes","maxspeed":"50","name":"Falkland Road","surface":"asphalt"},"geometry":{"type":"LineString","coordinates":[[103.827252,1.4601282],[103.8272007,1.4600042]]}},{"type":"Feature","id":"way/76848667-0-7-0","properties":{"highway":"residential","lanes":"2","lanes:backward":"1","lanes:forward":"1","lit":"yes","maxspeed":"50","name":"Falkland Road","surface":"asphalt"},"geometry":{"type":"LineString","coordinates":[[103.8272007,1.4600042],[103.8270664,1.4597587]]}},{"type":"Feature","id":"way/76848716-0-0-0","properties":{"highway":"residential","lanes":"2","lanes:backward":"1","lanes:forward":"1","lit":"yes","maxspeed":"50","name":"Auckland Road East","surface":"asphalt"},"geometry":{"type":"LineString","coordinates":[[103.8280428,1.4599558],[103.8285152,1.4602459]]}},{"type":"Feature","id":"way/76848759-0-0-0","properties":{"highway":"residential","lanes":"2","lanes:backward":"1","lanes:forward":"1","lit":"yes","maxspeed":"50","name":"Fiji Road","surface":"asphalt"},"geometry":{"type":"LineString","coordinates":[[103.8282579,1.4611675],[103.8282808,1.4611661]]}},{"type":"Feature","id":"way/76848759-0-1-0","properties":{"highway":"residential","lanes":"2","lanes:backward":"1","lanes:forward":"1","lit":"yes","maxspeed":"50","name":"Fiji Road","surface":"asphalt"},"geometry":{"type":"LineString","coordinates":[[103.8282808,1.4611661],[103.8283511,1.4611713]]}},{"type":"Feature","id":"way/76848759-0-2-0","properties":{"highway":"residential","lanes":"2","lanes:backward":"1","lanes:forward":"1","lit":"yes","maxspeed":"50","name":"Fiji Road","surface":"asphalt"},"geometry":{"type":"LineString","coordinates":[[103.8283511,1.4611713],[103.8283834,1.4611654]]}},{"type":"Feature","id":"way/76848759-0-3-0","properties":{"highway":"residential","lanes":"2","lanes:backward":"1","lanes:forward":"1","lit":"yes","maxspeed":"50","name":"Fiji Road","surface":"asphalt"},"geometry":{"type":"LineString","coordinates":[[103.8283834,1.4611654],[103.8284189,1.4611486]]}},{"type":"Feature","id":"way/76848759-0-4-0","properties":{"highway":"residential","lanes":"2","lanes:backward":"1","lanes:forward":"1","lit":"yes","maxspeed":"50","name":"Fiji Road","surface":"asphalt"},"geometry":{"type":"LineString","coordinates":[[103.8284189,1.4611486],[103.8284456,1.4611211]]}},{"type":"Feature","id":"way/76848759-0-5-0","properties":{"highway":"residential","lanes":"2","lanes:backward":"1","lanes:forward":"1","lit":"yes","maxspeed":"50","name":"Fiji Road","surface":"asphalt"},"geometry":{"type":"LineString","coordinates":[[103.8284456,1.4611211],[103.8285725,1.4609871]]}},{"type":"Feature","id":"way/465770136-0-0-0","properties":{"foot":"no","highway":"primary_link","lanes":"1","maxspeed":"50","oneway":"yes"},"geometry":{"type":"LineString","coordinates":[[103.8258597,1.4592171],[103.8258084,1.4592406]]}},{"type":"Feature","id":"way/465770136-0-1-0","properties":{"foot":"no","highway":"primary_link","lanes":"1","maxspeed":"50","oneway":"yes"},"geometry":{"type":"LineString","coordinates":[[103.8258084,1.4592406],[103.8257909,1.4592708]]}},{"type":"Feature","id":"way/465770136-0-2-0","properties":{"foot":"no","highway":"primary_link","lanes":"1","maxspeed":"50","oneway":"yes"},"geometry":{"type":"LineString","coordinates":[[103.8257909,1.4592708],[103.8257822,1.4593143]]}},{"type":"Feature","id":"way/465770136-0-3-0","properties":{"foot":"no","highway":"primary_link","lanes":"1","maxspeed":"50","oneway":"yes"},"geometry":{"type":"LineString","coordinates":[[103.8257822,1.4593143],[103.8257849,1.4593546]]}},{"type":"Feature","id":"way/465770136-0-4-0","properties":{"foot":"no","highway":"primary_link","lanes":"1","maxspeed":"50","oneway":"yes"},"geometry":{"type":"LineString","coordinates":[[103.8257849,1.4593546],[103.8258142,1.4594095]]}},{"type":"Feature","id":"way/465770137-0-0-0","properties":{"foot":"no","highway":"primary_link","lanes":"1","maxspeed":"50","oneway":"yes","surface":"asphalt"},"geometry":{"type":"LineString","coordinates":[[103.8256469,1.4593535],[103.825695,1.4593177]]}},{"type":"Feature","id":"way/465770137-0-1-0","properties":{"foot":"no","highway":"primary_link","lanes":"1","maxspeed":"50","oneway":"yes","surface":"asphalt"},"geometry":{"type":"LineString","coordinates":[[103.825695,1.4593177],[103.8257219,1.4592728]]}},{"type":"Feature","id":"way/465770137-0-2-0","properties":{"foot":"no","highway":"primary_link","lanes":"1","maxspeed":"50","oneway":"yes","surface":"asphalt"},"geometry":{"type":"LineString","coordinates":[[103.8257219,1.4592728],[103.8257205,1.4592386]]}},{"type":"Feature","id":"way/465770137-0-3-0","properties":{"foot":"no","highway":"primary_link","lanes":"1","maxspeed":"50","oneway":"yes","surface":"asphalt"},"geometry":{"type":"LineString","coordinates":[[103.8257205,1.4592386],[103.8257131,1.4592051]]}},{"type":"Feature","id":"way/465770137-0-4-0","properties":{"foot":"no","highway":"primary_link","lanes":"1","maxspeed":"50","oneway":"yes","surface":"asphalt"},"geometry":{"type":"LineString","coordinates":[[103.8257131,1.4592051],[103.8257024,1.45917]]}},{"type":"Feature","id":"way/479147546-0-0-0","properties":{"highway":"primary","lanes":"4","maxspeed":"60","name":"Admiralty Road West","name:en":"Admiralty Road West","name:zh":"\u6d77\u519b\u90e8\u897f\u8def","oneway":"yes","source":"Yahoo aerial images","surface":"asphalt","turn:lanes":"through|through|through|right"},"geometry":{"type":"LineString","coordinates":[[103.825302,1.459238],[103.8256469,1.4593535]]}},{"type":"Feature","id":"way/479147547-0-0-0","properties":{"highway":"primary","lanes":"3","maxspeed":"60","name":"Admiralty Road West","name:en":"Admiralty Road West","name:zh":"\u6d77\u519b\u90e8\u897f\u8def","oneway":"yes","source":"Yahoo aerial images","surface":"asphalt"},"geometry":{"type":"LineString","coordinates":[[103.8261276,1.4594936],[103.8263841,1.4595574]]}},{"type":"Feature","id":"way/479147547-0-1-0","properties":{"highway":"primary","lanes":"3","maxspeed":"60","name":"Admiralty Road West","name:en":"Admiralty Road West","name:zh":"\u6d77\u519b\u90e8\u897f\u8def","oneway":"yes","source":"Yahoo aerial images","surface":"asphalt"},"geometry":{"type":"LineString","coordinates":[[103.8263841,1.4595574],[103.8265756,1.4595713]]}},{"type":"Feature","id":"way/479147548-0-0-0","properties":{"highway":"primary","lanes":"4","maxspeed":"60","name":"Admiralty Road West","name:en":"Admiralty Road West","name:zh":"\u6d77\u519b\u90e8\u897f\u8def","oneway":"yes","source":"Yahoo aerial images","surface":"asphalt","turn:lanes":"through|through|through|right"},"geometry":{"type":"LineString","coordinates":[[103.8262785,1.4593211],[103.8259265,1.4592371]]}},{"type":"Feature","id":"way/479147548-0-1-0","properties":{"highway":"primary","lanes":"4","maxspeed":"60","name":"Admiralty Road West","name:en":"Admiralty Road West","name:zh":"\u6d77\u519b\u90e8\u897f\u8def","oneway":"yes","source":"Yahoo aerial images","surface":"asphalt","turn:lanes":"through|through|through|right"},"geometry":{"type":"LineString","coordinates":[[103.8259265,1.4592371],[103.8258597,1.4592171]]}},{"type":"Feature","id":"way/479147549-0-0-0","properties":{"highway":"primary","lanes":"3","maxspeed":"60","name":"Admiralty Road West","name:en":"Admiralty Road West","name:zh":"\u6d77\u519b\u90e8\u897f\u8def","oneway":"yes","source":"Yahoo aerial images","surface":"asphalt"},"geometry":{"type":"LineString","coordinates":[[103.8258597,1.4592171],[103.8257024,1.45917]]}},{"type":"Feature","id":"way/535332766-0-0-0","properties":{"highway":"residential","lanes":"2","lanes:backward":"1","lanes:forward":"1","lit":"yes","maxspeed":"50","name":"Fiji Road","surface":"asphalt"},"geometry":{"type":"LineString","coordinates":[[103.8276436,1.4615144],[103.827671,1.4615121]]}},{"type":"Feature","id":"way/535332766-0-1-0","properties":{"highway":"residential","lanes":"2","lanes:backward":"1","lanes:forward":"1","lit":"yes","maxspeed":"50","name":"Fiji Road","surface":"asphalt"},"geometry":{"type":"LineString","coordinates":[[103.827671,1.4615121],[103.8277031,1.4614981]]}},{"type":"Feature","id":"way/535332766-0-2-0","properties":{"highway":"residential","lanes":"2","lanes:backward":"1","lanes:forward":"1","lit":"yes","maxspeed":"50","name":"Fiji Road","surface":"asphalt"},"geometry":{"type":"LineString","coordinates":[[103.8277031,1.4614981],[103.8282579,1.4611675]]}},{"type":"Feature","id":"way/537349442-0-0-0","properties":{"highway":"residential","lanes":"2","lanes:backward":"1","lanes:forward":"1","lit":"yes","maxspeed":"50","name":"Auckland Road West","surface":"asphalt"},"geometry":{"type":"LineString","coordinates":[[103.8278295,1.45957],[103.8278764,1.4596705]]}},{"type":"Feature","id":"way/537349442-0-1-0","properties":{"highway":"residential","lanes":"2","lanes:backward":"1","lanes:forward":"1","lit":"yes","maxspeed":"50","name":"Auckland Road West","surface":"asphalt"},"geometry":{"type":"LineString","coordinates":[[103.8278764,1.4596705],[103.8280428,1.4599558]]}},{"type":"Feature","id":"way/537349443-0-0-0","properties":{"highway":"primary","lanes":"3","maxspeed":"60","name":"Admiralty Road West","name:en":"Admiralty Road West","name:zh":"\u6d77\u519b\u90e8\u897f\u8def","oneway":"yes","source":"Yahoo aerial images","surface":"asphalt"},"geometry":{"type":"LineString","coordinates":[[103.8256469,1.4593535],[103.8258142,1.4594095]]}},{"type":"Feature","id":"way/537349445-0-1-0","properties":{"highway":"primary","lanes":"3","maxspeed":"60","name":"Admiralty Road West","name:en":"Admiralty Road West","name:zh":"\u6d77\u519b\u90e8\u897f\u8def","oneway":"yes","source":"Yahoo aerial images","surface":"asphalt","turn:lanes":"through|through|through"},"geometry":{"type":"LineString","coordinates":[[103.8249318,1.4591057],[103.825302,1.459238]]}},{"type":"Feature","id":"way/538909550-0-0-0","properties":{"highway":"primary","lanes":"3","maxspeed":"60","name":"Admiralty Road East","name:en":"Admiralty Road East","name:zh":"\u6d77\u519b\u90e8\u4e1c\u8def","oneway":"yes","source":"Yahoo aerial images","surface":"asphalt"},"geometry":{"type":"LineString","coordinates":[[103.8273693,1.4593535],[103.8273353,1.4593646]]}},{"type":"Feature","id":"way/538909550-0-1-0","properties":{"highway":"primary","lanes":"3","maxspeed":"60","name":"Admiralty Road East","name:en":"Admiralty Road East","name:zh":"\u6d77\u519b\u90e8\u4e1c\u8def","oneway":"yes","source":"Yahoo aerial images","surface":"asphalt"},"geometry":{"type":"LineString","coordinates":[[103.8273353,1.4593646],[103.8269367,1.4594106]]}},{"type":"Feature","id":"way/538909550-0-2-0","properties":{"highway":"primary","lanes":"3","maxspeed":"60","name":"Admiralty Road East","name:en":"Admiralty Road East","name:zh":"\u6d77\u519b\u90e8\u4e1c\u8def","oneway":"yes","source":"Yahoo aerial images","surface":"asphalt"},"geometry":{"type":"LineString","coordinates":[[103.8269367,1.4594106],[103.8267496,1.4594066]]}},{"type":"Feature","id":"way/545079925-0-3-0","properties":{"highway":"service","oneway":"yes"},"geometry":{"type":"LineString","coordinates":[[103.8274232,1.4591852],[103.8273936,1.4592174]]}},{"type":"Feature","id":"way/545079925-0-4-0","properties":{"highway":"service","oneway":"yes"},"geometry":{"type":"LineString","coordinates":[[103.8273936,1.4592174],[103.8273749,1.459259]]}},{"type":"Feature","id":"way/545079925-0-5-0","properties":{"highway":"service","oneway":"yes"},"geometry":{"type":"LineString","coordinates":[[103.8273749,1.459259],[103.8273693,1.4593535]]}},{"type":"Feature","id":"way/632023048-0-0-0","properties":{"highway":"primary","lanes":"3","maxspeed":"60","name":"Admiralty Road East","name:en":"Admiralty Road East","name:zh":"\u6d77\u519b\u90e8\u4e1c\u8def","oneway":"yes","source":"Yahoo aerial images","surface":"asphalt"},"geometry":{"type":"LineString","coordinates":[[103.8269644,1.459575],[103.8273671,1.459513]]}},{"type":"Feature","id":"way/632023052-0-0-0","properties":{"highway":"residential","lanes":"2","lanes:backward":"1","lanes:forward":"1","lit":"yes","maxspeed":"50","name":"Falkland Road","surface":"asphalt"},"geometry":{"type":"LineString","coordinates":[[103.8276436,1.4615144],[103.8276179,1.4615068]]}},{"type":"Feature","id":"way/632023052-0-1-0","properties":{"highway":"residential","lanes":"2","lanes:backward":"1","lanes:forward":"1","lit":"yes","maxspeed":"50","name":"Falkland Road","surface":"asphalt"},"geometry":{"type":"LineString","coordinates":[[103.8276179,1.4615068],[103.8275998,1.4614858]]}},{"type":"Feature","id":"way/632023052-0-2-0","properties":{"highway":"residential","lanes":"2","lanes:backward":"1","lanes:forward":"1","lit":"yes","maxspeed":"50","name":"Falkland Road","surface":"asphalt"},"geometry":{"type":"LineString","coordinates":[[103.8275998,1.4614858],[103.8275496,1.461399]]}},{"type":"Feature","id":"way/632116904-0-0-0","properties":{"highway":"primary","lanes":"3","maxspeed":"60","name":"Admiralty Road East","name:en":"Admiralty Road East","name:zh":"\u6d77\u519b\u90e8\u4e1c\u8def","oneway":"yes","source":"Yahoo aerial images","surface":"asphalt","turn:lanes":"left;through|through|through"},"geometry":{"type":"LineString","coordinates":[[103.8277185,1.4593939],[103.8280121,1.4592443]]}},{"type":"Feature","id":"way/639570077-0-0-0","properties":{"highway":"residential","lanes":"2","lanes:backward":"1","lanes:forward":"1","lit":"yes","maxspeed":"50","name":"Auckland Road West","surface":"asphalt","turn:lanes:backward":"left;right"},"geometry":{"type":"LineString","coordinates":[[103.8277185,1.4593939],[103.8277611,1.4594614]]}},{"type":"Feature","id":"way/639570077-0-1-0","properties":{"highway":"residential","lanes":"2","lanes:backward":"1","lanes:forward":"1","lit":"yes","maxspeed":"50","name":"Auckland Road West","surface":"asphalt","turn:lanes:backward":"left;right"},"geometry":{"type":"LineString","coordinates":[[103.8277611,1.4594614],[103.8278295,1.45957]]}},{"type":"Feature","id":"way/639570078-0-0-0","properties":{"highway":"primary","lanes":"3","maxspeed":"60","name":"Admiralty Road East","name:en":"Admiralty Road East","name:zh":"\u6d77\u519b\u90e8\u4e1c\u8def","oneway":"yes","source":"Yahoo aerial images","surface":"asphalt"},"geometry":{"type":"LineString","coordinates":[[103.8276551,1.4592604],[103.8273693,1.4593535]]}},{"type":"Feature","id":"way/639570079-0-0-0","properties":{"highway":"primary","lanes":"3","maxspeed":"60","name":"Admiralty Road East","name:en":"Admiralty Road East","name:zh":"\u6d77\u519b\u90e8\u4e1c\u8def","oneway":"yes","source":"Yahoo aerial images","surface":"asphalt","turn:lanes":"left;through|through|through"},"geometry":{"type":"LineString","coordinates":[[103.8273671,1.459513],[103.8277185,1.4593939]]}},{"type":"Feature","id":"way/639570117-0-0-0","properties":{"highway":"primary","lanes":"3","maxspeed":"60","name":"Admiralty Road East","name:en":"Admiralty Road East","name:zh":"\u6d77\u519b\u90e8\u4e1c\u8def","oneway":"yes","source":"Yahoo aerial images","surface":"asphalt","turn:lanes":"through|through|through;right"},"geometry":{"type":"LineString","coordinates":[[103.8278014,1.4591918],[103.8276899,1.459249]]}},{"type":"Feature","id":"way/639570117-0-1-0","properties":{"highway":"primary","lanes":"3","maxspeed":"60","name":"Admiralty Road East","name:en":"Admiralty Road East","name:zh":"\u6d77\u519b\u90e8\u4e1c\u8def","oneway":"yes","source":"Yahoo aerial images","surface":"asphalt","turn:lanes":"through|through|through;right"},"geometry":{"type":"LineString","coordinates":[[103.8276899,1.459249],[103.8276551,1.4592604]]}},{"type":"Feature","id":"way/640209611-0-0-0","properties":{"highway":"residential","lanes":"2","lanes:backward":"1","lanes:forward":"1","lit":"yes","maxspeed":"50","name":"Falkland Road","surface":"asphalt","turn:lanes:forward":"left"},"geometry":{"type":"LineString","coordinates":[[103.8270664,1.4597587],[103.8270016,1.4596419]]}},{"type":"Feature","id":"way/640209611-0-1-0","properties":{"highway":"residential","lanes":"2","lanes:backward":"1","lanes:forward":"1","lit":"yes","maxspeed":"50","name":"Falkland Road","surface":"asphalt","turn:lanes:forward":"left"},"geometry":{"type":"LineString","coordinates":[[103.8270016,1.4596419],[103.8269644,1.459575]]}},{"type":"Feature","id":"way/655047636-0-0-0","properties":{"highway":"primary","lanes":"4","maxspeed":"60","name":"Admiralty Road West","name:en":"Admiralty Road West","name:zh":"\u6d77\u519b\u90e8\u897f\u8def","oneway":"yes","source":"Yahoo aerial images","surface":"asphalt","turn:lanes":"through|through|through|right"},"geometry":{"type":"LineString","coordinates":[[103.8264797,1.4593725],[103.8262785,1.4593211]]}},{"type":"Feature","id":"way/655047639-0-0-0","properties":{"highway":"primary","lanes":"3","maxspeed":"60","name":"Admiralty Road West","name:en":"Admiralty Road West","name:zh":"\u6d77\u519b\u90e8\u897f\u8def","oneway":"yes","source":"Yahoo aerial images","surface":"asphalt","turn:lanes":"through|through|through"},"geometry":{"type":"LineString","coordinates":[[103.8267496,1.4594066],[103.8264797,1.4593725]]}},{"type":"Feature","id":"way/655530174-0-0-0","properties":{"highway":"primary","lanes":"3","maxspeed":"60","name":"Admiralty Road West","name:en":"Admiralty Road West","name:zh":"\u6d77\u519b\u90e8\u897f\u8def","oneway":"yes","source":"Yahoo aerial images","surface":"asphalt","turn:lanes":"left;through|through|through"},"geometry":{"type":"LineString","coordinates":[[103.8265756,1.4595713],[103.8267643,1.4595854]]}},{"type":"Feature","id":"way/655530174-0-1-0","properties":{"highway":"primary","lanes":"3","maxspeed":"60","name":"Admiralty Road West","name:en":"Admiralty Road West","name:zh":"\u6d77\u519b\u90e8\u897f\u8def","oneway":"yes","source":"Yahoo aerial images","surface":"asphalt","turn:lanes":"left;through|through|through"},"geometry":{"type":"LineString","coordinates":[[103.8267643,1.4595854],[103.8269644,1.459575]]}},{"type":"Feature","id":"way/655530175-0-0-0","properties":{"highway":"primary","lanes":"3","maxspeed":"60","name":"Admiralty Road West","name:en":"Admiralty Road West","name:zh":"\u6d77\u519b\u90e8\u897f\u8def","oneway":"yes","source":"Yahoo aerial images","surface":"asphalt","turn:lanes":"through|through|through"},"geometry":{"type":"LineString","coordinates":[[103.8258142,1.4594095],[103.825891,1.4594352]]}},{"type":"Feature","id":"way/655530175-0-1-0","properties":{"highway":"primary","lanes":"3","maxspeed":"60","name":"Admiralty Road West","name:en":"Admiralty Road West","name:zh":"\u6d77\u519b\u90e8\u897f\u8def","oneway":"yes","source":"Yahoo aerial images","surface":"asphalt","turn:lanes":"through|through|through"},"geometry":{"type":"LineString","coordinates":[[103.825891,1.4594352],[103.8261276,1.4594936]]}},{"type":"Feature","id":"way/670344991-0-1-0","properties":{"highway":"residential","lanes":"2","lanes:backward":"1","lanes:forward":"1","lit":"yes","maxspeed":"50","name":"Wellington Road","surface":"asphalt","turn:lanes:forward":"left"},"geometry":{"type":"LineString","coordinates":[[103.8285282,1.4593343],[103.8284134,1.4591137]]}},{"type":"Feature","id":"way/676270815-0-0-0","properties":{"highway":"residential","lanes":"2","lanes:backward":"1","lanes:forward":"1","lit":"yes","maxspeed":"40","name":"Ottawa Road","oneway":"no","surface":"asphalt","turn:lanes:forward":"left"},"geometry":{"type":"LineString","coordinates":[[103.8266593,1.4592097],[103.8266978,1.459291]]}},{"type":"Feature","id":"way/676270815-0-1-0","properties":{"highway":"residential","lanes":"2","lanes:backward":"1","lanes:forward":"1","lit":"yes","maxspeed":"40","name":"Ottawa Road","oneway":"no","surface":"asphalt","turn:lanes:forward":"left"},"geometry":{"type":"LineString","coordinates":[[103.8266978,1.459291],[103.8267496,1.4594066]]}}]}