{"type":"FeatureCollection","features":[{"type":"Feature","id":"way/453500275-0","properties":{"building":"yes"},"geometry":{"type":"Polygon","coordinates":[[[103.8212196,1.4645466],[103.8213684,1.4645721],[103.8214174,1.4642861],[103.8212685,1.4642607],[103.8212196,1.4645466]]]}},{"type":"Feature","id":"way/453500278-0","properties":{"building":"yes"},"geometry":{"type":"Polygon","coordinates":[[[103.822793,1.4650623],[103.8223858,1.4642978],[103.8220932,1.4644536],[103.8225004,1.465218],[103.822793,1.4650623]]]}},{"type":"Feature","id":"way/453500284-0","properties":{"building":"yes"},"geometry":{"type":"Polygon","coordinates":[[[103.8219257,1.4640817],[103.8217852,1.463829],[103.8215197,1.4639765],[103.8216601,1.4642292],[103.8219257,1.4640817]]]}},{"type":"Feature","id":"way/453500285-0","properties":{"building":"yes"},"geometry":{"type":"Polygon","coordinates":[[[103.8221926,1.4639858],[103.8220315,1.4636804],[103.8218076,1.4637983],[103.8219686,1.4641038],[103.8221926,1.4639858]]]}},{"type":"Feature","id":"way/453500286-0","properties":{"building":"yes"},"geometry":{"type":"Polygon","coordinates":[[[103.8213048,1.4648767],[103.8213398,1.4648104],[103.8212003,1.4647367],[103.8211653,1.464803],[103.8213048,1.4648767]]]}},{"type":"Feature","id":"way/453698536-0","properties":{"building":"yes"},"geometry":{"type":"Polygon","coordinates":[[[103.8198274,1.4646793],[103.8198916,1.4647695],[103.8202269,1.4645308],[103.8201627,1.4644406],[103.820053,1.4645187],[103.8198353,1.4642466],[103.819728,1.4643324],[103.8199409,1.4645985],[103.8198274,1.4646793]]]}},{"type":"Feature","id":"way/453698537-0","properties":{"building":"yes"},"geometry":{"type":"Polygon","coordinates":[[[103.8211867,1.4644554],[103.8210589,1.4642521],[103.8209424,1.4643253],[103.8209204,1.4642903],[103.8207462,1.4643998],[103.820896,1.4646381],[103.8211867,1.4644554]]]}},{"type":"Feature","id":"way/453698538-0","properties":{"building":"yes"},"geometry":{"type":"Polygon","coordinates":[[[103.8212247,1.4641236],[103.8207983,1.4634452],[103.82053,1.4636138],[103.8209564,1.4642922],[103.8212247,1.4641236]]]}},{"type":"Feature","id":"way/452042159-0-0-0","properties":{"highway":"service","lanes":"2"},"geometry":{"type":"LineString","coordinates":[[103.8215893,1.4643546],[103.8217395,1.4644297]]}},{"type":"Feature","id":"way/452042159-0-1-0","properties":{"highway":"service","lanes":"2"},"geometry":{"type":"LineString","coordinates":[[103.8217395,1.4644297],[103.8218172,1.4646468]]}},{"type":"Feature","id":"way/452042159-0-2-0","properties":{"highway":"service","lanes":"2"},"geometry":{"type":"LineString","coordinates":[[103.8218172,1.4646468],[103.8218655,1.4649257]]}},{"type":"Feature","id":"way/452042159-0-3-0","properties":{"highway":"service","lanes":"2"},"geometry":{"type":"LineString","coordinates":[[103.8218655,1.4649257],[103.8219621,1.4651858]]}},{"type":"Feature","id":"way/452042159-0-4-0","properties":{"highway":"service","lanes":"2"},"geometry":{"type":"LineString","coordinates":[[103.8219621,1.4651858],[103.8220721,1.4653735]]}},{"type":"Feature","id":"way/452042159-0-5-0","properties":{"highway":"service","lanes":"2"},"geometry":{"type":"LineString","coordinates":[[103.8220721,1.4653735],[103.8221297,1.4654257]]}},{"type":"Feature","id":"way/452042159-0-6-0","properties":{"highway":"service","lanes":"2"},"geometry":{"type":"LineString","coordinates":[[103.8221297,1.4654257],[103.8221659,1.4654486]]}},{"type":"Feature","id":"way/452042163-0-4-0","properties":{"highway":"service","lanes":"2"},"geometry":{"type":"LineString","coordinates":[[103.8195268,1.4671304],[103.8197629,1.4672323]]}},{"type":"Feature","id":"way/452042163-0-5-0","properties":{"highway":"service","lanes":"2"},"geometry":{"type":"LineString","coordinates":[[103.8197629,1.4672323],[103.8199104,1.4673369]]}},{"type":"Feature","id":"way/452042163-0-6-0","properties":{"highway":"service","lanes":"2"},"geometry":{"type":"LineString","coordinates":[[103.8199104,1.4673369],[103.8203449,1.4679375]]}},{"type":"Feature","id":"way/452244014-0-0-0","properties":{"highway":"service"},"geometry":{"type":"LineString","coordinates":[[103.8207604,1.4653895],[103.8209225,1.465665]]}},{"type":"Feature","id":"way/452244014-0-1-0","properties":{"highway":"service"},"geometry":{"type":"LineString","coordinates":[[103.8209225,1.465665],[103.8209938,1.4658239]]}},{"type":"Feature","id":"way/452244014-0-2-0","properties":{"highway":"service"},"geometry":{"type":"LineString","coordinates":[[103.8209938,1.4658239],[103.8211172,1.4659151]]}},{"type":"Feature","id":"way/452244014-0-3-0","properties":{"highway":"service"},"geometry":{"type":"LineString","coordinates":[[103.8211172,1.4659151],[103.8214498,1.4660599]]}},{"type":"Feature","id":"way/452244014-0-4-0","properties":{"highway":"service"},"geometry":{"type":"LineString","coordinates":[[103.8214498,1.4660599],[103.8215356,1.4660519]]}},{"type":"Feature","id":"way/452244014-0-5-0","properties":{"highway":"service"},"geometry":{"type":"LineString","coordinates":[[103.8215356,1.4660519],[103.8216751,1.4659097]]}},{"type":"Feature","id":"way/452244014-0-6-0","properties":{"highway":"service"},"geometry":{"type":"LineString","coordinates":[[103.8216751,1.4659097],[103.8216912,1.46584]]}},{"type":"Feature","id":"way/452244014-0-7-0","properties":{"highway":"service"},"geometry":{"type":"LineString","coordinates":[[103.8216912,1.46584],[103.8216724,1.465765]]}},{"type":"Feature","id":"way/452244014-0-8-0","properties":{"highway":"service"},"geometry":{"type":"LineString","coordinates":[[103.8216724,1.465765],[103.8214482,1.4655685]]}},{"type":"Feature","id":"way/452244014-0-9-0","properties":{"highway":"service"},"geometry":{"type":"LineString","coordinates":[[103.8214482,1.4655685],[103.8209225,1.4651341]]}},{"type":"Feature","id":"way/465773552-0-5-0","properties":{"highway":"service","name":"Drake Avenue"},"geometry":{"type":"LineString","coordinates":[[103.8194935,1.4672228],[103.8196135,1.4672787]]}},{"type":"Feature","id":"way/465773552-0-6-0","properties":{"highway":"service","name":"Drake Avenue"},"geometry":{"type":"LineString","coordinates":[[103.8196135,1.4672787],[103.8197242,1.4673619]]}},{"type":"Feature","id":"way/465773552-0-7-0","properties":{"highway":"service","name":"Drake Avenue"},"geometry":{"type":"LineString","coordinates":[[103.8197242,1.4673619],[103.8198776,1.4675348]]}},{"type":"Feature","id":"way/465773552-0-8-0","properties":{"highway":"service","name":"Drake Avenue"},"geometry":{"type":"LineString","coordinates":[[103.8198776,1.4675348],[103.8199946,1.4678291]]}},{"type":"Feature","id":"way/465773552-0-9-0","properties":{"highway":"service","name":"Drake Avenue"},"geometry":{"type":"LineString","coordinates":[[103.8199946,1.4678291],[103.8200037,1.4679269]]}},{"type":"Feature","id":"way/465773552-0-10-0","properties":{"highway":"service","name":"Drake Avenue"},"geometry":{"type":"LineString","coordinates":[[103.8200037,1.4679269],[103.8200058,1.4681412]]}},{"type":"Feature","id":"way/596730431-0-1-0","properties":{"highway":"service"},"geometry":{"type":"LineString","coordinates":[[103.8221137,1.4636105],[103.822634,1.4645704]]}},{"type":"Feature","id":"way/596730431-0-2-0","properties":{"highway":"service"},"geometry":{"type":"LineString","coordinates":[[103.822634,1.4645704],[103.822733,1.4647292]]}},{"type":"Feature","id":"way/596730431-0-3-0","properties":{"highway":"service"},"geometry":{"type":"LineString","coordinates":[[103.822733,1.4647292],[103.8228189,1.4648848]]}},{"type":"Feature","id":"way/596730431-0-4-0","properties":{"highway":"service"},"geometry":{"type":"LineString","coordinates":[[103.8228189,1.4648848],[103.8229262,1.4650537]]}},{"type":"Feature","id":"way/596730431-0-5-0","properties":{"highway":"service"},"geometry":{"type":"LineString","coordinates":[[103.8229262,1.4650537],[103.8229878,1.4651824]]}},{"type":"Feature","id":"way/596730431-0-6-0","properties":{"highway":"service"},"geometry":{"type":"LineString","coordinates":[[103.8229878,1.4651824],[103.8230951,1.4653888]]}},{"type":"Feature","id":"way/596730431-0-7-0","properties":{"highway":"service"},"geometry":{"type":"LineString","coordinates":[[103.8230951,1.4653888],[103.8232266,1.4656624]]}},{"type":"Feature","id":"way/596730432-0-0-0","properties":{"highway":"service"},"geometry":{"type":"LineString","coordinates":[[103.8221659,1.4654486],[103.8222183,1.4655116]]}},{"type":"Feature","id":"way/643611937-0-0-0","properties":{"highway":"service"},"geometry":{"type":"LineString","coordinates":[[103.8232228,1.4658443],[103.8231343,1.465847]]}},{"type":"Feature","id":"way/643611937-0-1-0","properties":{"highway":"service"},"geometry":{"type":"LineString","coordinates":[[103.8231343,1.465847],[103.8230538,1.4658336]]}},{"type":"Feature","id":"way/643611937-0-2-0","properties":{"highway":"service"},"geometry":{"type":"LineString","coordinates":[[103.8230538,1.4658336],[103.8229331,1.4657746]]}},{"type":"Feature","id":"way/643611937-0-3-0","properties":{"highway":"service"},"geometry":{"type":"LineString","coordinates":[[103.8229331,1.4657746],[103.8228661,1.4657263]]}},{"type":"Feature","id":"way/643611937-0-4-0","properties":{"highway":"service"},"geometry":{"type":"LineString","coordinates":[[103.8228661,1.4657263],[103.8227856,1.4656137]]}},{"type":"Feature","id":"way/643611937-0-5-0","properties":{"highway":"service"},"geometry":{"type":"LineString","coordinates":[[103.8227856,1.4656137],[103.8226569,1.4654582]]}},{"type":"Feature","id":"way/643611937-0-6-0","properties":{"highway":"service"},"geometry":{"type":"LineString","coordinates":[[103.8226569,1.4654582],[103.8224906,1.4652786]]}},{"type":"Feature","id":"way/643611937-0-7-0","properties":{"highway":"service"},"geometry":{"type":"LineString","coordinates":[[103.8224906,1.4652786],[103.8223323,1.464989]]}},{"type":"Feature","id":"way/643611937-0-8-0","properties":{"highway":"service"},"geometry":{"type":"LineString","coordinates":[[103.8223323,1.464989],[103.8220856,1.4645063]]}},{"type":"Feature","id":"way/643611937-0-9-0","properties":{"highway":"service"},"geometry":{"type":"LineString","coordinates":[[103.8220856,1.4645063],[103.8219675,1.4642891]]}},{"type":"Feature","id":"way/643611937-0-10-0","properties":{"highway":"service"},"geometry":{"type":"LineString","coordinates":[[103.8219675,1.4642891],[103.8217878,1.4642436]]}},{"type":"Feature","id":"way/643611937-0-11-0","properties":{"highway":"service"},"geometry":{"type":"LineString","coordinates":[[103.8217878,1.4642436],[103.8215893,1.4643546]]}},{"type":"Feature","id":"way/643611937-0-12-0","properties":{"highway":"service"},"geometry":{"type":"LineString","coordinates":[[103.8215893,1.4643546],[103.8213292,1.4649112]]}},{"type":"Feature","id":"way/643611937-0-13-0","properties":{"highway":"service"},"geometry":{"type":"LineString","coordinates":[[103.8213292,1.4649112],[103.8212541,1.4649166]]}},{"type":"Feature","id":"way/643611937-0-14-0","properties":{"highway":"service"},"geometry":{"type":"LineString","coordinates":[[103.8212541,1.4649166],[103.8211709,1.4649059]]}},{"type":"Feature","id":"way/643611937-0-15-0","properties":{"highway":"service"},"geometry":{"type":"LineString","coordinates":[[103.8211709,1.4649059],[103.8210501,1.4648816]]}},{"type":"Feature","id":"way/643611938-0-0-0","properties":{"highway":"service"},"geometry":{"type":"LineString","coordinates":[[103.8209225,1.4651341],[103.8208865,1.4652072]]}},{"type":"Feature","id":"way/643611938-0-1-0","properties":{"highway":"service"},"geometry":{"type":"LineString","coordinates":[[103.8208865,1.4652072],[103.8207604,1.4653895]]}},{"type":"Feature","id":"way/643611939-0-0-0","properties":{"highway":"service"},"geometry":{"type":"LineString","coordinates":[[103.8213083,1.4640643],[103.8212229,1.464378]]}},{"type":"Feature","id":"way/643611939-0-1-0","properties":{"highway":"service"},"geometry":{"type":"LineString","coordinates":[[103.8212229,1.464378],[103.8210501,1.4648816]]}},{"type":"Feature","id":"way/643611940-0-0-0","properties":{"highway":"service"},"geometry":{"type":"LineString","coordinates":[[103.8201115,1.4648683],[103.8205111,1.4652678]]}},{"type":"Feature","id":"way/643611940-0-1-0","properties":{"highway":"service"},"geometry":{"type":"LineString","coordinates":[[103.8205111,1.4652678],[103.8206211,1.4653805]]}},{"type":"Feature","id":"way/643611940-0-2-0","properties":{"highway":"service"},"geometry":{"type":"LineString","coordinates":[[103.8206211,1.4653805],[103.8207069,1.4653965]]}},{"type":"Feature","id":"way/643611940-0-3-0","properties":{"highway":"service"},"geometry":{"type":"LineString","coordinates":[[103.8207069,1.4653965],[103.8207604,1.4653895]]}},{"type":"Feature","id":"way/643611941-0-0-0","properties":{"highway":"service"},"geometry":{"type":"LineString","coordinates":[[103.8193265,1.463153],[103.8202536,1.4643964]]}},{"type":"Feature","id":"way/644677481-0-2-0","properties":{"highway":"service","lanes":"2","lanes:backward":"1","lanes:forward":"1"},"geometry":{"type":"LineString","coordinates":[[103.8211532,1.463831],[103.8213083,1.4640643]]}},{"type":"Feature","id":"way/644825925-0-0-0","properties":{"highway":"service"},"geometry":{"type":"LineString","coordinates":[[103.8210501,1.4648816],[103.8210352,1.464925]]}},{"type":"Feature","id":"way/644825925-0-1-0","properties":{"highway":"service"},"geometry":{"type":"LineString","coordinates":[[103.8210352,1.464925],[103.8209225,1.4651341]]}},{"type":"Feature","id":"way/644825926-0-0-0","properties":{"highway":"service","lanes":"2","lanes:backward":"1","lanes:forward":"1"},"geometry":{"type":"LineString","coordinates":[[103.8213083,1.4640643],[103.8214456,1.4642386]]}},{"type":"Feature","id":"way/644825926-0-1-0","properties":{"highway":"service","lanes":"2","lanes:backward":"1","lanes:forward":"1"},"geometry":{"type":"LineString","coordinates":[[103.8214456,1.4642386],[103.8215893,1.4643546]]}}]}