{"type":"FeatureCollection","features":[{"type":"Feature","id":"relation/8353157-0","properties":{"Facilities":"Gym","addr:city":"Singapore","addr:housenumber":"26","addr:postcode":"259367","addr:street":"Evans Road","building":"hotel","building:levels":"3","gym":"24 hours","name":"The Initial Sama Serviced Residence","type":"multipolygon"},"geometry":{"type":"Polygon","coordinates":[[[103.8199317,1.3184334],[103.8201967,1.3187649],[103.8201516,1.3188009],[103.8201383,1.3188115],[103.8201876,1.3188733],[103.8202013,1.3188623],[103.820246,1.3188266],[103.820444,1.3190743],[103.8204494,1.31907],[103.8205423,1.3191861],[103.8206219,1.3191225],[103.820457,1.3189162],[103.8205097,1.3188741],[103.8205499,1.3189244],[103.8207566,1.3187593],[103.8207404,1.3187391],[103.8208713,1.3186345],[103.8204929,1.3181611],[103.8203999,1.3182354],[103.8203603,1.3181859],[103.8201333,1.3183673],[103.820087,1.3183094],[103.8199317,1.3184334]],[[103.8204141,1.3183555],[103.8204735,1.318308],[103.8207537,1.3186586],[103.8207063,1.3186964],[103.8206942,1.3186813],[103.8204349,1.3188885],[103.8203311,1.3187586],[103.8203824,1.3187177],[103.820333,1.318656],[103.8202817,1.3186969],[103.8201027,1.3184729],[103.82035,1.3182753],[103.8204141,1.3183555]]]}},{"type":"Feature","id":"way/372071733-0","properties":{"addr:city":"Singapore","addr:country":"SG","addr:housenumber":"1","addr:street":"Dalvey Estate","building":"house","source":"Bing"},"geometry":{"type":"Polygon","coordinates":[[[103.8203283,1.316397],[103.820348,1.3163052],[103.8202932,1.3162935],[103.8203117,1.3162164],[103.8202061,1.3161911],[103.820187,1.3162707],[103.8201411,1.3162609],[103.8201227,1.3162606],[103.8201057,1.3162674],[103.8200926,1.3162801],[103.8200853,1.3162969],[103.8200851,1.3163152],[103.8200918,1.3163323],[103.8201046,1.3163454],[103.8201214,1.3163526],[103.8201651,1.316362],[103.820147,1.3164374],[103.8202526,1.3164627],[103.8202713,1.3163848],[103.8203283,1.316397]]]}},{"type":"Feature","id":"way/372071734-0","properties":{"addr:city":"Singapore","addr:country":"SG","addr:housenumber":"1","addr:street":"Dalvey Road","building":"house","source":"Bing"},"geometry":{"type":"Polygon","coordinates":[[[103.8198511,1.3158763],[103.8198297,1.3158219],[103.819783,1.3158403],[103.8198234,1.3157245],[103.8197757,1.3156035],[103.8196832,1.3156399],[103.8196504,1.3155568],[103.8195902,1.3155805],[103.8197263,1.3159256],[103.8198511,1.3158763]]]}},{"type":"Feature","id":"way/372071752-0","properties":{"addr:city":"Singapore","addr:country":"SG","addr:housenumber":"10","addr:street":"Dalvey Estate","building":"house","source":"Bing"},"geometry":{"type":"Polygon","coordinates":[[[103.8212014,1.3164105],[103.8211741,1.3163492],[103.8212098,1.3163333],[103.82119,1.3162888],[103.8211589,1.3163027],[103.8211357,1.3162509],[103.8210923,1.3162703],[103.8210843,1.3162524],[103.8210161,1.3162828],[103.8210232,1.3162989],[103.8209839,1.3163164],[103.8210171,1.3163907],[103.8210819,1.3163617],[103.8211199,1.3164469],[103.8212014,1.3164105]]]}},{"type":"Feature","id":"way/372071762-0","properties":{"addr:city":"Singapore","addr:country":"SG","addr:housenumber":"10A","addr:street":"Dalvey Estate","building":"house","source":"Bing"},"geometry":{"type":"Polygon","coordinates":[[[103.8213376,1.3162747],[103.8213573,1.3162662],[103.8213743,1.3163058],[103.8214125,1.3162893],[103.8213952,1.3162493],[103.8214152,1.3162406],[103.8213774,1.316153],[103.8214363,1.3161276],[103.8214074,1.3160606],[103.8213681,1.3160776],[103.821362,1.3160634],[103.8212943,1.3160926],[103.8212987,1.3161026],[103.8212674,1.3161161],[103.8212807,1.316147],[103.8212558,1.3161577],[103.8212782,1.3162096],[103.8213046,1.3161982],[103.8213376,1.3162747]]]}},{"type":"Feature","id":"way/372071764-0","properties":{"addr:city":"Singapore","addr:country":"SG","addr:housenumber":"10B","addr:street":"Dalvey Estate","building":"house","source":"Bing"},"geometry":{"type":"Polygon","coordinates":[[[103.8215633,1.3166373],[103.8216313,1.3165851],[103.8215728,1.3165089],[103.8216291,1.3164656],[103.8215823,1.3164047],[103.8215521,1.3164279],[103.8215427,1.3164157],[103.8214783,1.3164652],[103.8214872,1.3164769],[103.8214576,1.3164996],[103.8215633,1.3166373]]]}},{"type":"Feature","id":"way/372071766-0","properties":{"addr:city":"Singapore","addr:country":"SG","addr:housenumber":"10C","addr:street":"Dalvey Estate","building":"house","source":"Bing"},"geometry":{"type":"Polygon","coordinates":[[[103.8216987,1.3170142],[103.8217806,1.3170104],[103.8217758,1.3169093],[103.8218555,1.3169056],[103.8218516,1.3168231],[103.8216901,1.3168307],[103.8216987,1.3170142]]]}},{"type":"Feature","id":"way/372071767-0","properties":{"addr:city":"Singapore","addr:country":"SG","addr:housenumber":"10D","addr:street":"Dalvey Estate","building":"house","source":"Bing"},"geometry":{"type":"Polygon","coordinates":[[[103.8217403,1.3174184],[103.8217416,1.3174498],[103.8217978,1.3174475],[103.8217964,1.3174123],[103.8218786,1.3174089],[103.8218717,1.3172399],[103.8218281,1.3172417],[103.8218274,1.3172244],[103.8217591,1.3172272],[103.8217598,1.3172446],[103.8217129,1.3172466],[103.8217141,1.3172774],[103.8216864,1.3172786],[103.8216889,1.3173403],[103.8217213,1.317339],[103.8217246,1.317419],[103.8217403,1.3174184]]]}},{"type":"Feature","id":"way/372071768-0","properties":{"addr:city":"Singapore","addr:country":"SG","addr:housenumber":"10E","addr:street":"Dalvey Estate","building":"house","source":"Bing"},"geometry":{"type":"Polygon","coordinates":[[[103.822033,1.3174351],[103.8220343,1.3175249],[103.8221298,1.3175235],[103.8221273,1.3173453],[103.822079,1.317346],[103.8220787,1.3173253],[103.8220033,1.3173263],[103.8220036,1.3173452],[103.8219635,1.3173458],[103.8219648,1.3174361],[103.822033,1.3174351]]]}},{"type":"Feature","id":"way/372071769-0","properties":{"addr:city":"Singapore","addr:country":"SG","addr:housenumber":"10F","addr:street":"Dalvey Estate","building":"house","source":"Bing"},"geometry":{"type":"Polygon","coordinates":[[[103.8220388,1.3178288],[103.8220773,1.3178272],[103.8220788,1.3178655],[103.8222442,1.317859],[103.8222426,1.3178184],[103.8222691,1.3178174],[103.8222666,1.3177528],[103.8222423,1.3177537],[103.8222403,1.3177016],[103.822152,1.3177051],[103.8221541,1.3177578],[103.8220361,1.3177624],[103.8220388,1.3178288]]]}},{"type":"Feature","id":"way/372071770-0","properties":{"addr:city":"Singapore","addr:country":"SG","addr:housenumber":"10G","addr:street":"Dalvey Estate","building":"house","source":"Bing"},"geometry":{"type":"Polygon","coordinates":[[[103.8216745,1.3178766],[103.8218298,1.3178752],[103.8218284,1.3177164],[103.821673,1.3177178],[103.821674,1.3178225],[103.8216745,1.3178766]]]}},{"type":"Feature","id":"way/372071771-0","properties":{"addr:city":"Singapore","addr:country":"SG","addr:housenumber":"10H","addr:street":"Dalvey Estate","building":"house","source":"Bing"},"geometry":{"type":"Polygon","coordinates":[[[103.8214262,1.317676],[103.8213676,1.3176774],[103.8213681,1.3176986],[103.8213391,1.3176992],[103.8213426,1.3178563],[103.8214806,1.3178531],[103.821477,1.3176963],[103.8214267,1.3176975],[103.8214262,1.317676]]]}},{"type":"Feature","id":"way/372071772-0","properties":{"addr:city":"Singapore","addr:country":"SG","addr:housenumber":"10J","addr:street":"Dalvey Estate","building":"house","source":"Bing"},"geometry":{"type":"Polygon","coordinates":[[[103.82138,1.3174941],[103.8214301,1.3174911],[103.8214274,1.3174465],[103.8214602,1.3174445],[103.821451,1.317292],[103.821396,1.3172953],[103.821395,1.3172785],[103.8213525,1.3172811],[103.8213536,1.317299],[103.8213068,1.3173018],[103.821316,1.3174544],[103.8213774,1.3174507],[103.82138,1.3174941]]]}},{"type":"Feature","id":"way/372071773-0","properties":{"addr:city":"Singapore","addr:country":"SG","addr:housenumber":"10K","addr:street":"Dalvey Estate","building":"house","source":"Bing"},"geometry":{"type":"Polygon","coordinates":[[[103.8213297,1.3168276],[103.8212749,1.3168302],[103.821283,1.3170063],[103.8213677,1.3170025],[103.8213636,1.3169132],[103.8214328,1.31691],[103.8214288,1.316824],[103.8213708,1.3168267],[103.8213702,1.3168142],[103.8213292,1.3168161],[103.8213297,1.3168276]]]}},{"type":"Feature","id":"way/372071781-0","properties":{"addr:city":"Singapore","addr:country":"SG","addr:housenumber":"12","addr:street":"Dalvey Estate","building":"house","source":"Bing"},"geometry":{"type":"Polygon","coordinates":[[[103.8215905,1.3183278],[103.8216118,1.318225],[103.8215744,1.3182172],[103.8215881,1.318151],[103.8214874,1.3181301],[103.8214675,1.3182262],[103.8214047,1.3182132],[103.8213981,1.3182449],[103.8214585,1.3182574],[103.8214389,1.3183522],[103.8215389,1.3183729],[103.82155,1.3183194],[103.8215905,1.3183278]]]}},{"type":"Feature","id":"way/372071785-0","properties":{"addr:city":"Singapore","addr:country":"SG","addr:housenumber":"12","addr:street":"Lewis Road","building":"house","source":"Bing"},"geometry":{"type":"Polygon","coordinates":[[[103.8220998,1.3200237],[103.8223345,1.3199483],[103.8222938,1.3198218],[103.8221884,1.3198557],[103.8222018,1.3198975],[103.8220725,1.319939],[103.8220998,1.3200237]]]}},{"type":"Feature","id":"way/372071794-0","properties":{"addr:city":"Singapore","addr:country":"SG","addr:housenumber":"14","addr:street":"Lewis Road","building":"house","source":"Bing"},"geometry":{"type":"Polygon","coordinates":[[[103.822045,1.3198542],[103.822227,1.3198028],[103.8222086,1.3197376],[103.8222723,1.3197196],[103.8222502,1.3196414],[103.8220044,1.3197109],[103.822045,1.3198542]]]}},{"type":"Feature","id":"way/372071803-0","properties":{"addr:city":"Singapore","addr:country":"SG","addr:housenumber":"16","addr:street":"Dalvey Estate","building":"house","source":"Bing"},"geometry":{"type":"Polygon","coordinates":[[[103.8216441,1.3193522],[103.8216317,1.3193114],[103.8216286,1.3193123],[103.8216189,1.3192826],[103.8215682,1.3192535],[103.8215376,1.3192627],[103.8215259,1.3192217],[103.8214008,1.3192575],[103.8214204,1.3193262],[103.8214504,1.3193176],[103.8214813,1.3194259],[103.8215286,1.3194124],[103.8215179,1.3193751],[103.8215323,1.3193724],[103.821552,1.3194423],[103.8216087,1.3194264],[103.8216059,1.3194125],[103.8216324,1.3194053],[103.82162,1.3193596],[103.8216441,1.3193522]]]}},{"type":"Feature","id":"way/372071807-0","properties":{"addr:city":"Singapore","addr:country":"SG","addr:housenumber":"16","addr:street":"Lewis Road","building":"house","source":"Bing"},"geometry":{"type":"Polygon","coordinates":[[[103.8220498,1.3196486],[103.8220373,1.3196022],[103.8221585,1.3195698],[103.8221658,1.3195973],[103.8223627,1.3195446],[103.8223433,1.3194721],[103.8222193,1.3195053],[103.8222094,1.3194684],[103.8219472,1.3195385],[103.8219815,1.3196669],[103.8220498,1.3196486]]]}},{"type":"Feature","id":"way/372071809-0","properties":{"addr:city":"Singapore","addr:country":"SG","addr:housenumber":"16A","addr:street":"Dalvey Estate","building":"house","source":"Bing"},"geometry":{"type":"Polygon","coordinates":[[[103.8216979,1.3196742],[103.8216652,1.3195423],[103.8216395,1.3195487],[103.8216333,1.3195235],[103.8216635,1.319516],[103.8216471,1.31945],[103.8214834,1.3194907],[103.8214884,1.3195107],[103.8214233,1.3195268],[103.8214422,1.319603],[103.8215044,1.3195875],[103.8215122,1.3196186],[103.8214898,1.3196241],[103.8215004,1.3196668],[103.8215278,1.31966],[103.821541,1.3197132],[103.8216979,1.3196742]]]}},{"type":"Feature","id":"way/372071818-0","properties":{"addr:city":"Singapore","addr:country":"SG","addr:housenumber":"17","addr:street":"Margoliouth Road","building":"house","source":"Bing"},"geometry":{"type":"Polygon","coordinates":[[[103.8239523,1.3185442],[103.8241168,1.3185324],[103.8241015,1.3183186],[103.8239369,1.3183304],[103.8239523,1.3185442]]]}},{"type":"Feature","id":"way/372071820-0","properties":{"addr:city":"Singapore","addr:country":"SG","addr:housenumber":"17","addr:street":"White House Park","building":"yes","source":"Bing"},"geometry":{"type":"Polygon","coordinates":[[[103.8220624,1.3154776],[103.822072,1.3154574],[103.822025,1.3154351],[103.8220151,1.3154559],[103.8219882,1.3154432],[103.8220052,1.3154073],[103.8219364,1.3153748],[103.8218724,1.3155097],[103.8219383,1.3155409],[103.8219583,1.3154988],[103.8220657,1.3155497],[103.8220287,1.3156278],[103.8221009,1.315662],[103.8221789,1.3154974],[103.8221026,1.3154613],[103.8220889,1.3154902],[103.8220624,1.3154776]]]}},{"type":"Feature","id":"way/372071822-0","properties":{"addr:city":"Singapore","addr:country":"SG","addr:housenumber":"18","addr:street":"Dalvey Estate","building":"house","source":"Bing"},"geometry":{"type":"Polygon","coordinates":[[[103.8216044,1.3198743],[103.8215635,1.3198873],[103.8215961,1.3199892],[103.8219681,1.3198705],[103.8219424,1.3197901],[103.8217346,1.3198564],[103.8217199,1.3198104],[103.8216498,1.3198327],[103.8216646,1.3198789],[103.8216113,1.3198959],[103.8216044,1.3198743]]]}},{"type":"Feature","id":"way/372071826-0","properties":{"addr:city":"Singapore","addr:country":"SG","addr:housenumber":"18","addr:street":"Lewis Road","building":"house","source":"Bing"},"geometry":{"type":"Polygon","coordinates":[[[103.8220417,1.3194439],[103.822124,1.3194193],[103.82212,1.3194059],[103.8221793,1.3193882],[103.8221834,1.3194019],[103.8222565,1.31938],[103.8222318,1.3192973],[103.8222498,1.3192919],[103.8222255,1.3192106],[103.8221852,1.3192226],[103.822203,1.3192823],[103.8221757,1.3192905],[103.8221652,1.3192554],[103.8220002,1.3193047],[103.8220417,1.3194439]]]}},{"type":"Feature","id":"way/372071832-0","properties":{"addr:city":"Singapore","addr:country":"SG","addr:housenumber":"19","addr:street":"Margoliouth Road","building":"house","source":"Bing"},"geometry":{"type":"Polygon","coordinates":[[[103.8240872,1.3181569],[103.8240823,1.3179309],[103.8239106,1.3179401],[103.8239131,1.3181607],[103.8240872,1.3181569]]]}},{"type":"Feature","id":"way/372071835-0","properties":{"addr:city":"Singapore","addr:country":"SG","addr:housenumber":"1B","addr:street":"Dalvey Estate","building":"house","source":"Bing"},"geometry":{"type":"Polygon","coordinates":[[[103.8199789,1.3161397],[103.8199881,1.3161571],[103.8200227,1.3161388],[103.8200335,1.3161592],[103.8203145,1.3160108],[103.820281,1.3159474],[103.8201832,1.3159991],[103.820167,1.3159684],[103.8201968,1.3159527],[103.8201725,1.3159068],[103.820141,1.3159235],[103.8201033,1.3158521],[103.8198612,1.31598],[103.8199528,1.3161535],[103.8199789,1.3161397]]]}},{"type":"Feature","id":"way/372071836-0","properties":{"addr:city":"Singapore","addr:country":"SG","addr:housenumber":"2","addr:street":"Dalvey Estate","building":"house","source":"Bing"},"geometry":{"type":"Polygon","coordinates":[[[103.8206902,1.3159672],[103.8207131,1.3160196],[103.8207454,1.3160055],[103.8207764,1.3160767],[103.8208918,1.3160264],[103.820861,1.315956],[103.8208894,1.3159436],[103.8208665,1.3158912],[103.8208379,1.3159037],[103.820811,1.315842],[103.8206956,1.3158922],[103.8207222,1.3159532],[103.8206902,1.3159672]]]}},{"type":"Feature","id":"way/372071849-0","properties":{"addr:city":"Singapore","addr:country":"SG","addr:housenumber":"20","addr:street":"Lewis Road","building":"house","source":"Bing"},"geometry":{"type":"Polygon","coordinates":[[[103.8221084,1.3192181],[103.8220996,1.3191862],[103.8221363,1.319176],[103.8221264,1.3191403],[103.8221752,1.3191267],[103.8221519,1.319043],[103.8219976,1.3190858],[103.821995,1.3190766],[103.8219408,1.3190916],[103.8219854,1.3192522],[103.8221084,1.3192181]]]}},{"type":"Feature","id":"way/372071856-0","properties":{"addr:city":"Singapore","addr:country":"SG","addr:housenumber":"21","addr:street":"Margoliouth Road","building":"house","source":"Bing"},"geometry":{"type":"Polygon","coordinates":[[[103.8234427,1.3180733],[103.8237228,1.3180538],[103.8237101,1.3178706],[103.82343,1.3178901],[103.8234427,1.3180733]]]}},{"type":"Feature","id":"way/372071868-0","properties":{"addr:city":"Singapore","addr:country":"SG","addr:housenumber":"22","addr:street":"White House Park","building":"yes","source":"Bing"},"geometry":{"type":"Polygon","coordinates":[[[103.8232669,1.3175383],[103.8232864,1.3175066],[103.8233451,1.3175427],[103.8233709,1.3175006],[103.8233966,1.3175164],[103.8234364,1.3174515],[103.8234109,1.3174359],[103.8234473,1.3173767],[103.8233858,1.317339],[103.8234261,1.3172734],[103.8233775,1.3172437],[103.8232159,1.317507],[103.8232669,1.3175383]]]}},{"type":"Feature","id":"way/372071871-0","properties":{"addr:city":"Singapore","addr:country":"SG","addr:housenumber":"23","addr:street":"Lewis Road","building":"house","source":"Bing"},"geometry":{"type":"Polygon","coordinates":[[[103.8229063,1.3198481],[103.8229228,1.3198978],[103.8229986,1.3198727],[103.8229827,1.319825],[103.8230628,1.3197984],[103.8230359,1.3197174],[103.8229501,1.3197459],[103.8228945,1.3195785],[103.8227646,1.3196216],[103.8227822,1.3196746],[103.8227517,1.3196847],[103.8227979,1.3198236],[103.8228262,1.3198141],[103.8228443,1.3198686],[103.8229063,1.3198481]]]}},{"type":"Feature","id":"way/372071872-0","properties":{"addr:city":"Singapore","addr:country":"SG","addr:housenumber":"23","addr:street":"Margoliouth Road","building":"house","source":"Bing"},"geometry":{"type":"Polygon","coordinates":[[[103.8235688,1.3183162],[103.8234858,1.3183231],[103.8235089,1.3185985],[103.8236719,1.3185849],[103.8236528,1.3183569],[103.8235727,1.3183636],[103.8235688,1.3183162]]]}},{"type":"Feature","id":"way/372071883-0","properties":{"addr:city":"Singapore","addr:country":"SG","addr:housenumber":"24","addr:street":"White House Park","building":"yes","source":"Bing"},"geometry":{"type":"Polygon","coordinates":[[[103.8228514,1.3178313],[103.8229533,1.317731],[103.8228676,1.3176439],[103.8227657,1.3177441],[103.8228514,1.3178313]]]}},{"type":"Feature","id":"way/372071891-0","properties":{"addr:city":"Singapore","addr:country":"SG","addr:housenumber":"26","addr:street":"Margoliouth Road","building":"house","source":"Bing"},"geometry":{"type":"Polygon","coordinates":[[[103.8237136,1.3188963],[103.823721,1.3190251],[103.8239346,1.3190128],[103.8239271,1.3188837],[103.8239069,1.3188848],[103.8239036,1.3188278],[103.8238535,1.3188307],[103.8238568,1.3188881],[103.8237136,1.3188963]]]}},{"type":"Feature","id":"way/372071894-0","properties":{"addr:city":"Singapore","addr:country":"SG","addr:housenumber":"26","addr:street":"White House Park","building":"yes","source":"Bing"},"geometry":{"type":"Polygon","coordinates":[[[103.8225709,1.3176193],[103.8224978,1.3177038],[103.8226132,1.3178034],[103.8227607,1.3176329],[103.8226985,1.3175792],[103.8226241,1.3176653],[103.8225709,1.3176193]]]}},{"type":"Feature","id":"way/372071896-0","properties":{"addr:city":"Singapore","addr:country":"SG","addr:housenumber":"27","addr:street":"Lewis Road","building":"house","source":"Bing"},"geometry":{"type":"Polygon","coordinates":[[[103.8226213,1.3195753],[103.8227844,1.3195238],[103.8227573,1.3194382],[103.8225942,1.3194897],[103.8226213,1.3195753]]]}},{"type":"Feature","id":"way/372071897-0","properties":{"addr:city":"Singapore","addr:country":"SG","addr:housenumber":"27","addr:street":"Margoliouth Road","building":"house","source":"Bing"},"geometry":{"type":"Polygon","coordinates":[[[103.8234245,1.3182562],[103.8234175,1.318099],[103.8232118,1.3181081],[103.8232188,1.3182653],[103.8234245,1.3182562]]]}},{"type":"Feature","id":"way/372071900-0","properties":{"addr:city":"Singapore","addr:country":"SG","addr:housenumber":"27A","addr:street":"Lewis Road","building":"house","source":"Bing"},"geometry":{"type":"Polygon","coordinates":[[[103.8229914,1.31945],[103.8229636,1.319365],[103.8227929,1.3194208],[103.8228207,1.3195057],[103.8229914,1.31945]]]}},{"type":"Feature","id":"way/372071903-0","properties":{"addr:city":"Singapore","addr:country":"SG","addr:housenumber":"28","addr:street":"Margoliouth Road","building":"house","source":"Bing"},"geometry":{"type":"Polygon","coordinates":[[[103.8237766,1.3192248],[103.8239283,1.3192159],[103.8239199,1.3190719],[103.8237682,1.3190807],[103.8237766,1.3192248]]]}},{"type":"Feature","id":"way/372071904-0","properties":{"addr:city":"Singapore","addr:country":"SG","addr:housenumber":"28","addr:street":"White House Park","building":"yes","source":"Bing"},"geometry":{"type":"Polygon","coordinates":[[[103.8224845,1.317473],[103.8225851,1.3174228],[103.822533,1.3173182],[103.8224323,1.3173683],[103.8224845,1.317473]]]}},{"type":"Feature","id":"way/372071906-0","properties":{"addr:city":"Singapore","addr:country":"SG","addr:housenumber":"29","addr:street":"Lewis Road","building":"house","source":"Bing"},"geometry":{"type":"Polygon","coordinates":[[[103.822539,1.3193565],[103.8227118,1.3193007],[103.8226813,1.3192062],[103.8225085,1.3192619],[103.822539,1.3193565]]]}},{"type":"Feature","id":"way/372071907-0","properties":{"addr:city":"Singapore","addr:country":"SG","addr:housenumber":"29","addr:street":"Margoliouth Road","building":"house","source":"Bing"},"geometry":{"type":"Polygon","coordinates":[[[103.8231311,1.3179948],[103.8231918,1.3178679],[103.8230321,1.3177915],[103.8229714,1.3179184],[103.8231311,1.3179948]]]}},{"type":"Feature","id":"way/372071910-0","properties":{"addr:city":"Singapore","addr:country":"SG","addr:housenumber":"29A","addr:street":"Lewis Road","building":"house","source":"Bing"},"geometry":{"type":"Polygon","coordinates":[[[103.8229203,1.3192306],[103.8228915,1.3191438],[103.8227194,1.3192009],[103.8227482,1.3192877],[103.8229203,1.3192306]]]}},{"type":"Feature","id":"way/372071911-0","properties":{"addr:city":"Singapore","addr:country":"SG","addr:housenumber":"2A","addr:street":"Dalvey Estate","building":"house","source":"Bing"},"geometry":{"type":"Polygon","coordinates":[[[103.8205694,1.315656],[103.8205367,1.315592],[103.8205889,1.3155653],[103.8205397,1.3154692],[103.8204952,1.3154919],[103.8204758,1.315454],[103.8204109,1.3154872],[103.820431,1.3155265],[103.8203617,1.3155619],[103.820411,1.3156581],[103.8204672,1.3156293],[103.8204992,1.3156919],[103.8205694,1.315656]]]}},{"type":"Feature","id":"way/372071913-0","properties":{"addr:city":"Singapore","addr:country":"SG","addr:housenumber":"2B","addr:street":"Dalvey Estate","building":"house","source":"Bing"},"geometry":{"type":"Polygon","coordinates":[[[103.8210208,1.3156706],[103.8211385,1.3156179],[103.821107,1.3155477],[103.8208911,1.3156444],[103.8209682,1.3158164],[103.8211603,1.3157302],[103.8211398,1.3156845],[103.8210459,1.3157266],[103.8210208,1.3156706]]]}},{"type":"Feature","id":"way/372071915-0","properties":{"addr:city":"Singapore","addr:country":"SG","addr:housenumber":"3","addr:street":"Dalvey Road","building":"house","source":"Bing"},"geometry":{"type":"Polygon","coordinates":[[[103.8200744,1.3158038],[103.8200611,1.3157719],[103.8201564,1.3157321],[103.8200916,1.315577],[103.8198841,1.3156636],[103.8199623,1.3158506],[103.8200744,1.3158038]]]}},{"type":"Feature","id":"way/372071921-0","properties":{"addr:city":"Singapore","addr:country":"SG","addr:housenumber":"3","addr:street":"White House Park","building":"yes","source":"Bing"},"geometry":{"type":"Polygon","coordinates":[[[103.8232869,1.3163023],[103.8232875,1.3162906],[103.8233496,1.3162939],[103.823348,1.3163251],[103.8232402,1.3163194],[103.8232346,1.3164256],[103.8233551,1.316432],[103.8233562,1.3164114],[103.8233723,1.3164123],[103.8233689,1.3164769],[103.8234477,1.3164811],[103.8234512,1.3164161],[103.823515,1.3164195],[103.8235266,1.316203],[103.8233546,1.3161938],[103.8233531,1.3162225],[103.8232889,1.3162191],[103.8232915,1.3161694],[103.8232175,1.3161654],[103.8232104,1.3162983],[103.8232869,1.3163023]]]}},{"type":"Feature","id":"way/372071923-0","properties":{"addr:city":"Singapore","addr:country":"SG","addr:housenumber":"30","addr:street":"Margoliouth Road","building":"house","source":"Bing"},"geometry":{"type":"Polygon","coordinates":[[[103.8239772,1.3194545],[103.8239605,1.3192732],[103.823814,1.3192867],[103.8238307,1.319468],[103.8239772,1.3194545]]]}},{"type":"Feature","id":"way/372071924-0","properties":{"addr:city":"Singapore","addr:country":"SG","addr:housenumber":"30","addr:street":"White House Park","building":"yes","source":"Bing"},"geometry":{"type":"Polygon","coordinates":[[[103.8224873,1.3172417],[103.8223927,1.3170377],[103.8222311,1.3171127],[103.8223257,1.3173166],[103.8224873,1.3172417]]]}},{"type":"Feature","id":"way/372071928-0","properties":{"addr:city":"Singapore","addr:country":"SG","addr:housenumber":"31","addr:street":"Margoliouth Road","building":"house","source":"Bing"},"geometry":{"type":"Polygon","coordinates":[[[103.8228983,1.318144],[103.8228062,1.3180598],[103.8227954,1.3180715],[103.8227762,1.318054],[103.8226764,1.3181632],[103.8228204,1.3182949],[103.8229201,1.318186],[103.8228874,1.318156],[103.8228983,1.318144]]]}},{"type":"Feature","id":"way/372071932-0","properties":{"addr:city":"Singapore","addr:country":"SG","addr:housenumber":"32","addr:street":"Margoliouth Road","building":"house","source":"Bing"},"geometry":{"type":"Polygon","coordinates":[[[103.8239425,1.3194818],[103.8238451,1.3194878],[103.8238467,1.3195144],[103.8238173,1.3195162],[103.8238242,1.3196291],[103.8238457,1.3196278],[103.8238488,1.3196789],[103.8239317,1.3196738],[103.8239285,1.3196219],[103.8239849,1.3196185],[103.8239779,1.3195055],[103.823944,1.3195076],[103.8239425,1.3194818]]]}},{"type":"Feature","id":"way/372071935-0","properties":{"addr:city":"Singapore","addr:country":"SG","addr:housenumber":"32","addr:street":"White House Park","building":"yes","source":"Bing"},"geometry":{"type":"Polygon","coordinates":[[[103.8222154,1.3170333],[103.8222029,1.3170113],[103.8221045,1.3170674],[103.8220305,1.3169377],[103.8221643,1.3168614],[103.8221231,1.3167892],[103.8219535,1.3168849],[103.8220817,1.3171096],[103.8222154,1.3170333]]]}},{"type":"Feature","id":"way/372071944-0","properties":{"addr:city":"Singapore","addr:country":"SG","addr:housenumber":"33","addr:street":"Margoliouth Road","building":"house","source":"Bing"},"geometry":{"type":"Polygon","coordinates":[[[103.8228655,1.3186469],[103.8229958,1.3185915],[103.8229152,1.3184022],[103.8227849,1.3184576],[103.8228655,1.3186469]]]}},{"type":"Feature","id":"way/372071949-0","properties":{"addr:city":"Singapore","addr:country":"SG","addr:housenumber":"34","addr:street":"Margoliouth Road","building":"house","source":"Bing"},"geometry":{"type":"Polygon","coordinates":[[[103.8235262,1.3197222],[103.8235139,1.3195786],[103.8234105,1.3195875],[103.8234228,1.319731],[103.8235262,1.3197222]]]}},{"type":"Feature","id":"way/372071951-0","properties":{"addr:city":"Singapore","addr:country":"SG","addr:housenumber":"34","addr:street":"White House Park","building":"yes","source":"Bing"},"geometry":{"type":"Polygon","coordinates":[[[103.8220683,1.3166515],[103.8220978,1.3167477],[103.8221866,1.3167205],[103.8221426,1.3165768],[103.8220042,1.3166192],[103.8220188,1.3166666],[103.8220683,1.3166515]]]}},{"type":"Feature","id":"way/372072002-0","properties":{"addr:city":"Singapore","addr:country":"SG","addr:housenumber":"36","addr:street":"Margoliouth Road","building":"house","source":"Bing"},"geometry":{"type":"Polygon","coordinates":[[[103.8235524,1.3195326],[103.8235455,1.3194352],[103.8236106,1.3194306],[103.8236072,1.3193819],[103.823541,1.3193865],[103.8235401,1.3193738],[103.8234754,1.3193783],[103.8234816,1.3194671],[103.8234288,1.3194708],[103.8234228,1.3193844],[103.8233684,1.3193882],[103.8233794,1.3195447],[103.8235524,1.3195326]]]}},{"type":"Feature","id":"way/372072003-0","properties":{"addr:city":"Singapore","addr:country":"SG","addr:housenumber":"36","addr:street":"White House Park","building":"yes","source":"Bing"},"geometry":{"type":"Polygon","coordinates":[[[103.822048,1.3164533],[103.8219947,1.3163246],[103.8217759,1.3164153],[103.8218293,1.3165439],[103.822048,1.3164533]]]}},{"type":"Feature","id":"way/372072006-0","properties":{"addr:city":"Singapore","addr:country":"SG","addr:housenumber":"38","addr:street":"Margoliouth Road","building":"house","source":"Bing"},"geometry":{"type":"Polygon","coordinates":[[[103.8233272,1.3195478],[103.823315,1.3193956],[103.8232046,1.3194045],[103.8232168,1.3195567],[103.8233272,1.3195478]]]}},{"type":"Feature","id":"way/372072007-0","properties":{"addr:city":"Singapore","addr:country":"SG","addr:housenumber":"38","addr:street":"White House Park","building":"yes","source":"Bing"},"geometry":{"type":"Polygon","coordinates":[[[103.8226114,1.3169249],[103.8226922,1.3170698],[103.8228199,1.3169985],[103.8227391,1.3168537],[103.8226114,1.3169249]]]}},{"type":"Feature","id":"way/372072010-0","properties":{"addr:city":"Singapore","addr:country":"SG","addr:housenumber":"39","addr:street":"Lewis Road","building":"house","source":"Bing"},"geometry":{"type":"Polygon","coordinates":[[[103.8227566,1.3188412],[103.8223652,1.3189593],[103.8223929,1.3190513],[103.8227333,1.3189485],[103.8227768,1.3190925],[103.8228618,1.3190669],[103.8228151,1.3189122],[103.8227811,1.3189225],[103.8227566,1.3188412]]]}},{"type":"Feature","id":"way/372072018-0","properties":{"addr:city":"Singapore","addr:country":"SG","addr:housenumber":"40","addr:street":"Margoliouth Road","building":"house","source":"Bing"},"geometry":{"type":"Polygon","coordinates":[[[103.8232214,1.3197057],[103.8233455,1.3196939],[103.8233351,1.3195842],[103.8232109,1.3195961],[103.8232214,1.3197057]]]}},{"type":"Feature","id":"way/372072021-0","properties":{"addr:city":"Singapore","addr:country":"SG","addr:housenumber":"40","addr:street":"White House Park","building":"yes","source":"Bing"},"geometry":{"type":"Polygon","coordinates":[[[103.822967,1.3172541],[103.8230549,1.3171214],[103.8229567,1.3170564],[103.8228688,1.3171891],[103.822967,1.3172541]]]}},{"type":"Feature","id":"way/372072030-0","properties":{"addr:city":"Singapore","addr:country":"SG","addr:housenumber":"42","addr:street":"Margoliouth Road","building":"house","source":"Bing"},"geometry":{"type":"Polygon","coordinates":[[[103.823116,1.319214],[103.8230884,1.3191184],[103.8230005,1.3191438],[103.8230281,1.3192393],[103.823116,1.319214]]]}},{"type":"Feature","id":"way/372072032-0","properties":{"addr:city":"Singapore","addr:country":"SG","addr:housenumber":"42","addr:street":"White House Park","building":"yes","source":"Bing"},"geometry":{"type":"Polygon","coordinates":[[[103.8231275,1.3168302],[103.8232432,1.3169063],[103.8232689,1.3168673],[103.8232924,1.3168827],[103.8233289,1.3168272],[103.8233056,1.3168118],[103.8233407,1.3167586],[103.8232475,1.3166973],[103.8232757,1.3166544],[103.823232,1.3166257],[103.8231316,1.3167782],[103.8231526,1.316792],[103.8231275,1.3168302]]]}},{"type":"Feature","id":"way/372072042-0","properties":{"addr:city":"Singapore","addr:country":"SG","addr:housenumber":"44","addr:street":"Margoliouth Road","building":"house","source":"Bing"},"geometry":{"type":"Polygon","coordinates":[[[103.8232237,1.3192095],[103.823343,1.3192006],[103.8233346,1.3190876],[103.8232153,1.3190965],[103.8232237,1.3192095]]]}},{"type":"Feature","id":"way/372072043-0","properties":{"addr:city":"Singapore","addr:country":"SG","addr:housenumber":"44","addr:street":"White House Park","building":"yes","source":"Bing"},"geometry":{"type":"Polygon","coordinates":[[[103.8230216,1.3168449],[103.8230945,1.3167273],[103.8230566,1.3167039],[103.8230916,1.3166473],[103.8230542,1.3166242],[103.8230191,1.3166809],[103.8229944,1.3166656],[103.8230343,1.3166011],[103.822975,1.3165644],[103.8228623,1.3167464],[103.8230216,1.3168449]]]}},{"type":"Feature","id":"way/372072047-0","properties":{"addr:city":"Singapore","addr:country":"SG","addr:housenumber":"46","addr:street":"Margoliouth Road","building":"house","source":"Bing"},"geometry":{"type":"Polygon","coordinates":[[[103.8235266,1.3192379],[103.8235138,1.3190881],[103.8233927,1.3190985],[103.8234055,1.3192482],[103.8235266,1.3192379]]]}},{"type":"Feature","id":"way/372072049-0","properties":{"addr:city":"Singapore","addr:country":"SG","addr:housenumber":"46","addr:street":"White House Park","building":"yes","source":"Bing"},"geometry":{"type":"Polygon","coordinates":[[[103.8228317,1.3166271],[103.8228752,1.3165602],[103.822853,1.3165458],[103.822891,1.3164873],[103.8227558,1.3163995],[103.8226534,1.3165572],[103.8227886,1.316645],[103.8228095,1.3166127],[103.8228317,1.3166271]]]}},{"type":"Feature","id":"way/372072053-0","properties":{"addr:city":"Singapore","addr:country":"SG","addr:housenumber":"48","addr:street":"Margoliouth Road","building":"house","source":"Bing"},"geometry":{"type":"Polygon","coordinates":[[[103.8235691,1.3190364],[103.8235541,1.3188648],[103.8233629,1.3188815],[103.8233779,1.3190532],[103.8235691,1.3190364]]]}},{"type":"Feature","id":"way/372072055-0","properties":{"addr:city":"Singapore","addr:country":"SG","addr:housenumber":"48","addr:street":"White House Park","building":"yes","source":"Bing"},"geometry":{"type":"Polygon","coordinates":[[[103.822578,1.3165078],[103.8226135,1.3164501],[103.8226569,1.3164768],[103.8227166,1.3163798],[103.822577,1.3162939],[103.8224818,1.3164485],[103.822578,1.3165078]]]}},{"type":"Feature","id":"way/372072060-0","properties":{"addr:city":"Singapore","addr:country":"SG","addr:housenumber":"5","addr:street":"Dalvey Estate","building":"house","source":"Bing"},"geometry":{"type":"Polygon","coordinates":[[[103.8195735,1.3167145],[103.8196456,1.3167142],[103.8196457,1.3167347],[103.8196861,1.3167345],[103.819686,1.3167136],[103.8197323,1.3167134],[103.819732,1.3166377],[103.8195731,1.3166384],[103.8195735,1.3167145]]]}},{"type":"Feature","id":"way/372072065-0","properties":{"addr:city":"Singapore","addr:country":"SG","addr:housenumber":"50","addr:street":"Margoliouth Road","building":"house","source":"Bing"},"geometry":{"type":"Polygon","coordinates":[[[103.8233296,1.3190512],[103.8233205,1.3188943],[103.8232022,1.3189012],[103.8232114,1.3190581],[103.8233296,1.3190512]]]}},{"type":"Feature","id":"way/372072067-0","properties":{"addr:city":"Singapore","addr:country":"SG","addr:housenumber":"50","addr:street":"White House Park","building":"yes","source":"Bing"},"geometry":{"type":"Polygon","coordinates":[[[103.8223434,1.3163292],[103.8224341,1.3161894],[103.8223312,1.3161227],[103.8222405,1.3162626],[103.8223434,1.3163292]]]}},{"type":"Feature","id":"way/372072071-0","properties":{"addr:city":"Singapore","addr:country":"SG","addr:housenumber":"52","addr:street":"Margoliouth Road","building":"house","source":"Bing"},"geometry":{"type":"Polygon","coordinates":[[[103.8230665,1.3190541],[103.8230401,1.3189503],[103.8229239,1.3189799],[103.8229503,1.3190837],[103.8230665,1.3190541]]]}},{"type":"Feature","id":"way/372072073-0","properties":{"addr:city":"Singapore","addr:country":"SG","addr:housenumber":"52","addr:street":"White House Park","building":"yes","source":"Bing"},"geometry":{"type":"Polygon","coordinates":[[[103.8221578,1.316196],[103.8222386,1.3160669],[103.8221341,1.3160015],[103.8220533,1.3161306],[103.8221578,1.316196]]]}},{"type":"Feature","id":"way/372072081-0","properties":{"addr:city":"Singapore","addr:country":"SG","addr:housenumber":"54","addr:street":"White House Park","building":"yes","source":"Bing"},"geometry":{"type":"Polygon","coordinates":[[[103.8219066,1.31609],[103.8220278,1.3159167],[103.8219146,1.3158376],[103.8217934,1.316011],[103.8219066,1.31609]]]}},{"type":"Feature","id":"way/372072088-0","properties":{"addr:city":"Singapore","addr:country":"SG","addr:housenumber":"56","addr:street":"White House Park","building":"yes","source":"Bing"},"geometry":{"type":"Polygon","coordinates":[[[103.8217446,1.3157488],[103.8216382,1.3158979],[103.8217562,1.315982],[103.8219041,1.3157747],[103.8218646,1.3157465],[103.821823,1.3158047],[103.8217446,1.3157488]]]}},{"type":"Feature","id":"way/372072091-0","properties":{"addr:city":"Singapore","addr:country":"SG","addr:housenumber":"58","addr:street":"White House Park","building":"yes","source":"Bing"},"geometry":{"type":"Polygon","coordinates":[[[103.8215723,1.3157947],[103.8216659,1.3156627],[103.8215707,1.3155952],[103.8214771,1.3157272],[103.8215723,1.3157947]]]}},{"type":"Feature","id":"way/372072105-0","properties":{"addr:city":"Singapore","addr:country":"SG","addr:housenumber":"60","addr:street":"White House Park","building":"yes","source":"Bing"},"geometry":{"type":"Polygon","coordinates":[[[103.8214206,1.3154125],[103.8213493,1.3154345],[103.8213874,1.3155578],[103.82155,1.3155075],[103.8215119,1.3153843],[103.8214803,1.315394],[103.8214702,1.3153578],[103.8214101,1.3153745],[103.8214206,1.3154125]]]}},{"type":"Feature","id":"way/372072122-0","properties":{"addr:city":"Singapore","addr:country":"SG","addr:housenumber":"67","addr:street":"Dalvey Road","building":"yes","source":"Bing"},"geometry":{"type":"Polygon","coordinates":[[[103.8229889,1.3155991],[103.8230156,1.315537],[103.8229503,1.3155089],[103.8229555,1.3154969],[103.8230181,1.3155239],[103.8230416,1.3154693],[103.8229794,1.3154425],[103.8230023,1.3153893],[103.8229209,1.3153543],[103.8229037,1.3153942],[103.8228432,1.3153682],[103.8228677,1.3153113],[103.8227925,1.315279],[103.8227426,1.3153949],[103.8227573,1.3154012],[103.8227168,1.3154954],[103.8227976,1.3155302],[103.8228263,1.3154634],[103.8227843,1.3154454],[103.8227967,1.3154168],[103.8228199,1.3154267],[103.8228276,1.3154087],[103.8228859,1.3154338],[103.8228327,1.3155574],[103.8229139,1.3155924],[103.8229231,1.3155708],[103.8229889,1.3155991]]]}},{"type":"Feature","id":"way/372072126-0","properties":{"addr:city":"Singapore","addr:country":"SG","addr:housenumber":"69","addr:street":"Dalvey Road","building":"yes","source":"Bing"},"geometry":{"type":"Polygon","coordinates":[[[103.8232886,1.3154921],[103.8232089,1.3154611],[103.823178,1.3155406],[103.8230937,1.3155079],[103.8230769,1.3155511],[103.8231146,1.3155657],[103.823081,1.3156523],[103.8233123,1.3157421],[103.8233481,1.31565],[103.8232431,1.3156092],[103.8232886,1.3154921]]]}},{"type":"Feature","id":"way/372072129-0","properties":{"addr:city":"Singapore","addr:country":"SG","addr:housenumber":"7","addr:street":"Dalvey Estate","building":"house","source":"Bing"},"geometry":{"type":"Polygon","coordinates":[[[103.8208259,1.3178251],[103.8209701,1.3178163],[103.8209626,1.317694],[103.8210135,1.3176909],[103.8210102,1.317638],[103.820874,1.3176464],[103.8208721,1.3176153],[103.8208133,1.3176189],[103.8208259,1.3178251]]]}},{"type":"Feature","id":"way/372072162-0","properties":{"addr:city":"Singapore","addr:country":"SG","addr:housenumber":"7A","addr:street":"Dalvey Estate","building":"house","source":"Bing"},"geometry":{"type":"Polygon","coordinates":[[[103.82061,1.3177039],[103.8206238,1.3175226],[103.8204525,1.3175095],[103.8204387,1.3176908],[103.82061,1.3177039]]]}},{"type":"Feature","id":"way/372072166-0","properties":{"addr:city":"Singapore","addr:country":"SG","addr:housenumber":"7B","addr:street":"Dalvey Estate","building":"house","source":"Bing"},"geometry":{"type":"Polygon","coordinates":[[[103.8204651,1.3179645],[103.8204632,1.3179514],[103.8204849,1.3179482],[103.8204922,1.3179973],[103.820544,1.3179897],[103.8205369,1.3179415],[103.820634,1.3179271],[103.8206237,1.3178576],[103.8204435,1.3178843],[103.8204397,1.3178592],[103.8203894,1.3178667],[103.8203975,1.3179217],[103.8204381,1.3179157],[103.8204404,1.3179314],[103.8203938,1.3179383],[103.8203991,1.3179743],[103.8204651,1.3179645]]]}},{"type":"Feature","id":"way/372072169-0","properties":{"addr:city":"Singapore","addr:country":"SG","addr:housenumber":"8","addr:street":"Dalvey Estate","building":"house","source":"Bing"},"geometry":{"type":"Polygon","coordinates":[[[103.8210607,1.3157995],[103.8209957,1.3158295],[103.8211021,1.31606],[103.8213524,1.3159457],[103.8213238,1.3158831],[103.8211384,1.3159678],[103.8210607,1.3157995]]]}},{"type":"Feature","id":"way/372072180-0","properties":{"addr:city":"Singapore","addr:country":"SG","addr:housenumber":"81","addr:street":"Dalvey Road","building":"yes","source":"Bing"},"geometry":{"type":"Polygon","coordinates":[[[103.8233784,1.3158363],[103.8233688,1.3159026],[103.8236062,1.3159372],[103.8236441,1.3156761],[103.8234756,1.3156516],[103.8234473,1.3158464],[103.8233784,1.3158363]]]}},{"type":"Feature","id":"way/372072193-0","properties":{"addr:city":"Singapore","addr:country":"SG","addr:housenumber":"9","addr:street":"White House Park","building":"yes","source":"Bing"},"geometry":{"type":"Polygon","coordinates":[[[103.8227028,1.3159081],[103.8227072,1.3158973],[103.8227491,1.3159143],[103.8227264,1.3159699],[103.822809,1.3160035],[103.8227738,1.3160899],[103.8228393,1.3161166],[103.8228711,1.3160386],[103.8230286,1.3161028],[103.8230545,1.3160394],[103.8231378,1.3160733],[103.8231657,1.3160049],[103.8229925,1.3159343],[103.8230079,1.3158965],[103.8229577,1.315876],[103.8229217,1.3159643],[103.8229034,1.3159568],[103.8229867,1.3157523],[103.8229211,1.3157256],[103.8228594,1.3158768],[103.822723,1.3158213],[103.8227084,1.3158572],[103.8225743,1.3158026],[103.8225557,1.3158482],[103.8227028,1.3159081]]]}},{"type":"Feature","id":"way/372072238-0","properties":{"building":"house","source":"Bing"},"geometry":{"type":"Polygon","coordinates":[[[103.8225727,1.31917],[103.8225781,1.3191888],[103.8226172,1.3191777],[103.8225744,1.319027],[103.8224529,1.3190615],[103.8224635,1.3190988],[103.8225482,1.3190748],[103.8225619,1.3191231],[103.8224714,1.3191488],[103.8224846,1.319195],[103.8225727,1.31917]]]}},{"type":"Feature","id":"way/372072240-0","properties":{"addr:city":"Singapore","addr:country":"SG","addr:housenumber":"20","addr:postcode":"259365","addr:street":"Evans Road","amenity":"research_institute","building":"yes","name":"IPS (Social Lab Operation)","operator":"Institute of Policy Studies","operator:type":"university"},"geometry":{"type":"Polygon","coordinates":[[[103.8200701,1.3180664],[103.820079,1.3180937],[103.8201145,1.3180821],[103.8200735,1.3179572],[103.8200341,1.3179701],[103.8200466,1.3180081],[103.8199964,1.3180246],[103.819978,1.3179684],[103.8198693,1.318004],[103.8199163,1.3181475],[103.8200245,1.3181121],[103.8200154,1.3180843],[103.8200701,1.3180664]]]}},{"type":"Feature","id":"way/372072253-0","properties":{"building":"yes","source":"Bing"},"geometry":{"type":"Polygon","coordinates":[[[103.8231199,1.3167212],[103.8231896,1.3166161],[103.8231483,1.3165888],[103.8230787,1.3166939],[103.8231199,1.3167212]]]}},{"type":"Feature","id":"way/372072256-0","properties":{"building":"house","source":"Bing"},"geometry":{"type":"Polygon","coordinates":[[[103.8217248,1.3195155],[103.8218421,1.3194791],[103.8218134,1.3193866],[103.8216961,1.319423],[103.8217248,1.3195155]]]}},{"type":"Feature","id":"way/372072281-0","properties":{"building":"yes","source":"Bing"},"geometry":{"type":"Polygon","coordinates":[[[103.8223146,1.31699],[103.8222348,1.3168442],[103.8221601,1.3168851],[103.8222399,1.3170309],[103.8223146,1.31699]]]}},{"type":"Feature","id":"way/372072292-0","properties":{"building":"house","source":"Bing"},"geometry":{"type":"Polygon","coordinates":[[[103.8216059,1.3178232],[103.821674,1.3178225],[103.821673,1.3177178],[103.8216049,1.3177184],[103.8216059,1.3178232]]]}},{"type":"Feature","id":"way/372072301-0","properties":{"building":"yes","source":"Bing"},"geometry":{"type":"Polygon","coordinates":[[[103.8236139,1.3171252],[103.823691,1.3169858],[103.8235913,1.3169307],[103.8235141,1.31707],[103.8236139,1.3171252]]]}},{"type":"Feature","id":"way/372072316-0","properties":{"building":"house","source":"Bing"},"geometry":{"type":"Polygon","coordinates":[[[103.8215889,1.3198121],[103.8217141,1.3197786],[103.8216991,1.3197226],[103.8215739,1.3197561],[103.8215889,1.3198121]]]}},{"type":"Feature","id":"way/372072319-0","properties":{"building":"yes","source":"Bing"},"geometry":{"type":"Polygon","coordinates":[[[103.8212582,1.3166946],[103.8213404,1.3166611],[103.8213189,1.3166083],[103.8212367,1.3166417],[103.8212582,1.3166946]]]}},{"type":"Feature","id":"way/372072333-0","properties":{"building":"house","source":"Bing"},"geometry":{"type":"Polygon","coordinates":[[[103.8206227,1.3155807],[103.8207076,1.3155334],[103.8206573,1.3154433],[103.8207495,1.315392],[103.8207257,1.3153493],[103.8205487,1.3154479],[103.8206227,1.3155807]]]}},{"type":"Feature","id":"way/372072356-0","properties":{"building":"house","source":"Bing"},"geometry":{"type":"Polygon","coordinates":[[[103.81965,1.316554],[103.8196504,1.3165679],[103.8197196,1.316566],[103.8197152,1.31641],[103.8196465,1.3164119],[103.8196498,1.3165286],[103.8196012,1.3165299],[103.819602,1.3165554],[103.81965,1.316554]]]}},{"type":"Feature","id":"way/451897524-0","properties":{"building":"yes"},"geometry":{"type":"Polygon","coordinates":[[[103.8223982,1.3155457],[103.8223721,1.3155379],[103.8222895,1.3157351],[103.8223555,1.3157584],[103.8223652,1.3158335],[103.822543,1.3157712],[103.8226188,1.3155191],[103.8224239,1.3154605],[103.8223982,1.3155457]]]}},{"type":"Feature","id":"way/451897525-0","properties":{"building":"yes"},"geometry":{"type":"Polygon","coordinates":[[[103.8217715,1.3160208],[103.8216935,1.315958],[103.8216546,1.3160063],[103.8217326,1.316069],[103.8217715,1.3160208]]]}},{"type":"Feature","id":"way/451897534-0","properties":{"building":"yes"},"geometry":{"type":"Polygon","coordinates":[[[103.8216551,1.3156411],[103.8217279,1.3155487],[103.8216672,1.3155008],[103.8215943,1.3155932],[103.8216551,1.3156411]]]}},{"type":"Feature","id":"way/451897535-0","properties":{"building":"yes"},"geometry":{"type":"Polygon","coordinates":[[[103.8215722,1.3155068],[103.821665,1.3154962],[103.8216567,1.3154238],[103.821564,1.3154344],[103.8215722,1.3155068]]]}},{"type":"Feature","id":"way/451897540-0","properties":{"building":"yes"},"geometry":{"type":"Polygon","coordinates":[[[103.8223511,1.3163429],[103.8222272,1.3162627],[103.8222125,1.3162854],[103.8223728,1.3163892],[103.8224838,1.316218],[103.8224474,1.3161944],[103.8223511,1.3163429]]]}},{"type":"Feature","id":"way/455161184-0","properties":{"building":"house"},"geometry":{"type":"Polygon","coordinates":[[[103.8219982,1.3176015],[103.8219552,1.3176531],[103.8220023,1.3177007],[103.8220839,1.3176974],[103.8220799,1.3175982],[103.8219982,1.3176015]]]}},{"type":"Feature","id":"way/496271478-0","properties":{"building":"house"},"geometry":{"type":"Polygon","coordinates":[[[103.8229736,1.3185149],[103.8230463,1.3184875],[103.8230007,1.3183668],[103.822928,1.3183942],[103.8229736,1.3185149]]]}},{"type":"Feature","id":"way/496271479-0","properties":{"building":"house"},"geometry":{"type":"Polygon","coordinates":[[[103.8229132,1.318122],[103.8229707,1.3180613],[103.8228636,1.3179599],[103.8228061,1.3180206],[103.8229132,1.318122]]]}},{"type":"Feature","id":"way/496271482-0","properties":{"building":"house"},"geometry":{"type":"Polygon","coordinates":[[[103.8219265,1.3178902],[103.8220006,1.3178811],[103.8219952,1.3178372],[103.8219211,1.3178463],[103.8219265,1.3178902]]]}},{"type":"Feature","id":"way/496271483-0","properties":{"building":"yes"},"geometry":{"type":"Polygon","coordinates":[[[103.8235886,1.3161123],[103.8235822,1.3161267],[103.8235818,1.3161425],[103.8235875,1.3161572],[103.8235984,1.3161686],[103.8236128,1.316175],[103.8236286,1.3161754],[103.8236433,1.3161697],[103.8236547,1.3161588],[103.8236611,1.3161444],[103.8236615,1.3161286],[103.8236558,1.3161139],[103.823645,1.3161025],[103.8236305,1.3160961],[103.8236147,1.3160957],[103.8236,1.3161014],[103.8235886,1.3161123]]]}},{"type":"Feature","id":"way/551264125-0","properties":{"addr:city":"Singapore","addr:country":"SG","addr:housenumber":"18","addr:postcode":"259364","addr:street":"Evans Road","amenity":"research_institute","building":"yes","name":"IPS (Social Lab Research)","operator":"Institute of Policy Studies","operator:type":"university"},"geometry":{"type":"Polygon","coordinates":[[[103.8198773,1.3178206],[103.8199273,1.3178031],[103.8199428,1.3178474],[103.8199884,1.3178314],[103.8199329,1.3176729],[103.8198902,1.3176878],[103.8199122,1.3177506],[103.8198577,1.3177697],[103.8198476,1.3177407],[103.8198321,1.3176965],[103.8197171,1.3177367],[103.81977,1.3178881],[103.8198867,1.3178473],[103.8198773,1.3178206]]]}},{"type":"Feature","id":"way/596129175-0","properties":{"building":"house"},"geometry":{"type":"Polygon","coordinates":[[[103.821467,1.3194148],[103.821443,1.3193412],[103.8213749,1.3193634],[103.8213989,1.319437],[103.821467,1.3194148]]]}},{"type":"Feature","id":"way/596129176-0","properties":{"building":"house"},"geometry":{"type":"Polygon","coordinates":[[[103.8218065,1.3193464],[103.8217796,1.3192638],[103.8216395,1.3193095],[103.8216665,1.3193921],[103.8218065,1.3193464]]]}},{"type":"Feature","id":"way/601012475-0","properties":{"building":"yes"},"geometry":{"type":"Polygon","coordinates":[[[103.8196274,1.3189447],[103.819862,1.3188477],[103.8197747,1.3186368],[103.8195401,1.3187338],[103.8196274,1.3189447]]]}},{"type":"Feature","id":"way/1086609834-0","properties":{"addr:city":"Singapore","addr:country":"SG","addr:housenumber":"3F","addr:street":"Dalvey Estate","building":"detached"},"geometry":{"type":"Polygon","coordinates":[[[103.8201028,1.3168413],[103.8201414,1.3169061],[103.8202374,1.316849],[103.8201993,1.3167849],[103.8202488,1.3167554],[103.8202866,1.3168188],[103.8203775,1.3167648],[103.8203437,1.316708],[103.82042,1.3166626],[103.8203618,1.3165648],[103.8199247,1.3168248],[103.8199785,1.3169153],[103.8201028,1.3168413]]]}},{"type":"Feature","id":"way/1086609835-0","properties":{"addr:city":"Singapore","addr:country":"SG","addr:housenumber":"3","addr:street":"Dalvey Estate","building":"detached"},"geometry":{"type":"Polygon","coordinates":[[[103.8203047,1.317092],[103.8203233,1.3171232],[103.8205098,1.3170126],[103.8204759,1.3169556],[103.8205242,1.316927],[103.8204295,1.3167675],[103.8201468,1.3169351],[103.8201697,1.3169736],[103.8203803,1.3168486],[103.8204373,1.3169446],[103.8202058,1.3170819],[103.820236,1.3171327],[103.8203047,1.317092]]]}},{"type":"Feature","id":"way/1086609836-0","properties":{"addr:city":"Singapore","addr:country":"SG","addr:housenumber":"3E","addr:street":"Dalvey Estate","building":"detached"},"geometry":{"type":"Polygon","coordinates":[[[103.8205881,1.3172812],[103.8206671,1.3173406],[103.8207042,1.3173145],[103.8206779,1.3172564],[103.8206834,1.3171374],[103.8205972,1.3170555],[103.8205444,1.3170538],[103.8205262,1.3170671],[103.8205192,1.3171636],[103.8204263,1.3171218],[103.8203344,1.3171807],[103.8203272,1.3172038],[103.8203682,1.3172521],[103.8205881,1.3172812]]]}},{"type":"Feature","id":"way/1086609837-0","properties":{"addr:city":"Singapore","addr:country":"SG","addr:housenumber":"3D","addr:postcode":"259560","addr:street":"Dalvey Estate","building":"detached"},"geometry":{"type":"Polygon","coordinates":[[[103.8210581,1.3173261],[103.8210489,1.3172522],[103.8208149,1.3172827],[103.8208094,1.3172289],[103.8208407,1.3172194],[103.8208369,1.3171767],[103.8208065,1.3171809],[103.8208012,1.317153],[103.8207313,1.3171637],[103.8207573,1.317344],[103.8208444,1.3173526],[103.8210581,1.3173261]]]}},{"type":"Feature","id":"way/1086609838-0","properties":{"addr:city":"Singapore","addr:country":"SG","addr:housenumber":"3C","addr:street":"Dalvey Estate","building":"detached"},"geometry":{"type":"Polygon","coordinates":[[[103.820814,1.317089],[103.8208026,1.3170091],[103.8208769,1.3169986],[103.8208908,1.3170966],[103.8210313,1.3170767],[103.8209976,1.3168396],[103.8209268,1.3168497],[103.8209397,1.3169408],[103.820697,1.3169752],[103.8207152,1.317103],[103.820814,1.317089]]]}},{"type":"Feature","id":"way/1086609839-0","properties":{"addr:city":"Singapore","addr:country":"SG","addr:housenumber":"3B","addr:street":"Dalvey Estate","building":"detached"},"geometry":{"type":"Polygon","coordinates":[[[103.8208927,1.3168105],[103.8208773,1.3167835],[103.8209563,1.3167386],[103.8208819,1.3166078],[103.8207603,1.316677],[103.820812,1.3167679],[103.8207317,1.3168137],[103.820659,1.316686],[103.8205451,1.3167508],[103.8206558,1.3169453],[103.8208927,1.3168105]]]}},{"type":"Feature","id":"way/1086609840-0","properties":{"addr:city":"Singapore","addr:country":"SG","addr:housenumber":"3A","addr:street":"Dalvey Estate","building":"detached"},"geometry":{"type":"Polygon","coordinates":[[[103.8206047,1.3166766],[103.8205923,1.3166542],[103.8206906,1.3165994],[103.8207035,1.3166226],[103.8207804,1.3165798],[103.8206678,1.3163778],[103.8206053,1.3164126],[103.820687,1.3165591],[103.8205755,1.3166213],[103.8204957,1.3164784],[103.8204366,1.3165114],[103.8205468,1.3167089],[103.8206047,1.3166766]]]}},{"type":"Feature","id":"way/1245303718-0","properties":{"addr:city":"Singapore","addr:country":"SG","addr:housenumber":"16","addr:postcode":"259363","addr:street":"Evans Road","amenity":"research_institute","building":"yes","name":"IPS","operator":"Institute of Policy Studies","operator:type":"university"},"geometry":{"type":"Polygon","coordinates":[[[103.8197643,1.3175328],[103.819757,1.3175117],[103.8197783,1.3175043],[103.819799,1.3175634],[103.8198475,1.3175464],[103.8197989,1.317407],[103.8197507,1.3174238],[103.8197672,1.3174712],[103.8197473,1.3174782],[103.8197189,1.317397],[103.8195937,1.3174407],[103.8196409,1.3175759],[103.8197643,1.3175328]]]}},{"type":"Feature","id":"way/34066225-0-0-0","properties":{"highway":"residential","maxspeed":"50","name":"Dalvey Estate","sidewalk":"right","surface":"asphalt"},"geometry":{"type":"LineString","coordinates":[[103.8209055,1.3174395],[103.8204827,1.317412]]}},{"type":"Feature","id":"way/34066227-0-0-0","properties":{"highway":"residential","lanes":"2","lanes:backward":"1","lanes:forward":"1","maxspeed":"50","name":"Dalvey Estate","surface":"asphalt"},"geometry":{"type":"LineString","coordinates":[[103.8212841,1.3165403],[103.8213204,1.3165484]]}},{"type":"Feature","id":"way/34066227-0-1-0","properties":{"highway":"residential","lanes":"2","lanes:backward":"1","lanes:forward":"1","maxspeed":"50","name":"Dalvey Estate","surface":"asphalt"},"geometry":{"type":"LineString","coordinates":[[103.8213204,1.3165484],[103.8213627,1.3165638]]}},{"type":"Feature","id":"way/34066227-0-2-0","properties":{"highway":"residential","lanes":"2","lanes:backward":"1","lanes:forward":"1","maxspeed":"50","name":"Dalvey Estate","surface":"asphalt"},"geometry":{"type":"LineString","coordinates":[[103.8213627,1.3165638],[103.8213984,1.3165912]]}},{"type":"Feature","id":"way/34066227-0-3-0","properties":{"highway":"residential","lanes":"2","lanes:backward":"1","lanes:forward":"1","maxspeed":"50","name":"Dalvey Estate","surface":"asphalt"},"geometry":{"type":"LineString","coordinates":[[103.8213984,1.3165912],[103.8215434,1.3167442]]}},{"type":"Feature","id":"way/34066227-0-4-0","properties":{"highway":"residential","lanes":"2","lanes:backward":"1","lanes:forward":"1","maxspeed":"50","name":"Dalvey Estate","surface":"asphalt"},"geometry":{"type":"LineString","coordinates":[[103.8215434,1.3167442],[103.8215661,1.316824]]}},{"type":"Feature","id":"way/34066227-0-5-0","properties":{"highway":"residential","lanes":"2","lanes:backward":"1","lanes:forward":"1","maxspeed":"50","name":"Dalvey Estate","surface":"asphalt"},"geometry":{"type":"LineString","coordinates":[[103.8215661,1.316824],[103.8215966,1.3171757]]}},{"type":"Feature","id":"way/34066227-0-6-0","properties":{"highway":"residential","lanes":"2","lanes:backward":"1","lanes:forward":"1","maxspeed":"50","name":"Dalvey Estate","surface":"asphalt"},"geometry":{"type":"LineString","coordinates":[[103.8215966,1.3171757],[103.8216114,1.3174732]]}},{"type":"Feature","id":"way/34066227-0-7-0","properties":{"highway":"residential","lanes":"2","lanes:backward":"1","lanes:forward":"1","maxspeed":"50","name":"Dalvey Estate","surface":"asphalt"},"geometry":{"type":"LineString","coordinates":[[103.8216114,1.3174732],[103.8216262,1.3175097]]}},{"type":"Feature","id":"way/34066227-0-8-0","properties":{"highway":"residential","lanes":"2","lanes:backward":"1","lanes:forward":"1","maxspeed":"50","name":"Dalvey Estate","surface":"asphalt"},"geometry":{"type":"LineString","coordinates":[[103.8216262,1.3175097],[103.8216962,1.3175648]]}},{"type":"Feature","id":"way/34066227-0-9-0","properties":{"highway":"residential","lanes":"2","lanes:backward":"1","lanes:forward":"1","maxspeed":"50","name":"Dalvey Estate","surface":"asphalt"},"geometry":{"type":"LineString","coordinates":[[103.8216962,1.3175648],[103.8217858,1.3175934]]}},{"type":"Feature","id":"way/34066227-0-10-0","properties":{"highway":"residential","lanes":"2","lanes:backward":"1","lanes:forward":"1","maxspeed":"50","name":"Dalvey Estate","surface":"asphalt"},"geometry":{"type":"LineString","coordinates":[[103.8217858,1.3175934],[103.8218702,1.3175843]]}},{"type":"Feature","id":"way/34066227-0-11-0","properties":{"highway":"residential","lanes":"2","lanes:backward":"1","lanes:forward":"1","maxspeed":"50","name":"Dalvey Estate","surface":"asphalt"},"geometry":{"type":"LineString","coordinates":[[103.8218702,1.3175843],[103.82189,1.3175822]]}},{"type":"Feature","id":"way/34066231-0-0-0","properties":{"highway":"residential","lanes":"2","lanes:backward":"1","lanes:forward":"1","maxspeed":"50","name":"Margoliouth Road","sidewalk":"both","surface":"asphalt"},"geometry":{"type":"LineString","coordinates":[[103.8236475,1.3187748],[103.8231545,1.3188134]]}},{"type":"Feature","id":"way/34066231-0-1-0","properties":{"highway":"residential","lanes":"2","lanes:backward":"1","lanes:forward":"1","maxspeed":"50","name":"Margoliouth Road","sidewalk":"both","surface":"asphalt"},"geometry":{"type":"LineString","coordinates":[[103.8231545,1.3188134],[103.8231214,1.318816]]}},{"type":"Feature","id":"way/34066233-0-0-0","properties":{"highway":"residential","lanes":"2","lanes:backward":"1","lanes:forward":"1","maxspeed":"50","name":"Margoliouth Road","surface":"asphalt","turn:lanes:backward":"right"},"geometry":{"type":"LineString","coordinates":[[103.8231214,1.318816],[103.8231086,1.3186409]]}},{"type":"Feature","id":"way/34066235-0-0-0","properties":{"highway":"residential","maxspeed":"50","name":"Margoliouth Road","sidewalk":"right","surface":"asphalt"},"geometry":{"type":"LineString","coordinates":[[103.8233236,1.3198069],[103.8237305,1.3197755]]}},{"type":"Feature","id":"way/34066236-0-0-0","properties":{"highway":"residential","lanes":"2","lanes:backward":"1","lanes:forward":"1","maxspeed":"50","name":"Margoliouth Road","sidewalk":"both","surface":"asphalt"},"geometry":{"type":"LineString","coordinates":[[103.8237305,1.3197755],[103.8236918,1.3192957]]}},{"type":"Feature","id":"way/34066240-0-0-0","properties":{"highway":"residential","lanes":"2","lanes:backward":"1","lanes:forward":"1","maxspeed":"50","name":"Margoliouth Road","surface":"asphalt","turn:lanes:backward":"left;right"},"geometry":{"type":"LineString","coordinates":[[103.8238416,1.3187563],[103.8238012,1.3182397]]}},{"type":"Feature","id":"way/34066243-0-0-0","properties":{"highway":"residential","maxspeed":"50","name":"Margoliouth Road","sidewalk":"both","surface":"asphalt"},"geometry":{"type":"LineString","coordinates":[[103.8236918,1.3192957],[103.8232267,1.3193319]]}},{"type":"Feature","id":"way/34066246-0-0-0","properties":{"highway":"residential","lanes":"2","lanes:backward":"1","lanes:forward":"1","maxspeed":"50","name":"White House Park","name:en":"White House Park","name:zh":"\u767d\u5bab\u56ed","sidewalk":"both","surface":"asphalt"},"geometry":{"type":"LineString","coordinates":[[103.8235715,1.3167508],[103.8235533,1.3167763]]}},{"type":"Feature","id":"way/34066246-0-1-0","properties":{"highway":"residential","lanes":"2","lanes:backward":"1","lanes:forward":"1","maxspeed":"50","name":"White House Park","name:en":"White House Park","name:zh":"\u767d\u5bab\u56ed","sidewalk":"both","surface":"asphalt"},"geometry":{"type":"LineString","coordinates":[[103.8235533,1.3167763],[103.8230807,1.3174399]]}},{"type":"Feature","id":"way/34066246-0-2-0","properties":{"highway":"residential","lanes":"2","lanes:backward":"1","lanes:forward":"1","maxspeed":"50","name":"White House Park","name:en":"White House Park","name:zh":"\u767d\u5bab\u56ed","sidewalk":"both","surface":"asphalt"},"geometry":{"type":"LineString","coordinates":[[103.8230807,1.3174399],[103.8230457,1.3174572]]}},{"type":"Feature","id":"way/34066246-0-3-0","properties":{"highway":"residential","lanes":"2","lanes:backward":"1","lanes:forward":"1","maxspeed":"50","name":"White House Park","name:en":"White House Park","name:zh":"\u767d\u5bab\u56ed","sidewalk":"both","surface":"asphalt"},"geometry":{"type":"LineString","coordinates":[[103.8230457,1.3174572],[103.8230075,1.3174648]]}},{"type":"Feature","id":"way/34066246-0-4-0","properties":{"highway":"residential","lanes":"2","lanes:backward":"1","lanes:forward":"1","maxspeed":"50","name":"White House Park","name:en":"White House Park","name:zh":"\u767d\u5bab\u56ed","sidewalk":"both","surface":"asphalt"},"geometry":{"type":"LineString","coordinates":[[103.8230075,1.3174648],[103.8229686,1.3174621]]}},{"type":"Feature","id":"way/34066246-0-5-0","properties":{"highway":"residential","lanes":"2","lanes:backward":"1","lanes:forward":"1","maxspeed":"50","name":"White House Park","name:en":"White House Park","name:zh":"\u767d\u5bab\u56ed","sidewalk":"both","surface":"asphalt"},"geometry":{"type":"LineString","coordinates":[[103.8229686,1.3174621],[103.8229318,1.3174493]]}},{"type":"Feature","id":"way/34066246-0-6-0","properties":{"highway":"residential","lanes":"2","lanes:backward":"1","lanes:forward":"1","maxspeed":"50","name":"White House Park","name:en":"White House Park","name:zh":"\u767d\u5bab\u56ed","sidewalk":"both","surface":"asphalt"},"geometry":{"type":"LineString","coordinates":[[103.8229318,1.3174493],[103.8227628,1.3173004]]}},{"type":"Feature","id":"way/34066246-0-7-0","properties":{"highway":"residential","lanes":"2","lanes:backward":"1","lanes:forward":"1","maxspeed":"50","name":"White House Park","name:en":"White House Park","name:zh":"\u767d\u5bab\u56ed","sidewalk":"both","surface":"asphalt"},"geometry":{"type":"LineString","coordinates":[[103.8227628,1.3173004],[103.822682,1.3172235]]}},{"type":"Feature","id":"way/34066246-0-8-0","properties":{"highway":"residential","lanes":"2","lanes:backward":"1","lanes:forward":"1","maxspeed":"50","name":"White House Park","name:en":"White House Park","name:zh":"\u767d\u5bab\u56ed","sidewalk":"both","surface":"asphalt"},"geometry":{"type":"LineString","coordinates":[[103.822682,1.3172235],[103.8224266,1.3167634]]}},{"type":"Feature","id":"way/162589329-0-1-0","properties":{"highway":"residential","lanes":"2","lanes:backward":"1","lanes:forward":"1","maxspeed":"50","name":"Lewis Road","name:en":"Lewis Road","name:zh":"\u9c81\u6613\u58eb\u8def","sidewalk":"right","surface":"asphalt"},"geometry":{"type":"LineString","coordinates":[[103.8227292,1.3202225],[103.8224685,1.3194434]]}},{"type":"Feature","id":"way/372072199-0-0-0","properties":{"highway":"residential","maxspeed":"50","name":"Lewis Road","name:en":"Lewis Road","name:zh":"\u9c81\u6613\u58eb\u8def","sidewalk":"both","surface":"asphalt"},"geometry":{"type":"LineString","coordinates":[[103.8224685,1.3194434],[103.8229165,1.3192945]]}},{"type":"Feature","id":"way/372072231-0-0-0","properties":{"highway":"residential","lanes":"2","lanes:backward":"1","lanes:forward":"1","maxspeed":"50","name":"White House Park","name:en":"White House Park","name:zh":"\u767d\u5bab\u56ed","sidewalk":"right","surface":"asphalt"},"geometry":{"type":"LineString","coordinates":[[103.8235715,1.3167508],[103.8233168,1.3165817]]}},{"type":"Feature","id":"way/372072231-0-1-0","properties":{"highway":"residential","lanes":"2","lanes:backward":"1","lanes:forward":"1","maxspeed":"50","name":"White House Park","name:en":"White House Park","name:zh":"\u767d\u5bab\u56ed","sidewalk":"right","surface":"asphalt"},"geometry":{"type":"LineString","coordinates":[[103.8233168,1.3165817],[103.8221983,1.315839]]}},{"type":"Feature","id":"way/372072231-0-2-0","properties":{"highway":"residential","lanes":"2","lanes:backward":"1","lanes:forward":"1","maxspeed":"50","name":"White House Park","name:en":"White House Park","name:zh":"\u767d\u5bab\u56ed","sidewalk":"right","surface":"asphalt"},"geometry":{"type":"LineString","coordinates":[[103.8221983,1.315839],[103.8218476,1.3156061]]}},{"type":"Feature","id":"way/372072231-0-3-0","properties":{"highway":"residential","lanes":"2","lanes:backward":"1","lanes:forward":"1","maxspeed":"50","name":"White House Park","name:en":"White House Park","name:zh":"\u767d\u5bab\u56ed","sidewalk":"right","surface":"asphalt"},"geometry":{"type":"LineString","coordinates":[[103.8218476,1.3156061],[103.8217593,1.315525]]}},{"type":"Feature","id":"way/372072231-0-4-0","properties":{"highway":"residential","lanes":"2","lanes:backward":"1","lanes:forward":"1","maxspeed":"50","name":"White House Park","name:en":"White House Park","name:zh":"\u767d\u5bab\u56ed","sidewalk":"right","surface":"asphalt"},"geometry":{"type":"LineString","coordinates":[[103.8217593,1.315525],[103.8216852,1.3154308]]}},{"type":"Feature","id":"way/528556101-0-7-0","properties":{"highway":"service","lanes":"1","service":"parking_aisle","sidewalk":"right"},"geometry":{"type":"LineString","coordinates":[[103.8195606,1.3192121],[103.8195747,1.319245]]}},{"type":"Feature","id":"way/639299289-0-0-0","properties":{"highway":"service","lanes":"2"},"geometry":{"type":"LineString","coordinates":[[103.8224592,1.3194155],[103.82243,1.319423]]}},{"type":"Feature","id":"way/639299289-0-1-0","properties":{"highway":"service","lanes":"2"},"geometry":{"type":"LineString","coordinates":[[103.82243,1.319423],[103.8222934,1.3194591]]}},{"type":"Feature","id":"way/640054974-0-0-0","properties":{"highway":"tertiary","lanes":"2","lanes:backward":"1","lanes:forward":"1","lit":"yes","maxspeed":"50","name":"Evans Road","name:en":"Evans Road","name:zh":"\u7231\u6587\u58eb\u8def","source":"Yahoo aerial images","surface":"asphalt"},"geometry":{"type":"LineString","coordinates":[[103.8200578,1.3190407],[103.8199636,1.3188114]]}},{"type":"Feature","id":"way/640083826-0-1-0","properties":{"highway":"residential","lanes":"2","lanes:backward":"1","lanes:forward":"1","maxspeed":"50","name":"Dalvey Road","name:en":"Dalvey Road","name:zh":"\u5927\u5a01\u8def","surface":"asphalt"},"geometry":{"type":"LineString","coordinates":[[103.8195608,1.3154967],[103.8197248,1.3154771]]}},{"type":"Feature","id":"way/640083826-0-2-0","properties":{"highway":"residential","lanes":"2","lanes:backward":"1","lanes:forward":"1","maxspeed":"50","name":"Dalvey Road","name:en":"Dalvey Road","name:zh":"\u5927\u5a01\u8def","surface":"asphalt"},"geometry":{"type":"LineString","coordinates":[[103.8197248,1.3154771],[103.8201352,1.3154537]]}},{"type":"Feature","id":"way/642050996-0-0-0","properties":{"highway":"service","oneway":"yes","surface":"asphalt"},"geometry":{"type":"LineString","coordinates":[[103.8200578,1.3190407],[103.8201204,1.3190016]]}},{"type":"Feature","id":"way/642050996-0-1-0","properties":{"highway":"service","oneway":"yes","surface":"asphalt"},"geometry":{"type":"LineString","coordinates":[[103.8201204,1.3190016],[103.820147,1.3189806]]}},{"type":"Feature","id":"way/642050996-0-2-0","properties":{"highway":"service","oneway":"yes","surface":"asphalt"},"geometry":{"type":"LineString","coordinates":[[103.820147,1.3189806],[103.8201732,1.3189546]]}},{"type":"Feature","id":"way/642050996-0-3-0","properties":{"highway":"service","oneway":"yes","surface":"asphalt"},"geometry":{"type":"LineString","coordinates":[[103.8201732,1.3189546],[103.8201889,1.3189288]]}},{"type":"Feature","id":"way/642050996-0-4-0","properties":{"highway":"service","oneway":"yes","surface":"asphalt"},"geometry":{"type":"LineString","coordinates":[[103.8201889,1.3189288],[103.8202029,1.318896]]}},{"type":"Feature","id":"way/642050996-0-5-0","properties":{"highway":"service","oneway":"yes","surface":"asphalt"},"geometry":{"type":"LineString","coordinates":[[103.8202029,1.318896],[103.8202013,1.3188623]]}},{"type":"Feature","id":"way/643832729-0-0-0","properties":{"highway":"service","lanes":"2","lanes:backward":"1","lanes:forward":"1","lit":"yes","service":"parking_aisle","sidewalk":"right","surface":"asphalt","turn:lanes:backward":"through","turn:lanes:forward":"left;right"},"geometry":{"type":"LineString","coordinates":[[103.8195747,1.319245],[103.8199282,1.3190973]]}},{"type":"Feature","id":"way/643832729-0-1-0","properties":{"highway":"service","lanes":"2","lanes:backward":"1","lanes:forward":"1","lit":"yes","service":"parking_aisle","sidewalk":"right","surface":"asphalt","turn:lanes:backward":"through","turn:lanes:forward":"left;right"},"geometry":{"type":"LineString","coordinates":[[103.8199282,1.3190973],[103.819954,1.319086]]}},{"type":"Feature","id":"way/643832729-0-2-0","properties":{"highway":"service","lanes":"2","lanes:backward":"1","lanes:forward":"1","lit":"yes","service":"parking_aisle","sidewalk":"right","surface":"asphalt","turn:lanes:backward":"through","turn:lanes:forward":"left;right"},"geometry":{"type":"LineString","coordinates":[[103.819954,1.319086],[103.8200578,1.3190407]]}},{"type":"Feature","id":"way/643843592-0-0-0","properties":{"highway":"residential","lanes":"2","lanes:backward":"1","lanes:forward":"1","maxspeed":"50","name":"Dalvey Estate","sidewalk":"left","surface":"asphalt"},"geometry":{"type":"LineString","coordinates":[[103.8210673,1.3166404],[103.8210562,1.3166288]]}},{"type":"Feature","id":"way/643843592-0-1-0","properties":{"highway":"residential","lanes":"2","lanes:backward":"1","lanes:forward":"1","maxspeed":"50","name":"Dalvey Estate","sidewalk":"left","surface":"asphalt"},"geometry":{"type":"LineString","coordinates":[[103.8210562,1.3166288],[103.8207243,1.3162802]]}},{"type":"Feature","id":"way/643843592-0-2-0","properties":{"highway":"residential","lanes":"2","lanes:backward":"1","lanes:forward":"1","maxspeed":"50","name":"Dalvey Estate","sidewalk":"left","surface":"asphalt"},"geometry":{"type":"LineString","coordinates":[[103.8207243,1.3162802],[103.8205515,1.3160986]]}},{"type":"Feature","id":"way/643843592-0-3-0","properties":{"highway":"residential","lanes":"2","lanes:backward":"1","lanes:forward":"1","maxspeed":"50","name":"Dalvey Estate","sidewalk":"left","surface":"asphalt"},"geometry":{"type":"LineString","coordinates":[[103.8205515,1.3160986],[103.8204332,1.3159535]]}},{"type":"Feature","id":"way/643843592-0-4-0","properties":{"highway":"residential","lanes":"2","lanes:backward":"1","lanes:forward":"1","maxspeed":"50","name":"Dalvey Estate","sidewalk":"left","surface":"asphalt"},"geometry":{"type":"LineString","coordinates":[[103.8204332,1.3159535],[103.8202628,1.3157019]]}},{"type":"Feature","id":"way/644090089-0-0-0","properties":{"highway":"service"},"geometry":{"type":"LineString","coordinates":[[103.8209055,1.3174395],[103.8209075,1.3174599]]}},{"type":"Feature","id":"way/644090089-0-1-0","properties":{"highway":"service"},"geometry":{"type":"LineString","coordinates":[[103.8209075,1.3174599],[103.8209188,1.3175754]]}},{"type":"Feature","id":"way/644090092-0-0-0","properties":{"highway":"service"},"geometry":{"type":"LineString","coordinates":[[103.8203059,1.3173766],[103.8203051,1.3174188]]}},{"type":"Feature","id":"way/644090092-0-1-0","properties":{"highway":"service"},"geometry":{"type":"LineString","coordinates":[[103.8203051,1.3174188],[103.8203019,1.3175821]]}},{"type":"Feature","id":"way/644090092-0-2-0","properties":{"highway":"service"},"geometry":{"type":"LineString","coordinates":[[103.8203019,1.3175821],[103.8203193,1.3177751]]}},{"type":"Feature","id":"way/644090092-0-3-0","properties":{"highway":"service"},"geometry":{"type":"LineString","coordinates":[[103.8203193,1.3177751],[103.8203394,1.317814]]}},{"type":"Feature","id":"way/644090092-0-4-0","properties":{"highway":"service"},"geometry":{"type":"LineString","coordinates":[[103.8203394,1.317814],[103.8203676,1.3178247]]}},{"type":"Feature","id":"way/644090092-0-5-0","properties":{"highway":"service"},"geometry":{"type":"LineString","coordinates":[[103.8203676,1.3178247],[103.8206103,1.3178087]]}},{"type":"Feature","id":"way/645144406-0-0-0","properties":{"highway":"residential","maxspeed":"50","name":"Dalvey Estate","sidewalk":"right","surface":"asphalt"},"geometry":{"type":"LineString","coordinates":[[103.8204827,1.317412],[103.8203401,1.3174027]]}},{"type":"Feature","id":"way/645144407-0-0-0","properties":{"highway":"residential","maxspeed":"50","name":"Dalvey Estate","sidewalk":"right","surface":"asphalt"},"geometry":{"type":"LineString","coordinates":[[103.8212399,1.3174613],[103.8209055,1.3174395]]}},{"type":"Feature","id":"way/645145717-0-0-0","properties":{"highway":"residential","lanes":"2","lanes:backward":"1","lanes:forward":"1","maxspeed":"50","name":"Lewis Road","name:en":"Lewis Road","name:zh":"\u9c81\u6613\u58eb\u8def","surface":"asphalt"},"geometry":{"type":"LineString","coordinates":[[103.8224685,1.3194434],[103.8224592,1.3194155]]}},{"type":"Feature","id":"way/645145718-0-0-0","properties":{"highway":"residential","lanes":"2","lanes:backward":"1","lanes:forward":"1","maxspeed":"50","name":"Lewis Road","name:en":"Lewis Road","name:zh":"\u9c81\u6613\u58eb\u8def","surface":"asphalt"},"geometry":{"type":"LineString","coordinates":[[103.8224592,1.3194155],[103.8224326,1.3193359]]}},{"type":"Feature","id":"way/645145718-0-1-0","properties":{"highway":"residential","lanes":"2","lanes:backward":"1","lanes:forward":"1","maxspeed":"50","name":"Lewis Road","name:en":"Lewis Road","name:zh":"\u9c81\u6613\u58eb\u8def","surface":"asphalt"},"geometry":{"type":"LineString","coordinates":[[103.8224326,1.3193359],[103.8223404,1.3190606]]}},{"type":"Feature","id":"way/647096961-0-0-0","properties":{"highway":"residential","lanes":"2","lanes:backward":"1","lanes:forward":"1","maxspeed":"50","name":"Dalvey Estate","sidewalk":"left","surface":"asphalt"},"geometry":{"type":"LineString","coordinates":[[103.8212399,1.3174613],[103.8211508,1.316854]]}},{"type":"Feature","id":"way/647096961-0-1-0","properties":{"highway":"residential","lanes":"2","lanes:backward":"1","lanes:forward":"1","maxspeed":"50","name":"Dalvey Estate","sidewalk":"left","surface":"asphalt"},"geometry":{"type":"LineString","coordinates":[[103.8211508,1.316854],[103.8211159,1.316728]]}},{"type":"Feature","id":"way/647096961-0-2-0","properties":{"highway":"residential","lanes":"2","lanes:backward":"1","lanes:forward":"1","maxspeed":"50","name":"Dalvey Estate","sidewalk":"left","surface":"asphalt"},"geometry":{"type":"LineString","coordinates":[[103.8211159,1.316728],[103.8210846,1.3166715]]}},{"type":"Feature","id":"way/647096961-0-3-0","properties":{"highway":"residential","lanes":"2","lanes:backward":"1","lanes:forward":"1","maxspeed":"50","name":"Dalvey Estate","sidewalk":"left","surface":"asphalt"},"geometry":{"type":"LineString","coordinates":[[103.8210846,1.3166715],[103.8210673,1.3166404]]}},{"type":"Feature","id":"way/647096962-0-0-0","properties":{"highway":"residential","maxspeed":"50","name":"Dalvey Estate","sidewalk":"left","surface":"asphalt"},"geometry":{"type":"LineString","coordinates":[[103.8213974,1.3197287],[103.8213184,1.319494]]}},{"type":"Feature","id":"way/647096962-0-1-0","properties":{"highway":"residential","maxspeed":"50","name":"Dalvey Estate","sidewalk":"left","surface":"asphalt"},"geometry":{"type":"LineString","coordinates":[[103.8213184,1.319494],[103.8213091,1.319434]]}},{"type":"Feature","id":"way/647096962-0-2-0","properties":{"highway":"residential","maxspeed":"50","name":"Dalvey Estate","sidewalk":"left","surface":"asphalt"},"geometry":{"type":"LineString","coordinates":[[103.8213091,1.319434],[103.8212961,1.3187244]]}},{"type":"Feature","id":"way/647096962-0-3-0","properties":{"highway":"residential","maxspeed":"50","name":"Dalvey Estate","sidewalk":"left","surface":"asphalt"},"geometry":{"type":"LineString","coordinates":[[103.8212961,1.3187244],[103.8212903,1.3184093]]}},{"type":"Feature","id":"way/647097914-0-1-0","properties":{"highway":"residential","lanes":"2","lanes:backward":"1","lanes:forward":"1","maxspeed":"50","name":"Margoliouth Road","sidewalk":"both","surface":"asphalt"},"geometry":{"type":"LineString","coordinates":[[103.8238856,1.318753],[103.8238416,1.3187563]]}},{"type":"Feature","id":"way/647098802-0-0-0","properties":{"highway":"residential","maxspeed":"50","name":"Margoliouth Road","sidewalk":"right","surface":"asphalt"},"geometry":{"type":"LineString","coordinates":[[103.8237305,1.3197755],[103.8238337,1.3197675]]}},{"type":"Feature","id":"way/647098803-0-0-0","properties":{"highway":"residential","lanes":"2","lanes:backward":"1","lanes:forward":"1","maxspeed":"50","name":"Margoliouth Road","sidewalk":"both","surface":"asphalt"},"geometry":{"type":"LineString","coordinates":[[103.8231214,1.318816],[103.8229458,1.3188306]]}},{"type":"Feature","id":"way/647098804-0-0-0","properties":{"highway":"residential","lanes":"2","lanes:backward":"1","lanes:forward":"1","maxspeed":"50","name":"Margoliouth Road","sidewalk":"both","surface":"asphalt"},"geometry":{"type":"LineString","coordinates":[[103.8236918,1.3192957],[103.8236509,1.3188153]]}},{"type":"Feature","id":"way/647098804-0-1-0","properties":{"highway":"residential","lanes":"2","lanes:backward":"1","lanes:forward":"1","maxspeed":"50","name":"Margoliouth Road","sidewalk":"both","surface":"asphalt"},"geometry":{"type":"LineString","coordinates":[[103.8236509,1.3188153],[103.8236475,1.3187748]]}},{"type":"Feature","id":"way/647098805-0-0-0","properties":{"highway":"residential","lanes":"2","lanes:backward":"1","lanes:forward":"1","maxspeed":"50","name":"Margoliouth Road","sidewalk":"left","surface":"asphalt"},"geometry":{"type":"LineString","coordinates":[[103.8238416,1.3187563],[103.8236475,1.3187748]]}},{"type":"Feature","id":"way/655222764-0-0-0","properties":{"highway":"tertiary","lanes":"2","lanes:backward":"1","lanes:forward":"1","lit":"yes","maxspeed":"50","name":"Evans Road","name:en":"Evans Road","name:zh":"\u7231\u6587\u58eb\u8def","sidewalk:both":"separate","source":"Yahoo aerial images","surface":"asphalt"},"geometry":{"type":"LineString","coordinates":[[103.8204735,1.3200423],[103.8201963,1.3193743]]}},{"type":"Feature","id":"way/655222764-0-1-0","properties":{"highway":"tertiary","lanes":"2","lanes:backward":"1","lanes:forward":"1","lit":"yes","maxspeed":"50","name":"Evans Road","name:en":"Evans Road","name:zh":"\u7231\u6587\u58eb\u8def","sidewalk:both":"separate","source":"Yahoo aerial images","surface":"asphalt"},"geometry":{"type":"LineString","coordinates":[[103.8201963,1.3193743],[103.8201678,1.3193056]]}},{"type":"Feature","id":"way/655222764-0-2-0","properties":{"highway":"tertiary","lanes":"2","lanes:backward":"1","lanes:forward":"1","lit":"yes","maxspeed":"50","name":"Evans Road","name:en":"Evans Road","name:zh":"\u7231\u6587\u58eb\u8def","sidewalk:both":"separate","source":"Yahoo aerial images","surface":"asphalt"},"geometry":{"type":"LineString","coordinates":[[103.8201678,1.3193056],[103.8200578,1.3190407]]}},{"type":"Feature","id":"way/676840230-0-0-0","properties":{"highway":"residential","lanes":"2","lanes:backward":"1","lanes:forward":"1","maxspeed":"50","name":"Dalvey Estate","sidewalk":"left","surface":"asphalt","turn:lanes:forward":"left;right"},"geometry":{"type":"LineString","coordinates":[[103.8202628,1.3157019],[103.8201352,1.3154537]]}},{"type":"Feature","id":"way/691859079-0-3-0","properties":{"highway":"service","maxspeed":"50"},"geometry":{"type":"LineString","coordinates":[[103.8233958,1.3156956],[103.8233556,1.3158646]]}},{"type":"Feature","id":"way/746628783-0-0-0","properties":{"highway":"residential","lanes":"2","lanes:backward":"1","lanes:forward":"1","maxspeed":"50","name":"White House Road","name:en":"White House Road","name:zh":"\u767d\u5bab\u8def","sidewalk":"right","surface":"asphalt"},"geometry":{"type":"LineString","coordinates":[[103.8240919,1.3170967],[103.8235715,1.3167508]]}},{"type":"Feature","id":"way/746628797-0-0-0","properties":{"highway":"residential","lanes":"2","lanes:backward":"1","lanes:forward":"1","maxspeed":"50","name":"Dalvey Estate","surface":"asphalt","turn:lanes:backward":"left;right"},"geometry":{"type":"LineString","coordinates":[[103.8210673,1.3166404],[103.8212318,1.3165577]]}},{"type":"Feature","id":"way/746628797-0-1-0","properties":{"highway":"residential","lanes":"2","lanes:backward":"1","lanes:forward":"1","maxspeed":"50","name":"Dalvey Estate","surface":"asphalt","turn:lanes:backward":"left;right"},"geometry":{"type":"LineString","coordinates":[[103.8212318,1.3165577],[103.8212841,1.3165403]]}},{"type":"Feature","id":"way/746628798-0-0-0","properties":{"highway":"residential","maxspeed":"50","name":"Dalvey Estate","sidewalk":"left"},"geometry":{"type":"LineString","coordinates":[[103.8203059,1.3173766],[103.8203401,1.3174027]]}},{"type":"Feature","id":"way/765596020-0-0-0","properties":{"highway":"residential","lanes":"2","lanes:backward":"1","lanes:forward":"1","maxspeed":"50","name":"Dalvey Estate","sidewalk":"both","surface":"asphalt"},"geometry":{"type":"LineString","coordinates":[[103.8212728,1.3178516],[103.8212399,1.3174613]]}},{"type":"Feature","id":"way/765873733-0-0-0","properties":{"highway":"residential","lanes":"2","lanes:backward":"1","lanes:forward":"1","maxspeed":"50","name":"Margoliouth Road","surface":"asphalt"},"geometry":{"type":"LineString","coordinates":[[103.8231086,1.3186409],[103.8230718,1.3181364]]}},{"type":"Feature","id":"way/814981940-0-0-0","properties":{"highway":"tertiary","lanes":"2","lanes:backward":"1","lanes:forward":"1","lit":"yes","maxspeed":"50","name":"Evans Road","name:en":"Evans Road","name:zh":"\u7231\u6587\u58eb\u8def","sidewalk:both":"separate","source":"Yahoo aerial images","surface":"asphalt"},"geometry":{"type":"LineString","coordinates":[[103.8199636,1.3188114],[103.8198924,1.3186383]]}},{"type":"Feature","id":"way/814981940-0-1-0","properties":{"highway":"tertiary","lanes":"2","lanes:backward":"1","lanes:forward":"1","lit":"yes","maxspeed":"50","name":"Evans Road","name:en":"Evans Road","name:zh":"\u7231\u6587\u58eb\u8def","sidewalk:both":"separate","source":"Yahoo aerial images","surface":"asphalt"},"geometry":{"type":"LineString","coordinates":[[103.8198924,1.3186383],[103.8196258,1.3179895]]}},{"type":"Feature","id":"way/836987891-0-0-0","properties":{"highway":"residential","maxspeed":"50","name":"Dalvey Estate","sidewalk":"both","surface":"asphalt"},"geometry":{"type":"LineString","coordinates":[[103.8212903,1.3184093],[103.8212728,1.3178516]]}},{"type":"Feature","id":"way/933704780-0-0-0","properties":{"highway":"service"},"geometry":{"type":"LineString","coordinates":[[103.821132,1.3198667],[103.8211407,1.3198459]]}},{"type":"Feature","id":"way/933704780-0-1-0","properties":{"highway":"service"},"geometry":{"type":"LineString","coordinates":[[103.8211407,1.3198459],[103.8211575,1.3198265]]}},{"type":"Feature","id":"way/933704780-0-2-0","properties":{"highway":"service"},"geometry":{"type":"LineString","coordinates":[[103.8211575,1.3198265],[103.821185,1.3198111]]}},{"type":"Feature","id":"way/933704780-0-3-0","properties":{"highway":"service"},"geometry":{"type":"LineString","coordinates":[[103.821185,1.3198111],[103.8213974,1.3197287]]}},{"type":"Feature","id":"way/979772148-0-0-0","properties":{"highway":"residential","maxspeed":"50","name":"Dalvey Estate"},"geometry":{"type":"LineString","coordinates":[[103.8201164,1.3172313],[103.8201872,1.3172891]]}},{"type":"Feature","id":"way/979772148-0-1-0","properties":{"highway":"residential","maxspeed":"50","name":"Dalvey Estate"},"geometry":{"type":"LineString","coordinates":[[103.8201872,1.3172891],[103.8202757,1.3173589]]}},{"type":"Feature","id":"way/979772148-0-2-0","properties":{"highway":"residential","maxspeed":"50","name":"Dalvey Estate"},"geometry":{"type":"LineString","coordinates":[[103.8202757,1.3173589],[103.8203059,1.3173766]]}},{"type":"Feature","id":"way/1244644117-0-0-0","properties":{"highway":"service","surface":"asphalt"},"geometry":{"type":"LineString","coordinates":[[103.8201678,1.3193056],[103.8202319,1.319282]]}},{"type":"Feature","id":"way/1245303715-0-0-0","properties":{"highway":"service","surface":"asphalt"},"geometry":{"type":"LineString","coordinates":[[103.8202319,1.319282],[103.8203057,1.3192522]]}},{"type":"Feature","id":"way/1245303716-0-0-0","properties":{"highway":"service","oneway":"yes","surface":"asphalt"},"geometry":{"type":"LineString","coordinates":[[103.8201516,1.3188009],[103.8201155,1.3187853]]}},{"type":"Feature","id":"way/1245303716-0-1-0","properties":{"highway":"service","oneway":"yes","surface":"asphalt"},"geometry":{"type":"LineString","coordinates":[[103.8201155,1.3187853],[103.82008,1.3187816]]}},{"type":"Feature","id":"way/1245303716-0-2-0","properties":{"highway":"service","oneway":"yes","surface":"asphalt"},"geometry":{"type":"LineString","coordinates":[[103.82008,1.3187816],[103.8200559,1.3187815]]}},{"type":"Feature","id":"way/1245303716-0-3-0","properties":{"highway":"service","oneway":"yes","surface":"asphalt"},"geometry":{"type":"LineString","coordinates":[[103.8200559,1.3187815],[103.8200318,1.3187869]]}},{"type":"Feature","id":"way/1245303716-0-4-0","properties":{"highway":"service","oneway":"yes","surface":"asphalt"},"geometry":{"type":"LineString","coordinates":[[103.8200318,1.3187869],[103.8199636,1.3188114]]}},{"type":"Feature","id":"way/1245303717-0-0-0","properties":{"covered":"yes","highway":"service","oneway":"yes","surface":"asphalt"},"geometry":{"type":"LineString","coordinates":[[103.8202013,1.3188623],[103.8201516,1.3188009]]}}]}