{"type":"FeatureCollection","features":[{"type":"Feature","id":"way/171660305-0","properties":{"addr:housenumber":"25C","addr:street":"Senoko Way","building":"yes","clearanceGeometry":{"type":"MultiPolygon","coordinates":[[[[103.8151571,1.4702723],[103.8149353,1.4702561],[103.8149181,1.4704906],[103.8157164,1.4705492],[103.8157499,1.4700933],[103.8157021,1.4700898],[103.81570553143925,1.4700431538726069],[103.81547070394637,1.4700362063136454],[103.8154719,1.4699958],[103.8154706788286,1.4700362055627063],[103.81546890123033,1.4700361518655904],[103.8154662,1.4700725],[103.8151734,1.470051],[103.8151571,1.4702723]]],[[[103.8157633,1.4699924],[103.815788,1.4696564],[103.8153532,1.4696245],[103.81535181144716,1.4696433888160978],[103.81536550646543,1.469643895784307],[103.81536210882471,1.469735632083832],[103.81535478470926,1.469951819767575],[103.81547310861266,1.469955394057923],[103.81570969605363,1.4699623936863546],[103.8157085,1.4700028],[103.81570973436521,1.4699623948380032],[103.81576213436522,1.4699639948380032],[103.8157612710978,1.469992252649561],[103.8157633,1.4699924]]]]},"clearanceHeight":1.7,"clearancePrepared":true},"geometry":{"type":"Polygon","coordinates":[[[103.8151734,1.470051],[103.8151571,1.4702723],[103.8149353,1.4702561],[103.8149181,1.4704906],[103.8157164,1.4705492],[103.8157499,1.4700933],[103.8157021,1.4700898],[103.8157085,1.4700028],[103.8157096,1.4699885],[103.8157633,1.4699924],[103.815788,1.4696564],[103.8153532,1.4696245],[103.8153285,1.4699605],[103.8154737,1.4699712],[103.8154719,1.4699958],[103.8154662,1.4700725],[103.8151734,1.470051]]]}},{"type":"Feature","id":"way/292997344-0","properties":{"building":"yes","clearanceGeometry":{"type":"Polygon","coordinates":[[[103.819388,1.4696931],[103.8195497,1.4696353],[103.8194479,1.4693506],[103.8192862,1.4694084],[103.819388,1.4696931]]]},"clearanceHeight":1.7,"clearancePrepared":true},"geometry":{"type":"Polygon","coordinates":[[[103.8192862,1.4694084],[103.819388,1.4696931],[103.8195497,1.4696353],[103.8194479,1.4693506],[103.8192862,1.4694084]]]}},{"type":"Feature","id":"way/292997345-0","properties":{"building":"yes","clearanceGeometry":{"type":"Polygon","coordinates":[[[103.8191593,1.4697693],[103.8193344,1.4697088],[103.8192489,1.4694616],[103.8190738,1.4695222],[103.8191593,1.4697693]]]},"clearanceHeight":1.7,"clearancePrepared":true},"geometry":{"type":"Polygon","coordinates":[[[103.8190738,1.4695222],[103.8191593,1.4697693],[103.8193344,1.4697088],[103.8192489,1.4694616],[103.8190738,1.4695222]]]}},{"type":"Feature","id":"way/292997348-0","properties":{"building":"yes","clearanceGeometry":{"type":"Polygon","coordinates":[[[103.8190377,1.469885],[103.8191352,1.4698461],[103.8189945,1.4694934],[103.818897,1.4695322],[103.8190377,1.469885]]]},"clearanceHeight":1.7,"clearancePrepared":true},"geometry":{"type":"Polygon","coordinates":[[[103.818897,1.4695322],[103.8190377,1.469885],[103.8191352,1.4698461],[103.8189945,1.4694934],[103.818897,1.4695322]]]}},{"type":"Feature","id":"way/453698493-0","properties":{"building":"yes","clearanceGeometry":{"type":"Polygon","coordinates":[[[103.8160606,1.4697875],[103.81601,1.4697853],[103.8160069,1.4698572],[103.8160574,1.4698594],[103.8160606,1.4697875]]]},"clearanceHeight":1.7,"clearancePrepared":true},"geometry":{"type":"Polygon","coordinates":[[[103.8160574,1.4698594],[103.8160606,1.4697875],[103.81601,1.4697853],[103.8160069,1.4698572],[103.8160574,1.4698594]]]}},{"type":"Feature","id":"way/453698494-0","properties":{"building":"yes","clearanceGeometry":{"type":"Polygon","coordinates":[[[103.8161008,1.4699108],[103.8159864,1.4699059],[103.8159801,1.4700503],[103.8160945,1.4700552],[103.8161008,1.4699108]]]},"clearanceHeight":1.7,"clearancePrepared":true},"geometry":{"type":"Polygon","coordinates":[[[103.8160945,1.4700552],[103.8161008,1.4699108],[103.8159864,1.4699059],[103.8159801,1.4700503],[103.8160945,1.4700552]]]}},{"type":"Feature","id":"way/453698495-0","properties":{"building":"yes","clearanceGeometry":{"type":"Polygon","coordinates":[[[103.8161383,1.4701039],[103.8159876,1.4700973],[103.81598379600968,1.47018542577581],[103.815992449963,1.4701928163782862],[103.81600510200859,1.4701964979161413],[103.81603715576078,1.4701999931391203],[103.81613411569177,1.4702007493010307],[103.8161383,1.4701039]]]},"clearanceHeight":1.7,"clearancePrepared":true},"geometry":{"type":"Polygon","coordinates":[[[103.8161335,1.470215],[103.8161383,1.4701039],[103.8159876,1.4700973],[103.8159828,1.4702085],[103.8161335,1.470215]]]}},{"type":"Feature","id":"way/453698496-0","properties":{"building":"yes","clearanceGeometry":{"type":"Polygon","coordinates":[[[103.8166015,1.4700852],[103.8161751,1.4700879],[103.81617578956164,1.470201074303253],[103.81660231706472,1.4702044006654753],[103.8166015,1.4700852]]]},"clearanceHeight":1.7,"clearancePrepared":true},"geometry":{"type":"Polygon","coordinates":[[[103.8166024,1.4702165],[103.8166015,1.4700852],[103.8161751,1.4700879],[103.8161759,1.4702192],[103.8166024,1.4702165]]]}},{"type":"Feature","id":"way/453698497-0","properties":{"building":"yes","clearanceGeometry":{"type":"Polygon","coordinates":[[[103.8176445,1.4701019],[103.8175568,1.4701027],[103.8175592,1.4703639],[103.8174821,1.4704325],[103.8173807,1.4704334],[103.8173817,1.4705363],[103.8175223,1.470535],[103.8176101,1.4704546],[103.8179104,1.4704518],[103.8179081,1.4701974],[103.8176454,1.4701998],[103.8176445,1.4701019]]]},"clearanceHeight":1.7,"clearancePrepared":true},"geometry":{"type":"Polygon","coordinates":[[[103.8176454,1.4701998],[103.8176445,1.4701019],[103.8175568,1.4701027],[103.8175592,1.4703639],[103.8174821,1.4704325],[103.8173807,1.4704334],[103.8173817,1.4705363],[103.8175223,1.470535],[103.8176101,1.4704546],[103.8179104,1.4704518],[103.8179081,1.4701974],[103.8176454,1.4701998]]]}},{"type":"Feature","id":"way/453698498-0","properties":{"building":"yes","clearanceGeometry":{"type":"Polygon","coordinates":[[[103.816821,1.4704163],[103.8167968,1.470364],[103.8167472,1.4703383],[103.8166555,1.4703412],[103.816433,1.4703426],[103.8164337,1.4704529],[103.8165054,1.4704525],[103.8165058,1.4705088],[103.8168216,1.4705067],[103.816821,1.4704163]]]},"clearanceHeight":1.7,"clearancePrepared":true},"geometry":{"type":"Polygon","coordinates":[[[103.8168216,1.4705067],[103.816821,1.4704163],[103.8167968,1.470364],[103.8167472,1.4703383],[103.8166555,1.4703412],[103.816433,1.4703426],[103.8164337,1.4704529],[103.8165054,1.4704525],[103.8165058,1.4705088],[103.8168216,1.4705067]]]}},{"type":"Feature","id":"way/453698499-0","properties":{"building":"yes","clearanceGeometry":{"type":"Polygon","coordinates":[[[103.8170328,1.4705452],[103.8170331,1.4705829],[103.8171337,1.4705823],[103.8171334,1.4705445],[103.8173018,1.4705434],[103.8173011,1.4704391],[103.8171992,1.4704397],[103.8171986,1.4703517],[103.8169961,1.4703531],[103.8169967,1.4704411],[103.8168934,1.4704417],[103.8168941,1.4705461],[103.8170328,1.4705452]]]},"clearanceHeight":1.7,"clearancePrepared":true},"geometry":{"type":"Polygon","coordinates":[[[103.8168941,1.4705461],[103.8170328,1.4705452],[103.8170331,1.4705829],[103.8171337,1.4705823],[103.8171334,1.4705445],[103.8173018,1.4705434],[103.8173011,1.4704391],[103.8171992,1.4704397],[103.8171986,1.4703517],[103.8169961,1.4703531],[103.8169967,1.4704411],[103.8168934,1.4704417],[103.8168941,1.4705461]]]}},{"type":"Feature","id":"way/453698500-0","properties":{"building":"yes","clearanceGeometry":{"type":"Polygon","coordinates":[[[103.8163868,1.4703417],[103.8158906,1.4703309],[103.8158862,1.4705322],[103.8163824,1.470543],[103.8163868,1.4703417]]]},"clearanceHeight":1.7,"clearancePrepared":true},"geometry":{"type":"Polygon","coordinates":[[[103.8163824,1.470543],[103.8163868,1.4703417],[103.8158906,1.4703309],[103.8158862,1.4705322],[103.8163824,1.470543]]]}},{"type":"Feature","id":"way/453698501-0","properties":{"building":"yes","clearanceGeometry":{"type":"Polygon","coordinates":[[[103.8175875,1.4695315],[103.8175688,1.470057],[103.8176618,1.4700603],[103.8176806,1.4695348],[103.8175875,1.4695315]]]},"clearanceHeight":1.7,"clearancePrepared":true},"geometry":{"type":"Polygon","coordinates":[[[103.8176806,1.4695348],[103.8175875,1.4695315],[103.8175688,1.470057],[103.8176618,1.4700603],[103.8176806,1.4695348]]]}},{"type":"Feature","id":"way/453698502-0","properties":{"building":"yes","clearanceGeometry":{"type":"Polygon","coordinates":[[[103.8166775,1.4697416],[103.8164843,1.4697332],[103.8164709,1.4700416],[103.816664,1.4700499],[103.8166775,1.4697416]]]},"clearanceHeight":1.7,"clearancePrepared":true},"geometry":{"type":"Polygon","coordinates":[[[103.816664,1.4700499],[103.8166775,1.4697416],[103.8164843,1.4697332],[103.8164709,1.4700416],[103.816664,1.4700499]]]}},{"type":"Feature","id":"way/453698503-0","properties":{"building":"yes","clearanceGeometry":{"type":"Polygon","coordinates":[[[103.8169457,1.4692372],[103.8161625,1.4692372],[103.8161625,1.4694597],[103.8169457,1.4694597],[103.8169457,1.4692372]]]},"clearanceHeight":1.7,"clearancePrepared":true},"geometry":{"type":"Polygon","coordinates":[[[103.8169457,1.4694597],[103.8169457,1.4692372],[103.8161625,1.4692372],[103.8161625,1.4694597],[103.8169457,1.4694597]]]}},{"type":"Feature","id":"way/453698505-0","properties":{"building":"yes","clearanceGeometry":{"type":"Polygon","coordinates":[[[103.8177327,1.4686465],[103.8174055,1.4685875],[103.8173802,1.4687277],[103.8177074,1.4687867],[103.8177327,1.4686465]]]},"clearanceHeight":1.7,"clearancePrepared":true},"geometry":{"type":"Polygon","coordinates":[[[103.8177074,1.4687867],[103.8177327,1.4686465],[103.8174055,1.4685875],[103.8173802,1.4687277],[103.8177074,1.4687867]]]}},{"type":"Feature","id":"way/453698506-0","properties":{"building":"yes","clearanceGeometry":{"type":"Polygon","coordinates":[[[103.817228,1.4688368],[103.8169383,1.4686893],[103.8168491,1.4688645],[103.8171388,1.4690119],[103.817228,1.4688368]]]},"clearanceHeight":1.7,"clearancePrepared":true},"geometry":{"type":"Polygon","coordinates":[[[103.8171388,1.4690119],[103.817228,1.4688368],[103.8169383,1.4686893],[103.8168491,1.4688645],[103.8171388,1.4690119]]]}},{"type":"Feature","id":"way/453698507-0","properties":{"building":"yes","clearanceGeometry":{"type":"Polygon","coordinates":[[[103.8165749,1.4684116],[103.8165042,1.4683629],[103.8163874,1.4685322],[103.8161646,1.4683785],[103.8162505,1.4682539],[103.8161551,1.4681881],[103.81596564565203,1.4684627847009488],[103.81604198981431,1.4685304725172594],[103.8163476,1.4687411],[103.8165749,1.4684116]]]},"clearanceHeight":1.7,"clearancePrepared":true},"geometry":{"type":"Polygon","coordinates":[[[103.8163476,1.4687411],[103.8165749,1.4684116],[103.8165042,1.4683629],[103.8163874,1.4685322],[103.8161646,1.4683785],[103.8162505,1.4682539],[103.8161551,1.4681881],[103.8159586,1.468473],[103.8163476,1.4687411]]]}},{"type":"Feature","id":"way/453698528-0","properties":{"building":"yes","clearanceGeometry":{"type":"Polygon","coordinates":[[[103.8188316,1.4680228],[103.8185928,1.4680913],[103.8186645,1.468341],[103.8189033,1.4682725],[103.8188316,1.4680228]]]},"clearanceHeight":1.7,"clearancePrepared":true},"geometry":{"type":"Polygon","coordinates":[[[103.8189033,1.4682725],[103.8188316,1.4680228],[103.8185928,1.4680913],[103.8186645,1.468341],[103.8189033,1.4682725]]]}},{"type":"Feature","id":"way/453698529-0","properties":{"building":"yes","clearanceGeometry":{"type":"Polygon","coordinates":[[[103.8191562,1.4684974],[103.8194021,1.46803],[103.8192974,1.4679738],[103.8190889,1.4683619],[103.8185425,1.4685187],[103.8181299,1.4682843],[103.8180717,1.4683866],[103.81839298458377,1.4685731736509495],[103.81858423409732,1.468661474471583],[103.8191562,1.4684974]]]},"clearanceHeight":1.7,"clearancePrepared":true},"geometry":{"type":"Polygon","coordinates":[[[103.818558,1.468669],[103.8191562,1.4684974],[103.8194021,1.46803],[103.8192974,1.4679738],[103.8190889,1.4683619],[103.8185425,1.4685187],[103.8181299,1.4682843],[103.8180717,1.4683866],[103.818558,1.468669]]]}},{"type":"Feature","id":"way/455062233-0","properties":{"building":"yes","clearanceGeometry":{"type":"Polygon","coordinates":[[[103.8151281,1.4686518],[103.8151254,1.4687671],[103.8152236820634,1.4687694115813776],[103.8152239651413,1.4687641339929465],[103.81524880617953,1.468765465740999],[103.8152514,1.4686547],[103.8151281,1.4686518]]]},"clearanceHeight":1.7,"clearancePrepared":true},"geometry":{"type":"Polygon","coordinates":[[[103.8152514,1.4686547],[103.8151281,1.4686518],[103.8151254,1.4687671],[103.8152487,1.46877],[103.8152514,1.4686547]]]}},{"type":"Feature","id":"way/455062235-0","properties":{"building":"yes","clearanceGeometry":{"type":"Polygon","coordinates":[[[103.8158334,1.4687244],[103.8153667,1.4687244],[103.8153667,1.4687717861236016],[103.81558333312891,1.4687834],[103.8158334,1.4687834],[103.8158334,1.4687244]]]},"clearanceHeight":1.7,"clearancePrepared":true},"geometry":{"type":"Polygon","coordinates":[[[103.8158334,1.4687834],[103.8158334,1.4687244],[103.8153667,1.4687244],[103.8153667,1.4687834],[103.8158334,1.4687834]]]}},{"type":"Feature","id":"way/629210873-0","properties":{"building":"yes","clearanceGeometry":{"type":"Polygon","coordinates":[[[103.8164046,1.4689104],[103.8161174,1.4689084],[103.8161163,1.4690713],[103.81632376812875,1.4690727447641276],[103.81636686240269,1.469071105235611],[103.81636693625279,1.469073045377805],[103.8164035,1.4690733],[103.8164046,1.4689104]]]},"clearanceHeight":1.7,"clearancePrepared":true},"geometry":{"type":"Polygon","coordinates":[[[103.8164035,1.4690733],[103.8164046,1.4689104],[103.8161174,1.4689084],[103.8161163,1.4690713],[103.8164035,1.4690733]]]}},{"type":"Feature","id":"way/770368036-0","properties":{"building":"yes","clearanceGeometry":{"type":"Polygon","coordinates":[[[103.8184523,1.469653],[103.8182954,1.469648],[103.818281,1.470095],[103.8184379,1.4701001],[103.8184523,1.469653]]]},"clearanceHeight":1.7,"clearancePrepared":true},"geometry":{"type":"Polygon","coordinates":[[[103.8184379,1.4701001],[103.8184523,1.469653],[103.8182954,1.469648],[103.818281,1.470095],[103.8184379,1.4701001]]]}},{"type":"Feature","id":"way/770368037-0","properties":{"building":"yes","clearanceGeometry":{"type":"Polygon","coordinates":[[[103.81814449473869,1.469434695126525],[103.81799504109406,1.4694306142790856],[103.8178226,1.4694304],[103.8178217,1.4700967],[103.8181436,1.4700971],[103.81814449473869,1.469434695126525]]]},"clearanceHeight":1.7,"clearancePrepared":true},"geometry":{"type":"Polygon","coordinates":[[[103.8181436,1.4700971],[103.8181445,1.4694308],[103.8178226,1.4694304],[103.8178217,1.4700967],[103.8181436,1.4700971]]]}},{"type":"Feature","id":"node/8002050301","properties":{"highway":"crossing"},"geometry":{"type":"Point","coordinates":[103.8150736,1.4699088]}},{"type":"Feature","id":"node/8002050305","properties":{"highway":"crossing"},"geometry":{"type":"Point","coordinates":[103.8152373,1.4697293]}},{"type":"Feature","id":"way/134999872-0-0-0","properties":{"highway":"residential","lanes":"1","maxspeed":"50","name":"Senoko Way","oneway":"yes","startNodeId":"6544824710","endNodeId":"1483360649"},"geometry":{"type":"LineString","coordinates":[[103.8150757,1.4698506],[103.8151036,1.4698513]]}},{"type":"Feature","id":"way/134999872-0-1-0","properties":{"highway":"residential","lanes":"1","maxspeed":"50","name":"Senoko Way","oneway":"yes","startNodeId":"1483360649","endNodeId":"6484810859"},"geometry":{"type":"LineString","coordinates":[[103.8151036,1.4698513],[103.8151222,1.4698485]]}},{"type":"Feature","id":"way/134999872-0-2-0","properties":{"highway":"residential","lanes":"1","maxspeed":"50","name":"Senoko Way","oneway":"yes","startNodeId":"6484810859","endNodeId":"4606931478"},"geometry":{"type":"LineString","coordinates":[[103.8151222,1.4698485],[103.8151486,1.4698278]]}},{"type":"Feature","id":"way/134999872-0-3-0","properties":{"highway":"residential","lanes":"1","maxspeed":"50","name":"Senoko Way","oneway":"yes","startNodeId":"4606931478","endNodeId":"6484810863"},"geometry":{"type":"LineString","coordinates":[[103.8151486,1.4698278],[103.8151681,1.4697926]]}},{"type":"Feature","id":"way/134999872-0-4-0","properties":{"highway":"residential","lanes":"1","maxspeed":"50","name":"Senoko Way","oneway":"yes","startNodeId":"6484810863","endNodeId":"4606931477"},"geometry":{"type":"LineString","coordinates":[[103.8151681,1.4697926],[103.8151814,1.469726]]}},{"type":"Feature","id":"way/134999872-0-5-0","properties":{"highway":"residential","lanes":"1","maxspeed":"50","name":"Senoko Way","oneway":"yes","startNodeId":"4606931477","endNodeId":"6484810861"},"geometry":{"type":"LineString","coordinates":[[103.8151814,1.469726],[103.8151601,1.4696826]]}},{"type":"Feature","id":"way/134999872-0-6-0","properties":{"highway":"residential","lanes":"1","maxspeed":"50","name":"Senoko Way","oneway":"yes","startNodeId":"6484810861","endNodeId":"4606931476"},"geometry":{"type":"LineString","coordinates":[[103.8151601,1.4696826],[103.8151124,1.4696589]]}},{"type":"Feature","id":"way/134999872-0-7-0","properties":{"highway":"residential","lanes":"1","maxspeed":"50","name":"Senoko Way","oneway":"yes","startNodeId":"4606931476","endNodeId":"6484810862"},"geometry":{"type":"LineString","coordinates":[[103.8151124,1.4696589],[103.8150541,1.4696478]]}},{"type":"Feature","id":"way/452042149-0-0-0","properties":{"highway":"service","startNodeId":"4488415906","endNodeId":"4488415878"},"geometry":{"type":"LineString","coordinates":[[103.8187189,1.4694099],[103.8185016,1.4692071]]}},{"type":"Feature","id":"way/452042149-0-1-0","properties":{"highway":"service","startNodeId":"4488415878","endNodeId":"4488415877"},"geometry":{"type":"LineString","coordinates":[[103.8185016,1.4692071],[103.8183567,1.4690516]]}},{"type":"Feature","id":"way/452042149-0-2-0","properties":{"highway":"service","startNodeId":"4488415877","endNodeId":"4488415876"},"geometry":{"type":"LineString","coordinates":[[103.8183567,1.4690516],[103.8182333,1.4688853]]}},{"type":"Feature","id":"way/452042149-0-3-0","properties":{"highway":"service","startNodeId":"4488415876","endNodeId":"4488415879"},"geometry":{"type":"LineString","coordinates":[[103.8182333,1.4688853],[103.8181417,1.4687223]]}},{"type":"Feature","id":"way/452042150-0-0-0","properties":{"highway":"service","lanes":"2","lanes:backward":"1","lanes:forward":"1","startNodeId":"4488415907","endNodeId":"4488415879"},"geometry":{"type":"LineString","coordinates":[[103.8179813,1.4693898],[103.8181417,1.4687223]]}},{"type":"Feature","id":"way/453698490-0-0-0","properties":{"highway":"service","lanes":"2","lanes:backward":"1","lanes:forward":"1","startNodeId":"4503999321","endNodeId":"5272744526"},"geometry":{"type":"LineString","coordinates":[[103.8159474,1.4688434],[103.8159621,1.4687616]]}},{"type":"Feature","id":"way/453698490-0-1-0","properties":{"highway":"service","lanes":"2","lanes:backward":"1","lanes:forward":"1","startNodeId":"5272744526","endNodeId":"4503999320"},"geometry":{"type":"LineString","coordinates":[[103.8159621,1.4687616],[103.8159822,1.4687227]]}},{"type":"Feature","id":"way/453698490-0-2-0","properties":{"highway":"service","lanes":"2","lanes:backward":"1","lanes:forward":"1","startNodeId":"4503999320","endNodeId":"4503999319"},"geometry":{"type":"LineString","coordinates":[[103.8159822,1.4687227],[103.8161162,1.4686439]]}},{"type":"Feature","id":"way/453698491-0-0-0","properties":{"highway":"service","oneway":"yes","startNodeId":"4503999323","endNodeId":"4503999324"},"geometry":{"type":"LineString","coordinates":[[103.8167351,1.4695881],[103.8167144,1.4702457]]}},{"type":"Feature","id":"way/453698492-0-0-0","properties":{"highway":"service","oneway":"yes","startNodeId":"4503999329","endNodeId":"5187014328"},"geometry":{"type":"LineString","coordinates":[[103.817381,1.4702538],[103.8174132,1.4702518]]}},{"type":"Feature","id":"way/453698492-0-1-0","properties":{"highway":"service","oneway":"yes","startNodeId":"5187014328","endNodeId":"5187014329"},"geometry":{"type":"LineString","coordinates":[[103.8174132,1.4702518],[103.8174413,1.4702404]]}},{"type":"Feature","id":"way/453698492-0-2-0","properties":{"highway":"service","oneway":"yes","startNodeId":"5187014329","endNodeId":"5187014327"},"geometry":{"type":"LineString","coordinates":[[103.8174413,1.4702404],[103.8174608,1.4702202]]}},{"type":"Feature","id":"way/453698492-0-3-0","properties":{"highway":"service","oneway":"yes","startNodeId":"5187014327","endNodeId":"4503999325"},"geometry":{"type":"LineString","coordinates":[[103.8174608,1.4702202],[103.8174722,1.4701881]]}},{"type":"Feature","id":"way/453698492-0-4-0","properties":{"highway":"service","oneway":"yes","startNodeId":"4503999325","endNodeId":"5187014330"},"geometry":{"type":"LineString","coordinates":[[103.8174722,1.4701881],[103.8174802,1.4696639]]}},{"type":"Feature","id":"way/453698492-0-5-0","properties":{"highway":"service","oneway":"yes","startNodeId":"5187014330","endNodeId":"5187014331"},"geometry":{"type":"LineString","coordinates":[[103.8174802,1.4696639],[103.8174762,1.469633]]}},{"type":"Feature","id":"way/453698492-0-6-0","properties":{"highway":"service","oneway":"yes","startNodeId":"5187014331","endNodeId":"5187014332"},"geometry":{"type":"LineString","coordinates":[[103.8174762,1.469633],[103.8174641,1.4696089]]}},{"type":"Feature","id":"way/453698492-0-7-0","properties":{"highway":"service","oneway":"yes","startNodeId":"5187014332","endNodeId":"4503999326"},"geometry":{"type":"LineString","coordinates":[[103.8174641,1.4696089],[103.8174225,1.4695928]]}},{"type":"Feature","id":"way/453698492-0-8-0","properties":{"highway":"service","oneway":"yes","startNodeId":"4503999326","endNodeId":"5187014326"},"geometry":{"type":"LineString","coordinates":[[103.8174225,1.4695928],[103.817101,1.4695906]]}},{"type":"Feature","id":"way/453698492-0-9-0","properties":{"highway":"service","oneway":"yes","startNodeId":"5187014326","endNodeId":"4503999323"},"geometry":{"type":"LineString","coordinates":[[103.817101,1.4695906],[103.8167351,1.4695881]]}},{"type":"Feature","id":"way/453698492-0-10-0","properties":{"highway":"service","oneway":"yes","startNodeId":"4503999323","endNodeId":"4503999322"},"geometry":{"type":"LineString","coordinates":[[103.8167351,1.4695881],[103.8160419,1.469584]]}},{"type":"Feature","id":"way/453698492-0-11-0","properties":{"highway":"service","oneway":"yes","startNodeId":"4503999322","endNodeId":"5187014337"},"geometry":{"type":"LineString","coordinates":[[103.8160419,1.469584],[103.8160094,1.4695871]]}},{"type":"Feature","id":"way/453698492-0-12-0","properties":{"highway":"service","oneway":"yes","startNodeId":"5187014337","endNodeId":"5187014338"},"geometry":{"type":"LineString","coordinates":[[103.8160094,1.4695871],[103.8159718,1.4696226]]}},{"type":"Feature","id":"way/453698492-0-13-0","properties":{"highway":"service","oneway":"yes","startNodeId":"5187014338","endNodeId":"5187014339"},"geometry":{"type":"LineString","coordinates":[[103.8159718,1.4696226],[103.8159484,1.4696612]]}},{"type":"Feature","id":"way/453698492-0-14-0","properties":{"highway":"service","oneway":"yes","startNodeId":"5187014339","endNodeId":"4503999327"},"geometry":{"type":"LineString","coordinates":[[103.8159484,1.4696612],[103.8159362,1.469707]]}},{"type":"Feature","id":"way/453698492-0-15-0","properties":{"highway":"service","oneway":"yes","startNodeId":"4503999327","endNodeId":"4503999328"},"geometry":{"type":"LineString","coordinates":[[103.8159362,1.469707],[103.8159362,1.4701621]]}},{"type":"Feature","id":"way/453698492-0-16-0","properties":{"highway":"service","oneway":"yes","startNodeId":"4503999328","endNodeId":"5187014335"},"geometry":{"type":"LineString","coordinates":[[103.8159362,1.4701621],[103.8159454,1.4702058]]}},{"type":"Feature","id":"way/453698492-0-17-0","properties":{"highway":"service","oneway":"yes","startNodeId":"5187014335","endNodeId":"5187014334"},"geometry":{"type":"LineString","coordinates":[[103.8159454,1.4702058],[103.8159728,1.4702292]]}},{"type":"Feature","id":"way/453698492-0-18-0","properties":{"highway":"service","oneway":"yes","startNodeId":"5187014334","endNodeId":"5187014333"},"geometry":{"type":"LineString","coordinates":[[103.8159728,1.4702292],[103.8159972,1.4702363]]}},{"type":"Feature","id":"way/453698492-0-19-0","properties":{"highway":"service","oneway":"yes","startNodeId":"5187014333","endNodeId":"5187014336"},"geometry":{"type":"LineString","coordinates":[[103.8159972,1.4702363],[103.8160348,1.4702404]]}},{"type":"Feature","id":"way/453698492-0-20-0","properties":{"highway":"service","oneway":"yes","startNodeId":"5187014336","endNodeId":"4503999324"},"geometry":{"type":"LineString","coordinates":[[103.8160348,1.4702404],[103.8167144,1.4702457]]}},{"type":"Feature","id":"way/453698492-0-21-0","properties":{"highway":"service","oneway":"yes","startNodeId":"4503999324","endNodeId":"4503999329"},"geometry":{"type":"LineString","coordinates":[[103.8167144,1.4702457],[103.817381,1.4702538]]}},{"type":"Feature","id":"way/479139643-0-2-0","properties":{"highway":"service","lanes":"2","lanes:backward":"1","lanes:forward":"1","surface":"asphalt","turn:lanes:backward":"through","turn:lanes:forward":"through","startNodeId":"4488415913","endNodeId":"4488415912"},"geometry":{"type":"LineString","coordinates":[[103.8156484,1.4682204],[103.8158763,1.4684376]]}},{"type":"Feature","id":"way/479139643-0-3-0","properties":{"highway":"service","lanes":"2","lanes:backward":"1","lanes:forward":"1","surface":"asphalt","turn:lanes:backward":"through","turn:lanes:forward":"through","startNodeId":"4488415912","endNodeId":"4488415911"},"geometry":{"type":"LineString","coordinates":[[103.8158763,1.4684376],[103.8160668,1.4686065]]}},{"type":"Feature","id":"way/479139643-0-4-0","properties":{"highway":"service","lanes":"2","lanes:backward":"1","lanes:forward":"1","surface":"asphalt","turn:lanes:backward":"through","turn:lanes:forward":"through","startNodeId":"4488415911","endNodeId":"4503999319"},"geometry":{"type":"LineString","coordinates":[[103.8160668,1.4686065],[103.8161162,1.4686439]]}},{"type":"Feature","id":"way/534938503-0-0-0","properties":{"highway":"service","service":"parking_aisle","startNodeId":"5186614227","endNodeId":"5186614228"},"geometry":{"type":"LineString","coordinates":[[103.8169411,1.4683983],[103.8169156,1.4683929]]}},{"type":"Feature","id":"way/534938503-0-1-0","properties":{"highway":"service","service":"parking_aisle","startNodeId":"5186614228","endNodeId":"5186614229"},"geometry":{"type":"LineString","coordinates":[[103.8169156,1.4683929],[103.8168955,1.4683768]]}},{"type":"Feature","id":"way/534938504-0-0-0","properties":{"highway":"service","service":"parking_aisle","startNodeId":"4488415875","endNodeId":"5186614225"},"geometry":{"type":"LineString","coordinates":[[103.817831,1.4679817],[103.8170028,1.4683889]]}},{"type":"Feature","id":"way/534938504-0-1-0","properties":{"highway":"service","service":"parking_aisle","startNodeId":"5186614225","endNodeId":"5186614226"},"geometry":{"type":"LineString","coordinates":[[103.8170028,1.4683889],[103.8169746,1.4683983]]}},{"type":"Feature","id":"way/534938504-0-2-0","properties":{"highway":"service","service":"parking_aisle","startNodeId":"5186614226","endNodeId":"5186614227"},"geometry":{"type":"LineString","coordinates":[[103.8169746,1.4683983],[103.8169411,1.4683983]]}},{"type":"Feature","id":"way/534938506-0-0-0","properties":{"highway":"service","service":"parking_aisle","startNodeId":"5186614249","endNodeId":"5186614248"},"geometry":{"type":"LineString","coordinates":[[103.818025,1.4684478],[103.8185799,1.468704]]}},{"type":"Feature","id":"way/534938506-0-1-0","properties":{"highway":"service","service":"parking_aisle","startNodeId":"5186614248","endNodeId":"5186614247"},"geometry":{"type":"LineString","coordinates":[[103.8185799,1.468704],[103.8185973,1.4687067]]}},{"type":"Feature","id":"way/534938506-0-2-0","properties":{"highway":"service","service":"parking_aisle","startNodeId":"5186614247","endNodeId":"5186614246"},"geometry":{"type":"LineString","coordinates":[[103.8185973,1.4687067],[103.8186174,1.468704]]}},{"type":"Feature","id":"way/534938506-0-3-0","properties":{"highway":"service","service":"parking_aisle","startNodeId":"5186614246","endNodeId":"5186614245"},"geometry":{"type":"LineString","coordinates":[[103.8186174,1.468704],[103.8191459,1.4685645]]}},{"type":"Feature","id":"way/534938506-0-4-0","properties":{"highway":"service","service":"parking_aisle","startNodeId":"5186614245","endNodeId":"5186614244"},"geometry":{"type":"LineString","coordinates":[[103.8191459,1.4685645],[103.8191738,1.4685469]]}},{"type":"Feature","id":"way/534938506-0-5-0","properties":{"highway":"service","service":"parking_aisle","startNodeId":"5186614244","endNodeId":"5186614243"},"geometry":{"type":"LineString","coordinates":[[103.8191738,1.4685469],[103.8191918,1.4685262]]}},{"type":"Feature","id":"way/534938506-0-6-0","properties":{"highway":"service","service":"parking_aisle","startNodeId":"5186614243","endNodeId":"5186614242"},"geometry":{"type":"LineString","coordinates":[[103.8191918,1.4685262],[103.8193363,1.4682816]]}},{"type":"Feature","id":"way/535001402-0-0-0","properties":{"highway":"service","startNodeId":"5187014326","endNodeId":"5187014325"},"geometry":{"type":"LineString","coordinates":[[103.817101,1.4695906],[103.8171016,1.4691865]]}},{"type":"Feature","id":"way/545568991-0-0-0","properties":{"highway":"service","startNodeId":"5272744525","endNodeId":"5272744524"},"geometry":{"type":"LineString","coordinates":[[103.818234,1.4693967],[103.8182245,1.4700822]]}},{"type":"Feature","id":"way/545568992-0-0-0","properties":{"highway":"service","lanes":"2","lanes:backward":"1","lanes:forward":"1","startNodeId":"5272744529","endNodeId":"5272744528"},"geometry":{"type":"LineString","coordinates":[[103.8160451,1.4691238],[103.8163684,1.4691115]]}},{"type":"Feature","id":"way/545568993-0-0-0","properties":{"highway":"service","startNodeId":"5272744531","endNodeId":"5272744534"},"geometry":{"type":"LineString","coordinates":[[103.8157085,1.4700028],[103.8157609,1.4700044]]}},{"type":"Feature","id":"way/545568995-0-0-0","properties":{"covered":"yes","highway":"service","startNodeId":"5272744530","endNodeId":"5272744531"},"geometry":{"type":"LineString","coordinates":[[103.8154719,1.4699958],[103.8157085,1.4700028]]}},{"type":"Feature","id":"way/545568997-0-0-0","properties":{"highway":"service","startNodeId":"5272744535","endNodeId":"6484762161"},"geometry":{"type":"LineString","coordinates":[[103.815313,1.469991],[103.8151044,1.469993]]}},{"type":"Feature","id":"way/545568997-0-1-0","properties":{"highway":"service","startNodeId":"6484762161","endNodeId":"6484762158"},"geometry":{"type":"LineString","coordinates":[[103.8151044,1.469993],[103.8150927,1.4699943]]}},{"type":"Feature","id":"way/545568997-0-2-0","properties":{"highway":"service","startNodeId":"6484762158","endNodeId":"6484762159"},"geometry":{"type":"LineString","coordinates":[[103.8150927,1.4699943],[103.8150796,1.4699977]]}},{"type":"Feature","id":"way/545568997-0-3-0","properties":{"highway":"service","startNodeId":"6484762159","endNodeId":"6484762160"},"geometry":{"type":"LineString","coordinates":[[103.8150796,1.4699977],[103.8150702,1.4700024]]}},{"type":"Feature","id":"way/545568997-0-4-0","properties":{"highway":"service","startNodeId":"6484762160","endNodeId":"6484762157"},"geometry":{"type":"LineString","coordinates":[[103.8150702,1.4700024],[103.8150629,1.4700086]]}},{"type":"Feature","id":"way/545568997-0-5-0","properties":{"highway":"service","startNodeId":"6484762157","endNodeId":"5272744533"},"geometry":{"type":"LineString","coordinates":[[103.8150629,1.4700086],[103.8150609,1.4700158]]}},{"type":"Feature","id":"way/545568997-0-6-0","properties":{"highway":"service","startNodeId":"5272744533","endNodeId":"5272744532"},"geometry":{"type":"LineString","coordinates":[[103.8150609,1.4700158],[103.8150594,1.4701627]]}},{"type":"Feature","id":"way/545568999-0-0-0","properties":{"highway":"service","lanes":"2","lanes:backward":"1","lanes:forward":"1","startNodeId":"5272744536","endNodeId":"5272744537"},"geometry":{"type":"LineString","coordinates":[[103.8153251,1.4696424],[103.8153217,1.4697342]]}},{"type":"Feature","id":"way/545569000-0-0-0","properties":{"highway":"service","startNodeId":"4606931477","endNodeId":"8002050305"},"geometry":{"type":"LineString","coordinates":[[103.8151814,1.469726],[103.8152373,1.4697293]]}},{"type":"Feature","id":"way/545569000-0-1-0","properties":{"highway":"service","startNodeId":"8002050305","endNodeId":"5272744537"},"geometry":{"type":"LineString","coordinates":[[103.8152373,1.4697293],[103.8153217,1.4697342]]}},{"type":"Feature","id":"way/596713233-0-0-0","properties":{"highway":"service","startNodeId":"5683724188","endNodeId":"4503999321"},"geometry":{"type":"LineString","coordinates":[[103.8152218,1.4688045],[103.8159474,1.4688434]]}},{"type":"Feature","id":"way/631785991-0-0-0","properties":{"highway":"service","lanes":"2","lanes:backward":"1","lanes:forward":"1","startNodeId":"5272744529","endNodeId":"5272744527"},"geometry":{"type":"LineString","coordinates":[[103.8160451,1.4691238],[103.8160184,1.4689721]]}},{"type":"Feature","id":"way/631785991-0-1-0","properties":{"highway":"service","lanes":"2","lanes:backward":"1","lanes:forward":"1","startNodeId":"5272744527","endNodeId":"4503999321"},"geometry":{"type":"LineString","coordinates":[[103.8160184,1.4689721],[103.8159474,1.4688434]]}},{"type":"Feature","id":"way/631785994-0-0-0","properties":{"highway":"service","lanes":"2","lanes:backward":"1","lanes:forward":"1","turn:lanes:backward":"left","startNodeId":"4503999322","endNodeId":"5272744529"},"geometry":{"type":"LineString","coordinates":[[103.8160419,1.469584],[103.8160451,1.4691238]]}},{"type":"Feature","id":"way/644673439-0-0-0","properties":{"highway":"service","startNodeId":"5186614249","endNodeId":"4488415875"},"geometry":{"type":"LineString","coordinates":[[103.818025,1.4684478],[103.817831,1.4679817]]}},{"type":"Feature","id":"way/644674008-0-0-0","properties":{"highway":"service","startNodeId":"4488415879","endNodeId":"5186614249"},"geometry":{"type":"LineString","coordinates":[[103.8181417,1.4687223],[103.818025,1.4684478]]}},{"type":"Feature","id":"way/644674098-0-0-0","properties":{"highway":"service","lanes":"2","lanes:backward":"1","lanes:forward":"1","surface":"asphalt","turn:lanes:backward":"through","turn:lanes:forward":"through","startNodeId":"5272744525","endNodeId":"7191049564"},"geometry":{"type":"LineString","coordinates":[[103.818234,1.4693967],[103.8186404,1.4694078]]}},{"type":"Feature","id":"way/644674098-0-1-0","properties":{"highway":"service","lanes":"2","lanes:backward":"1","lanes:forward":"1","surface":"asphalt","turn:lanes:backward":"through","turn:lanes:forward":"through","startNodeId":"7191049564","endNodeId":"4488415906"},"geometry":{"type":"LineString","coordinates":[[103.8186404,1.4694078],[103.8187189,1.4694099]]}},{"type":"Feature","id":"way/644674099-0-0-0","properties":{"highway":"service","lanes":"2","lanes:backward":"1","lanes:forward":"1","surface":"asphalt","turn:lanes:backward":"through","turn:lanes:forward":"through","startNodeId":"4488415906","endNodeId":"4488415902"},"geometry":{"type":"LineString","coordinates":[[103.8187189,1.4694099],[103.8188597,1.4694032]]}},{"type":"Feature","id":"way/644674169-0-0-0","properties":{"highway":"service","lanes":"2","lanes:backward":"1","lanes:forward":"1","surface":"asphalt","turn:lanes:backward":"through","turn:lanes:forward":"through","startNodeId":"5187014325","endNodeId":"4488415908"},"geometry":{"type":"LineString","coordinates":[[103.8171016,1.4691865],[103.8173658,1.4692745]]}},{"type":"Feature","id":"way/644674169-0-1-0","properties":{"highway":"service","lanes":"2","lanes:backward":"1","lanes:forward":"1","surface":"asphalt","turn:lanes:backward":"through","turn:lanes:forward":"through","startNodeId":"4488415908","endNodeId":"4606931467"},"geometry":{"type":"LineString","coordinates":[[103.8173658,1.4692745],[103.8177104,1.4693563]]}},{"type":"Feature","id":"way/644674169-0-2-0","properties":{"highway":"service","lanes":"2","lanes:backward":"1","lanes:forward":"1","surface":"asphalt","turn:lanes:backward":"through","turn:lanes:forward":"through","startNodeId":"4606931467","endNodeId":"4488415907"},"geometry":{"type":"LineString","coordinates":[[103.8177104,1.4693563],[103.8179813,1.4693898]]}},{"type":"Feature","id":"way/644674170-0-0-0","properties":{"highway":"service","lanes":"2","lanes:backward":"1","lanes:forward":"1","surface":"asphalt","turn:lanes:backward":"through","turn:lanes:forward":"through","startNodeId":"4488415907","endNodeId":"5272744525"},"geometry":{"type":"LineString","coordinates":[[103.8179813,1.4693898],[103.818234,1.4693967]]}},{"type":"Feature","id":"way/644897769-0-0-0","properties":{"highway":"service","lanes":"2","lanes:backward":"1","lanes:forward":"1","surface":"asphalt","turn:lanes:backward":"through","turn:lanes:forward":"through","startNodeId":"4503999319","endNodeId":"4488415910"},"geometry":{"type":"LineString","coordinates":[[103.8161162,1.4686439],[103.8163565,1.4688103]]}},{"type":"Feature","id":"way/644897769-0-1-0","properties":{"highway":"service","lanes":"2","lanes:backward":"1","lanes:forward":"1","surface":"asphalt","turn:lanes:backward":"through","turn:lanes:forward":"through","startNodeId":"4488415910","endNodeId":"4606931466"},"geometry":{"type":"LineString","coordinates":[[103.8163565,1.4688103],[103.8166939,1.4690144]]}},{"type":"Feature","id":"way/644897769-0-2-0","properties":{"highway":"service","lanes":"2","lanes:backward":"1","lanes:forward":"1","surface":"asphalt","turn:lanes:backward":"through","turn:lanes:forward":"through","startNodeId":"4606931466","endNodeId":"4488415909"},"geometry":{"type":"LineString","coordinates":[[103.8166939,1.4690144],[103.81706,1.4691726]]}},{"type":"Feature","id":"way/644897769-0-3-0","properties":{"highway":"service","lanes":"2","lanes:backward":"1","lanes:forward":"1","surface":"asphalt","turn:lanes:backward":"through","turn:lanes:forward":"through","startNodeId":"4488415909","endNodeId":"5187014325"},"geometry":{"type":"LineString","coordinates":[[103.81706,1.4691726],[103.8171016,1.4691865]]}},{"type":"Feature","id":"way/645178580-0-0-0","properties":{"highway":"service","lanes":"2","lanes:backward":"1","lanes:forward":"1","startNodeId":"5272744535","endNodeId":"5272744530"},"geometry":{"type":"LineString","coordinates":[[103.815313,1.469991],[103.8154719,1.4699958]]}},{"type":"Feature","id":"way/645178581-0-0-0","properties":{"highway":"service","lanes":"2","lanes:backward":"1","lanes:forward":"1","startNodeId":"5272744537","endNodeId":"5272744535"},"geometry":{"type":"LineString","coordinates":[[103.8153217,1.4697342],[103.815313,1.469991]]}},{"type":"Feature","id":"way/691839302-0-1-0","properties":{"highway":"service","startNodeId":"6493298797","endNodeId":"6493298796"},"geometry":{"type":"LineString","coordinates":[[103.819453,1.4689506],[103.8194382,1.4689694]]}},{"type":"Feature","id":"way/691839302-0-2-0","properties":{"highway":"service","startNodeId":"6493298796","endNodeId":"6493298795"},"geometry":{"type":"LineString","coordinates":[[103.8194382,1.4689694],[103.8194369,1.4689976]]}},{"type":"Feature","id":"way/691839302-0-3-0","properties":{"highway":"service","startNodeId":"6493298795","endNodeId":"905198591"},"geometry":{"type":"LineString","coordinates":[[103.8194369,1.4689976],[103.8194938,1.4691904]]}},{"type":"Feature","id":"way/696908158-0-0-0","properties":{"highway":"service","startNodeId":"6544824710","endNodeId":"8002050301"},"geometry":{"type":"LineString","coordinates":[[103.8150757,1.4698506],[103.8150736,1.4699088]]}},{"type":"Feature","id":"way/696908158-0-1-0","properties":{"highway":"service","startNodeId":"8002050301","endNodeId":"6484762160"},"geometry":{"type":"LineString","coordinates":[[103.8150736,1.4699088],[103.8150702,1.4700024]]}},{"type":"Feature","id":"way/770368035-0-0-0","properties":{"highway":"service","startNodeId":"7191049564","endNodeId":"7191049563"},"geometry":{"type":"LineString","coordinates":[[103.8186404,1.4694078],[103.8187824,1.4700768]]}}]}