{"type":"FeatureCollection","features":[{"type":"Feature","id":"way/453698504-0","properties":{"building":"yes","clearanceGeometry":{"type":"Polygon","coordinates":[[[103.8160736,1.4678911],[103.8158031,1.4677249],[103.8157539,1.4678048],[103.8156527,1.4677426],[103.81559,1.4678445],[103.8156913,1.4679067],[103.8156019,1.468052],[103.8158724,1.4682182],[103.8160736,1.4678911]]]},"clearanceHeight":1.7,"clearancePrepared":true},"geometry":{"type":"Polygon","coordinates":[[[103.8158724,1.4682182],[103.8160736,1.4678911],[103.8158031,1.4677249],[103.8157539,1.4678048],[103.8156527,1.4677426],[103.81559,1.4678445],[103.8156913,1.4679067],[103.8156019,1.468052],[103.8158724,1.4682182]]]}},{"type":"Feature","id":"way/453698508-0","properties":{"building":"yes","clearanceGeometry":{"type":"Polygon","coordinates":[[[103.8172275,1.4656183],[103.8171522,1.4655007],[103.8169511,1.4656294],[103.8170263,1.465747],[103.8172275,1.4656183]]]},"clearanceHeight":1.7,"clearancePrepared":true},"geometry":{"type":"Polygon","coordinates":[[[103.8170263,1.465747],[103.8172275,1.4656183],[103.8171522,1.4655007],[103.8169511,1.4656294],[103.8170263,1.465747]]]}},{"type":"Feature","id":"way/453698509-0","properties":{"building":"yes","clearanceGeometry":{"type":"MultiPolygon","coordinates":[[[[103.8160833,1.4653452],[103.8167899,1.4655411],[103.8169025,1.4654976],[103.8169411,1.4653583],[103.8169485,1.4653603],[103.8169899,1.4652111],[103.8168194,1.4651639],[103.81681872221645,1.4651663457484994],[103.81681960675725,1.465169678571863],[103.81681863561005,1.465199395676284],[103.8167970795032,1.465244442412414],[103.8167839,1.465292],[103.81674163857592,1.4652802451668125],[103.81673325799855,1.4652848984052387],[103.81669228538661,1.4652746150830236],[103.8163886755535,1.4651989186015666],[103.8163583408038,1.4651740073374162],[103.8161471,1.4651154],[103.8160833,1.4653452]]],[[[103.81671021166741,1.465202881376733],[103.8167021,1.4652354],[103.81671026212335,1.46520289536936],[103.81671021166741,1.465202881376733]]],[[[103.81642438076591,1.4651236137092267],[103.81642592444649,1.4651248813984334],[103.81645590758858,1.4651323568426111],[103.81642438076591,1.4651236137092267]]]]},"clearanceHeight":1.7,"clearancePrepared":true},"geometry":{"type":"Polygon","coordinates":[[[103.8161471,1.4651154],[103.8160833,1.4653452],[103.8167899,1.4655411],[103.8169025,1.4654976],[103.8169411,1.4653583],[103.8169485,1.4653603],[103.8169899,1.4652111],[103.8168194,1.4651639],[103.8167839,1.465292],[103.8166933,1.4652668],[103.8167021,1.4652354],[103.816711,1.4652031],[103.8163807,1.4651115],[103.8163743,1.4651348],[103.816363,1.4651753],[103.8161471,1.4651154]]]}},{"type":"Feature","id":"way/453698510-0","properties":{"building":"yes","clearanceGeometry":{"type":"MultiPolygon","coordinates":[[[[103.81518823934852,1.4648260812787164],[103.81553314738197,1.4649356749826594],[103.81552868621255,1.4649497079106886],[103.81552884017981,1.4649497506108293],[103.81553338644383,1.4649357517618626],[103.81563209236371,1.4649677913850494],[103.81596824595782,1.4650674377334756],[103.8159935,1.4649766],[103.8159478,1.4649639],[103.8159666,1.4648961],[103.8152702,1.4647031],[103.8152514,1.4647709],[103.815207,1.4647586],[103.81518823934852,1.4648260812787164]]],[[[103.8154858,1.4651098],[103.8151405,1.4650141],[103.8151247,1.465071],[103.8151611,1.4650811],[103.8151432,1.4651455],[103.8158548,1.4653427],[103.8158727,1.4652784],[103.8159157,1.4652903],[103.8159315,1.4652333],[103.8155819,1.4651364],[103.81560870313594,1.4650451851395079],[103.81560860567451,1.4650451562489222],[103.8156201,1.4650064],[103.81560761355617,1.4650448482381373],[103.81551075127166,1.4650134070530476],[103.8154858,1.4651098]]]]},"clearanceHeight":1.7,"clearancePrepared":true},"geometry":{"type":"Polygon","coordinates":[[[103.815207,1.4647586],[103.8151807,1.4648532],[103.8155301,1.4649501],[103.8155209,1.4649742],[103.8154858,1.4651098],[103.8151405,1.4650141],[103.8151247,1.465071],[103.8151611,1.4650811],[103.8151432,1.4651455],[103.8158548,1.4653427],[103.8158727,1.4652784],[103.8159157,1.4652903],[103.8159315,1.4652333],[103.8155819,1.4651364],[103.8156201,1.4650064],[103.8156262,1.4649767],[103.8159672,1.4650712],[103.8159935,1.4649766],[103.8159478,1.4649639],[103.8159666,1.4648961],[103.8152702,1.4647031],[103.8152514,1.4647709],[103.815207,1.4647586]]]}},{"type":"Feature","id":"way/453698513-0","properties":{"building":"yes","clearanceGeometry":{"type":"Polygon","coordinates":[[[103.8158628,1.4655458],[103.8155442,1.4654551],[103.8153243,1.4662274],[103.8156428,1.466318],[103.8158628,1.4655458]]]},"clearanceHeight":1.7,"clearancePrepared":true},"geometry":{"type":"Polygon","coordinates":[[[103.8156428,1.466318],[103.8158628,1.4655458],[103.8155442,1.4654551],[103.8153243,1.4662274],[103.8156428,1.466318]]]}},{"type":"Feature","id":"way/453698515-0","properties":{"building":"yes","clearanceGeometry":{"type":"Polygon","coordinates":[[[103.8168912,1.4664807],[103.8169279,1.4664909],[103.8169207,1.4665169],[103.8169835,1.4665343],[103.8169907,1.4665084],[103.8170287,1.466519],[103.817211,1.4658647],[103.8171731,1.4658541],[103.8171782,1.4658358],[103.8171154,1.4658183],[103.8171103,1.4658367],[103.8170736,1.4658264],[103.8169949,1.4661088],[103.8169523,1.4660969],[103.8169747,1.4660168],[103.8168898,1.4659931],[103.8168675,1.4660733],[103.8168208,1.4660603],[103.8169029,1.4657655],[103.816865,1.4657549],[103.8168701,1.4657366],[103.8168073,1.4657191],[103.8168022,1.4657374],[103.8167655,1.4657272],[103.8165831,1.4663814],[103.8166198,1.4663917],[103.8166126,1.4664176],[103.8166753,1.4664351],[103.8166826,1.4664092],[103.8167205,1.4664197],[103.8168033,1.4661229],[103.81685,1.4661359],[103.8168272,1.4662179],[103.816912,1.4662415],[103.8169349,1.4661595],[103.8169774,1.4661714],[103.8168912,1.4664807]]]},"clearanceHeight":1.7,"clearancePrepared":true},"geometry":{"type":"Polygon","coordinates":[[[103.8169774,1.4661714],[103.8168912,1.4664807],[103.8169279,1.4664909],[103.8169207,1.4665169],[103.8169835,1.4665343],[103.8169907,1.4665084],[103.8170287,1.466519],[103.817211,1.4658647],[103.8171731,1.4658541],[103.8171782,1.4658358],[103.8171154,1.4658183],[103.8171103,1.4658367],[103.8170736,1.4658264],[103.8169949,1.4661088],[103.8169523,1.4660969],[103.8169747,1.4660168],[103.8168898,1.4659931],[103.8168675,1.4660733],[103.8168208,1.4660603],[103.8169029,1.4657655],[103.816865,1.4657549],[103.8168701,1.4657366],[103.8168073,1.4657191],[103.8168022,1.4657374],[103.8167655,1.4657272],[103.8165831,1.4663814],[103.8166198,1.4663917],[103.8166126,1.4664176],[103.8166753,1.4664351],[103.8166826,1.4664092],[103.8167205,1.4664197],[103.8168033,1.4661229],[103.81685,1.4661359],[103.8168272,1.4662179],[103.816912,1.4662415],[103.8169349,1.4661595],[103.8169774,1.4661714]]]}},{"type":"Feature","id":"way/453698516-0","properties":{"building":"yes","clearanceGeometry":{"type":"Polygon","coordinates":[[[103.8155234,1.4669296],[103.815466,1.4671196],[103.8159088,1.4672534],[103.8159764,1.4670297],[103.8160845,1.4670623],[103.8160933,1.4670331],[103.8161255,1.4670428],[103.8161513,1.4669574],[103.8161191,1.4669477],[103.8161231,1.4669346],[103.8158367,1.4668481],[103.8158555,1.4667859],[103.815939,1.4668111],[103.8159649,1.4667255],[103.8158813,1.4667003],[103.8158956,1.4666532],[103.8160257,1.4666925],[103.815989,1.466814],[103.8161408,1.4668598],[103.8161856,1.4667118],[103.8162119,1.4667198],[103.8162358,1.466641],[103.8162094,1.4666331],[103.8162159214391,1.466611410719401],[103.81570469790152,1.466470482366339],[103.81558091224284,1.4664366727653781],[103.8155791,1.4664427],[103.8155669278751,1.4664390041732995],[103.81555406251971,1.466521124263411],[103.8155553,1.4665215],[103.81555264057717,1.4665302005808583],[103.81554973221013,1.4665487648067237],[103.8158475,1.4666387],[103.8158333,1.4666858],[103.815748,1.46666],[103.8157221,1.4667456],[103.8158074,1.4667714],[103.8157886,1.4668336],[103.8155005,1.4667466],[103.8154966,1.4667597],[103.815469,1.4667514],[103.8154432,1.4668368],[103.8154708,1.4668451],[103.8154619,1.4668743],[103.8158668,1.4669966],[103.8158566,1.4670302],[103.8155234,1.4669296]]]},"clearanceHeight":1.7,"clearancePrepared":true},"geometry":{"type":"Polygon","coordinates":[[[103.8158566,1.4670302],[103.8155234,1.4669296],[103.815466,1.4671196],[103.8159088,1.4672534],[103.8159764,1.4670297],[103.8160845,1.4670623],[103.8160933,1.4670331],[103.8161255,1.4670428],[103.8161513,1.4669574],[103.8161191,1.4669477],[103.8161231,1.4669346],[103.8158367,1.4668481],[103.8158555,1.4667859],[103.815939,1.4668111],[103.8159649,1.4667255],[103.8158813,1.4667003],[103.8158956,1.4666532],[103.8160257,1.4666925],[103.815989,1.466814],[103.8161408,1.4668598],[103.8161856,1.4667118],[103.8162119,1.4667198],[103.8162358,1.466641],[103.8162094,1.4666331],[103.8162183,1.4666035],[103.8160665,1.4665576],[103.815588,1.4664131],[103.8155791,1.4664427],[103.8155488,1.4664335],[103.815525,1.4665123],[103.8155553,1.4665215],[103.8155472,1.466548],[103.8158475,1.4666387],[103.8158333,1.4666858],[103.815748,1.46666],[103.8157221,1.4667456],[103.8158074,1.4667714],[103.8157886,1.4668336],[103.8155005,1.4667466],[103.8154966,1.4667597],[103.815469,1.4667514],[103.8154432,1.4668368],[103.8154708,1.4668451],[103.8154619,1.4668743],[103.8158668,1.4669966],[103.8158566,1.4670302]]]}},{"type":"Feature","id":"way/453698517-0","properties":{"building":"yes","clearanceGeometry":{"type":"Polygon","coordinates":[[[103.8157114,1.4666558],[103.8155538,1.4666082],[103.8155277,1.4666947],[103.8156852,1.4667423],[103.8157114,1.4666558]]]},"clearanceHeight":1.7,"clearancePrepared":true},"geometry":{"type":"Polygon","coordinates":[[[103.8156852,1.4667423],[103.8157114,1.4666558],[103.8155538,1.4666082],[103.8155277,1.4666947],[103.8156852,1.4667423]]]}},{"type":"Feature","id":"way/453698518-0","properties":{"building":"yes","clearanceGeometry":{"type":"Polygon","coordinates":[[[103.8163066,1.4670125],[103.8168854,1.4666812],[103.81684620056127,1.4666127462849157],[103.8167726370049,1.466605000220445],[103.8165864,1.4667116],[103.8165635,1.4666716],[103.8164394,1.4667426],[103.8164624,1.4667827],[103.81628271356362,1.4668854491031087],[103.81626403213512,1.4669381640251022],[103.8163066,1.4670125]]]},"clearanceHeight":1.7,"clearancePrepared":true},"geometry":{"type":"Polygon","coordinates":[[[103.8162459,1.4669065],[103.8163066,1.4670125],[103.8168854,1.4666812],[103.8168247,1.4665752],[103.8165864,1.4667116],[103.8165635,1.4666716],[103.8164394,1.4667426],[103.8164624,1.4667827],[103.8162459,1.4669065]]]}},{"type":"Feature","id":"way/453698519-0","properties":{"building":"yes","clearanceGeometry":{"type":"Polygon","coordinates":[[[103.8172034,1.466762],[103.8171249,1.4666249],[103.8161459,1.4671853],[103.8162244,1.4673224],[103.8172034,1.466762]]]},"clearanceHeight":1.7,"clearancePrepared":true},"geometry":{"type":"Polygon","coordinates":[[[103.8162244,1.4673224],[103.8172034,1.466762],[103.8171249,1.4666249],[103.8161459,1.4671853],[103.8162244,1.4673224]]]}},{"type":"Feature","id":"way/453698520-0","properties":{"building":"yes","clearanceGeometry":{"type":"Polygon","coordinates":[[[103.8168779,1.4671575],[103.817061,1.4670527],[103.8169884,1.4669259],[103.8164413,1.4672391],[103.8165139,1.4673659],[103.8167663,1.4672215],[103.81677370229781,1.467234428437177],[103.81685077423732,1.467190176061571],[103.81688778682937,1.4671747339227594],[103.8168779,1.4671575]]]},"clearanceHeight":1.7,"clearancePrepared":true},"geometry":{"type":"Polygon","coordinates":[[[103.816788,1.4672594],[103.8168997,1.4671955],[103.8168779,1.4671575],[103.817061,1.4670527],[103.8169884,1.4669259],[103.8164413,1.4672391],[103.8165139,1.4673659],[103.8167663,1.4672215],[103.816788,1.4672594]]]}},{"type":"Feature","id":"way/453698521-0","properties":{"building":"yes","clearanceGeometry":{"type":"Polygon","coordinates":[[[103.8165013,1.467581],[103.8158308,1.4674013],[103.81579603901838,1.4675308636587459],[103.815814008077,1.4675418246505076],[103.8164651,1.4677162],[103.8165013,1.467581]]]},"clearanceHeight":1.7,"clearancePrepared":true},"geometry":{"type":"Polygon","coordinates":[[[103.8164651,1.4677162],[103.8165013,1.467581],[103.8158308,1.4674013],[103.8157945,1.4675366],[103.8164651,1.4677162]]]}},{"type":"Feature","id":"way/453698522-0","properties":{"building":"yes","clearanceGeometry":{"type":"Polygon","coordinates":[[[103.8173903,1.4664778],[103.8172374,1.4670945],[103.8173878,1.4671317],[103.8175407,1.466515],[103.8173903,1.4664778]]]},"clearanceHeight":1.7,"clearancePrepared":true},"geometry":{"type":"Polygon","coordinates":[[[103.8175407,1.466515],[103.8173903,1.4664778],[103.8172374,1.4670945],[103.8173878,1.4671317],[103.8175407,1.466515]]]}},{"type":"Feature","id":"way/453698523-0","properties":{"building":"yes","clearanceGeometry":{"type":"Polygon","coordinates":[[[103.8181565,1.467082],[103.8177059,1.4670552],[103.8176989,1.4671719],[103.8181495,1.4671987],[103.8181565,1.467082]]]},"clearanceHeight":1.7,"clearancePrepared":true},"geometry":{"type":"Polygon","coordinates":[[[103.8181495,1.4671987],[103.8181565,1.467082],[103.8177059,1.4670552],[103.8176989,1.4671719],[103.8181495,1.4671987]]]}},{"type":"Feature","id":"way/453698524-0","properties":{"building":"yes","clearanceGeometry":{"type":"Polygon","coordinates":[[[103.8193585,1.4677621],[103.8191305,1.4677246],[103.8191151,1.4678181],[103.8193431,1.4678557],[103.8193585,1.4677621]]]},"clearanceHeight":1.7,"clearancePrepared":true},"geometry":{"type":"Polygon","coordinates":[[[103.8193431,1.4678557],[103.8193585,1.4677621],[103.8191305,1.4677246],[103.8191151,1.4678181],[103.8193431,1.4678557]]]}},{"type":"Feature","id":"way/453698525-0","properties":{"building":"yes","clearanceGeometry":{"type":"Polygon","coordinates":[[[103.8191308,1.4676082],[103.8189055,1.4675867],[103.8188952,1.4676948],[103.8191205,1.4677162],[103.8191308,1.4676082]]]},"clearanceHeight":1.7,"clearancePrepared":true},"geometry":{"type":"Polygon","coordinates":[[[103.8191205,1.4677162],[103.8191308,1.4676082],[103.8189055,1.4675867],[103.8188952,1.4676948],[103.8191205,1.4677162]]]}},{"type":"Feature","id":"way/453698526-0","properties":{"building":"yes","clearanceGeometry":{"type":"Polygon","coordinates":[[[103.8181253,1.4677113],[103.8178114,1.4675263],[103.8177579,1.467617],[103.8180717,1.467802],[103.8181253,1.4677113]]]},"clearanceHeight":1.7,"clearancePrepared":true},"geometry":{"type":"Polygon","coordinates":[[[103.8180717,1.467802],[103.8181253,1.4677113],[103.8178114,1.4675263],[103.8177579,1.467617],[103.8180717,1.467802]]]}},{"type":"Feature","id":"way/453698527-0","properties":{"building":"yes","clearanceGeometry":{"type":"Polygon","coordinates":[[[103.8183478,1.4680009],[103.8179509,1.4677649],[103.8179001,1.4678503],[103.818297,1.4680863],[103.8183478,1.4680009]]]},"clearanceHeight":1.7,"clearancePrepared":true},"geometry":{"type":"Polygon","coordinates":[[[103.818297,1.4680863],[103.8183478,1.4680009],[103.8179509,1.4677649],[103.8179001,1.4678503],[103.818297,1.4680863]]]}},{"type":"Feature","id":"way/453698547-0","properties":{"building":"yes","clearanceGeometry":{"type":"MultiPolygon","coordinates":[[[[103.8166058,1.4639697],[103.8166477133206,1.4639404211010714],[103.81664212954985,1.4639296681959908],[103.81664169353456,1.4639178957844319],[103.8166821,1.4639164],[103.81664169174768,1.4639178467329783],[103.81664031614558,1.4638794445077838],[103.81664928105806,1.4638364932106278],[103.81665899379364,1.463819097266326],[103.8166943,1.4638388],[103.81665910190698,1.4638189048663752],[103.81666865464088,1.463802012836926],[103.8166409,1.4637622],[103.8167579,1.4636806],[103.8166233,1.4634878],[103.8163854,1.4636538],[103.8166058,1.4639697]]],[[[103.8167268,1.4638853],[103.81672287599982,1.4638796856612735],[103.81672148385441,1.4638863554922161],[103.81672157623434,1.46388893443203],[103.8167268,1.4638853]]]]},"clearanceHeight":1.7,"clearancePrepared":true},"geometry":{"type":"Polygon","coordinates":[[[103.8163854,1.4636538],[103.8166058,1.4639697],[103.8166821,1.4639164],[103.8167268,1.4638853],[103.8166943,1.4638388],[103.8166409,1.4637622],[103.8167579,1.4636806],[103.8166233,1.4634878],[103.8163854,1.4636538]]]}},{"type":"Feature","id":"way/453698548-0","properties":{"building":"yes","clearanceGeometry":{"type":"Polygon","coordinates":[[[103.8165134,1.4638525],[103.8163656,1.4639556],[103.8165107,1.4641635],[103.8166585,1.4640604],[103.8165134,1.4638525]]]},"clearanceHeight":1.7,"clearancePrepared":true},"geometry":{"type":"Polygon","coordinates":[[[103.8166585,1.4640604],[103.8165134,1.4638525],[103.8163656,1.4639556],[103.8165107,1.4641635],[103.8166585,1.4640604]]]}},{"type":"Feature","id":"way/453698549-0","properties":{"building":"yes","clearanceGeometry":{"type":"Polygon","coordinates":[[[103.8161754,1.4639919],[103.8163712,1.4642724],[103.8164812,1.4641957],[103.8162854,1.4639152],[103.8161754,1.4639919]]]},"clearanceHeight":1.7,"clearancePrepared":true},"geometry":{"type":"Polygon","coordinates":[[[103.8162854,1.4639152],[103.8161754,1.4639919],[103.8163712,1.4642724],[103.8164812,1.4641957],[103.8162854,1.4639152]]]}},{"type":"Feature","id":"way/453698550-0","properties":{"building":"yes","clearanceGeometry":{"type":"Polygon","coordinates":[[[103.8174122,1.4651629],[103.8176371,1.4650041],[103.8169817,1.4640768],[103.8167568,1.4642357],[103.8174122,1.4651629]]]},"clearanceHeight":1.7,"clearancePrepared":true},"geometry":{"type":"Polygon","coordinates":[[[103.8167568,1.4642357],[103.8174122,1.4651629],[103.8176371,1.4650041],[103.8169817,1.4640768],[103.8167568,1.4642357]]]}},{"type":"Feature","id":"way/479181629-0","properties":{"building":"yes","landuse":"military","military":"checkpoint","name":"Sembawang Camp","name:en":"Sembawang Camp","name:ms":"Kem Sembawang","name:zh":"\u4e09\u5df4\u65fa\u5175\u8425","source":"Kaart Ground Survey 2017","clearanceGeometry":{"type":"MultiPolygon","coordinates":[[[[103.8157906,1.4641257],[103.81583842146956,1.4641379027198198],[103.81583846251812,1.4641377448581727],[103.81586240807889,1.4640453549028987],[103.815835,1.4640384],[103.8158466831155,1.4639926602209994],[103.81581833998116,1.4639770273171688],[103.81577807893827,1.463960081205733],[103.8156864,1.4639367],[103.8156424,1.4641093],[103.8157855,1.4641458],[103.8157906,1.4641257]]],[[[103.81592087657681,1.4640602920054773],[103.8159016,1.4640553],[103.81592087620068,1.4640602934829232],[103.81592087657681,1.4640602920054773]]]]},"clearanceHeight":1.7,"clearancePrepared":true},"geometry":{"type":"Polygon","coordinates":[[[103.8157855,1.4641458],[103.8157906,1.4641257],[103.8158776,1.4641479],[103.8158973,1.4641529],[103.8159209,1.4640602],[103.8159016,1.4640553],[103.815835,1.4640384],[103.8158503,1.4639785],[103.8156864,1.4639367],[103.8156424,1.4641093],[103.8157855,1.4641458]]]}},{"type":"Feature","id":"way/508677317-0","properties":{"building":"industrial","clearanceGeometry":{"type":"Polygon","coordinates":[[[103.8177966,1.4643629],[103.81770102338716,1.4644316966923303],[103.81769330278705,1.4644376811856077],[103.818041,1.4649198],[103.8181444,1.4648453],[103.8177966,1.4643629]]]},"clearanceHeight":1.7,"clearancePrepared":true},"geometry":{"type":"Polygon","coordinates":[[[103.8181444,1.4648453],[103.8177966,1.4643629],[103.8176931,1.4644374],[103.818041,1.4649198],[103.8181444,1.4648453]]]}},{"type":"Feature","id":"way/508677318-0","properties":{"building":"industrial","clearanceGeometry":{"type":"Polygon","coordinates":[[[103.8181473,1.4633695],[103.8173512,1.4639439],[103.8175822,1.4642639],[103.8183783,1.4636895],[103.8181473,1.4633695]]]},"clearanceHeight":1.7,"clearancePrepared":true},"geometry":{"type":"Polygon","coordinates":[[[103.8183783,1.4636895],[103.8181473,1.4633695],[103.8173512,1.4639439],[103.8175822,1.4642639],[103.8183783,1.4636895]]]}},{"type":"Feature","id":"way/629210834-0","properties":{"building":"yes","clearanceGeometry":{"type":"Polygon","coordinates":[[[103.8166881,1.4678578],[103.8167265,1.4679304],[103.8169518,1.4678111],[103.8169134,1.4677385],[103.8166881,1.4678578]]]},"clearanceHeight":1.7,"clearancePrepared":true},"geometry":{"type":"Polygon","coordinates":[[[103.8169134,1.4677385],[103.8166881,1.4678578],[103.8167265,1.4679304],[103.8169518,1.4678111],[103.8169134,1.4677385]]]}},{"type":"Feature","id":"way/629210987-0","properties":{"building":"yes","clearanceGeometry":{"type":"Polygon","coordinates":[[[103.8180508,1.4667111],[103.8176895,1.4667045],[103.8176875,1.4668143],[103.8180488,1.4668208],[103.8180508,1.4667111]]]},"clearanceHeight":1.7,"clearancePrepared":true},"geometry":{"type":"Polygon","coordinates":[[[103.8180488,1.4668208],[103.8180508,1.4667111],[103.8176895,1.4667045],[103.8176875,1.4668143],[103.8180488,1.4668208]]]}},{"type":"Feature","id":"node/7987822210","properties":{"crossing:markings":"no","highway":"crossing","tactile_paving":"no"},"geometry":{"type":"Point","coordinates":[103.815895,1.4636729]}},{"type":"Feature","id":"node/10722919995","properties":{"highway":"crossing"},"geometry":{"type":"Point","coordinates":[103.819039,1.4673105]}},{"type":"Feature","id":"node/10770010597","properties":{"crossing":"uncontrolled","crossing:markings":"yes","highway":"crossing"},"geometry":{"type":"Point","coordinates":[103.8175116,1.465839]}},{"type":"Feature","id":"node/10770063520","properties":{"crossing":"uncontrolled","crossing:markings":"yes","highway":"crossing","tactile_paving":"no"},"geometry":{"type":"Point","coordinates":[103.815944,1.4637899]}},{"type":"Feature","id":"way/76848070-0-2-0","properties":{"highway":"service","name":"Drake Avenue","sidewalk":"left","surface":"asphalt","startNodeId":"4606931468","endNodeId":"4606931469"},"geometry":{"type":"LineString","coordinates":[[103.8193985,1.4676922],[103.8193154,1.4675782]]}},{"type":"Feature","id":"way/76848070-0-3-0","properties":{"highway":"service","name":"Drake Avenue","sidewalk":"left","surface":"asphalt","startNodeId":"4606931469","endNodeId":"8663881394"},"geometry":{"type":"LineString","coordinates":[[103.8193154,1.4675782],[103.8192732,1.4675365]]}},{"type":"Feature","id":"way/76848070-0-4-0","properties":{"highway":"service","name":"Drake Avenue","sidewalk":"left","surface":"asphalt","startNodeId":"8663881394","endNodeId":"905200444"},"geometry":{"type":"LineString","coordinates":[[103.8192732,1.4675365],[103.8192014,1.4674656]]}},{"type":"Feature","id":"way/76848070-0-5-0","properties":{"highway":"service","name":"Drake Avenue","sidewalk":"left","surface":"asphalt","startNodeId":"905200444","endNodeId":"905200422"},"geometry":{"type":"LineString","coordinates":[[103.8192014,1.4674656],[103.8190083,1.4673262]]}},{"type":"Feature","id":"way/452042148-0-0-0","properties":{"highway":"service","startNodeId":"4488415870","endNodeId":"4488415869"},"geometry":{"type":"LineString","coordinates":[[103.8176219,1.4662266],[103.8172409,1.4665258]]}},{"type":"Feature","id":"way/452042155-0-0-0","properties":{"highway":"service","lanes":"2","lanes:backward":"1","lanes:forward":"1","surface":"asphalt","startNodeId":"4488415939","endNodeId":"4488415930"},"geometry":{"type":"LineString","coordinates":[[103.8158413,1.4642875],[103.8155476,1.464309]]}},{"type":"Feature","id":"way/452042155-0-1-0","properties":{"highway":"service","lanes":"2","lanes:backward":"1","lanes:forward":"1","surface":"asphalt","startNodeId":"4488415930","endNodeId":"5683724201"},"geometry":{"type":"LineString","coordinates":[[103.8155476,1.464309],[103.8154466,1.4643357]]}},{"type":"Feature","id":"way/452042155-0-2-0","properties":{"highway":"service","lanes":"2","lanes:backward":"1","lanes:forward":"1","surface":"asphalt","startNodeId":"5683724201","endNodeId":"4488415929"},"geometry":{"type":"LineString","coordinates":[[103.8154466,1.4643357],[103.8153142,1.4643707]]}},{"type":"Feature","id":"way/452042155-0-3-0","properties":{"highway":"service","lanes":"2","lanes:backward":"1","lanes:forward":"1","surface":"asphalt","startNodeId":"4488415929","endNodeId":"4488415928"},"geometry":{"type":"LineString","coordinates":[[103.8153142,1.4643707],[103.8152619,1.464427]]}},{"type":"Feature","id":"way/452042155-0-4-0","properties":{"highway":"service","lanes":"2","lanes:backward":"1","lanes:forward":"1","surface":"asphalt","startNodeId":"4488415928","endNodeId":"5186614224"},"geometry":{"type":"LineString","coordinates":[[103.8152619,1.464427],[103.8152079,1.4645679]]}},{"type":"Feature","id":"way/452042156-0-0-0","properties":{"highway":"service","lanes":"2","lanes:backward":"1","lanes:forward":"1","surface":"asphalt","turn:lanes:backward":"left;through","startNodeId":"5186614223","endNodeId":"4488415932"},"geometry":{"type":"LineString","coordinates":[[103.8161523,1.464812],[103.8161832,1.4647031]]}},{"type":"Feature","id":"way/452042156-0-1-0","properties":{"highway":"service","lanes":"2","lanes:backward":"1","lanes:forward":"1","surface":"asphalt","turn:lanes:backward":"left;through","startNodeId":"4488415932","endNodeId":"4606931461"},"geometry":{"type":"LineString","coordinates":[[103.8161832,1.4647031],[103.8161896,1.4646251]]}},{"type":"Feature","id":"way/452042157-0-0-0","properties":{"highway":"service","startNodeId":"4488415936","endNodeId":"5272776306"},"geometry":{"type":"LineString","coordinates":[[103.8163397,1.4666036],[103.8164515,1.466634]]}},{"type":"Feature","id":"way/452042157-0-1-0","properties":{"highway":"service","startNodeId":"5272776306","endNodeId":"5272776305"},"geometry":{"type":"LineString","coordinates":[[103.8164515,1.466634],[103.8165025,1.4666313]]}},{"type":"Feature","id":"way/452042157-0-2-0","properties":{"highway":"service","startNodeId":"5272776305","endNodeId":"5272776304"},"geometry":{"type":"LineString","coordinates":[[103.8165025,1.4666313],[103.8165561,1.4666059]]}},{"type":"Feature","id":"way/452042157-0-3-0","properties":{"highway":"service","startNodeId":"5272776304","endNodeId":"5272776303"},"geometry":{"type":"LineString","coordinates":[[103.8165561,1.4666059],[103.8166178,1.4665764]]}},{"type":"Feature","id":"way/452042157-0-4-0","properties":{"highway":"service","startNodeId":"5272776303","endNodeId":"5272776302"},"geometry":{"type":"LineString","coordinates":[[103.8166178,1.4665764],[103.8167332,1.4665602]]}},{"type":"Feature","id":"way/452042158-0-0-0","properties":{"highway":"service","surface":"asphalt","startNodeId":"4488415940","endNodeId":"5683724202"},"geometry":{"type":"LineString","coordinates":[[103.8159679,1.4638471],[103.8159194,1.4639866]]}},{"type":"Feature","id":"way/452042163-0-0-0","properties":{"highway":"service","lanes":"2","startNodeId":"6056266375","endNodeId":"4488415960"},"geometry":{"type":"LineString","coordinates":[[103.8187251,1.4663351],[103.8187678,1.466385]]}},{"type":"Feature","id":"way/452042163-0-1-0","properties":{"highway":"service","lanes":"2","startNodeId":"4488415960","endNodeId":"4488415959"},"geometry":{"type":"LineString","coordinates":[[103.8187678,1.466385],[103.8191996,1.4668006]]}},{"type":"Feature","id":"way/452042163-0-2-0","properties":{"highway":"service","lanes":"2","startNodeId":"4488415959","endNodeId":"4488415958"},"geometry":{"type":"LineString","coordinates":[[103.8191996,1.4668006],[103.8193739,1.4670097]]}},{"type":"Feature","id":"way/452042163-0-3-0","properties":{"highway":"service","lanes":"2","startNodeId":"4488415958","endNodeId":"4488415957"},"geometry":{"type":"LineString","coordinates":[[103.8193739,1.4670097],[103.8195268,1.4671304]]}},{"type":"Feature","id":"way/452042164-0-0-0","properties":{"highway":"service","startNodeId":"5272717237","endNodeId":"5272717238"},"geometry":{"type":"LineString","coordinates":[[103.8167775,1.4640465],[103.8167024,1.463958]]}},{"type":"Feature","id":"way/452042164-0-1-0","properties":{"highway":"service","startNodeId":"5272717238","endNodeId":"5272717239"},"geometry":{"type":"LineString","coordinates":[[103.8167024,1.463958],[103.8166822,1.4639191]]}},{"type":"Feature","id":"way/452042164-0-2-0","properties":{"highway":"service","startNodeId":"5272717239","endNodeId":"5272717235"},"geometry":{"type":"LineString","coordinates":[[103.8166822,1.4639191],[103.8166821,1.4639164]]}},{"type":"Feature","id":"way/465773551-0-0-0","properties":{"highway":"service","startNodeId":"4606931460","endNodeId":"4606931459"},"geometry":{"type":"LineString","coordinates":[[103.8152377,1.466301],[103.8154914,1.4653177]]}},{"type":"Feature","id":"way/465773552-0-0-0","properties":{"highway":"service","name":"Drake Avenue","startNodeId":"905200422","endNodeId":"10722919995"},"geometry":{"type":"LineString","coordinates":[[103.8190083,1.4673262],[103.819039,1.4673105]]}},{"type":"Feature","id":"way/465773552-0-1-0","properties":{"highway":"service","name":"Drake Avenue","startNodeId":"10722919995","endNodeId":"905198580"},"geometry":{"type":"LineString","coordinates":[[103.819039,1.4673105],[103.8191894,1.4672338]]}},{"type":"Feature","id":"way/465773552-0-2-0","properties":{"highway":"service","name":"Drake Avenue","startNodeId":"905198580","endNodeId":"5148456063"},"geometry":{"type":"LineString","coordinates":[[103.8191894,1.4672338],[103.8192801,1.4672034]]}},{"type":"Feature","id":"way/465773552-0-3-0","properties":{"highway":"service","name":"Drake Avenue","startNodeId":"5148456063","endNodeId":"1483364047"},"geometry":{"type":"LineString","coordinates":[[103.8192801,1.4672034],[103.8193829,1.4671993]]}},{"type":"Feature","id":"way/465773552-0-4-0","properties":{"highway":"service","name":"Drake Avenue","startNodeId":"1483364047","endNodeId":"5148456062"},"geometry":{"type":"LineString","coordinates":[[103.8193829,1.4671993],[103.8194935,1.4672228]]}},{"type":"Feature","id":"way/479139643-0-1-0","properties":{"highway":"service","lanes":"2","lanes:backward":"1","lanes:forward":"1","surface":"asphalt","turn:lanes:backward":"through","turn:lanes:forward":"through","startNodeId":"4488415914","endNodeId":"4488415913"},"geometry":{"type":"LineString","coordinates":[[103.8151763,1.46766],[103.8156484,1.4682204]]}},{"type":"Feature","id":"way/479139644-0-0-0","properties":{"highway":"service","lanes":"2","lanes:backward":"1","lanes:forward":"1","name":"Drake Avenue","name:en":"Drake Avenue","sidewalk":"right","surface":"asphalt","turn:lanes:backward":"through","turn:lanes:forward":"through","startNodeId":"4488415871","endNodeId":"8663881393"},"geometry":{"type":"LineString","coordinates":[[103.8175695,1.4659319],[103.8177529,1.4662073]]}},{"type":"Feature","id":"way/479139644-0-1-0","properties":{"highway":"service","lanes":"2","lanes:backward":"1","lanes:forward":"1","name":"Drake Avenue","name:en":"Drake Avenue","sidewalk":"right","surface":"asphalt","turn:lanes:backward":"through","turn:lanes:forward":"through","startNodeId":"8663881393","endNodeId":"905198574"},"geometry":{"type":"LineString","coordinates":[[103.8177529,1.4662073],[103.8177999,1.4662778]]}},{"type":"Feature","id":"way/479139644-0-2-0","properties":{"highway":"service","lanes":"2","lanes:backward":"1","lanes:forward":"1","name":"Drake Avenue","name:en":"Drake Avenue","sidewalk":"right","surface":"asphalt","turn:lanes:backward":"through","turn:lanes:forward":"through","startNodeId":"905198574","endNodeId":"4606931471"},"geometry":{"type":"LineString","coordinates":[[103.8177999,1.4662778],[103.8181929,1.4668355]]}},{"type":"Feature","id":"way/479139644-0-3-0","properties":{"highway":"service","lanes":"2","lanes:backward":"1","lanes:forward":"1","name":"Drake Avenue","name:en":"Drake Avenue","sidewalk":"right","surface":"asphalt","turn:lanes:backward":"through","turn:lanes:forward":"through","startNodeId":"4606931471","endNodeId":"905198576"},"geometry":{"type":"LineString","coordinates":[[103.8181929,1.4668355],[103.818335,1.4669736]]}},{"type":"Feature","id":"way/479139644-0-4-0","properties":{"highway":"service","lanes":"2","lanes:backward":"1","lanes:forward":"1","name":"Drake Avenue","name:en":"Drake Avenue","sidewalk":"right","surface":"asphalt","turn:lanes:backward":"through","turn:lanes:forward":"through","startNodeId":"905198576","endNodeId":"4606931470"},"geometry":{"type":"LineString","coordinates":[[103.818335,1.4669736],[103.8185349,1.4670942]]}},{"type":"Feature","id":"way/479139644-0-5-0","properties":{"highway":"service","lanes":"2","lanes:backward":"1","lanes:forward":"1","name":"Drake Avenue","name:en":"Drake Avenue","sidewalk":"right","surface":"asphalt","turn:lanes:backward":"through","turn:lanes:forward":"through","startNodeId":"4606931470","endNodeId":"905198578"},"geometry":{"type":"LineString","coordinates":[[103.8185349,1.4670942],[103.8187843,1.4672109]]}},{"type":"Feature","id":"way/479139644-0-6-0","properties":{"highway":"service","lanes":"2","lanes:backward":"1","lanes:forward":"1","name":"Drake Avenue","name:en":"Drake Avenue","sidewalk":"right","surface":"asphalt","turn:lanes:backward":"through","turn:lanes:forward":"through","startNodeId":"905198578","endNodeId":"905200422"},"geometry":{"type":"LineString","coordinates":[[103.8187843,1.4672109],[103.8190083,1.4673262]]}},{"type":"Feature","id":"way/479142252-0-2-0","properties":{"highway":"primary","lanes":"2","maxspeed":"70","name":"Admiralty Road West","name:en":"Admiralty Road West","name:zh":"\u6d77\u519b\u90e8\u897f\u8def","oneway":"yes","source":"Yahoo aerial images","surface":"asphalt","turn:lanes":"left;through|through","startNodeId":"4606931473","endNodeId":"1483360623"},"geometry":{"type":"LineString","coordinates":[[103.815107,1.4639088],[103.8153538,1.4638297]]}},{"type":"Feature","id":"way/479142252-0-3-0","properties":{"highway":"primary","lanes":"2","maxspeed":"70","name":"Admiralty Road West","name:en":"Admiralty Road West","name:zh":"\u6d77\u519b\u90e8\u897f\u8def","oneway":"yes","source":"Yahoo aerial images","surface":"asphalt","turn:lanes":"left;through|through","startNodeId":"1483360623","endNodeId":"244489083"},"geometry":{"type":"LineString","coordinates":[[103.8153538,1.4638297],[103.8158753,1.4636259]]}},{"type":"Feature","id":"way/534938501-0-0-0","properties":{"highway":"service","startNodeId":"5186614224","endNodeId":"5186614223"},"geometry":{"type":"LineString","coordinates":[[103.8152079,1.4645679],[103.8161523,1.464812]]}},{"type":"Feature","id":"way/534938502-0-0-0","properties":{"highway":"service","service":"parking_aisle","startNodeId":"5186614232","endNodeId":"5186614233"},"geometry":{"type":"LineString","coordinates":[[103.8166112,1.4678433],[103.8166232,1.4678057]]}},{"type":"Feature","id":"way/534938502-0-1-0","properties":{"highway":"service","service":"parking_aisle","startNodeId":"5186614233","endNodeId":"5186614234"},"geometry":{"type":"LineString","coordinates":[[103.8166232,1.4678057],[103.8166487,1.4677776]]}},{"type":"Feature","id":"way/534938502-0-2-0","properties":{"highway":"service","service":"parking_aisle","startNodeId":"5186614234","endNodeId":"5186614235"},"geometry":{"type":"LineString","coordinates":[[103.8166487,1.4677776],[103.8174829,1.4673432]]}},{"type":"Feature","id":"way/534938502-0-3-0","properties":{"highway":"service","service":"parking_aisle","startNodeId":"5186614235","endNodeId":"4488415874"},"geometry":{"type":"LineString","coordinates":[[103.8174829,1.4673432],[103.8175843,1.4673428]]}},{"type":"Feature","id":"way/534938503-0-2-0","properties":{"highway":"service","service":"parking_aisle","startNodeId":"5186614229","endNodeId":"5186614230"},"geometry":{"type":"LineString","coordinates":[[103.8168955,1.4683768],[103.8166206,1.4679076]]}},{"type":"Feature","id":"way/534938503-0-3-0","properties":{"highway":"service","service":"parking_aisle","startNodeId":"5186614230","endNodeId":"5186614231"},"geometry":{"type":"LineString","coordinates":[[103.8166206,1.4679076],[103.8166085,1.4678795]]}},{"type":"Feature","id":"way/534938503-0-4-0","properties":{"highway":"service","service":"parking_aisle","startNodeId":"5186614231","endNodeId":"5186614232"},"geometry":{"type":"LineString","coordinates":[[103.8166085,1.4678795],[103.8166112,1.4678433]]}},{"type":"Feature","id":"way/534938505-0-0-0","properties":{"highway":"service","service":"parking_aisle","startNodeId":"6056266381","endNodeId":"5186614239"},"geometry":{"type":"LineString","coordinates":[[103.8181551,1.4676162],[103.8185137,1.4678332]]}},{"type":"Feature","id":"way/534938505-0-1-0","properties":{"highway":"service","service":"parking_aisle","startNodeId":"5186614239","endNodeId":"5186614238"},"geometry":{"type":"LineString","coordinates":[[103.8185137,1.4678332],[103.8185361,1.4678422]]}},{"type":"Feature","id":"way/534938505-0-2-0","properties":{"highway":"service","service":"parking_aisle","startNodeId":"5186614238","endNodeId":"5186614237"},"geometry":{"type":"LineString","coordinates":[[103.8185361,1.4678422],[103.8185644,1.4678448]]}},{"type":"Feature","id":"way/534938505-0-3-0","properties":{"highway":"service","service":"parking_aisle","startNodeId":"5186614237","endNodeId":"5186614236"},"geometry":{"type":"LineString","coordinates":[[103.8185644,1.4678448],[103.818921,1.4678218]]}},{"type":"Feature","id":"way/535002959-0-0-0","properties":{"highway":"service","surface":"asphalt","startNodeId":"5187026529","endNodeId":"4488415939"},"geometry":{"type":"LineString","coordinates":[[103.8158776,1.4641479],[103.8158413,1.4642875]]}},{"type":"Feature","id":"way/535002960-0-0-0","properties":{"covered":"yes","highway":"service","surface":"asphalt","startNodeId":"5187026528","endNodeId":"5187026529"},"geometry":{"type":"LineString","coordinates":[[103.8159016,1.4640553],[103.8158776,1.4641479]]}},{"type":"Feature","id":"way/545565778-0-0-0","properties":{"highway":"service","startNodeId":"5272717234","endNodeId":"4488415968"},"geometry":{"type":"LineString","coordinates":[[103.8166943,1.4638388],[103.8167025,1.4638243]]}},{"type":"Feature","id":"way/545565778-0-1-0","properties":{"highway":"service","startNodeId":"4488415968","endNodeId":"4488415969"},"geometry":{"type":"LineString","coordinates":[[103.8167025,1.4638243],[103.8168688,1.463701]]}},{"type":"Feature","id":"way/545565779-0-0-0","properties":{"covered":"yes","highway":"service","startNodeId":"5272717235","endNodeId":"5272717240"},"geometry":{"type":"LineString","coordinates":[[103.8166821,1.4639164],[103.8166809,1.4638829]]}},{"type":"Feature","id":"way/545565779-0-1-0","properties":{"covered":"yes","highway":"service","startNodeId":"5272717240","endNodeId":"5272717241"},"geometry":{"type":"LineString","coordinates":[[103.8166809,1.4638829],[103.8166876,1.4638508]]}},{"type":"Feature","id":"way/545565779-0-2-0","properties":{"covered":"yes","highway":"service","startNodeId":"5272717241","endNodeId":"5272717234"},"geometry":{"type":"LineString","coordinates":[[103.8166876,1.4638508],[103.8166943,1.4638388]]}},{"type":"Feature","id":"way/545565780-0-0-0","properties":{"highway":"service","startNodeId":"5272717237","endNodeId":"5272717236"},"geometry":{"type":"LineString","coordinates":[[103.8167775,1.4640465],[103.8171691,1.4637752]]}},{"type":"Feature","id":"way/545570254-0-0-0","properties":{"highway":"service","oneway":"yes","startNodeId":"5272754288","endNodeId":"5272754285"},"geometry":{"type":"LineString","coordinates":[[103.8166098,1.4676354],[103.8166112,1.4675376]]}},{"type":"Feature","id":"way/545570254-0-1-0","properties":{"highway":"service","oneway":"yes","startNodeId":"5272754285","endNodeId":"5272754284"},"geometry":{"type":"LineString","coordinates":[[103.8166112,1.4675376],[103.8166568,1.4674035]]}},{"type":"Feature","id":"way/545570254-0-2-0","properties":{"highway":"service","oneway":"yes","startNodeId":"5272754284","endNodeId":"5272754283"},"geometry":{"type":"LineString","coordinates":[[103.8166568,1.4674035],[103.8167332,1.4673043]]}},{"type":"Feature","id":"way/545570254-0-3-0","properties":{"highway":"service","oneway":"yes","startNodeId":"5272754283","endNodeId":"5272754282"},"geometry":{"type":"LineString","coordinates":[[103.8167332,1.4673043],[103.8168687,1.4672265]]}},{"type":"Feature","id":"way/545570254-0-4-0","properties":{"highway":"service","oneway":"yes","startNodeId":"5272754282","endNodeId":"5272754281"},"geometry":{"type":"LineString","coordinates":[[103.8168687,1.4672265],[103.8169907,1.4671756]]}},{"type":"Feature","id":"way/545570254-0-5-0","properties":{"highway":"service","oneway":"yes","startNodeId":"5272754281","endNodeId":"5272754280"},"geometry":{"type":"LineString","coordinates":[[103.8169907,1.4671756],[103.8171369,1.4671622]]}},{"type":"Feature","id":"way/545570254-0-6-0","properties":{"highway":"service","oneway":"yes","startNodeId":"5272754280","endNodeId":"5272754279"},"geometry":{"type":"LineString","coordinates":[[103.8171369,1.4671622],[103.8172764,1.467185]]}},{"type":"Feature","id":"way/545570254-0-7-0","properties":{"highway":"service","oneway":"yes","startNodeId":"5272754279","endNodeId":"5272754286"},"geometry":{"type":"LineString","coordinates":[[103.8172764,1.467185],[103.8173421,1.4672319]]}},{"type":"Feature","id":"way/545570255-0-0-0","properties":{"highway":"service","startNodeId":"5272754303","endNodeId":"5272754302"},"geometry":{"type":"LineString","coordinates":[[103.8152906,1.4663155],[103.8152795,1.4664221]]}},{"type":"Feature","id":"way/545570255-0-1-0","properties":{"highway":"service","startNodeId":"5272754302","endNodeId":"5272754301"},"geometry":{"type":"LineString","coordinates":[[103.8152795,1.4664221],[103.8152593,1.4664718]]}},{"type":"Feature","id":"way/545570255-0-2-0","properties":{"highway":"service","startNodeId":"5272754301","endNodeId":"5272754300"},"geometry":{"type":"LineString","coordinates":[[103.8152593,1.4664718],[103.8151816,1.4666139]]}},{"type":"Feature","id":"way/545570255-0-3-0","properties":{"highway":"service","startNodeId":"5272754300","endNodeId":"5272754299"},"geometry":{"type":"LineString","coordinates":[[103.8151816,1.4666139],[103.8151574,1.466693]]}},{"type":"Feature","id":"way/545570255-0-4-0","properties":{"highway":"service","startNodeId":"5272754299","endNodeId":"5272754298"},"geometry":{"type":"LineString","coordinates":[[103.8151574,1.466693],[103.8151561,1.4667828]]}},{"type":"Feature","id":"way/545570255-0-5-0","properties":{"highway":"service","startNodeId":"5272754298","endNodeId":"5272754297"},"geometry":{"type":"LineString","coordinates":[[103.8151561,1.4667828],[103.8151936,1.4669048]]}},{"type":"Feature","id":"way/545570255-0-6-0","properties":{"highway":"service","startNodeId":"5272754297","endNodeId":"5272754296"},"geometry":{"type":"LineString","coordinates":[[103.8151936,1.4669048],[103.8152875,1.4670657]]}},{"type":"Feature","id":"way/545570255-0-7-0","properties":{"highway":"service","startNodeId":"5272754296","endNodeId":"5272754295"},"geometry":{"type":"LineString","coordinates":[[103.8152875,1.4670657],[103.8156965,1.4675175]]}},{"type":"Feature","id":"way/545570255-0-8-0","properties":{"highway":"service","startNodeId":"5272754295","endNodeId":"5272754294"},"geometry":{"type":"LineString","coordinates":[[103.8156965,1.4675175],[103.8158306,1.4675993]]}},{"type":"Feature","id":"way/545570255-0-9-0","properties":{"highway":"service","startNodeId":"5272754294","endNodeId":"5272754293"},"geometry":{"type":"LineString","coordinates":[[103.8158306,1.4675993],[103.8161404,1.4676944]]}},{"type":"Feature","id":"way/545570255-0-10-0","properties":{"highway":"service","startNodeId":"5272754293","endNodeId":"5272754292"},"geometry":{"type":"LineString","coordinates":[[103.8161404,1.4676944],[103.816528,1.4677749]]}},{"type":"Feature","id":"way/545570255-0-11-0","properties":{"highway":"service","startNodeId":"5272754292","endNodeId":"5272754291"},"geometry":{"type":"LineString","coordinates":[[103.816528,1.4677749],[103.8165656,1.4677507]]}},{"type":"Feature","id":"way/545570255-0-12-0","properties":{"highway":"service","startNodeId":"5272754291","endNodeId":"5272754290"},"geometry":{"type":"LineString","coordinates":[[103.8165656,1.4677507],[103.816579,1.4677213]]}},{"type":"Feature","id":"way/545570255-0-13-0","properties":{"highway":"service","startNodeId":"5272754290","endNodeId":"5272754289"},"geometry":{"type":"LineString","coordinates":[[103.816579,1.4677213],[103.8165884,1.467677]]}},{"type":"Feature","id":"way/545570255-0-14-0","properties":{"highway":"service","startNodeId":"5272754289","endNodeId":"5272754288"},"geometry":{"type":"LineString","coordinates":[[103.8165884,1.467677],[103.8166098,1.4676354]]}},{"type":"Feature","id":"way/545572588-0-0-0","properties":{"covered":"yes","highway":"service","oneway":"yes","startNodeId":"5272776287","endNodeId":"5272776295"},"geometry":{"type":"LineString","coordinates":[[103.8163743,1.4651348],[103.8164073,1.4651619]]}},{"type":"Feature","id":"way/545572588-0-1-0","properties":{"covered":"yes","highway":"service","oneway":"yes","startNodeId":"5272776295","endNodeId":"5272776286"},"geometry":{"type":"LineString","coordinates":[[103.8164073,1.4651619],[103.8167021,1.4652354]]}},{"type":"Feature","id":"way/545572589-0-0-0","properties":{"highway":"service","oneway":"yes","startNodeId":"5272776286","endNodeId":"5272776294"},"geometry":{"type":"LineString","coordinates":[[103.8167021,1.4652354],[103.8167276,1.4652418]]}},{"type":"Feature","id":"way/545572589-0-1-0","properties":{"highway":"service","oneway":"yes","startNodeId":"5272776294","endNodeId":"5272776293"},"geometry":{"type":"LineString","coordinates":[[103.8167276,1.4652418],[103.8167629,1.4652222]]}},{"type":"Feature","id":"way/545572589-0-2-0","properties":{"highway":"service","oneway":"yes","startNodeId":"5272776293","endNodeId":"5272776292"},"geometry":{"type":"LineString","coordinates":[[103.8167629,1.4652222],[103.8167785,1.4651896]]}},{"type":"Feature","id":"way/545572589-0-3-0","properties":{"highway":"service","oneway":"yes","startNodeId":"5272776292","endNodeId":"5272776291"},"geometry":{"type":"LineString","coordinates":[[103.8167785,1.4651896],[103.816779,1.4651743]]}},{"type":"Feature","id":"way/545572589-0-4-0","properties":{"highway":"service","oneway":"yes","startNodeId":"5272776291","endNodeId":"5272776290"},"geometry":{"type":"LineString","coordinates":[[103.816779,1.4651743],[103.8167734,1.4651532]]}},{"type":"Feature","id":"way/545572589-0-5-0","properties":{"highway":"service","oneway":"yes","startNodeId":"5272776290","endNodeId":"5272776289"},"geometry":{"type":"LineString","coordinates":[[103.8167734,1.4651532],[103.8167597,1.4651342]]}},{"type":"Feature","id":"way/545572589-0-6-0","properties":{"highway":"service","oneway":"yes","startNodeId":"5272776289","endNodeId":"5272776288"},"geometry":{"type":"LineString","coordinates":[[103.8167597,1.4651342],[103.8167352,1.4651198]]}},{"type":"Feature","id":"way/545572589-0-7-0","properties":{"highway":"service","oneway":"yes","startNodeId":"5272776288","endNodeId":"5272776298"},"geometry":{"type":"LineString","coordinates":[[103.8167352,1.4651198],[103.8163362,1.4650171]]}},{"type":"Feature","id":"way/545572590-0-0-0","properties":{"highway":"service","startNodeId":"5272776299","endNodeId":"5272776298"},"geometry":{"type":"LineString","coordinates":[[103.816111,1.4649662],[103.8163362,1.4650171]]}},{"type":"Feature","id":"way/545572591-0-0-0","properties":{"highway":"service","startNodeId":"5272776302","endNodeId":"5272776300"},"geometry":{"type":"LineString","coordinates":[[103.8167332,1.4665602],[103.8163889,1.4664556]]}},{"type":"Feature","id":"way/545572592-0-0-0","properties":{"highway":"service","startNodeId":"5272776308","endNodeId":"5272776300"},"geometry":{"type":"LineString","coordinates":[[103.8166233,1.4656336],[103.8163889,1.4664556]]}},{"type":"Feature","id":"way/596713241-0-0-0","properties":{"highway":"service","startNodeId":"5683724197","endNodeId":"5683724196"},"geometry":{"type":"LineString","coordinates":[[103.8155349,1.4663822],[103.8155007,1.4666005]]}},{"type":"Feature","id":"way/596713241-0-1-0","properties":{"highway":"service","startNodeId":"5683724196","endNodeId":"5683724195"},"geometry":{"type":"LineString","coordinates":[[103.8155007,1.4666005],[103.8153854,1.4667855]]}},{"type":"Feature","id":"way/596713241-0-2-0","properties":{"highway":"service","startNodeId":"5683724195","endNodeId":"6484803643"},"geometry":{"type":"LineString","coordinates":[[103.8153854,1.4667855],[103.8153706,1.4668485]]}},{"type":"Feature","id":"way/596713241-0-3-0","properties":{"highway":"service","startNodeId":"6484803643","endNodeId":"6484803644"},"geometry":{"type":"LineString","coordinates":[[103.8153706,1.4668485],[103.815376,1.4668807]]}},{"type":"Feature","id":"way/596713241-0-4-0","properties":{"highway":"service","startNodeId":"6484803644","endNodeId":"5683724194"},"geometry":{"type":"LineString","coordinates":[[103.815376,1.4668807],[103.8153961,1.4669249]]}},{"type":"Feature","id":"way/596713241-0-5-0","properties":{"highway":"service","startNodeId":"5683724194","endNodeId":"5683724193"},"geometry":{"type":"LineString","coordinates":[[103.8153961,1.4669249],[103.815439,1.4669893]]}},{"type":"Feature","id":"way/596713242-0-0-0","properties":{"highway":"service","startNodeId":"5683724200","endNodeId":"5683724199"},"geometry":{"type":"LineString","coordinates":[[103.8151735,1.4642235],[103.8149817,1.464147]]}},{"type":"Feature","id":"way/596713244-0-1-0","properties":{"highway":"service","surface":"asphalt","startNodeId":"5683724206","endNodeId":"5683724205"},"geometry":{"type":"LineString","coordinates":[[103.8150085,1.4640706],[103.8155061,1.4639044]]}},{"type":"Feature","id":"way/596713244-0-2-0","properties":{"highway":"service","surface":"asphalt","startNodeId":"5683724205","endNodeId":"5683724204"},"geometry":{"type":"LineString","coordinates":[[103.8155061,1.4639044],[103.8156925,1.4638802]]}},{"type":"Feature","id":"way/596713244-0-3-0","properties":{"highway":"service","surface":"asphalt","startNodeId":"5683724204","endNodeId":"5683724203"},"geometry":{"type":"LineString","coordinates":[[103.8156925,1.4638802],[103.815836,1.4639406]]}},{"type":"Feature","id":"way/596713244-0-4-0","properties":{"highway":"service","surface":"asphalt","startNodeId":"5683724203","endNodeId":"5683724202"},"geometry":{"type":"LineString","coordinates":[[103.815836,1.4639406],[103.8159194,1.4639866]]}},{"type":"Feature","id":"way/633607306-0-1-0","properties":{"highway":"service","lanes":"2","lanes:backward":"1","lanes:forward":"1","startNodeId":"4488415937","endNodeId":"4606931460"},"geometry":{"type":"LineString","coordinates":[[103.8149959,1.4662349],[103.8152377,1.466301]]}},{"type":"Feature","id":"way/643588223-0-0-0","properties":{"highway":"service","startNodeId":"6056266375","endNodeId":"6056266374"},"geometry":{"type":"LineString","coordinates":[[103.8187251,1.4663351],[103.8186872,1.4665227]]}},{"type":"Feature","id":"way/643588223-0-1-0","properties":{"highway":"service","startNodeId":"6056266374","endNodeId":"6056266373"},"geometry":{"type":"LineString","coordinates":[[103.8186872,1.4665227],[103.8186228,1.4666675]]}},{"type":"Feature","id":"way/643588223-0-2-0","properties":{"highway":"service","startNodeId":"6056266373","endNodeId":"6056266372"},"geometry":{"type":"LineString","coordinates":[[103.8186228,1.4666675],[103.8186228,1.4667292]]}},{"type":"Feature","id":"way/643588223-0-3-0","properties":{"highway":"service","startNodeId":"6056266372","endNodeId":"6056266371"},"geometry":{"type":"LineString","coordinates":[[103.8186228,1.4667292],[103.8187784,1.4668257]]}},{"type":"Feature","id":"way/643588224-0-0-0","properties":{"highway":"service","startNodeId":"6056266381","endNodeId":"6056266380"},"geometry":{"type":"LineString","coordinates":[[103.8181551,1.4676162],[103.8182352,1.4672936]]}},{"type":"Feature","id":"way/643588224-0-1-0","properties":{"highway":"service","startNodeId":"6056266380","endNodeId":"6056266379"},"geometry":{"type":"LineString","coordinates":[[103.8182352,1.4672936],[103.8182527,1.4671957]]}},{"type":"Feature","id":"way/643588224-0-2-0","properties":{"highway":"service","startNodeId":"6056266379","endNodeId":"6056266378"},"geometry":{"type":"LineString","coordinates":[[103.8182527,1.4671957],[103.8182634,1.4671273]]}},{"type":"Feature","id":"way/643588224-0-3-0","properties":{"highway":"service","startNodeId":"6056266378","endNodeId":"6056266377"},"geometry":{"type":"LineString","coordinates":[[103.8182634,1.4671273],[103.8182379,1.4670764]]}},{"type":"Feature","id":"way/643588224-0-4-0","properties":{"highway":"service","startNodeId":"6056266377","endNodeId":"6056266376"},"geometry":{"type":"LineString","coordinates":[[103.8182379,1.4670764],[103.8181628,1.467012]]}},{"type":"Feature","id":"way/643588228-0-0-0","properties":{"highway":"service","startNodeId":"6056266589","endNodeId":"6484803650"},"geometry":{"type":"LineString","coordinates":[[103.8150609,1.4660132],[103.8150776,1.4660159]]}},{"type":"Feature","id":"way/643588228-0-1-0","properties":{"highway":"service","startNodeId":"6484803650","endNodeId":"6484803649"},"geometry":{"type":"LineString","coordinates":[[103.8150776,1.4660159],[103.815089,1.4660153]]}},{"type":"Feature","id":"way/643588228-0-2-0","properties":{"highway":"service","startNodeId":"6484803649","endNodeId":"6484803648"},"geometry":{"type":"LineString","coordinates":[[103.815089,1.4660153],[103.8150987,1.4660099]]}},{"type":"Feature","id":"way/643588228-0-3-0","properties":{"highway":"service","startNodeId":"6484803648","endNodeId":"6056266588"},"geometry":{"type":"LineString","coordinates":[[103.8150987,1.4660099],[103.8151064,1.4660025]]}},{"type":"Feature","id":"way/643588228-0-4-0","properties":{"highway":"service","startNodeId":"6056266588","endNodeId":"6056266586"},"geometry":{"type":"LineString","coordinates":[[103.8151064,1.4660025],[103.8151822,1.4657528]]}},{"type":"Feature","id":"way/643588228-0-5-0","properties":{"highway":"service","startNodeId":"6056266586","endNodeId":"6484803647"},"geometry":{"type":"LineString","coordinates":[[103.8151822,1.4657528],[103.8151812,1.4657421]]}},{"type":"Feature","id":"way/643588228-0-6-0","properties":{"highway":"service","startNodeId":"6484803647","endNodeId":"6484803645"},"geometry":{"type":"LineString","coordinates":[[103.8151812,1.4657421],[103.8151767,1.4657351]]}},{"type":"Feature","id":"way/643588228-0-7-0","properties":{"highway":"service","startNodeId":"6484803645","endNodeId":"6484803646"},"geometry":{"type":"LineString","coordinates":[[103.8151767,1.4657351],[103.8151722,1.4657284]]}},{"type":"Feature","id":"way/643588228-0-8-0","properties":{"highway":"service","startNodeId":"6484803646","endNodeId":"6056266585"},"geometry":{"type":"LineString","coordinates":[[103.8151722,1.4657284],[103.8151633,1.4657217]]}},{"type":"Feature","id":"way/643588229-0-0-0","properties":{"highway":"service","startNodeId":"6056266592","endNodeId":"6115736773"},"geometry":{"type":"LineString","coordinates":[[103.81606,1.4651368],[103.8156201,1.4650064]]}},{"type":"Feature","id":"way/643588230-0-0-0","properties":{"highway":"service","startNodeId":"6056266596","endNodeId":"6056266595"},"geometry":{"type":"LineString","coordinates":[[103.8168848,1.4646243],[103.8166702,1.4643347]]}},{"type":"Feature","id":"way/643588230-0-1-0","properties":{"highway":"service","startNodeId":"6056266595","endNodeId":"6056266594"},"geometry":{"type":"LineString","coordinates":[[103.8166702,1.4643347],[103.8166514,1.4642704]]}},{"type":"Feature","id":"way/643588230-0-2-0","properties":{"highway":"service","startNodeId":"6056266594","endNodeId":"6056266593"},"geometry":{"type":"LineString","coordinates":[[103.8166514,1.4642704],[103.8166755,1.4641712]]}},{"type":"Feature","id":"way/643588230-0-3-0","properties":{"highway":"service","startNodeId":"6056266593","endNodeId":"5272717237"},"geometry":{"type":"LineString","coordinates":[[103.8166755,1.4641712],[103.8167775,1.4640465]]}},{"type":"Feature","id":"way/644339301-0-1-0","properties":{"highway":"service","lanes":"2","lanes:backward":"1","lanes:forward":"1","name":"Drake Avenue","name:en":"Drake Avenue","sidewalk":"right","surface":"asphalt","turn:lanes:backward":"left;through","turn:lanes:forward":"left;through","startNodeId":"7987822210","endNodeId":"10770063520"},"geometry":{"type":"LineString","coordinates":[[103.815895,1.4636729],[103.815944,1.4637899]]}},{"type":"Feature","id":"way/644339301-0-2-0","properties":{"highway":"service","lanes":"2","lanes:backward":"1","lanes:forward":"1","name":"Drake Avenue","name:en":"Drake Avenue","sidewalk":"right","surface":"asphalt","turn:lanes:backward":"left;through","turn:lanes:forward":"left;through","startNodeId":"10770063520","endNodeId":"4488415940"},"geometry":{"type":"LineString","coordinates":[[103.815944,1.4637899],[103.8159679,1.4638471]]}},{"type":"Feature","id":"way/644667865-0-0-0","properties":{"highway":"service","startNodeId":"4488415874","endNodeId":"4488415873"},"geometry":{"type":"LineString","coordinates":[[103.8175843,1.4673428],[103.8175788,1.4670715]]}},{"type":"Feature","id":"way/644667865-0-1-0","properties":{"highway":"service","startNodeId":"4488415873","endNodeId":"4606931464"},"geometry":{"type":"LineString","coordinates":[[103.8175788,1.4670715],[103.8175864,1.4668821]]}},{"type":"Feature","id":"way/644667865-0-2-0","properties":{"highway":"service","startNodeId":"4606931464","endNodeId":"4606931465"},"geometry":{"type":"LineString","coordinates":[[103.8175864,1.4668821],[103.8176628,1.4665322]]}},{"type":"Feature","id":"way/644667865-0-3-0","properties":{"highway":"service","startNodeId":"4606931465","endNodeId":"4606931463"},"geometry":{"type":"LineString","coordinates":[[103.8176628,1.4665322],[103.8176648,1.4664457]]}},{"type":"Feature","id":"way/644667865-0-4-0","properties":{"highway":"service","startNodeId":"4606931463","endNodeId":"4488415872"},"geometry":{"type":"LineString","coordinates":[[103.8176648,1.4664457],[103.817658,1.4663742]]}},{"type":"Feature","id":"way/644667865-0-5-0","properties":{"highway":"service","startNodeId":"4488415872","endNodeId":"4488415870"},"geometry":{"type":"LineString","coordinates":[[103.817658,1.4663742],[103.8176219,1.4662266]]}},{"type":"Feature","id":"way/644667866-0-0-0","properties":{"highway":"service","startNodeId":"4488415870","endNodeId":"4488415871"},"geometry":{"type":"LineString","coordinates":[[103.8176219,1.4662266],[103.8175695,1.4659319]]}},{"type":"Feature","id":"way/644668484-0-0-0","properties":{"highway":"service","lanes":"2","lanes:backward":"1","lanes:forward":"1","name":"Drake Avenue","name:en":"Drake Avenue","sidewalk":"right","surface":"asphalt","turn:lanes:backward":"through;right","turn:lanes:forward":"through","startNodeId":"4488415921","endNodeId":"905198572"},"geometry":{"type":"LineString","coordinates":[[103.8172018,1.4653715],[103.8174083,1.4656731]]}},{"type":"Feature","id":"way/644668484-0-1-0","properties":{"highway":"service","lanes":"2","lanes:backward":"1","lanes:forward":"1","name":"Drake Avenue","name:en":"Drake Avenue","sidewalk":"right","surface":"asphalt","turn:lanes:backward":"through;right","turn:lanes:forward":"through","startNodeId":"905198572","endNodeId":"10770010597"},"geometry":{"type":"LineString","coordinates":[[103.8174083,1.4656731],[103.8175116,1.465839]]}},{"type":"Feature","id":"way/644668484-0-2-0","properties":{"highway":"service","lanes":"2","lanes:backward":"1","lanes:forward":"1","name":"Drake Avenue","name:en":"Drake Avenue","sidewalk":"right","surface":"asphalt","turn:lanes:backward":"through;right","turn:lanes:forward":"through","startNodeId":"10770010597","endNodeId":"8663881392"},"geometry":{"type":"LineString","coordinates":[[103.8175116,1.465839],[103.8175135,1.465842]]}},{"type":"Feature","id":"way/644668484-0-3-0","properties":{"highway":"service","lanes":"2","lanes:backward":"1","lanes:forward":"1","name":"Drake Avenue","name:en":"Drake Avenue","sidewalk":"right","surface":"asphalt","turn:lanes:backward":"through;right","turn:lanes:forward":"through","startNodeId":"8663881392","endNodeId":"4488415871"},"geometry":{"type":"LineString","coordinates":[[103.8175135,1.465842],[103.8175695,1.4659319]]}},{"type":"Feature","id":"way/644668485-0-0-0","properties":{"highway":"service","lanes":"2","lanes:backward":"1","lanes:forward":"1","name":"Drake Avenue","name:en":"Drake Avenue","sidewalk":"right","surface":"asphalt","turn:lanes:backward":"through;right","turn:lanes:forward":"through","startNodeId":"4488415940","endNodeId":"905198568"},"geometry":{"type":"LineString","coordinates":[[103.8159679,1.4638471],[103.8160203,1.4639437]]}},{"type":"Feature","id":"way/644668485-0-1-0","properties":{"highway":"service","lanes":"2","lanes:backward":"1","lanes:forward":"1","name":"Drake Avenue","name:en":"Drake Avenue","sidewalk":"right","surface":"asphalt","turn:lanes:backward":"through;right","turn:lanes:forward":"through","startNodeId":"905198568","endNodeId":"4606931472"},"geometry":{"type":"LineString","coordinates":[[103.8160203,1.4639437],[103.816259,1.4643003]]}},{"type":"Feature","id":"way/644668485-0-2-0","properties":{"highway":"service","lanes":"2","lanes:backward":"1","lanes:forward":"1","name":"Drake Avenue","name:en":"Drake Avenue","sidewalk":"right","surface":"asphalt","turn:lanes:backward":"through;right","turn:lanes:forward":"through","startNodeId":"4606931472","endNodeId":"1483360629"},"geometry":{"type":"LineString","coordinates":[[103.816259,1.4643003],[103.816546,1.4646395]]}},{"type":"Feature","id":"way/644668485-0-3-0","properties":{"highway":"service","lanes":"2","lanes:backward":"1","lanes:forward":"1","name":"Drake Avenue","name:en":"Drake Avenue","sidewalk":"right","surface":"asphalt","turn:lanes:backward":"through;right","turn:lanes:forward":"through","startNodeId":"1483360629","endNodeId":"905198570"},"geometry":{"type":"LineString","coordinates":[[103.816546,1.4646395],[103.8170194,1.4651624]]}},{"type":"Feature","id":"way/644668485-0-4-0","properties":{"highway":"service","lanes":"2","lanes:backward":"1","lanes:forward":"1","name":"Drake Avenue","name:en":"Drake Avenue","sidewalk":"right","surface":"asphalt","turn:lanes:backward":"through;right","turn:lanes:forward":"through","startNodeId":"905198570","endNodeId":"4488415921"},"geometry":{"type":"LineString","coordinates":[[103.8170194,1.4651624],[103.8172018,1.4653715]]}},{"type":"Feature","id":"way/644673376-0-0-0","properties":{"highway":"service","startNodeId":"4488415875","endNodeId":"4488415874"},"geometry":{"type":"LineString","coordinates":[[103.817831,1.4679817],[103.8175843,1.4673428]]}},{"type":"Feature","id":"way/644673377-0-0-0","properties":{"highway":"service","service":"parking_aisle","startNodeId":"4488415874","endNodeId":"5186614241"},"geometry":{"type":"LineString","coordinates":[[103.8175843,1.4673428],[103.8176521,1.46735]]}},{"type":"Feature","id":"way/644673377-0-1-0","properties":{"highway":"service","service":"parking_aisle","startNodeId":"5186614241","endNodeId":"5186614240"},"geometry":{"type":"LineString","coordinates":[[103.8176521,1.46735],[103.8177595,1.4673768]]}},{"type":"Feature","id":"way/644673377-0-2-0","properties":{"highway":"service","service":"parking_aisle","startNodeId":"5186614240","endNodeId":"6056266381"},"geometry":{"type":"LineString","coordinates":[[103.8177595,1.4673768],[103.8181551,1.4676162]]}},{"type":"Feature","id":"way/644674293-0-0-0","properties":{"highway":"service","lanes":"2","lanes:backward":"1","lanes:forward":"1","startNodeId":"5272776308","endNodeId":"4606931462"},"geometry":{"type":"LineString","coordinates":[[103.8166233,1.4656336],[103.81672,1.4656594]]}},{"type":"Feature","id":"way/644674293-0-1-0","properties":{"highway":"service","lanes":"2","lanes:backward":"1","lanes:forward":"1","startNodeId":"4606931462","endNodeId":"4488415922"},"geometry":{"type":"LineString","coordinates":[[103.81672,1.4656594],[103.816805,1.4656369]]}},{"type":"Feature","id":"way/644674293-0-2-0","properties":{"highway":"service","lanes":"2","lanes:backward":"1","lanes:forward":"1","startNodeId":"4488415922","endNodeId":"4488415921"},"geometry":{"type":"LineString","coordinates":[[103.816805,1.4656369],[103.8172018,1.4653715]]}},{"type":"Feature","id":"way/644674611-0-0-0","properties":{"highway":"service","lanes":"2","lanes:backward":"1","lanes:forward":"1","turn:lanes:backward":"left;through","turn:lanes:forward":"left;through","startNodeId":"4488415923","endNodeId":"5272776308"},"geometry":{"type":"LineString","coordinates":[[103.8159687,1.4654593],[103.8166233,1.4656336]]}},{"type":"Feature","id":"way/644674612-0-0-0","properties":{"highway":"service","lanes":"2","lanes:backward":"1","lanes:forward":"1","turn:lanes:backward":"through;right","turn:lanes:forward":"through","startNodeId":"4606931459","endNodeId":"6412186162"},"geometry":{"type":"LineString","coordinates":[[103.8154914,1.4653177],[103.815769,1.4653979]]}},{"type":"Feature","id":"way/644674613-0-0-0","properties":{"highway":"service","lanes":"2","lanes:backward":"1","lanes:forward":"1","surface":"asphalt","turn:lanes:backward":"left;right","startNodeId":"4488415923","endNodeId":"6056266592"},"geometry":{"type":"LineString","coordinates":[[103.8159687,1.4654593],[103.81606,1.4651368]]}},{"type":"Feature","id":"way/644674614-0-0-0","properties":{"highway":"service","lanes":"2","lanes:backward":"1","lanes:forward":"1","surface":"asphalt","startNodeId":"4488415935","endNodeId":"4488415923"},"geometry":{"type":"LineString","coordinates":[[103.8157154,1.4664315],[103.8159687,1.4654593]]}},{"type":"Feature","id":"way/644674696-0-0-0","properties":{"highway":"service","lanes":"2","lanes:backward":"1","lanes:forward":"1","turn:lanes:backward":"left;through","turn:lanes:forward":"left;through","startNodeId":"4488415927","endNodeId":"4606931459"},"geometry":{"type":"LineString","coordinates":[[103.8150228,1.4651787],[103.8154914,1.4653177]]}},{"type":"Feature","id":"way/644674878-0-0-0","properties":{"highway":"service","lanes":"2","lanes:backward":"1","lanes:forward":"1","surface":"asphalt","turn:lanes:backward":"through","turn:lanes:forward":"through","startNodeId":"6056266591","endNodeId":"6378300837"},"geometry":{"type":"LineString","coordinates":[[103.8151231,1.4648478],[103.8150796,1.4649917]]}},{"type":"Feature","id":"way/644675444-0-0-0","properties":{"highway":"service","lanes":"2","lanes:backward":"1","lanes:forward":"1","turn:lanes:backward":"left;right","turn:lanes:forward":"through;right","startNodeId":"5683724197","endNodeId":"4488415935"},"geometry":{"type":"LineString","coordinates":[[103.8155349,1.4663822],[103.8157154,1.4664315]]}},{"type":"Feature","id":"way/644675445-0-0-0","properties":{"highway":"service","startNodeId":"4488415935","endNodeId":"4488415936"},"geometry":{"type":"LineString","coordinates":[[103.8157154,1.4664315],[103.8163397,1.4666036]]}},{"type":"Feature","id":"way/644675940-0-0-0","properties":{"highway":"service","startNodeId":"4488415936","endNodeId":"5272776307"},"geometry":{"type":"LineString","coordinates":[[103.8163397,1.4666036],[103.8161579,1.4671166]]}},{"type":"Feature","id":"way/644675941-0-0-0","properties":{"highway":"service","startNodeId":"5272776300","endNodeId":"4488415936"},"geometry":{"type":"LineString","coordinates":[[103.8163889,1.4664556],[103.8163397,1.4666036]]}},{"type":"Feature","id":"way/644675942-0-0-0","properties":{"highway":"service","startNodeId":"5272776302","endNodeId":"5272776301"},"geometry":{"type":"LineString","coordinates":[[103.8167332,1.4665602],[103.817039,1.4665924]]}},{"type":"Feature","id":"way/644676218-0-0-0","properties":{"highway":"service","lanes":"2","lanes:backward":"1","lanes:forward":"1","startNodeId":"4606931460","endNodeId":"5272754303"},"geometry":{"type":"LineString","coordinates":[[103.8152377,1.466301],[103.8152906,1.4663155]]}},{"type":"Feature","id":"way/644676347-0-0-0","properties":{"highway":"service","lanes":"2","lanes:backward":"1","lanes:forward":"1","surface":"asphalt","turn:lanes:backward":"through","turn:lanes:forward":"through","startNodeId":"5186614224","endNodeId":"6056266591"},"geometry":{"type":"LineString","coordinates":[[103.8152079,1.4645679],[103.8151231,1.4648478]]}},{"type":"Feature","id":"way/644676348-0-0-0","properties":{"highway":"service","lanes":"2","lanes:backward":"1","lanes:forward":"1","surface":"asphalt","startNodeId":"6056266592","endNodeId":"5272776299"},"geometry":{"type":"LineString","coordinates":[[103.81606,1.4651368],[103.816111,1.4649662]]}},{"type":"Feature","id":"way/644676787-0-0-0","properties":{"highway":"service","lanes":"2","lanes:backward":"1","lanes:forward":"1","startNodeId":"6056404247","endNodeId":"4488415945"},"geometry":{"type":"LineString","coordinates":[[103.8185003,1.463761],[103.817618,1.4644449]]}},{"type":"Feature","id":"way/644676789-0-0-0","properties":{"highway":"service","lanes":"2","lanes:backward":"1","lanes:forward":"1","surface":"asphalt","startNodeId":"4488415943","endNodeId":"6056404272"},"geometry":{"type":"LineString","coordinates":[[103.8189447,1.4634165],[103.8198325,1.4646002]]}},{"type":"Feature","id":"way/644676883-0-0-0","properties":{"highway":"service","lanes":"2","lanes:backward":"1","lanes:forward":"1","startNodeId":"4488415945","endNodeId":"4488415965"},"geometry":{"type":"LineString","coordinates":[[103.817618,1.4644449],[103.8179497,1.4649398]]}},{"type":"Feature","id":"way/644676883-0-1-0","properties":{"highway":"service","lanes":"2","lanes:backward":"1","lanes:forward":"1","startNodeId":"4488415965","endNodeId":"4488415964"},"geometry":{"type":"LineString","coordinates":[[103.8179497,1.4649398],[103.818006,1.4650524]]}},{"type":"Feature","id":"way/644676883-0-2-0","properties":{"highway":"service","lanes":"2","lanes:backward":"1","lanes:forward":"1","startNodeId":"4488415964","endNodeId":"4488415963"},"geometry":{"type":"LineString","coordinates":[[103.818006,1.4650524],[103.8181053,1.4653286]]}},{"type":"Feature","id":"way/644676883-0-3-0","properties":{"highway":"service","lanes":"2","lanes:backward":"1","lanes:forward":"1","startNodeId":"4488415963","endNodeId":"4488415962"},"geometry":{"type":"LineString","coordinates":[[103.8181053,1.4653286],[103.8182555,1.4657629]]}},{"type":"Feature","id":"way/644676883-0-4-0","properties":{"highway":"service","lanes":"2","lanes:backward":"1","lanes:forward":"1","startNodeId":"4488415962","endNodeId":"4488415961"},"geometry":{"type":"LineString","coordinates":[[103.8182555,1.4657629],[103.8183547,1.4659024]]}},{"type":"Feature","id":"way/644676883-0-5-0","properties":{"highway":"service","lanes":"2","lanes:backward":"1","lanes:forward":"1","startNodeId":"4488415961","endNodeId":"6056266375"},"geometry":{"type":"LineString","coordinates":[[103.8183547,1.4659024],[103.8187251,1.4663351]]}},{"type":"Feature","id":"way/644676884-0-0-0","properties":{"highway":"service","lanes":"2","lanes:backward":"1","lanes:forward":"1","startNodeId":"5272717236","endNodeId":"5272717242"},"geometry":{"type":"LineString","coordinates":[[103.8171691,1.4637752],[103.8172259,1.4638598]]}},{"type":"Feature","id":"way/644677612-0-0-0","properties":{"highway":"service","lanes":"2","lanes:backward":"1","lanes:forward":"1","startNodeId":"4488415967","endNodeId":"5272717236"},"geometry":{"type":"LineString","coordinates":[[103.8170457,1.463591],[103.8171691,1.4637752]]}},{"type":"Feature","id":"way/645146060-0-0-0","properties":{"highway":"service","lanes":"2","lanes:backward":"1","lanes:forward":"1","surface":"asphalt","turn:lanes:backward":"left;through;right","startNodeId":"5272776299","endNodeId":"5186614223"},"geometry":{"type":"LineString","coordinates":[[103.816111,1.4649662],[103.8161523,1.464812]]}},{"type":"Feature","id":"way/645146061-0-0-0","properties":{"highway":"service","oneway":"yes","startNodeId":"5272776298","endNodeId":"5272776297"},"geometry":{"type":"LineString","coordinates":[[103.8163362,1.4650171],[103.8163564,1.4650855]]}},{"type":"Feature","id":"way/645146061-0-1-0","properties":{"highway":"service","oneway":"yes","startNodeId":"5272776297","endNodeId":"5272776296"},"geometry":{"type":"LineString","coordinates":[[103.8163564,1.4650855],[103.8163698,1.4651311]]}},{"type":"Feature","id":"way/645146061-0-2-0","properties":{"highway":"service","oneway":"yes","startNodeId":"5272776296","endNodeId":"5272776287"},"geometry":{"type":"LineString","coordinates":[[103.8163698,1.4651311],[103.8163743,1.4651348]]}},{"type":"Feature","id":"way/645146893-0-0-0","properties":{"highway":"service","startNodeId":"5272754288","endNodeId":"5272754287"},"geometry":{"type":"LineString","coordinates":[[103.8166098,1.4676354],[103.816646,1.4676019]]}},{"type":"Feature","id":"way/645146893-0-1-0","properties":{"highway":"service","startNodeId":"5272754287","endNodeId":"5272754286"},"geometry":{"type":"LineString","coordinates":[[103.816646,1.4676019],[103.8173421,1.4672319]]}},{"type":"Feature","id":"way/645146894-0-0-0","properties":{"highway":"service","lanes":"2","lanes:backward":"1","lanes:forward":"1","turn:lanes:backward":"through;right","turn:lanes:forward":"left;through","startNodeId":"5272754303","endNodeId":"5683724197"},"geometry":{"type":"LineString","coordinates":[[103.8152906,1.4663155],[103.8155349,1.4663822]]}},{"type":"Feature","id":"way/645185333-0-0-0","properties":{"highway":"service","surface":"asphalt","startNodeId":"5683724202","endNodeId":"5187026528"},"geometry":{"type":"LineString","coordinates":[[103.8159194,1.4639866],[103.8159016,1.4640553]]}},{"type":"Feature","id":"way/646859094-0-0-0","properties":{"highway":"service","lanes":"2","lanes:backward":"1","lanes:forward":"1","startNodeId":"5272717242","endNodeId":"4488415945"},"geometry":{"type":"LineString","coordinates":[[103.8172259,1.4638598],[103.817618,1.4644449]]}},{"type":"Feature","id":"way/652310522-0-0-0","properties":{"highway":"service","startNodeId":"6115736774","endNodeId":"6056266591"},"geometry":{"type":"LineString","coordinates":[[103.8155209,1.4649742],[103.8151231,1.4648478]]}},{"type":"Feature","id":"way/652310525-0-0-0","properties":{"covered":"yes","highway":"service","startNodeId":"6115736773","endNodeId":"6115736774"},"geometry":{"type":"LineString","coordinates":[[103.8156201,1.4650064],[103.8155209,1.4649742]]}},{"type":"Feature","id":"way/655525760-0-1-0","properties":{"highway":"primary","lanes":"2","maxspeed":"70","name":"Admiralty Road West","name:en":"Admiralty Road West","name:zh":"\u6d77\u519b\u90e8\u897f\u8def","oneway":"yes","source":"Yahoo aerial images","surface":"asphalt","startNodeId":"1483360619","endNodeId":"4606931474"},"geometry":{"type":"LineString","coordinates":[[103.8152613,1.4636747],[103.81496,1.4637624]]}},{"type":"Feature","id":"way/676950918-0-0-0","properties":{"highway":"service","lanes":"2","lanes:backward":"1","lanes:forward":"1","surface":"asphalt","turn:lanes:backward":"through","startNodeId":"6338984044","endNodeId":"4488415939"},"geometry":{"type":"LineString","coordinates":[[103.8160881,1.464501],[103.8158413,1.4642875]]}},{"type":"Feature","id":"way/676950919-0-0-0","properties":{"highway":"service","lanes":"2","lanes:backward":"1","lanes:forward":"1","surface":"asphalt","turn:lanes:backward":"left","startNodeId":"4606931461","endNodeId":"4488415931"},"geometry":{"type":"LineString","coordinates":[[103.8161896,1.4646251],[103.8161712,1.4645838]]}},{"type":"Feature","id":"way/676950919-0-1-0","properties":{"highway":"service","lanes":"2","lanes:backward":"1","lanes:forward":"1","surface":"asphalt","turn:lanes:backward":"left","startNodeId":"4488415931","endNodeId":"6338984044"},"geometry":{"type":"LineString","coordinates":[[103.8161712,1.4645838],[103.8160881,1.464501]]}},{"type":"Feature","id":"way/684414455-0-0-0","properties":{"highway":"service","lanes":"2","lanes:backward":"1","lanes:forward":"1","turn:lanes:backward":"through","turn:lanes:forward":"through;right","startNodeId":"6412186162","endNodeId":"4488415923"},"geometry":{"type":"LineString","coordinates":[[103.815769,1.4653979],[103.8159687,1.4654593]]}}]}