{"type":"FeatureCollection","features":[{"type":"Feature","id":"way/130359728-0","properties":{"building":"yes"},"geometry":{"type":"Polygon","coordinates":[[[103.8159659,1.4214981],[103.8158811,1.4210769],[103.815062,1.4212418],[103.8151469,1.421663],[103.8159659,1.4214981]]]}},{"type":"Feature","id":"way/451923084-0","properties":{"building":"yes"},"geometry":{"type":"Polygon","coordinates":[[[103.81606,1.4199486],[103.8160394,1.4198441],[103.81625,1.4198027],[103.8162681,1.4198948],[103.8163768,1.4198734],[103.8163307,1.4196391],[103.8163552,1.4196342],[103.8163359,1.4195359],[103.816199,1.4195629],[103.8162262,1.4197013],[103.8160382,1.4197383],[103.8160186,1.4196385],[103.8158972,1.4196624],[103.8159575,1.4199688],[103.81606,1.4199486]]]}},{"type":"Feature","id":"way/451923091-0","properties":{"building":"yes"},"geometry":{"type":"Polygon","coordinates":[[[103.8178344,1.4189086],[103.8180416,1.4188717],[103.818023,1.418767],[103.8178158,1.4188039],[103.8178344,1.4189086]]]}},{"type":"Feature","id":"way/451923093-0","properties":{"building":"yes"},"geometry":{"type":"Polygon","coordinates":[[[103.8174786,1.4201182],[103.817771,1.419846],[103.817703,1.419773],[103.8174106,1.4200452],[103.8174786,1.4201182]]]}},{"type":"Feature","id":"way/451923096-0","properties":{"building":"yes"},"geometry":{"type":"Polygon","coordinates":[[[103.8157041,1.4206735],[103.8158825,1.4206347],[103.8158635,1.4205474],[103.8156851,1.4205863],[103.8157041,1.4206735]]]}},{"type":"Feature","id":"way/451923099-0","properties":{"building":"yes"},"geometry":{"type":"Polygon","coordinates":[[[103.8172344,1.4202399],[103.8173622,1.4201264],[103.8173068,1.420064],[103.8171789,1.4201776],[103.8172344,1.4202399]]]}},{"type":"Feature","id":"way/451923104-0","properties":{"building":"yes"},"geometry":{"type":"Polygon","coordinates":[[[103.8168072,1.4215811],[103.8166755,1.4214032],[103.8165058,1.4215287],[103.8166375,1.4217066],[103.8168072,1.4215811]]]}},{"type":"Feature","id":"way/451923105-0","properties":{"building":"yes"},"geometry":{"type":"Polygon","coordinates":[[[103.8172319,1.4200629],[103.8171608,1.419979],[103.8170602,1.4200641],[103.8171313,1.4201481],[103.8172319,1.4200629]]]}},{"type":"Feature","id":"way/451923107-0","properties":{"building":"yes"},"geometry":{"type":"Polygon","coordinates":[[[103.8176299,1.4202249],[103.8178521,1.4200275],[103.8177924,1.4199604],[103.8175702,1.4201578],[103.8176299,1.4202249]]]}},{"type":"Feature","id":"way/451923110-0","properties":{"building":"yes"},"geometry":{"type":"Polygon","coordinates":[[[103.8182448,1.4211627],[103.8183803,1.421347],[103.8185392,1.4212303],[103.8184037,1.421046],[103.8182448,1.4211627]]]}},{"type":"Feature","id":"way/451923112-0","properties":{"building":"yes"},"geometry":{"type":"Polygon","coordinates":[[[103.8167476,1.4213003],[103.8170943,1.4209421],[103.8169003,1.4207543],[103.8165535,1.4211125],[103.8167476,1.4213003]]]}},{"type":"Feature","id":"way/451923114-0","properties":{"building":"yes"},"geometry":{"type":"Polygon","coordinates":[[[103.8174974,1.4216907],[103.8176396,1.421881],[103.8178086,1.4217549],[103.8176664,1.4215645],[103.8174974,1.4216907]]]}},{"type":"Feature","id":"way/451923115-0","properties":{"building":"yes"},"geometry":{"type":"Polygon","coordinates":[[[103.8170367,1.4203189],[103.8171643,1.4204747],[103.8172354,1.4204165],[103.8171079,1.4202607],[103.8170367,1.4203189]]]}},{"type":"Feature","id":"way/451923118-0","properties":{"building":"yes"},"geometry":{"type":"Polygon","coordinates":[[[103.8161689,1.421015],[103.8161455,1.420911],[103.8159819,1.4209479],[103.8160053,1.4210519],[103.8161689,1.421015]]]}},{"type":"Feature","id":"way/451923119-0","properties":{"building":"yes"},"geometry":{"type":"Polygon","coordinates":[[[103.8172872,1.4202994],[103.8174151,1.4201858],[103.8173622,1.4201264],[103.8172344,1.4202399],[103.8172872,1.4202994]]]}},{"type":"Feature","id":"way/451923121-0","properties":{"building":"yes"},"geometry":{"type":"Polygon","coordinates":[[[103.8173087,1.4200057],[103.8176775,1.4196705],[103.8176024,1.419588],[103.8172336,1.4199232],[103.8173087,1.4200057]]]}},{"type":"Feature","id":"way/451923123-0","properties":{"building":"yes"},"geometry":{"type":"Polygon","coordinates":[[[103.818687,1.4189152],[103.8186239,1.4185945],[103.8184254,1.4186335],[103.8184885,1.4189542],[103.818687,1.4189152]]]}},{"type":"Feature","id":"way/451923125-0","properties":{"building":"yes"},"geometry":{"type":"Polygon","coordinates":[[[103.8162786,1.4204869],[103.8162382,1.4202814],[103.8160138,1.4203255],[103.8160543,1.420531],[103.8162786,1.4204869]]]}},{"type":"Feature","id":"way/451923130-0","properties":{"building":"yes"},"geometry":{"type":"Polygon","coordinates":[[[103.8156611,1.4204749],[103.8157778,1.4204534],[103.8157616,1.4203651],[103.8156449,1.4203866],[103.8156611,1.4204749]]]}},{"type":"Feature","id":"way/451923133-0","properties":{"building":"yes"},"geometry":{"type":"Polygon","coordinates":[[[103.8171067,1.4201886],[103.8170329,1.4201077],[103.8169361,1.4201959],[103.81701,1.4202768],[103.8171067,1.4201886]]]}},{"type":"Feature","id":"way/451923141-0","properties":{"building":"yes"},"geometry":{"type":"Polygon","coordinates":[[[103.8188578,1.4210205],[103.818727,1.4208348],[103.8185613,1.4209515],[103.818692,1.4211372],[103.8188578,1.4210205]]]}},{"type":"Feature","id":"way/451923142-0","properties":{"building":"yes"},"geometry":{"type":"Polygon","coordinates":[[[103.8168667,1.4203649],[103.8168167,1.4203166],[103.8166924,1.4204449],[103.8167424,1.4204933],[103.8168667,1.4203649]]]}},{"type":"Feature","id":"way/451923143-0","properties":{"building":"yes"},"geometry":{"type":"Polygon","coordinates":[[[103.8168313,1.4206974],[103.816641,1.4205133],[103.8162975,1.4208681],[103.8164878,1.4210522],[103.8168313,1.4206974]]]}},{"type":"Feature","id":"way/451923145-0","properties":{"building":"yes"},"geometry":{"type":"Polygon","coordinates":[[[103.8152213,1.4211714],[103.8151986,1.4210624],[103.8150807,1.421087],[103.8151034,1.421196],[103.8152213,1.4211714]]]}},{"type":"Feature","id":"way/451923146-0","properties":{"building":"yes"},"geometry":{"type":"Polygon","coordinates":[[[103.8183923,1.4204577],[103.8182437,1.4202568],[103.8176961,1.4206618],[103.8177874,1.4207851],[103.8177522,1.4208111],[103.8178096,1.4208887],[103.8183923,1.4204577]]]}},{"type":"Feature","id":"way/451923150-0","properties":{"building":"yes"},"geometry":{"type":"Polygon","coordinates":[[[103.8178874,1.4204678],[103.8177887,1.4203344],[103.8177182,1.4203866],[103.8177315,1.4204046],[103.8176484,1.420466],[103.8177338,1.4205815],[103.8178874,1.4204678]]]}},{"type":"Feature","id":"way/451923153-0","properties":{"building":"yes"},"geometry":{"type":"Polygon","coordinates":[[[103.8155238,1.4200888],[103.8154815,1.4197326],[103.8153009,1.419754],[103.8153253,1.4199595],[103.8152508,1.4199684],[103.8152687,1.4201191],[103.8155238,1.4200888]]]}},{"type":"Feature","id":"way/451923154-0","properties":{"building":"yes"},"geometry":{"type":"Polygon","coordinates":[[[103.814987,1.4208531],[103.8150983,1.4208312],[103.8150904,1.420791],[103.8156351,1.4206839],[103.8155821,1.4204144],[103.8149261,1.4205434],[103.814987,1.4208531]]]}},{"type":"Feature","id":"way/451923155-0","properties":{"building":"yes"},"geometry":{"type":"Polygon","coordinates":[[[103.8190466,1.4202267],[103.8190099,1.4199172],[103.8188781,1.4199329],[103.8188686,1.4198523],[103.8184375,1.4199035],[103.8184838,1.4202935],[103.8190466,1.4202267]]]}},{"type":"Feature","id":"way/451923157-0","properties":{"building":"yes"},"geometry":{"type":"Polygon","coordinates":[[[103.8194948,1.4205651],[103.8197654,1.4202764],[103.8197116,1.420226],[103.8196294,1.4203136],[103.8194977,1.4201902],[103.8195798,1.4201026],[103.8195033,1.4200309],[103.8192327,1.4203197],[103.8194948,1.4205651]]]}},{"type":"Feature","id":"way/451923158-0","properties":{"building":"yes"},"geometry":{"type":"Polygon","coordinates":[[[103.8196268,1.4194791],[103.819594,1.4193126],[103.8194557,1.4193398],[103.8194444,1.4192821],[103.819351,1.4193005],[103.819364,1.4193666],[103.8192346,1.419392],[103.8192657,1.4195501],[103.8196268,1.4194791]]]}},{"type":"Feature","id":"way/451923160-0","properties":{"building":"yes"},"geometry":{"type":"Polygon","coordinates":[[[103.817949,1.4216619],[103.8181194,1.4215458],[103.8180796,1.4214875],[103.8181372,1.4214482],[103.8180768,1.4213596],[103.8180192,1.4213989],[103.8179947,1.421363],[103.8178243,1.421479],[103.817949,1.4216619]]]}},{"type":"Feature","id":"way/130309343-0-0-0","properties":{"highway":"service","lanes":"3","lanes:backward":"1","lanes:forward":"2","turn:lanes:backward":"left;right","turn:lanes:forward":"through|through"},"geometry":{"type":"LineString","coordinates":[[103.8175285,1.419123],[103.8176904,1.4192783]]}},{"type":"Feature","id":"way/130309343-0-1-0","properties":{"highway":"service","lanes":"3","lanes:backward":"1","lanes:forward":"2","turn:lanes:backward":"left;right","turn:lanes:forward":"through|through"},"geometry":{"type":"LineString","coordinates":[[103.8176904,1.4192783],[103.8177805,1.4193979]]}},{"type":"Feature","id":"way/130309356-0-0-0","properties":{"highway":"service","lanes":"2","surface":"asphalt"},"geometry":{"type":"LineString","coordinates":[[103.8154673,1.4189982],[103.8154813,1.4188963]]}},{"type":"Feature","id":"way/130309356-0-1-0","properties":{"highway":"service","lanes":"2","surface":"asphalt"},"geometry":{"type":"LineString","coordinates":[[103.8154813,1.4188963],[103.8154953,1.4187941]]}},{"type":"Feature","id":"way/642466471-0-0-0","properties":{"highway":"service"},"geometry":{"type":"LineString","coordinates":[[103.8195334,1.4208337],[103.8193926,1.4206822]]}},{"type":"Feature","id":"way/642466471-0-1-0","properties":{"highway":"service"},"geometry":{"type":"LineString","coordinates":[[103.8193926,1.4206822],[103.8193537,1.4206192]]}},{"type":"Feature","id":"way/642466471-0-2-0","properties":{"highway":"service"},"geometry":{"type":"LineString","coordinates":[[103.8193537,1.4206192],[103.8193524,1.4205186]]}},{"type":"Feature","id":"way/644684279-0-0-0","properties":{"highway":"unclassified","lanes":"2","lanes:backward":"1","lanes:forward":"1","maxspeed":"50","name":"Toranto Road","surface":"asphalt"},"geometry":{"type":"LineString","coordinates":[[103.8173694,1.4189648],[103.8175518,1.4188159]]}},{"type":"Feature","id":"way/644684279-0-1-0","properties":{"highway":"unclassified","lanes":"2","lanes:backward":"1","lanes:forward":"1","maxspeed":"50","name":"Toranto Road","surface":"asphalt"},"geometry":{"type":"LineString","coordinates":[[103.8175518,1.4188159],[103.8176154,1.4187577]]}},{"type":"Feature","id":"way/644684282-0-0-0","properties":{"highway":"unclassified","lanes":"2","lanes:backward":"1","lanes:forward":"1","maxspeed":"50","name":"Toranto Road","surface":"asphalt","turn:lanes:forward":"left;through"},"geometry":{"type":"LineString","coordinates":[[103.8168133,1.4192474],[103.8169563,1.4192121]]}},{"type":"Feature","id":"way/644684282-0-1-0","properties":{"highway":"unclassified","lanes":"2","lanes:backward":"1","lanes:forward":"1","maxspeed":"50","name":"Toranto Road","surface":"asphalt","turn:lanes:forward":"left;through"},"geometry":{"type":"LineString","coordinates":[[103.8169563,1.4192121],[103.8170778,1.4191566]]}},{"type":"Feature","id":"way/644684282-0-2-0","properties":{"highway":"unclassified","lanes":"2","lanes:backward":"1","lanes:forward":"1","maxspeed":"50","name":"Toranto Road","surface":"asphalt","turn:lanes:forward":"left;through"},"geometry":{"type":"LineString","coordinates":[[103.8170778,1.4191566],[103.8173694,1.4189648]]}},{"type":"Feature","id":"way/649061731-0-0-0","properties":{"highway":"service","lanes":"3","lanes:backward":"1","lanes:forward":"2","turn:lanes:backward":"left;right","turn:lanes:forward":"through|through"},"geometry":{"type":"LineString","coordinates":[[103.8173694,1.4189648],[103.8174283,1.4190234]]}},{"type":"Feature","id":"way/649061731-0-1-0","properties":{"highway":"service","lanes":"3","lanes:backward":"1","lanes:forward":"2","turn:lanes:backward":"left;right","turn:lanes:forward":"through|through"},"geometry":{"type":"LineString","coordinates":[[103.8174283,1.4190234],[103.8175285,1.419123]]}},{"type":"Feature","id":"way/713566756-0-0-0","properties":{"highway":"service","lanes":"2","lanes:backward":"1","lanes:forward":"1","surface":"asphalt","turn:lanes:backward":"right"},"geometry":{"type":"LineString","coordinates":[[103.815568,1.4194915],[103.8154673,1.4189982]]}},{"type":"Feature","id":"way/713566757-0-0-0","properties":{"highway":"unclassified","lanes":"2","lanes:backward":"1","lanes:forward":"1","maxspeed":"50","name":"Toranto Road","sidewalk":"right","surface":"asphalt"},"geometry":{"type":"LineString","coordinates":[[103.8157877,1.4194525],[103.816096,1.4193899]]}},{"type":"Feature","id":"way/713566757-0-1-0","properties":{"highway":"unclassified","lanes":"2","lanes:backward":"1","lanes:forward":"1","maxspeed":"50","name":"Toranto Road","sidewalk":"right","surface":"asphalt"},"geometry":{"type":"LineString","coordinates":[[103.816096,1.4193899],[103.8168133,1.4192474]]}},{"type":"Feature","id":"way/713566758-0-0-0","properties":{"highway":"unclassified","lanes":"2","lanes:backward":"1","lanes:forward":"1","maxspeed":"50","name":"Toranto Road","sidewalk":"right","surface":"asphalt","turn:lanes:backward":"left","turn:lanes:forward":"through"},"geometry":{"type":"LineString","coordinates":[[103.815568,1.4194915],[103.8157877,1.4194525]]}},{"type":"Feature","id":"way/725438483-0-1-0","properties":{"highway":"service"},"geometry":{"type":"LineString","coordinates":[[103.8195643,1.4207975],[103.8195334,1.4208337]]}},{"type":"Feature","id":"way/1227737885-0-1-0","properties":{"highway":"service","oneway":"yes","service":"parking_aisle"},"geometry":{"type":"LineString","coordinates":[[103.8160145,1.4186049],[103.8154813,1.4188963]]}},{"type":"Feature","id":"way/1512644111-0-0-0","properties":{"highway":"service"},"geometry":{"type":"LineString","coordinates":[[103.8150853,1.4219032],[103.8150786,1.4219776]]}},{"type":"Feature","id":"way/1512644112-0-0-0","properties":{"highway":"service"},"geometry":{"type":"LineString","coordinates":[[103.8150786,1.4219776],[103.8151704,1.4220436]]}},{"type":"Feature","id":"way/1512644112-0-1-0","properties":{"highway":"service"},"geometry":{"type":"LineString","coordinates":[[103.8151704,1.4220436],[103.8152265,1.4221372]]}},{"type":"Feature","id":"way/1512644112-0-2-0","properties":{"highway":"service"},"geometry":{"type":"LineString","coordinates":[[103.8152265,1.4221372],[103.8155223,1.4228335]]}},{"type":"Feature","id":"way/1512644113-0-0-0","properties":{"highway":"service"},"geometry":{"type":"LineString","coordinates":[[103.8178871,1.421099],[103.8176229,1.4207206]]}},{"type":"Feature","id":"way/1512644113-0-1-0","properties":{"highway":"service"},"geometry":{"type":"LineString","coordinates":[[103.8176229,1.4207206],[103.8175735,1.4206844]]}},{"type":"Feature","id":"way/1512644113-0-2-0","properties":{"highway":"service"},"geometry":{"type":"LineString","coordinates":[[103.8175735,1.4206844],[103.8172611,1.4206614]]}},{"type":"Feature","id":"way/1512644113-0-3-0","properties":{"highway":"service"},"geometry":{"type":"LineString","coordinates":[[103.8172611,1.4206614],[103.8171921,1.4206351]]}},{"type":"Feature","id":"way/1512644113-0-4-0","properties":{"highway":"service"},"geometry":{"type":"LineString","coordinates":[[103.8171921,1.4206351],[103.8169915,1.4205365]]}},{"type":"Feature","id":"way/1512644113-0-5-0","properties":{"highway":"service"},"geometry":{"type":"LineString","coordinates":[[103.8169915,1.4205365],[103.8169553,1.4205398]]}},{"type":"Feature","id":"way/1512644113-0-6-0","properties":{"highway":"service"},"geometry":{"type":"LineString","coordinates":[[103.8169553,1.4205398],[103.8168764,1.4206055]]}},{"type":"Feature","id":"way/1512644114-0-0-0","properties":{"highway":"service"},"geometry":{"type":"LineString","coordinates":[[103.8175735,1.4206844],[103.8176163,1.4206318]]}},{"type":"Feature","id":"way/1512644114-0-1-0","properties":{"highway":"service"},"geometry":{"type":"LineString","coordinates":[[103.8176163,1.4206318],[103.8176196,1.4205759]]}},{"type":"Feature","id":"way/1512644114-0-2-0","properties":{"highway":"service"},"geometry":{"type":"LineString","coordinates":[[103.8176196,1.4205759],[103.8176262,1.4204181]]}},{"type":"Feature","id":"way/1512644115-0-0-0","properties":{"highway":"service"},"geometry":{"type":"LineString","coordinates":[[103.8161337,1.4215563],[103.8161905,1.4216723]]}},{"type":"Feature","id":"way/1512644115-0-1-0","properties":{"highway":"service"},"geometry":{"type":"LineString","coordinates":[[103.8161905,1.4216723],[103.8162504,1.4217151]]}},{"type":"Feature","id":"way/1512644115-0-2-0","properties":{"highway":"service"},"geometry":{"type":"LineString","coordinates":[[103.8162504,1.4217151],[103.8167923,1.4218784]]}}]}