{"type":"FeatureCollection","features":[{"type":"Feature","id":"way/1470161265-0-5-0","properties":{"bicycle":"no","cycleway:both":"no","foot":"yes","highway":"unclassified","horse":"no","lit":"no","motor_vehicle":"no","name":"Peirce Track","smoothness":"intermediate","surface":"asphalt","vehicle":"no"},"geometry":{"type":"LineString","coordinates":[[103.8127904,1.360369],[103.8127055,1.3603905]]}},{"type":"Feature","id":"way/1470161265-0-6-0","properties":{"bicycle":"no","cycleway:both":"no","foot":"yes","highway":"unclassified","horse":"no","lit":"no","motor_vehicle":"no","name":"Peirce Track","smoothness":"intermediate","surface":"asphalt","vehicle":"no"},"geometry":{"type":"LineString","coordinates":[[103.8127055,1.3603905],[103.8126244,1.36039]]}}]}