{"type":"FeatureCollection","features":[{"type":"Feature","id":"relation/15790121-0","properties":{"addr:city":"Singapore","addr:country":"SG","addr:housenumber":"7","addr:postcode":"757087","addr:street":"Gambas Crescent","building":"industrial","building:levels":"9","layer":"1","type":"multipolygon"},"geometry":{"type":"Polygon","coordinates":[[[103.8134864,1.4451229],[103.8131283,1.4451756],[103.8131205,1.4451217],[103.8131146,1.4450809],[103.8135561,1.4450237],[103.8135481,1.4448427],[103.8134421,1.4448548],[103.8134348,1.4448206],[103.8132624,1.4448434],[103.8132689,1.4449051],[103.8132363,1.4449085],[103.8132298,1.4448468],[103.8132137,1.4447516],[103.8131293,1.4447604],[103.8131307,1.4447766],[103.8130713,1.444785],[103.8130512,1.4446306],[103.8132886,1.4446027],[103.8132732,1.444464],[103.8132048,1.444468],[103.8131967,1.4443627],[103.8131605,1.4443674],[103.8131498,1.4442984],[103.8125345,1.4443754],[103.8125352,1.4444144],[103.8124162,1.4444296],[103.8124171,1.4444473],[103.8123646,1.4444492],[103.8123661,1.4444822],[103.8123291,1.4444832],[103.8123304,1.4445447],[103.8121909,1.4445618],[103.8122057,1.4446834],[103.8120714,1.444701],[103.8121199,1.4450579],[103.8122622,1.4450436],[103.8122696,1.4451205],[103.8123331,1.4451192],[103.812333,1.4451336],[103.812364,1.4451336],[103.8123666,1.4451755],[103.8130145,1.4450957],[103.8130198,1.4451363],[103.8130228,1.4451593],[103.8126133,1.4452234],[103.8125812,1.4452529],[103.8125731,1.4452804],[103.8125684,1.4453072],[103.8125673,1.4453339],[103.8125739,1.4453584],[103.8125906,1.4453801],[103.8126104,1.4454016],[103.8126368,1.4454178],[103.812673,1.4454219],[103.812953,1.445387],[103.8129811,1.4453602],[103.8129915,1.4453418],[103.8130033,1.4453143],[103.8130065,1.4452904],[103.8130117,1.4452722],[103.8130249,1.4452626],[103.8130379,1.4452546],[103.8130485,1.4452543],[103.8130537,1.4452565],[103.8130552,1.4452667],[103.8130733,1.4454426],[103.8131297,1.4454373],[103.8131317,1.4454165],[103.8135146,1.4453749],[103.8134985,1.445198],[103.8134864,1.4451229]],[[103.8128559,1.444843],[103.812342,1.4449012],[103.8123252,1.4447526],[103.8128391,1.4446944],[103.8128559,1.444843]],[[103.8129077,1.4452362],[103.8129258,1.4452442],[103.8129379,1.4452563],[103.8129432,1.4452737],[103.8129439,1.4452948],[103.8129332,1.4453106],[103.8129178,1.4453247],[103.8126814,1.4453555],[103.8126586,1.4453528],[103.8126432,1.4453414],[103.8126321,1.445323],[103.8126321,1.4453025],[103.8126402,1.4452861],[103.8126522,1.4452737],[103.8129077,1.4452362]]]}},{"type":"Feature","id":"way/507130503-0","properties":{"building":"utility","frequency":"50","height":"0","power":"substation","voltage":"66000"},"geometry":{"type":"Polygon","coordinates":[[[103.8145026,1.4437306],[103.8144063,1.4435711],[103.8141644,1.4437171],[103.814189,1.4437579],[103.814401,1.4441089],[103.8146429,1.4439629],[103.8145026,1.4437306]]]}},{"type":"Feature","id":"way/629210127-0","properties":{"building":"yes"},"geometry":{"type":"Polygon","coordinates":[[[103.810662,1.4421117],[103.8107194,1.4422049],[103.8109111,1.4420869],[103.8108538,1.4419938],[103.810662,1.4421117]]]}},{"type":"Feature","id":"way/725206928-0","properties":{"addr:city":"Singapore","addr:housenumber":"101","addr:postcode":"737710","addr:street":"Woodland View","building":"residential","building:levels":"16","residential":"condominium"},"geometry":{"type":"Polygon","coordinates":[[[103.8105608,1.4439313],[103.8105608,1.4439386],[103.8105977,1.4439427],[103.810597,1.4439574],[103.8106969,1.4439655],[103.8106943,1.4439527],[103.8107211,1.4439541],[103.8107231,1.4439467],[103.8107492,1.4439474],[103.8107512,1.4439179],[103.8107459,1.4439159],[103.8107466,1.4439038],[103.8107526,1.4438964],[103.8107506,1.4438837],[103.8107419,1.4438823],[103.8107432,1.4438703],[103.8108015,1.4438649],[103.8107968,1.4438347],[103.810823,1.4438327],[103.8108196,1.4437918],[103.8107915,1.4437972],[103.8107875,1.4437885],[103.8107298,1.4437972],[103.8107291,1.4437811],[103.8106768,1.4437871],[103.8106761,1.4438032],[103.8106493,1.4438026],[103.8106453,1.4437825],[103.8106071,1.4437711],[103.8106037,1.4437851],[103.8105367,1.4437637],[103.8105179,1.443828],[103.8105796,1.4438475],[103.8105776,1.4438548],[103.8105863,1.4438595],[103.8105856,1.4438683],[103.8105494,1.4438649],[103.8105474,1.4438951],[103.81054,1.4438951],[103.8105353,1.4439306],[103.8105608,1.4439313]]]}},{"type":"Feature","id":"way/725206929-0","properties":{"addr:city":"Singapore","addr:housenumber":"103","addr:postcode":"737710","addr:street":"Woodland View","building":"residential","building:levels":"16","residential":"condominium"},"geometry":{"type":"Polygon","coordinates":[[[103.8108947,1.4436732],[103.8108854,1.4436812],[103.8109336,1.4437241],[103.810939,1.4437161],[103.8109618,1.4437382],[103.8109477,1.4437489],[103.8109685,1.4437932],[103.8109819,1.4437912],[103.811004,1.4438508],[103.8110684,1.4438233],[103.8110403,1.4437623],[103.8110517,1.4437556],[103.8110463,1.4437463],[103.8110543,1.4437436],[103.8110651,1.4437664],[103.8111361,1.4437168],[103.8111274,1.443708],[103.8111516,1.4436933],[103.8111281,1.4436658],[103.8111187,1.4436725],[103.8110872,1.4436249],[103.8110791,1.4436296],[103.8110537,1.4435954],[103.8110429,1.4436028],[103.8110248,1.443572],[103.8110195,1.443576],[103.8110027,1.4435512],[103.8109477,1.4435907],[103.8109638,1.4436155],[103.8109558,1.4436222],[103.8109155,1.4435793],[103.8109102,1.4435854],[103.8108559,1.4436403],[103.8108947,1.4436732]]]}},{"type":"Feature","id":"way/725206930-0","properties":{"addr:city":"Singapore","addr:housenumber":"105","addr:postcode":"737710","addr:street":"Woodland View","building":"residential","building:levels":"16","residential":"condominium"},"geometry":{"type":"Polygon","coordinates":[[[103.8109102,1.4435854],[103.8108854,1.4435646],[103.8108914,1.4435606],[103.8108673,1.4435371],[103.8108733,1.4435271],[103.8108947,1.4435398],[103.8109095,1.4435136],[103.8109169,1.4435163],[103.810937,1.4434842],[103.8109095,1.4434721],[103.8109108,1.4434627],[103.810882,1.4434473],[103.8108887,1.4434352],[103.8107982,1.4433742],[103.8107868,1.443389],[103.8107573,1.4433682],[103.8107519,1.4433735],[103.8107305,1.4433561],[103.810709,1.443387],[103.8107231,1.4433957],[103.810707,1.4434258],[103.8107325,1.4434406],[103.8107278,1.4434547],[103.8106594,1.4434272],[103.8106513,1.4434493],[103.8106346,1.4434379],[103.8106118,1.4434915],[103.8106862,1.4435163],[103.8106849,1.4435297],[103.8107425,1.4435498],[103.8107519,1.4435371],[103.8107794,1.4435552],[103.8107667,1.4435666],[103.8108129,1.4436088],[103.8108203,1.4436015],[103.8108559,1.4436403],[103.8109102,1.4435854]]]}},{"type":"Feature","id":"way/1120005875-0","properties":{"addr:city":"Singapore","addr:country":"SG","addr:housenumber":"3","addr:neighbourhood":"Nordcom One","addr:postcode":"757088","addr:street":"Gambas Crescent","building":"industrial","height":"0"},"geometry":{"type":"Polygon","coordinates":[[[103.8143201,1.444133],[103.8142822,1.4440673],[103.8140958,1.4437433],[103.8140693,1.4437214],[103.8140374,1.4437085],[103.8140032,1.4437056],[103.8139696,1.4437131],[103.8139399,1.4437303],[103.8139166,1.4437556],[103.8139019,1.4437867],[103.8138972,1.4438207],[103.8139029,1.4438546],[103.8134788,1.444099],[103.8136655,1.4444228],[103.8137034,1.4444885],[103.8143201,1.444133]]]}},{"type":"Feature","id":"way/1120005876-0","properties":{"addr:city":"Singapore","addr:country":"SG","addr:housenumber":"3B","addr:neighbourhood":"Nordcom One","addr:postcode":"757090","addr:street":"Gambas Crescent","building":"industrial","building:colour":"grey","building:levels":"3","roof:colour":"grey"},"geometry":{"type":"Polygon","coordinates":[[[103.8137968,1.4446394],[103.8138377,1.4447103],[103.8139676,1.4446355],[103.8139267,1.4445645],[103.8137968,1.4446394]]]}},{"type":"Feature","id":"way/1167474171-0","properties":{"addr:city":"Singapore","addr:country":"SG","addr:housenumber":"5G","addr:neighbourhood":"Nordcom One","addr:street":"Gambas Crescent","building":"industrial","building:colour":"grey","building:levels":"3","roof:colour":"grey"},"geometry":{"type":"Polygon","coordinates":[[[103.8133254,1.4440459],[103.8131622,1.4441418],[103.8132032,1.4442116],[103.8133664,1.4441157],[103.8133254,1.4440459]]]}},{"type":"Feature","id":"way/1167474172-0","properties":{"addr:city":"Singapore","addr:country":"SG","addr:housenumber":"5F","addr:neighbourhood":"Nordcom One","addr:street":"Gambas Crescent","building":"industrial","building:colour":"grey","building:levels":"3","roof:colour":"lightgray"},"geometry":{"type":"Polygon","coordinates":[[[103.8133664,1.4441157],[103.8132032,1.4442116],[103.8132442,1.4442814],[103.8134075,1.4441856],[103.8133664,1.4441157]]]}},{"type":"Feature","id":"way/1167474173-0","properties":{"addr:city":"Singapore","addr:country":"SG","addr:housenumber":"5E","addr:neighbourhood":"Nordcom One","addr:street":"Gambas Crescent","building":"industrial","building:colour":"grey","building:levels":"3","roof:colour":"grey"},"geometry":{"type":"Polygon","coordinates":[[[103.8134075,1.4441856],[103.8132442,1.4442814],[103.8132853,1.4443513],[103.8134485,1.4442554],[103.8134075,1.4441856]]]}},{"type":"Feature","id":"way/1167474174-0","properties":{"addr:city":"Singapore","addr:country":"SG","addr:housenumber":"5D","addr:neighbourhood":"Nordcom One","addr:street":"Gambas Crescent","building":"industrial","building:colour":"grey","building:levels":"3","roof:colour":"lightgray"},"geometry":{"type":"Polygon","coordinates":[[[103.8134485,1.4442554],[103.8132853,1.4443513],[103.8133263,1.4444211],[103.8134895,1.4443252],[103.8134485,1.4442554]]]}},{"type":"Feature","id":"way/1167474175-0","properties":{"addr:city":"Singapore","addr:country":"SG","addr:housenumber":"5C","addr:neighbourhood":"Nordcom One","addr:street":"Gambas Crescent","building":"industrial","building:colour":"grey","building:levels":"3","roof:colour":"grey"},"geometry":{"type":"Polygon","coordinates":[[[103.8134895,1.4443252],[103.8133263,1.4444211],[103.8133674,1.4444909],[103.8135306,1.4443951],[103.8134895,1.4443252]]]}},{"type":"Feature","id":"way/1167474176-0","properties":{"addr:city":"Singapore","addr:country":"SG","addr:housenumber":"5B","addr:neighbourhood":"Nordcom One","addr:street":"Gambas Crescent","building":"industrial","building:colour":"grey","building:levels":"3","roof:colour":"lightgray"},"geometry":{"type":"Polygon","coordinates":[[[103.8135306,1.4443951],[103.8133674,1.4444909],[103.8134084,1.4445608],[103.8135716,1.4444649],[103.8135306,1.4443951]]]}},{"type":"Feature","id":"way/1167474177-0","properties":{"addr:city":"Singapore","addr:country":"SG","addr:housenumber":"5A","addr:neighbourhood":"Nordcom One","addr:street":"Gambas Crescent","building":"industrial","building:colour":"grey","building:levels":"3","roof:colour":"grey"},"geometry":{"type":"Polygon","coordinates":[[[103.8135716,1.4444649],[103.8134084,1.4445608],[103.8134495,1.4446306],[103.8136127,1.4445347],[103.8135716,1.4444649]]]}},{"type":"Feature","id":"way/1167474178-0","properties":{"addr:city":"Singapore","addr:country":"SG","addr:housenumber":"5","addr:neighbourhood":"Nordcom One","addr:street":"Gambas Crescent","building":"industrial","building:colour":"grey","building:levels":"3","roof:colour":"lightgray"},"geometry":{"type":"Polygon","coordinates":[[[103.8136127,1.4445347],[103.8134495,1.4446306],[103.8134905,1.4447004],[103.8136537,1.4446046],[103.8136127,1.4445347]]]}},{"type":"Feature","id":"way/1167474179-0","properties":{"addr:city":"Singapore","addr:country":"SG","addr:housenumber":"3G","addr:neighbourhood":"Nordcom One","addr:street":"Gambas Crescent","building":"industrial","building:colour":"grey","building:levels":"3","roof:colour":"grey"},"geometry":{"type":"Polygon","coordinates":[[[103.8136537,1.4446046],[103.8134905,1.4447004],[103.8135315,1.4447703],[103.8136947,1.4446744],[103.8136537,1.4446046]]]}},{"type":"Feature","id":"way/1167474180-0","properties":{"addr:city":"Singapore","addr:country":"SG","addr:housenumber":"3F","addr:neighbourhood":"Nordcom One","addr:street":"Gambas Crescent","building":"industrial","building:colour":"grey","building:levels":"3","roof:colour":"lightgray"},"geometry":{"type":"Polygon","coordinates":[[[103.8136947,1.4446744],[103.8135315,1.4447703],[103.8135726,1.4448401],[103.8137358,1.4447442],[103.8136947,1.4446744]]]}},{"type":"Feature","id":"way/1167474181-0","properties":{"addr:city":"Singapore","addr:country":"SG","addr:housenumber":"3E","addr:neighbourhood":"Nordcom One","addr:postcode":"757033","addr:street":"Gambas Crescent","building":"industrial","building:colour":"grey","building:levels":"3","roof:colour":"grey"},"geometry":{"type":"Polygon","coordinates":[[[103.8137358,1.4447442],[103.8135726,1.4448401],[103.8136136,1.4449099],[103.8137768,1.444814],[103.8137358,1.4447442]]]}},{"type":"Feature","id":"way/1167474182-0","properties":{"addr:city":"Singapore","addr:country":"SG","addr:housenumber":"3D","addr:neighbourhood":"Nordcom One","addr:postcode":"757092","addr:street":"Gambas Crescent","building":"industrial","building:colour":"grey","building:levels":"3","roof:colour":"lightgray"},"geometry":{"type":"Polygon","coordinates":[[[103.8137768,1.444814],[103.8136136,1.4449099],[103.8136547,1.4449797],[103.8138179,1.4448839],[103.8137768,1.444814]]]}},{"type":"Feature","id":"way/1167474183-0","properties":{"addr:city":"Singapore","addr:country":"SG","addr:housenumber":"3A","addr:neighbourhood":"Nordcom One","addr:postcode":"757089","addr:street":"Gambas Crescent","building":"industrial","building:colour":"grey","building:levels":"3","roof:colour":"lightgray"},"geometry":{"type":"Polygon","coordinates":[[[103.8139267,1.4445645],[103.8138836,1.4444897],[103.8137537,1.4445646],[103.8137968,1.4446394],[103.8139267,1.4445645]]]}},{"type":"Feature","id":"way/1167474194-0","properties":{"addr:city":"Singapore","addr:country":"SG","addr:housenumber":"3C","addr:neighbourhood":"Nordcom One","addr:postcode":"757091","addr:street":"Gambas Crescent","building":"industrial","building:colour":"grey","building:levels":"3","roof:colour":"grey"},"geometry":{"type":"Polygon","coordinates":[[[103.8138179,1.4448839],[103.8136547,1.4449797],[103.8136957,1.4450496],[103.8138589,1.4449537],[103.8138179,1.4448839]]]}},{"type":"Feature","id":"way/1167474195-0","properties":{"building:colour":"grey","building:levels":"4","building:material":"concrete","building:part":"yes","roof:colour":"lightgray","roof:material":"concrete"},"geometry":{"type":"Polygon","coordinates":[[[103.8140958,1.4437433],[103.8140693,1.4437214],[103.8140374,1.4437085],[103.8140032,1.4437056],[103.8139696,1.4437131],[103.8139399,1.4437303],[103.8139166,1.4437556],[103.8139019,1.4437867],[103.8138972,1.4438207],[103.8139029,1.4438546],[103.8140958,1.4437433]]]}},{"type":"Feature","id":"way/1167474196-0","properties":{"building:colour":"grey","building:levels":"4","building:material":"concrete","building:part":"yes","roof:colour":"lightgray","roof:material":"concrete"},"geometry":{"type":"Polygon","coordinates":[[[103.8142822,1.4440673],[103.8136655,1.4444228],[103.8137034,1.4444885],[103.8143201,1.444133],[103.8142822,1.4440673]]]}},{"type":"Feature","id":"way/1167474197-0","properties":{"building:colour":"grey","building:levels":"10","building:material":"concrete","building:min_level":"4","building:part":"yes","roof:colour":"grey","roof:material":"concrete"},"geometry":{"type":"Polygon","coordinates":[[[103.8142822,1.4440673],[103.8140958,1.4437433],[103.8139029,1.4438546],[103.8134788,1.444099],[103.8136655,1.4444228],[103.8142822,1.4440673]]]}},{"type":"Feature","id":"way/1167474244-0","properties":{"building:levels":"5","building:part":"yes","roof:colour":"cyan","roof:material":"metal"},"geometry":{"type":"Polygon","coordinates":[[[103.8145026,1.4437306],[103.814356,1.443819],[103.8142844,1.4437004],[103.814189,1.4437579],[103.814401,1.4441089],[103.8146429,1.4439629],[103.8145026,1.4437306]]]}},{"type":"Feature","id":"way/1167474245-0","properties":{"building:levels":"7","building:part":"yes","roof:colour":"cyan","roof:material":"metal"},"geometry":{"type":"Polygon","coordinates":[[[103.8144063,1.4435711],[103.8141644,1.4437171],[103.814189,1.4437579],[103.8142844,1.4437004],[103.814356,1.443819],[103.8145026,1.4437306],[103.8144063,1.4435711]]]}},{"type":"Feature","id":"way/22773798-0-0-0","properties":{"highway":"primary","lanes":"3","maxspeed":"70","name":"Woodlands Avenue 10","name:zh":"\u5140\u517010\u9053","oneway":"yes","sidewalk":"no","source":"Yahoo aerial images","surface":"asphalt"},"geometry":{"type":"LineString","coordinates":[[103.8116492,1.4443619],[103.8116553,1.4444342]]}},{"type":"Feature","id":"way/22773798-0-1-0","properties":{"highway":"primary","lanes":"3","maxspeed":"70","name":"Woodlands Avenue 10","name:zh":"\u5140\u517010\u9053","oneway":"yes","sidewalk":"no","source":"Yahoo aerial images","surface":"asphalt"},"geometry":{"type":"LineString","coordinates":[[103.8116553,1.4444342],[103.8116942,1.4447807]]}},{"type":"Feature","id":"way/22775175-0-0-0","properties":{"highway":"primary","lanes":"4","maxspeed":"70","name":"Woodlands Avenue 12","name:zh":"\u5140\u517012\u9053","note":"Estimated location ???","oneway":"yes","source":"Yahoo aerial images","surface":"asphalt","turn:lanes":"through|through|through|right"},"geometry":{"type":"LineString","coordinates":[[103.8117758,1.444312],[103.8117557,1.44417]]}},{"type":"Feature","id":"way/194437523-0-0-0","properties":{"highway":"residential","lanes":"1","maxspeed":"50","name":"Gambas Crescent","oneway":"yes","surface":"asphalt"},"geometry":{"type":"LineString","coordinates":[[103.814659,1.4434243],[103.8146577,1.4433275]]}},{"type":"Feature","id":"way/194437523-0-1-0","properties":{"highway":"residential","lanes":"1","maxspeed":"50","name":"Gambas Crescent","oneway":"yes","surface":"asphalt"},"geometry":{"type":"LineString","coordinates":[[103.8146577,1.4433275],[103.8146646,1.4432319]]}},{"type":"Feature","id":"way/194437523-0-2-0","properties":{"highway":"residential","lanes":"1","maxspeed":"50","name":"Gambas Crescent","oneway":"yes","surface":"asphalt"},"geometry":{"type":"LineString","coordinates":[[103.8146646,1.4432319],[103.8147114,1.4431246]]}},{"type":"Feature","id":"way/194437523-0-3-0","properties":{"highway":"residential","lanes":"1","maxspeed":"50","name":"Gambas Crescent","oneway":"yes","surface":"asphalt"},"geometry":{"type":"LineString","coordinates":[[103.8147114,1.4431246],[103.8147879,1.4430145]]}},{"type":"Feature","id":"way/194437524-0-0-0","properties":{"highway":"residential","lanes":"1","maxspeed":"50","name":"Gambas Crescent","oneway":"yes","surface":"asphalt"},"geometry":{"type":"LineString","coordinates":[[103.8141914,1.4433054],[103.8143071,1.4432935]]}},{"type":"Feature","id":"way/194437524-0-1-0","properties":{"highway":"residential","lanes":"1","maxspeed":"50","name":"Gambas Crescent","oneway":"yes","surface":"asphalt"},"geometry":{"type":"LineString","coordinates":[[103.8143071,1.4432935],[103.8144675,1.4433249]]}},{"type":"Feature","id":"way/194437524-0-2-0","properties":{"highway":"residential","lanes":"1","maxspeed":"50","name":"Gambas Crescent","oneway":"yes","surface":"asphalt"},"geometry":{"type":"LineString","coordinates":[[103.8144675,1.4433249],[103.8145503,1.4433643]]}},{"type":"Feature","id":"way/194437524-0-3-0","properties":{"highway":"residential","lanes":"1","maxspeed":"50","name":"Gambas Crescent","oneway":"yes","surface":"asphalt"},"geometry":{"type":"LineString","coordinates":[[103.8145503,1.4433643],[103.814659,1.4434243]]}},{"type":"Feature","id":"way/194437525-0-0-0","properties":{"highway":"residential","lanes":"1","maxspeed":"50","name":"Gambas Crescent","oneway":"yes"},"geometry":{"type":"LineString","coordinates":[[103.8138451,1.4451568],[103.8138316,1.4452197]]}},{"type":"Feature","id":"way/194437525-0-1-0","properties":{"highway":"residential","lanes":"1","maxspeed":"50","name":"Gambas Crescent","oneway":"yes"},"geometry":{"type":"LineString","coordinates":[[103.8138316,1.4452197],[103.8138358,1.4452845]]}},{"type":"Feature","id":"way/194437525-0-2-0","properties":{"highway":"residential","lanes":"1","maxspeed":"50","name":"Gambas Crescent","oneway":"yes"},"geometry":{"type":"LineString","coordinates":[[103.8138358,1.4452845],[103.8138498,1.4453057]]}},{"type":"Feature","id":"way/194437525-0-3-0","properties":{"highway":"residential","lanes":"1","maxspeed":"50","name":"Gambas Crescent","oneway":"yes"},"geometry":{"type":"LineString","coordinates":[[103.8138498,1.4453057],[103.8138726,1.4453217]]}},{"type":"Feature","id":"way/194437525-0-4-0","properties":{"highway":"residential","lanes":"1","maxspeed":"50","name":"Gambas Crescent","oneway":"yes"},"geometry":{"type":"LineString","coordinates":[[103.8138726,1.4453217],[103.8139421,1.4453319]]}},{"type":"Feature","id":"way/194437525-0-5-0","properties":{"highway":"residential","lanes":"1","maxspeed":"50","name":"Gambas Crescent","oneway":"yes"},"geometry":{"type":"LineString","coordinates":[[103.8139421,1.4453319],[103.8139724,1.445327]]}},{"type":"Feature","id":"way/194437525-0-6-0","properties":{"highway":"residential","lanes":"1","maxspeed":"50","name":"Gambas Crescent","oneway":"yes"},"geometry":{"type":"LineString","coordinates":[[103.8139724,1.445327],[103.8140098,1.4452996]]}},{"type":"Feature","id":"way/194437525-0-7-0","properties":{"highway":"residential","lanes":"1","maxspeed":"50","name":"Gambas Crescent","oneway":"yes"},"geometry":{"type":"LineString","coordinates":[[103.8140098,1.4452996],[103.8140269,1.4452596]]}},{"type":"Feature","id":"way/194437525-0-8-0","properties":{"highway":"residential","lanes":"1","maxspeed":"50","name":"Gambas Crescent","oneway":"yes"},"geometry":{"type":"LineString","coordinates":[[103.8140269,1.4452596],[103.8140714,1.4450178]]}},{"type":"Feature","id":"way/194437525-0-9-0","properties":{"highway":"residential","lanes":"1","maxspeed":"50","name":"Gambas Crescent","oneway":"yes"},"geometry":{"type":"LineString","coordinates":[[103.8140714,1.4450178],[103.8140668,1.4449252]]}},{"type":"Feature","id":"way/194437527-0-0-0","properties":{"highway":"residential","lanes":"2","lanes:backward":"1","lanes:forward":"1","maxspeed":"50","name":"Gambas Crescent","turn:lanes:forward":"left;right"},"geometry":{"type":"LineString","coordinates":[[103.814659,1.4434243],[103.8149376,1.4439404]]}},{"type":"Feature","id":"way/194437527-0-1-0","properties":{"highway":"residential","lanes":"2","lanes:backward":"1","lanes:forward":"1","maxspeed":"50","name":"Gambas Crescent","turn:lanes:forward":"left;right"},"geometry":{"type":"LineString","coordinates":[[103.8149376,1.4439404],[103.8149822,1.4440278]]}},{"type":"Feature","id":"way/465783809-0-4-0","properties":{"highway":"service"},"geometry":{"type":"LineString","coordinates":[[103.8105828,1.4450251],[103.8108001,1.4450009]]}},{"type":"Feature","id":"way/465783809-0-5-0","properties":{"highway":"service"},"geometry":{"type":"LineString","coordinates":[[103.8108001,1.4450009],[103.8115168,1.4452933]]}},{"type":"Feature","id":"way/465783809-0-6-0","properties":{"highway":"service"},"geometry":{"type":"LineString","coordinates":[[103.8115168,1.4452933],[103.8115725,1.4453181]]}},{"type":"Feature","id":"way/465783809-0-7-0","properties":{"highway":"service"},"geometry":{"type":"LineString","coordinates":[[103.8115725,1.4453181],[103.8116182,1.445361]]}},{"type":"Feature","id":"way/465783809-0-8-0","properties":{"highway":"service"},"geometry":{"type":"LineString","coordinates":[[103.8116182,1.445361],[103.8116771,1.4457075]]}},{"type":"Feature","id":"way/465786219-0-0-0","properties":{"highway":"primary_link","lanes":"1","maxspeed":"50","oneway":"yes","surface":"asphalt"},"geometry":{"type":"LineString","coordinates":[[103.8116011,1.4439619],[103.8115417,1.4440893]]}},{"type":"Feature","id":"way/465786219-0-1-0","properties":{"highway":"primary_link","lanes":"1","maxspeed":"50","oneway":"yes","surface":"asphalt"},"geometry":{"type":"LineString","coordinates":[[103.8115417,1.4440893],[103.8114988,1.444147]]}},{"type":"Feature","id":"way/465786220-0-0-0","properties":{"highway":"primary_link","lanes":"1","maxspeed":"50","oneway":"yes","sidewalk":"no","surface":"asphalt"},"geometry":{"type":"LineString","coordinates":[[103.811271,1.4445108],[103.8114706,1.4445545]]}},{"type":"Feature","id":"way/465786220-0-1-0","properties":{"highway":"primary_link","lanes":"1","maxspeed":"50","oneway":"yes","sidewalk":"no","surface":"asphalt"},"geometry":{"type":"LineString","coordinates":[[103.8114706,1.4445545],[103.8115218,1.4445931]]}},{"type":"Feature","id":"way/465786220-0-2-0","properties":{"highway":"primary_link","lanes":"1","maxspeed":"50","oneway":"yes","sidewalk":"no","surface":"asphalt"},"geometry":{"type":"LineString","coordinates":[[103.8115218,1.4445931],[103.8115739,1.4446323]]}},{"type":"Feature","id":"way/465786220-0-3-0","properties":{"highway":"primary_link","lanes":"1","maxspeed":"50","oneway":"yes","sidewalk":"no","surface":"asphalt"},"geometry":{"type":"LineString","coordinates":[[103.8115739,1.4446323],[103.8116942,1.4447807]]}},{"type":"Feature","id":"way/465786221-0-0-0","properties":{"highway":"primary_link","lanes":"1","maxspeed":"50","oneway":"yes","surface":"asphalt"},"geometry":{"type":"LineString","coordinates":[[103.8118162,1.4446572],[103.8118944,1.4444285]]}},{"type":"Feature","id":"way/465786221-0-1-0","properties":{"highway":"primary_link","lanes":"1","maxspeed":"50","oneway":"yes","surface":"asphalt"},"geometry":{"type":"LineString","coordinates":[[103.8118944,1.4444285],[103.8119156,1.444382]]}},{"type":"Feature","id":"way/465786221-0-2-0","properties":{"highway":"primary_link","lanes":"1","maxspeed":"50","oneway":"yes","surface":"asphalt"},"geometry":{"type":"LineString","coordinates":[[103.8119156,1.444382],[103.8119628,1.4443172]]}},{"type":"Feature","id":"way/465786221-0-3-0","properties":{"highway":"primary_link","lanes":"1","maxspeed":"50","oneway":"yes","surface":"asphalt"},"geometry":{"type":"LineString","coordinates":[[103.8119628,1.4443172],[103.8120875,1.4441893]]}},{"type":"Feature","id":"way/465786222-0-0-0","properties":{"highway":"primary_link","lanes":"1","maxspeed":"50","oneway":"yes","surface":"asphalt"},"geometry":{"type":"LineString","coordinates":[[103.8121792,1.4440045],[103.8119494,1.443974]]}},{"type":"Feature","id":"way/465786222-0-1-0","properties":{"highway":"primary_link","lanes":"1","maxspeed":"50","oneway":"yes","surface":"asphalt"},"geometry":{"type":"LineString","coordinates":[[103.8119494,1.443974],[103.811898,1.4439444]]}},{"type":"Feature","id":"way/465786222-0-2-0","properties":{"highway":"primary_link","lanes":"1","maxspeed":"50","oneway":"yes","surface":"asphalt"},"geometry":{"type":"LineString","coordinates":[[103.811898,1.4439444],[103.8118609,1.443923]]}},{"type":"Feature","id":"way/465786222-0-3-0","properties":{"highway":"primary_link","lanes":"1","maxspeed":"50","oneway":"yes","surface":"asphalt"},"geometry":{"type":"LineString","coordinates":[[103.8118609,1.443923],[103.8117046,1.4437375]]}},{"type":"Feature","id":"way/480681014-0-0-0","properties":{"highway":"primary","lanes":"4","maxspeed":"70","name":"Gambas Avenue","name:zh":"\u7518\u5df4\u58eb\u9053","oneway":"yes","sidewalk":"no","source":"Yahoo aerial images","surface":"asphalt","turn:lanes":"left|through|through|through;right"},"geometry":{"type":"LineString","coordinates":[[103.8107575,1.444713],[103.8110173,1.4446107]]}},{"type":"Feature","id":"way/480681015-0-0-0","properties":{"highway":"primary","lanes":"5","maxspeed":"70","name":"Gambas Avenue","name:zh":"\u7518\u5df4\u58eb\u9053","oneway":"yes","sidewalk":"no","source":"Yahoo aerial images","surface":"asphalt","turn:lanes":"left|through|through|through;right|right"},"geometry":{"type":"LineString","coordinates":[[103.8110173,1.4446107],[103.811271,1.4445108]]}},{"type":"Feature","id":"way/480681016-0-0-0","properties":{"highway":"primary","lanes":"4","maxspeed":"70","name":"Gambas Avenue","name:zh":"\u7518\u5df4\u58eb\u9053","oneway":"yes","source":"Yahoo aerial images","surface":"asphalt","turn:lanes":"through|through|through;right|right"},"geometry":{"type":"LineString","coordinates":[[103.811271,1.4445108],[103.8115797,1.4443892]]}},{"type":"Feature","id":"way/480681016-0-1-0","properties":{"highway":"primary","lanes":"4","maxspeed":"70","name":"Gambas Avenue","name:zh":"\u7518\u5df4\u58eb\u9053","oneway":"yes","source":"Yahoo aerial images","surface":"asphalt","turn:lanes":"through|through|through;right|right"},"geometry":{"type":"LineString","coordinates":[[103.8115797,1.4443892],[103.8116492,1.4443619]]}},{"type":"Feature","id":"way/480681017-0-0-0","properties":{"highway":"primary","lanes":"3","maxspeed":"70","name":"Gambas Avenue","name:zh":"\u7518\u5df4\u58eb\u9053","oneway":"yes","source":"Yahoo aerial images","surface":"asphalt"},"geometry":{"type":"LineString","coordinates":[[103.8120875,1.4441893],[103.8121026,1.4441832]]}},{"type":"Feature","id":"way/480681017-0-1-0","properties":{"highway":"primary","lanes":"3","maxspeed":"70","name":"Gambas Avenue","name:zh":"\u7518\u5df4\u58eb\u9053","oneway":"yes","source":"Yahoo aerial images","surface":"asphalt"},"geometry":{"type":"LineString","coordinates":[[103.8121026,1.4441832],[103.8131624,1.443781]]}},{"type":"Feature","id":"way/480681017-0-2-0","properties":{"highway":"primary","lanes":"3","maxspeed":"70","name":"Gambas Avenue","name:zh":"\u7518\u5df4\u58eb\u9053","oneway":"yes","source":"Yahoo aerial images","surface":"asphalt"},"geometry":{"type":"LineString","coordinates":[[103.8131624,1.443781],[103.8137171,1.4435246]]}},{"type":"Feature","id":"way/480681881-0-0-0","properties":{"highway":"primary","lanes":"4","maxspeed":"70","name":"Gambas Avenue","name:zh":"\u7518\u5df4\u58eb\u9053","oneway":"yes","source":"Yahoo aerial images","surface":"asphalt","turn:lanes":"through|through|through|right"},"geometry":{"type":"LineString","coordinates":[[103.8147879,1.4430145],[103.8150681,1.4428729]]}},{"type":"Feature","id":"way/480709349-0-0-0","properties":{"highway":"primary","lanes":"5","maxspeed":"70","name":"Woodlands Avenue 12","name:zh":"\u5140\u517012\u9053","oneway":"yes","sidewalk":"left","source":"GPS & Yahoo aerial images","surface":"asphalt","turn:lanes":"left|through|through|right|right"},"geometry":{"type":"LineString","coordinates":[[103.8115357,1.4433349],[103.8115546,1.4435631]]}},{"type":"Feature","id":"way/480709349-0-1-0","properties":{"highway":"primary","lanes":"5","maxspeed":"70","name":"Woodlands Avenue 12","name:zh":"\u5140\u517012\u9053","oneway":"yes","sidewalk":"left","source":"GPS & Yahoo aerial images","surface":"asphalt","turn:lanes":"left|through|through|right|right"},"geometry":{"type":"LineString","coordinates":[[103.8115546,1.4435631],[103.8116011,1.4439619]]}},{"type":"Feature","id":"way/480709350-0-0-0","properties":{"highway":"primary","lanes":"4","maxspeed":"70","name":"Woodlands Avenue 12","name:zh":"\u5140\u517012\u9053","oneway":"yes","source":"GPS & Yahoo aerial images","surface":"asphalt","turn:lanes":"through|through|right|right"},"geometry":{"type":"LineString","coordinates":[[103.8116011,1.4439619],[103.8116221,1.4441424]]}},{"type":"Feature","id":"way/480709350-0-1-0","properties":{"highway":"primary","lanes":"4","maxspeed":"70","name":"Woodlands Avenue 12","name:zh":"\u5140\u517012\u9053","oneway":"yes","source":"GPS & Yahoo aerial images","surface":"asphalt","turn:lanes":"through|through|right|right"},"geometry":{"type":"LineString","coordinates":[[103.8116221,1.4441424],[103.8116322,1.4442182]]}},{"type":"Feature","id":"way/480709351-0-0-0","properties":{"highway":"primary","lanes":"4","maxspeed":"70","name":"Gambas Avenue","name:zh":"\u7518\u5df4\u58eb\u9053","oneway":"yes","source":"Bing","surface":"asphalt","turn:lanes":"through|through|through;right|right"},"geometry":{"type":"LineString","coordinates":[[103.8121792,1.4440045],[103.8118145,1.444147]]}},{"type":"Feature","id":"way/480709351-0-1-0","properties":{"highway":"primary","lanes":"4","maxspeed":"70","name":"Gambas Avenue","name:zh":"\u7518\u5df4\u58eb\u9053","oneway":"yes","source":"Bing","surface":"asphalt","turn:lanes":"through|through|through;right|right"},"geometry":{"type":"LineString","coordinates":[[103.8118145,1.444147],[103.8117557,1.44417]]}},{"type":"Feature","id":"way/480709352-0-0-0","properties":{"highway":"primary","lanes":"3","maxspeed":"70","name":"Gambas Avenue","name:zh":"\u7518\u5df4\u58eb\u9053","oneway":"yes","source":"Bing","surface":"asphalt"},"geometry":{"type":"LineString","coordinates":[[103.8116322,1.4442182],[103.8115531,1.4442491]]}},{"type":"Feature","id":"way/480709352-0-1-0","properties":{"highway":"primary","lanes":"3","maxspeed":"70","name":"Gambas Avenue","name:zh":"\u7518\u5df4\u58eb\u9053","oneway":"yes","source":"Bing","surface":"asphalt"},"geometry":{"type":"LineString","coordinates":[[103.8115531,1.4442491],[103.811352,1.4443277]]}},{"type":"Feature","id":"way/480709354-0-1-0","properties":{"highway":"primary","lanes":"3","maxspeed":"70","name":"Gambas Avenue","name:zh":"\u7518\u5df4\u58eb\u9053","oneway":"yes","source":"Bing","surface":"asphalt"},"geometry":{"type":"LineString","coordinates":[[103.8150104,1.4427382],[103.813785,1.4433112]]}},{"type":"Feature","id":"way/480709354-0-2-0","properties":{"highway":"primary","lanes":"3","maxspeed":"70","name":"Gambas Avenue","name:zh":"\u7518\u5df4\u58eb\u9053","oneway":"yes","source":"Bing","surface":"asphalt"},"geometry":{"type":"LineString","coordinates":[[103.813785,1.4433112],[103.8131125,1.4436232]]}},{"type":"Feature","id":"way/480709354-0-3-0","properties":{"highway":"primary","lanes":"3","maxspeed":"70","name":"Gambas Avenue","name:zh":"\u7518\u5df4\u58eb\u9053","oneway":"yes","source":"Bing","surface":"asphalt"},"geometry":{"type":"LineString","coordinates":[[103.8131125,1.4436232],[103.8125393,1.4438639]]}},{"type":"Feature","id":"way/480743580-0-0-0","properties":{"highway":"primary","lanes":"4","maxspeed":"70","name":"Woodlands Avenue 10","name:zh":"\u5140\u517010\u9053","oneway":"yes","source":"Yahoo aerial images","surface":"asphalt","turn:lanes":"through|through|through|right"},"geometry":{"type":"LineString","coordinates":[[103.8118162,1.4446572],[103.8117818,1.4443846]]}},{"type":"Feature","id":"way/480743580-0-1-0","properties":{"highway":"primary","lanes":"4","maxspeed":"70","name":"Woodlands Avenue 10","name:zh":"\u5140\u517010\u9053","oneway":"yes","source":"Yahoo aerial images","surface":"asphalt","turn:lanes":"through|through|through|right"},"geometry":{"type":"LineString","coordinates":[[103.8117818,1.4443846],[103.8117758,1.444312]]}},{"type":"Feature","id":"way/480743581-0-0-0","properties":{"highway":"primary","lanes":"5","maxspeed":"70","name":"Woodlands Avenue 10","name:zh":"\u5140\u517010\u9053","oneway":"yes","source":"Yahoo aerial images","surface":"asphalt","turn:lanes":"left|through|through|through|right"},"geometry":{"type":"LineString","coordinates":[[103.8118772,1.4452422],[103.8118162,1.4446572]]}},{"type":"Feature","id":"way/480743582-0-0-0","properties":{"highway":"primary","lanes":"3","maxspeed":"70","name":"Woodlands Avenue 12","name:zh":"\u5140\u517012\u9053","note":"Estimated location ???","oneway":"yes","source":"Yahoo aerial images","surface":"asphalt"},"geometry":{"type":"LineString","coordinates":[[103.8117557,1.44417],[103.8117458,1.4440962]]}},{"type":"Feature","id":"way/480743582-0-1-0","properties":{"highway":"primary","lanes":"3","maxspeed":"70","name":"Woodlands Avenue 12","name:zh":"\u5140\u517012\u9053","note":"Estimated location ???","oneway":"yes","source":"Yahoo aerial images","surface":"asphalt"},"geometry":{"type":"LineString","coordinates":[[103.8117458,1.4440962],[103.8117046,1.4437375]]}},{"type":"Feature","id":"way/480743582-0-2-0","properties":{"highway":"primary","lanes":"3","maxspeed":"70","name":"Woodlands Avenue 12","name:zh":"\u5140\u517012\u9053","note":"Estimated location ???","oneway":"yes","source":"Yahoo aerial images","surface":"asphalt"},"geometry":{"type":"LineString","coordinates":[[103.8117046,1.4437375],[103.8116786,1.4435112]]}},{"type":"Feature","id":"way/480743582-0-3-0","properties":{"highway":"primary","lanes":"3","maxspeed":"70","name":"Woodlands Avenue 12","name:zh":"\u5140\u517012\u9053","note":"Estimated location ???","oneway":"yes","source":"Yahoo aerial images","surface":"asphalt"},"geometry":{"type":"LineString","coordinates":[[103.8116786,1.4435112],[103.8116255,1.4429529]]}},{"type":"Feature","id":"way/480743582-0-4-0","properties":{"highway":"primary","lanes":"3","maxspeed":"70","name":"Woodlands Avenue 12","name:zh":"\u5140\u517012\u9053","note":"Estimated location ???","oneway":"yes","source":"Yahoo aerial images","surface":"asphalt"},"geometry":{"type":"LineString","coordinates":[[103.8116255,1.4429529],[103.8114955,1.4422911]]}},{"type":"Feature","id":"way/480743582-0-5-0","properties":{"highway":"primary","lanes":"3","maxspeed":"70","name":"Woodlands Avenue 12","name:zh":"\u5140\u517012\u9053","note":"Estimated location ???","oneway":"yes","source":"Yahoo aerial images","surface":"asphalt"},"geometry":{"type":"LineString","coordinates":[[103.8114955,1.4422911],[103.811361,1.4417728]]}},{"type":"Feature","id":"way/480743582-0-6-0","properties":{"highway":"primary","lanes":"3","maxspeed":"70","name":"Woodlands Avenue 12","name:zh":"\u5140\u517012\u9053","note":"Estimated location ???","oneway":"yes","source":"Yahoo aerial images","surface":"asphalt"},"geometry":{"type":"LineString","coordinates":[[103.811361,1.4417728],[103.8110689,1.4411417]]}},{"type":"Feature","id":"way/507131113-0-0-0","properties":{"highway":"residential","lanes":"2","lanes:backward":"1","lanes:forward":"1","maxspeed":"50","name":"Gambas Crescent","oneway":"no"},"geometry":{"type":"LineString","coordinates":[[103.8140668,1.4449252],[103.8140819,1.4448365]]}},{"type":"Feature","id":"way/507131113-0-1-0","properties":{"highway":"residential","lanes":"2","lanes:backward":"1","lanes:forward":"1","maxspeed":"50","name":"Gambas Crescent","oneway":"no"},"geometry":{"type":"LineString","coordinates":[[103.8140819,1.4448365],[103.8141178,1.444705]]}},{"type":"Feature","id":"way/507131113-0-2-0","properties":{"highway":"residential","lanes":"2","lanes:backward":"1","lanes:forward":"1","maxspeed":"50","name":"Gambas Crescent","oneway":"no"},"geometry":{"type":"LineString","coordinates":[[103.8141178,1.444705],[103.8141537,1.4446143]]}},{"type":"Feature","id":"way/507131113-0-3-0","properties":{"highway":"residential","lanes":"2","lanes:backward":"1","lanes:forward":"1","maxspeed":"50","name":"Gambas Crescent","oneway":"no"},"geometry":{"type":"LineString","coordinates":[[103.8141537,1.4446143],[103.8142388,1.4444698]]}},{"type":"Feature","id":"way/507131113-0-4-0","properties":{"highway":"residential","lanes":"2","lanes:backward":"1","lanes:forward":"1","maxspeed":"50","name":"Gambas Crescent","oneway":"no"},"geometry":{"type":"LineString","coordinates":[[103.8142388,1.4444698],[103.8142819,1.4444257]]}},{"type":"Feature","id":"way/507131113-0-5-0","properties":{"highway":"residential","lanes":"2","lanes:backward":"1","lanes:forward":"1","maxspeed":"50","name":"Gambas Crescent","oneway":"no"},"geometry":{"type":"LineString","coordinates":[[103.8142819,1.4444257],[103.8143403,1.4443679]]}},{"type":"Feature","id":"way/537349390-0-0-0","properties":{"highway":"primary","lanes":"4","maxspeed":"70","name":"Gambas Avenue","name:zh":"\u7518\u5df4\u58eb\u9053","oneway":"yes","source":"Bing","surface":"asphalt","turn:lanes":"through|through|through;right|right"},"geometry":{"type":"LineString","coordinates":[[103.8117557,1.44417],[103.8116322,1.4442182]]}},{"type":"Feature","id":"way/537349391-0-0-0","properties":{"highway":"primary","lanes":"4","maxspeed":"70","name":"Woodlands Avenue 12","name:zh":"\u5140\u517012\u9053","oneway":"yes","source":"GPS & Yahoo aerial images","surface":"asphalt","turn:lanes":"through|through|through;right|right"},"geometry":{"type":"LineString","coordinates":[[103.8116322,1.4442182],[103.8116492,1.4443619]]}},{"type":"Feature","id":"way/537349392-0-0-0","properties":{"highway":"primary","lanes":"4","maxspeed":"70","name":"Gambas Avenue","name:zh":"\u7518\u5df4\u58eb\u9053","oneway":"yes","source":"Yahoo aerial images","surface":"asphalt"},"geometry":{"type":"LineString","coordinates":[[103.8116492,1.4443619],[103.8117758,1.444312]]}},{"type":"Feature","id":"way/540893636-0-0-0","properties":{"highway":"primary_link","lanes":"1","maxspeed":"50","oneway":"yes","sidewalk":"no","surface":"asphalt"},"geometry":{"type":"LineString","coordinates":[[103.8114988,1.444147],[103.8114492,1.4442073]]}},{"type":"Feature","id":"way/540893636-0-1-0","properties":{"highway":"primary_link","lanes":"1","maxspeed":"50","oneway":"yes","sidewalk":"no","surface":"asphalt"},"geometry":{"type":"LineString","coordinates":[[103.8114492,1.4442073],[103.811352,1.4443277]]}},{"type":"Feature","id":"way/540893637-0-0-0","properties":{"highway":"primary","lanes":"3","maxspeed":"70","name":"Gambas Avenue","name:zh":"\u7518\u5df4\u58eb\u9053","oneway":"yes","sidewalk":"no","source":"Bing","surface":"asphalt"},"geometry":{"type":"LineString","coordinates":[[103.811352,1.4443277],[103.8107783,1.4445519]]}},{"type":"Feature","id":"way/596337619-0-0-0","properties":{"highway":"service"},"geometry":{"type":"LineString","coordinates":[[103.8109904,1.4421216],[103.8107479,1.4422431]]}},{"type":"Feature","id":"way/596337621-0-0-0","properties":{"highway":"service"},"geometry":{"type":"LineString","coordinates":[[103.8111033,1.4423796],[103.8110835,1.4423343]]}},{"type":"Feature","id":"way/596337621-0-1-0","properties":{"highway":"service"},"geometry":{"type":"LineString","coordinates":[[103.8110835,1.4423343],[103.8109904,1.4421216]]}},{"type":"Feature","id":"way/632090785-0-3-0","properties":{"highway":"residential","lanes":"2","maxspeed":"50","name":"Sembawang Crescent","oneway":"yes","surface":"asphalt"},"geometry":{"type":"LineString","coordinates":[[103.8150094,1.4455579],[103.8149318,1.4456538]]}},{"type":"Feature","id":"way/635230211-0-0-0","properties":{"highway":"primary","lanes":"4","maxspeed":"70","name":"Gambas Avenue","name:zh":"\u7518\u5df4\u58eb\u9053","oneway":"yes","source":"Bing","surface":"asphalt","turn:lanes":"left|through|through|through;right"},"geometry":{"type":"LineString","coordinates":[[103.8125393,1.4438639],[103.8121792,1.4440045]]}},{"type":"Feature","id":"way/635717690-0-0-0","properties":{"highway":"primary","lanes":"3","maxspeed":"70","name":"Woodlands Avenue 10","name:zh":"\u5140\u517010\u9053","oneway":"yes","sidewalk":"no","source":"Yahoo aerial images","surface":"asphalt"},"geometry":{"type":"LineString","coordinates":[[103.8116942,1.4447807],[103.8117968,1.4456974]]}},{"type":"Feature","id":"way/635717959-0-0-0","properties":{"highway":"primary","lanes":"3","maxspeed":"70","name":"Gambas Avenue","name:zh":"\u7518\u5df4\u58eb\u9053","oneway":"yes","source":"Yahoo aerial images","surface":"asphalt"},"geometry":{"type":"LineString","coordinates":[[103.8117758,1.444312],[103.8118337,1.4442892]]}},{"type":"Feature","id":"way/635717959-0-1-0","properties":{"highway":"primary","lanes":"3","maxspeed":"70","name":"Gambas Avenue","name:zh":"\u7518\u5df4\u58eb\u9053","oneway":"yes","source":"Yahoo aerial images","surface":"asphalt"},"geometry":{"type":"LineString","coordinates":[[103.8118337,1.4442892],[103.8120875,1.4441893]]}},{"type":"Feature","id":"way/637489627-0-0-0","properties":{"highway":"service","lanes":"2","oneway":"yes","turn:lanes":"through|through"},"geometry":{"type":"LineString","coordinates":[[103.8136245,1.4452329],[103.8136701,1.4452429]]}},{"type":"Feature","id":"way/637489627-0-1-0","properties":{"highway":"service","lanes":"2","oneway":"yes","turn:lanes":"through|through"},"geometry":{"type":"LineString","coordinates":[[103.8136701,1.4452429],[103.813713,1.445255]]}},{"type":"Feature","id":"way/637489627-0-2-0","properties":{"highway":"service","lanes":"2","oneway":"yes","turn:lanes":"through|through"},"geometry":{"type":"LineString","coordinates":[[103.813713,1.445255],[103.8137543,1.4452747]]}},{"type":"Feature","id":"way/637489627-0-3-0","properties":{"highway":"service","lanes":"2","oneway":"yes","turn:lanes":"through|through"},"geometry":{"type":"LineString","coordinates":[[103.8137543,1.4452747],[103.8138358,1.4452845]]}},{"type":"Feature","id":"way/637729683-0-5-0","properties":{"highway":"primary","lanes":"3","maxspeed":"70","name":"Woodlands Avenue 12","name:zh":"\u5140\u517012\u9053","oneway":"yes","sidewalk":"left","source":"GPS & Yahoo aerial images","surface":"asphalt"},"geometry":{"type":"LineString","coordinates":[[103.8109025,1.4411145],[103.8112535,1.4418182]]}},{"type":"Feature","id":"way/637729683-0-6-0","properties":{"highway":"primary","lanes":"3","maxspeed":"70","name":"Woodlands Avenue 12","name:zh":"\u5140\u517012\u9053","oneway":"yes","sidewalk":"left","source":"GPS & Yahoo aerial images","surface":"asphalt"},"geometry":{"type":"LineString","coordinates":[[103.8112535,1.4418182],[103.8113814,1.4423167]]}},{"type":"Feature","id":"way/637729683-0-7-0","properties":{"highway":"primary","lanes":"3","maxspeed":"70","name":"Woodlands Avenue 12","name:zh":"\u5140\u517012\u9053","oneway":"yes","sidewalk":"left","source":"GPS & Yahoo aerial images","surface":"asphalt"},"geometry":{"type":"LineString","coordinates":[[103.8113814,1.4423167],[103.811508,1.4430016]]}},{"type":"Feature","id":"way/637729683-0-8-0","properties":{"highway":"primary","lanes":"3","maxspeed":"70","name":"Woodlands Avenue 12","name:zh":"\u5140\u517012\u9053","oneway":"yes","sidewalk":"left","source":"GPS & Yahoo aerial images","surface":"asphalt"},"geometry":{"type":"LineString","coordinates":[[103.811508,1.4430016],[103.8115357,1.4433349]]}},{"type":"Feature","id":"way/646328078-0-0-0","properties":{"highway":"residential","lanes":"2","lanes:backward":"1","lanes:forward":"1","maxspeed":"50","name":"Woodlands View","surface":"asphalt"},"geometry":{"type":"LineString","coordinates":[[103.8101318,1.4429667],[103.8111033,1.4423796]]}},{"type":"Feature","id":"way/646851824-0-0-0","properties":{"highway":"service"},"geometry":{"type":"LineString","coordinates":[[103.8109904,1.4421216],[103.8109168,1.4419535]]}},{"type":"Feature","id":"way/646852407-0-0-0","properties":{"highway":"residential","lanes":"2","lanes:backward":"1","lanes:forward":"1","maxspeed":"50","name":"Woodlands View","surface":"asphalt"},"geometry":{"type":"LineString","coordinates":[[103.8111033,1.4423796],[103.8112106,1.4423148]]}},{"type":"Feature","id":"way/652557241-0-0-0","properties":{"highway":"primary","lanes":"3","maxspeed":"70","name":"Gambas Avenue","name:zh":"\u7518\u5df4\u58eb\u9053","oneway":"yes","source":"Yahoo aerial images","surface":"asphalt"},"geometry":{"type":"LineString","coordinates":[[103.8141914,1.4433054],[103.8147879,1.4430145]]}},{"type":"Feature","id":"way/652557242-0-0-0","properties":{"highway":"primary","lanes":"4","maxspeed":"70","name":"Gambas Avenue","name:zh":"\u7518\u5df4\u58eb\u9053","oneway":"yes","source":"Yahoo aerial images","surface":"asphalt","turn:lanes":"left|through|through|through"},"geometry":{"type":"LineString","coordinates":[[103.8137171,1.4435246],[103.8141914,1.4433054]]}},{"type":"Feature","id":"way/693716536-0-0-0","properties":{"highway":"residential","lanes":"1","maxspeed":"50","name":"Gambas Crescent","oneway":"yes"},"geometry":{"type":"LineString","coordinates":[[103.8140668,1.4449252],[103.8140125,1.4450058]]}},{"type":"Feature","id":"way/693716536-0-1-0","properties":{"highway":"residential","lanes":"1","maxspeed":"50","name":"Gambas Crescent","oneway":"yes"},"geometry":{"type":"LineString","coordinates":[[103.8140125,1.4450058],[103.8139761,1.4450454]]}},{"type":"Feature","id":"way/693716536-0-2-0","properties":{"highway":"residential","lanes":"1","maxspeed":"50","name":"Gambas Crescent","oneway":"yes"},"geometry":{"type":"LineString","coordinates":[[103.8139761,1.4450454],[103.8139253,1.4450832]]}},{"type":"Feature","id":"way/693716536-0-3-0","properties":{"highway":"residential","lanes":"1","maxspeed":"50","name":"Gambas Crescent","oneway":"yes"},"geometry":{"type":"LineString","coordinates":[[103.8139253,1.4450832],[103.8138805,1.4451178]]}},{"type":"Feature","id":"way/693716536-0-4-0","properties":{"highway":"residential","lanes":"1","maxspeed":"50","name":"Gambas Crescent","oneway":"yes"},"geometry":{"type":"LineString","coordinates":[[103.8138805,1.4451178],[103.8138451,1.4451568]]}},{"type":"Feature","id":"way/761376179-0-2-0","properties":{"fixme":"is road divided?","highway":"residential","lanes":"2","maxspeed":"50","name":"Sembawang Crescent","oneway":"yes","surface":"asphalt"},"geometry":{"type":"LineString","coordinates":[[103.8149887,1.4456964],[103.8150486,1.4456172]]}},{"type":"Feature","id":"way/766640130-0-1-0","properties":{"highway":"service","lanes":"2","lanes:backward":"1","lanes:forward":"1"},"geometry":{"type":"LineString","coordinates":[[103.8139624,1.4456773],[103.8139331,1.445542]]}},{"type":"Feature","id":"way/799556714-0-0-0","properties":{"highway":"service","lanes":"2","lanes:backward":"1","lanes:forward":"1","turn:lanes:forward":"left;right"},"geometry":{"type":"LineString","coordinates":[[103.813306,1.4455618],[103.8132603,1.4457657]]}},{"type":"Feature","id":"way/799564826-0-0-0","properties":{"highway":"service","oneway":"yes"},"geometry":{"type":"LineString","coordinates":[[103.8136877,1.4451437],[103.8136302,1.4451362]]}},{"type":"Feature","id":"way/799564827-0-0-0","properties":{"highway":"service","lanes":"1","oneway":"yes","turn:lanes":"left;through"},"geometry":{"type":"LineString","coordinates":[[103.8138451,1.4451568],[103.8137667,1.4451472]]}},{"type":"Feature","id":"way/799564827-0-1-0","properties":{"highway":"service","lanes":"1","oneway":"yes","turn:lanes":"left;through"},"geometry":{"type":"LineString","coordinates":[[103.8137667,1.4451472],[103.8136877,1.4451437]]}},{"type":"Feature","id":"way/821799467-0-0-0","properties":{"highway":"residential","lanes":"2","lanes:backward":"1","lanes:forward":"1","maxspeed":"50","name":"Gambas Crescent","oneway":"no","turn:lanes:forward":"through;right"},"geometry":{"type":"LineString","coordinates":[[103.8143403,1.4443679],[103.8143843,1.4443265]]}},{"type":"Feature","id":"way/821799467-0-1-0","properties":{"highway":"residential","lanes":"2","lanes:backward":"1","lanes:forward":"1","maxspeed":"50","name":"Gambas Crescent","oneway":"no","turn:lanes:forward":"through;right"},"geometry":{"type":"LineString","coordinates":[[103.8143843,1.4443265],[103.8144448,1.4442922]]}},{"type":"Feature","id":"way/821799467-0-2-0","properties":{"highway":"residential","lanes":"2","lanes:backward":"1","lanes:forward":"1","maxspeed":"50","name":"Gambas Crescent","oneway":"no","turn:lanes:forward":"through;right"},"geometry":{"type":"LineString","coordinates":[[103.8144448,1.4442922],[103.8145175,1.444248]]}},{"type":"Feature","id":"way/821799467-0-3-0","properties":{"highway":"residential","lanes":"2","lanes:backward":"1","lanes:forward":"1","maxspeed":"50","name":"Gambas Crescent","oneway":"no","turn:lanes:forward":"through;right"},"geometry":{"type":"LineString","coordinates":[[103.8145175,1.444248],[103.8146524,1.4441787]]}},{"type":"Feature","id":"way/821799467-0-4-0","properties":{"highway":"residential","lanes":"2","lanes:backward":"1","lanes:forward":"1","maxspeed":"50","name":"Gambas Crescent","oneway":"no","turn:lanes:forward":"through;right"},"geometry":{"type":"LineString","coordinates":[[103.8146524,1.4441787],[103.8149822,1.4440278]]}},{"type":"Feature","id":"way/821811927-0-11-0","properties":{"highway":"service","lanes":"1","oneway":"yes"},"geometry":{"type":"LineString","coordinates":[[103.8148729,1.4432533],[103.8148508,1.4432848]]}},{"type":"Feature","id":"way/821811927-0-12-0","properties":{"highway":"service","lanes":"1","oneway":"yes"},"geometry":{"type":"LineString","coordinates":[[103.8148508,1.4432848],[103.8148468,1.4433266]]}},{"type":"Feature","id":"way/821811927-0-13-0","properties":{"highway":"service","lanes":"1","oneway":"yes"},"geometry":{"type":"LineString","coordinates":[[103.8148468,1.4433266],[103.8150292,1.4437291]]}},{"type":"Feature","id":"way/821811927-0-14-0","properties":{"highway":"service","lanes":"1","oneway":"yes"},"geometry":{"type":"LineString","coordinates":[[103.8150292,1.4437291],[103.8150521,1.4437473]]}},{"type":"Feature","id":"way/933788663-0-0-0","properties":{"highway":"service"},"geometry":{"type":"LineString","coordinates":[[103.8139357,1.4444151],[103.8140826,1.4443388]]}},{"type":"Feature","id":"way/933788663-0-1-0","properties":{"highway":"service"},"geometry":{"type":"LineString","coordinates":[[103.8140826,1.4443388],[103.8142662,1.444234]]}},{"type":"Feature","id":"way/933788663-0-2-0","properties":{"highway":"service"},"geometry":{"type":"LineString","coordinates":[[103.8142662,1.444234],[103.8143504,1.4441767]]}},{"type":"Feature","id":"way/933788663-0-3-0","properties":{"highway":"service"},"geometry":{"type":"LineString","coordinates":[[103.8143504,1.4441767],[103.8143598,1.4441579]]}},{"type":"Feature","id":"way/933788663-0-4-0","properties":{"highway":"service"},"geometry":{"type":"LineString","coordinates":[[103.8143598,1.4441579],[103.8143632,1.4441352]]}},{"type":"Feature","id":"way/933788663-0-5-0","properties":{"highway":"service"},"geometry":{"type":"LineString","coordinates":[[103.8143632,1.4441352],[103.8143551,1.4441124]]}},{"type":"Feature","id":"way/933788663-0-6-0","properties":{"highway":"service"},"geometry":{"type":"LineString","coordinates":[[103.8143551,1.4441124],[103.814343,1.4440936]]}},{"type":"Feature","id":"way/933788663-0-7-0","properties":{"highway":"service"},"geometry":{"type":"LineString","coordinates":[[103.814343,1.4440936],[103.8141121,1.4436984]]}},{"type":"Feature","id":"way/933788663-0-8-0","properties":{"highway":"service"},"geometry":{"type":"LineString","coordinates":[[103.8141121,1.4436984],[103.8140873,1.443679]]}},{"type":"Feature","id":"way/933788663-0-9-0","properties":{"highway":"service"},"geometry":{"type":"LineString","coordinates":[[103.8140873,1.443679],[103.8140685,1.4436716]]}},{"type":"Feature","id":"way/933788663-0-10-0","properties":{"highway":"service"},"geometry":{"type":"LineString","coordinates":[[103.8140685,1.4436716],[103.814045,1.4436723]]}},{"type":"Feature","id":"way/933788663-0-11-0","properties":{"highway":"service"},"geometry":{"type":"LineString","coordinates":[[103.814045,1.4436723],[103.8140175,1.443683]]}},{"type":"Feature","id":"way/933788663-0-12-0","properties":{"highway":"service"},"geometry":{"type":"LineString","coordinates":[[103.8140175,1.443683],[103.8138994,1.4437434]]}},{"type":"Feature","id":"way/933788663-0-13-0","properties":{"highway":"service"},"geometry":{"type":"LineString","coordinates":[[103.8138994,1.4437434],[103.8135669,1.4439639]]}},{"type":"Feature","id":"way/933788663-0-14-0","properties":{"highway":"service"},"geometry":{"type":"LineString","coordinates":[[103.8135669,1.4439639],[103.8133623,1.4440792]]}},{"type":"Feature","id":"way/933788663-0-15-0","properties":{"highway":"service"},"geometry":{"type":"LineString","coordinates":[[103.8133623,1.4440792],[103.8136688,1.4445692]]}}]}