{"type":"FeatureCollection","features":[{"type":"Feature","id":"way/1186042667-0","properties":{"building":"industrial","name":"Outlet","clearanceGeometry":{"type":"Polygon","coordinates":[[[103.8115923,1.3708775],[103.8115661,1.370865],[103.8115496,1.3708572],[103.811532,1.3708488],[103.8115092,1.3708967],[103.8115695,1.3709254],[103.8115923,1.3708775]]]},"clearanceHeight":1.7,"clearancePrepared":true},"geometry":{"type":"Polygon","coordinates":[[[103.8115695,1.3709254],[103.8115923,1.3708775],[103.8115661,1.370865],[103.8115496,1.3708572],[103.811532,1.3708488],[103.8115092,1.3708967],[103.8115695,1.3709254]]]}},{"type":"Feature","id":"way/1218471658-0","properties":{"building":"yes","clearanceGeometry":{"type":"Polygon","coordinates":[[[103.8119921,1.3699913],[103.812022,1.3698768],[103.8119967,1.3698702],[103.811951,1.3698582],[103.811921,1.3699727],[103.8119633,1.3699838],[103.8119921,1.3699913]]]},"clearanceHeight":1.7,"clearancePrepared":true},"geometry":{"type":"Polygon","coordinates":[[[103.8119633,1.3699838],[103.8119921,1.3699913],[103.812022,1.3698768],[103.8119967,1.3698702],[103.811951,1.3698582],[103.811921,1.3699727],[103.8119633,1.3699838]]]}},{"type":"Feature","id":"way/1305364822-0","properties":{"building":"yes","clearanceGeometry":{"type":"Polygon","coordinates":[[[103.8116657,1.3696229],[103.8116266,1.369603],[103.811587,1.3696808],[103.8116261,1.3697007],[103.8116657,1.3696229]]]},"clearanceHeight":1.7,"clearancePrepared":true},"geometry":{"type":"Polygon","coordinates":[[[103.8116261,1.3697007],[103.8116657,1.3696229],[103.8116266,1.369603],[103.811587,1.3696808],[103.8116261,1.3697007]]]}},{"type":"Feature","id":"way/1551648826-0","properties":{"building":"yes","clearanceGeometry":{"type":"Polygon","coordinates":[[[103.8129412,1.3726819],[103.8129251,1.372732],[103.8129633,1.3727443],[103.8129795,1.3726942],[103.8129412,1.3726819]]]},"clearanceHeight":1.7,"clearancePrepared":true},"geometry":{"type":"Polygon","coordinates":[[[103.8129795,1.3726942],[103.8129412,1.3726819],[103.8129251,1.372732],[103.8129633,1.3727443],[103.8129795,1.3726942]]]}},{"type":"Feature","id":"way/1551648827-0","properties":{"building":"yes","clearanceGeometry":{"type":"Polygon","coordinates":[[[103.8131526,1.3721024],[103.8131148,1.3720911],[103.8131024,1.3721329],[103.8131402,1.3721441],[103.8131526,1.3721024]]]},"clearanceHeight":1.7,"clearancePrepared":true},"geometry":{"type":"Polygon","coordinates":[[[103.8131402,1.3721441],[103.8131526,1.3721024],[103.8131148,1.3720911],[103.8131024,1.3721329],[103.8131402,1.3721441]]]}},{"type":"Feature","id":"way/33301467-0-0-0","properties":{"access":"permissive","highway":"service","maxspeed":"40","motor_vehicle":"private","vehicle":"no","startNodeId":"12090037287","endNodeId":"1834028995"},"geometry":{"type":"LineString","coordinates":[[103.812374,1.3706318],[103.8124093,1.3707509]]}},{"type":"Feature","id":"way/33301467-0-1-0","properties":{"access":"permissive","highway":"service","maxspeed":"40","motor_vehicle":"private","vehicle":"no","startNodeId":"1834028995","endNodeId":"way/33301467-0:1:1"},"geometry":{"type":"LineString","coordinates":[[103.8124093,1.3707509],[103.8119733,1.3722616]]}},{"type":"Feature","id":"way/33301467-0-1-1","properties":{"access":"permissive","highway":"service","maxspeed":"40","motor_vehicle":"private","vehicle":"no","startNodeId":"way/33301467-0:1:1","endNodeId":"378721913"},"geometry":{"type":"LineString","coordinates":[[103.8119733,1.3722616],[103.8115373,1.3737724]]}},{"type":"Feature","id":"way/757828137-0-0-0","properties":{"highway":"service","maxspeed":"40","surface":"paving_stones","startNodeId":"378721913","endNodeId":"7077397188"},"geometry":{"type":"LineString","coordinates":[[103.8115373,1.3737724],[103.8115247,1.3738155]]}}]}