{"type":"FeatureCollection","features":[{"type":"Feature","id":"way/582459410-0","properties":{"building":"yes","clearanceGeometry":{"type":"Polygon","coordinates":[[[103.8114131,1.3475931],[103.811341,1.3476123],[103.8113624,1.3476926],[103.8114345,1.3476734],[103.8114131,1.3475931]]]},"clearanceHeight":1.7,"clearancePrepared":true},"geometry":{"type":"Polygon","coordinates":[[[103.8114345,1.3476734],[103.8114131,1.3475931],[103.811341,1.3476123],[103.8113624,1.3476926],[103.8114345,1.3476734]]]}}]}