{"type":"FeatureCollection","features":[{"type":"Feature","id":"way/496820596-0","properties":{"building":"yes","clearanceGeometry":{"type":"Polygon","coordinates":[[[103.8964787,1.4197648],[103.8964796,1.4196453],[103.8970446,1.4196495],[103.8970471,1.4193076],[103.8964827,1.4193034],[103.8964812,1.4195052],[103.8961958,1.4195031],[103.8961931,1.4198653],[103.8964871,1.4198675],[103.8964857,1.42006],[103.8969966,1.4200638],[103.8969988,1.4197687],[103.8964787,1.4197648]]]},"clearanceHeight":1.7,"clearancePrepared":true},"geometry":{"type":"Polygon","coordinates":[[[103.8969988,1.4197687],[103.8964787,1.4197648],[103.8964796,1.4196453],[103.8970446,1.4196495],[103.8970471,1.4193076],[103.8964827,1.4193034],[103.8964812,1.4195052],[103.8961958,1.4195031],[103.8961931,1.4198653],[103.8964871,1.4198675],[103.8964857,1.42006],[103.8969966,1.4200638],[103.8969988,1.4197687]]]}},{"type":"Feature","id":"way/496820598-0","properties":{"building":"yes","clearanceGeometry":{"type":"Polygon","coordinates":[[[103.8965614,1.4192115],[103.8967726,1.4190078],[103.896791,1.4190268],[103.8968512,1.4189687],[103.8966321,1.4187418],[103.8962826,1.4190791],[103.8962802,1.4191544],[103.8961291,1.4193002],[103.8962217,1.419396],[103.8964898,1.4191374],[103.8965614,1.4192115]]]},"clearanceHeight":1.7,"clearancePrepared":true},"geometry":{"type":"Polygon","coordinates":[[[103.8964898,1.4191374],[103.8965614,1.4192115],[103.8967726,1.4190078],[103.896791,1.4190268],[103.8968512,1.4189687],[103.8966321,1.4187418],[103.8962826,1.4190791],[103.8962802,1.4191544],[103.8961291,1.4193002],[103.8962217,1.419396],[103.8964898,1.4191374]]]}},{"type":"Feature","id":"way/539300762-0-2-0","properties":{"highway":"service","oneway":"yes","service":"parking_aisle","startNodeId":"5218734017","endNodeId":"5218734841"},"geometry":{"type":"LineString","coordinates":[[103.8961064,1.4187103],[103.8960577,1.4187844]]}},{"type":"Feature","id":"way/539300765-0-0-0","properties":{"highway":"service","service":"parking_aisle","startNodeId":"5218734012","endNodeId":"5218734013"},"geometry":{"type":"LineString","coordinates":[[103.8970352,1.4201829],[103.8964722,1.4201748]]}},{"type":"Feature","id":"way/539300765-0-1-0","properties":{"highway":"service","service":"parking_aisle","startNodeId":"5218734013","endNodeId":"5218734014"},"geometry":{"type":"LineString","coordinates":[[103.8964722,1.4201748],[103.8964081,1.4201666]]}},{"type":"Feature","id":"way/539300765-0-2-0","properties":{"highway":"service","service":"parking_aisle","startNodeId":"5218734014","endNodeId":"5218734015"},"geometry":{"type":"LineString","coordinates":[[103.8964081,1.4201666],[103.8963492,1.4201301]]}},{"type":"Feature","id":"way/539300765-0-3-0","properties":{"highway":"service","service":"parking_aisle","startNodeId":"5218734015","endNodeId":"5218734847"},"geometry":{"type":"LineString","coordinates":[[103.8963492,1.4201301],[103.896174,1.4199571]]}},{"type":"Feature","id":"way/539300765-0-4-0","properties":{"highway":"service","service":"parking_aisle","startNodeId":"5218734847","endNodeId":"5218734011"},"geometry":{"type":"LineString","coordinates":[[103.896174,1.4199571],[103.8959768,1.4197161]]}},{"type":"Feature","id":"way/539300765-0-5-0","properties":{"highway":"service","service":"parking_aisle","startNodeId":"5218734011","endNodeId":"5218734016"},"geometry":{"type":"LineString","coordinates":[[103.8959768,1.4197161],[103.8959569,1.4196766]]}},{"type":"Feature","id":"way/539300767-0-0-0","properties":{"highway":"service","oneway":"yes","service":"parking_aisle","startNodeId":"5218734830","endNodeId":"5218734829"},"geometry":{"type":"LineString","coordinates":[[103.8958409,1.4193977],[103.8962518,1.4190154]]}},{"type":"Feature","id":"way/539300767-0-1-0","properties":{"highway":"service","oneway":"yes","service":"parking_aisle","startNodeId":"5218734829","endNodeId":"5218734828"},"geometry":{"type":"LineString","coordinates":[[103.8962518,1.4190154],[103.8964844,1.4187705]]}},{"type":"Feature","id":"way/539300767-0-2-0","properties":{"highway":"service","oneway":"yes","service":"parking_aisle","startNodeId":"5218734828","endNodeId":"5218734827"},"geometry":{"type":"LineString","coordinates":[[103.8964844,1.4187705],[103.8965179,1.4187286]]}},{"type":"Feature","id":"way/646137902-0-0-0","properties":{"highway":"service","startNodeId":"1832444653","endNodeId":"13997221510"},"geometry":{"type":"LineString","coordinates":[[103.8962998,1.4207196],[103.8960244,1.4202291]]}},{"type":"Feature","id":"way/1533491349-0-0-0","properties":{"highway":"service","service":"parking_aisle","startNodeId":"5218734011","endNodeId":"13974423250"},"geometry":{"type":"LineString","coordinates":[[103.8959768,1.4197161],[103.8964622,1.4204238]]}}]}