{"type":"FeatureCollection","features":[{"type":"Feature","id":"node/10801079213","properties":{"crossing":"unmarked","crossing:markings":"no","highway":"crossing"},"geometry":{"type":"Point","coordinates":[103.9040264,1.3666693]}},{"type":"Feature","id":"node/14155841841","properties":{"crossing":"unmarked","crossing:markings":"no","highway":"crossing"},"geometry":{"type":"Point","coordinates":[103.903649,1.3666648]}},{"type":"Feature","id":"node/14155841842","properties":{"crossing":"unmarked","crossing:markings":"no","highway":"crossing"},"geometry":{"type":"Point","coordinates":[103.9037407,1.3668187]}},{"type":"Feature","id":"node/14155841843","properties":{"crossing":"unmarked","crossing:markings":"no","highway":"crossing"},"geometry":{"type":"Point","coordinates":[103.9038315,1.3665614]}},{"type":"Feature","id":"node/14155841844","properties":{"crossing":"unmarked","crossing:markings":"no","highway":"crossing"},"geometry":{"type":"Point","coordinates":[103.9039306,1.3665923]}},{"type":"Feature","id":"node/14155841845","properties":{"crossing":"unmarked","crossing:markings":"no","highway":"crossing"},"geometry":{"type":"Point","coordinates":[103.9039202,1.3667148]}},{"type":"Feature","id":"node/14155841846","properties":{"crossing":"unmarked","crossing:markings":"no","highway":"crossing"},"geometry":{"type":"Point","coordinates":[103.9038853,1.3664717]}},{"type":"Feature","id":"node/14155841852","properties":{"crossing":"unmarked","crossing:markings":"no","highway":"crossing"},"geometry":{"type":"Point","coordinates":[103.9048321,1.365882]}},{"type":"Feature","id":"way/742166199-0-0-0","properties":{"highway":"tertiary","lanes":"4","maxspeed":"50","name":"Serangoon River Road","oneway":"yes","sidewalk:left":"separate","sidewalk:right":"no","startNodeId":"5252702372","endNodeId":"5252702375"},"geometry":{"type":"LineString","coordinates":[[103.9032886,1.365826],[103.9027892,1.3653136]]}},{"type":"Feature","id":"way/742166199-0-1-0","properties":{"highway":"tertiary","lanes":"4","maxspeed":"50","name":"Serangoon River Road","oneway":"yes","sidewalk:left":"separate","sidewalk:right":"no","startNodeId":"5252702375","endNodeId":"5252702376"},"geometry":{"type":"LineString","coordinates":[[103.9027892,1.3653136],[103.9024861,1.365079]]}},{"type":"Feature","id":"way/742166199-0-2-0","properties":{"highway":"tertiary","lanes":"4","maxspeed":"50","name":"Serangoon River Road","oneway":"yes","sidewalk:left":"separate","sidewalk:right":"no","startNodeId":"5252702376","endNodeId":"5252702377"},"geometry":{"type":"LineString","coordinates":[[103.9024861,1.365079],[103.90212,1.3648337]]}},{"type":"Feature","id":"way/742166200-0-0-0","properties":{"highway":"tertiary","lanes":"2","maxspeed":"50","name":"Serangoon River Road","oneway":"yes","sidewalk:left":"separate","sidewalk:right":"no","startNodeId":"5252702362","endNodeId":"5252702363"},"geometry":{"type":"LineString","coordinates":[[103.9027463,1.3654651],[103.9030024,1.3657333]]}},{"type":"Feature","id":"way/742166200-0-1-0","properties":{"highway":"tertiary","lanes":"2","maxspeed":"50","name":"Serangoon River Road","oneway":"yes","sidewalk:left":"separate","sidewalk:right":"no","startNodeId":"5252702363","endNodeId":"5252702364"},"geometry":{"type":"LineString","coordinates":[[103.9030024,1.3657333],[103.9032207,1.3660026]]}},{"type":"Feature","id":"way/742166201-0-0-0","properties":{"highway":"tertiary","lanes":"3","maxspeed":"50","name":"Serangoon River Road","oneway":"yes","sidewalk:left":"separate","sidewalk:right":"no","startNodeId":"6948218224","endNodeId":"5252702361"},"geometry":{"type":"LineString","coordinates":[[103.9022367,1.3650804],[103.9023896,1.3651849]]}},{"type":"Feature","id":"way/742166201-0-1-0","properties":{"highway":"tertiary","lanes":"3","maxspeed":"50","name":"Serangoon River Road","oneway":"yes","sidewalk:left":"separate","sidewalk:right":"no","startNodeId":"5252702361","endNodeId":"5252702362"},"geometry":{"type":"LineString","coordinates":[[103.9023896,1.3651849],[103.9027463,1.3654651]]}},{"type":"Feature","id":"way/742166202-0-2-0","properties":{"highway":"tertiary","lanes":"4","maxspeed":"50","name":"Serangoon River Road","oneway":"yes","sidewalk:left":"separate","sidewalk:right":"no","startNodeId":"5252702359","endNodeId":"5252702360"},"geometry":{"type":"LineString","coordinates":[[103.9017512,1.3648149],[103.9020583,1.3649731]]}},{"type":"Feature","id":"way/742166202-0-3-0","properties":{"highway":"tertiary","lanes":"4","maxspeed":"50","name":"Serangoon River Road","oneway":"yes","sidewalk:left":"separate","sidewalk:right":"no","startNodeId":"5252702360","endNodeId":"6948218224"},"geometry":{"type":"LineString","coordinates":[[103.9020583,1.3649731],[103.9022367,1.3650804]]}},{"type":"Feature","id":"way/1161269788-0-0-0","properties":{"highway":"tertiary","name":"Serangoon River Road","name:en":"Serangoon River Road","name:zh":"\u5b9e\u9f99\u5c97\u6cb3\u8def","surface":"asphalt","startNodeId":"5252702364","endNodeId":"14155841841"},"geometry":{"type":"LineString","coordinates":[[103.9032207,1.3660026],[103.903649,1.3666648]]}},{"type":"Feature","id":"way/1161269788-0-1-0","properties":{"highway":"tertiary","name":"Serangoon River Road","name:en":"Serangoon River Road","name:zh":"\u5b9e\u9f99\u5c97\u6cb3\u8def","surface":"asphalt","startNodeId":"14155841841","endNodeId":"10801076380"},"geometry":{"type":"LineString","coordinates":[[103.903649,1.3666648],[103.9036937,1.3667339]]}},{"type":"Feature","id":"way/1161269788-0-2-0","properties":{"highway":"tertiary","name":"Serangoon River Road","name:en":"Serangoon River Road","name:zh":"\u5b9e\u9f99\u5c97\u6cb3\u8def","surface":"asphalt","startNodeId":"10801076380","endNodeId":"14155841842"},"geometry":{"type":"LineString","coordinates":[[103.9036937,1.3667339],[103.9037407,1.3668187]]}},{"type":"Feature","id":"way/1161269788-0-3-0","properties":{"highway":"tertiary","name":"Serangoon River Road","name:en":"Serangoon River Road","name:zh":"\u5b9e\u9f99\u5c97\u6cb3\u8def","surface":"asphalt","startNodeId":"14155841842","endNodeId":"10801076373"},"geometry":{"type":"LineString","coordinates":[[103.9037407,1.3668187],[103.904395,1.3679994]]}},{"type":"Feature","id":"way/1161269788-0-4-0","properties":{"highway":"tertiary","name":"Serangoon River Road","name:en":"Serangoon River Road","name:zh":"\u5b9e\u9f99\u5c97\u6cb3\u8def","surface":"asphalt","startNodeId":"10801076373","endNodeId":"10801076374"},"geometry":{"type":"LineString","coordinates":[[103.904395,1.3679994],[103.9044771,1.3680725]]}},{"type":"Feature","id":"way/1161269788-0-5-0","properties":{"highway":"tertiary","name":"Serangoon River Road","name:en":"Serangoon River Road","name:zh":"\u5b9e\u9f99\u5c97\u6cb3\u8def","surface":"asphalt","startNodeId":"10801076374","endNodeId":"10801076375"},"geometry":{"type":"LineString","coordinates":[[103.9044771,1.3680725],[103.9045596,1.3680503]]}},{"type":"Feature","id":"way/1161269788-0-6-0","properties":{"highway":"tertiary","name":"Serangoon River Road","name:en":"Serangoon River Road","name:zh":"\u5b9e\u9f99\u5c97\u6cb3\u8def","surface":"asphalt","startNodeId":"10801076375","endNodeId":"10801076376"},"geometry":{"type":"LineString","coordinates":[[103.9045596,1.3680503],[103.9045948,1.3679896]]}},{"type":"Feature","id":"way/1161269788-0-7-0","properties":{"highway":"tertiary","name":"Serangoon River Road","name:en":"Serangoon River Road","name:zh":"\u5b9e\u9f99\u5c97\u6cb3\u8def","surface":"asphalt","startNodeId":"10801076376","endNodeId":"10801076377"},"geometry":{"type":"LineString","coordinates":[[103.9045948,1.3679896],[103.9045839,1.3678863]]}},{"type":"Feature","id":"way/1161269788-0-8-0","properties":{"highway":"tertiary","name":"Serangoon River Road","name:en":"Serangoon River Road","name:zh":"\u5b9e\u9f99\u5c97\u6cb3\u8def","surface":"asphalt","startNodeId":"10801076377","endNodeId":"10801079212"},"geometry":{"type":"LineString","coordinates":[[103.9045839,1.3678863],[103.9040569,1.3669991]]}},{"type":"Feature","id":"way/1161269788-0-9-0","properties":{"highway":"tertiary","name":"Serangoon River Road","name:en":"Serangoon River Road","name:zh":"\u5b9e\u9f99\u5c97\u6cb3\u8def","surface":"asphalt","startNodeId":"10801079212","endNodeId":"14155841845"},"geometry":{"type":"LineString","coordinates":[[103.9040569,1.3669991],[103.9039202,1.3667148]]}},{"type":"Feature","id":"way/1161269788-0-10-0","properties":{"highway":"tertiary","name":"Serangoon River Road","name:en":"Serangoon River Road","name:zh":"\u5b9e\u9f99\u5c97\u6cb3\u8def","surface":"asphalt","startNodeId":"14155841845","endNodeId":"10801076379"},"geometry":{"type":"LineString","coordinates":[[103.9039202,1.3667148],[103.9038756,1.366622]]}},{"type":"Feature","id":"way/1161269788-0-11-0","properties":{"highway":"tertiary","name":"Serangoon River Road","name:en":"Serangoon River Road","name:zh":"\u5b9e\u9f99\u5c97\u6cb3\u8def","surface":"asphalt","startNodeId":"10801076379","endNodeId":"14155841843"},"geometry":{"type":"LineString","coordinates":[[103.9038756,1.366622],[103.9038315,1.3665614]]}},{"type":"Feature","id":"way/1161269788-0-12-0","properties":{"highway":"tertiary","name":"Serangoon River Road","name:en":"Serangoon River Road","name:zh":"\u5b9e\u9f99\u5c97\u6cb3\u8def","surface":"asphalt","startNodeId":"14155841843","endNodeId":"10801079216"},"geometry":{"type":"LineString","coordinates":[[103.9038315,1.3665614],[103.9037432,1.3664403]]}},{"type":"Feature","id":"way/1161269788-0-13-0","properties":{"highway":"tertiary","name":"Serangoon River Road","name:en":"Serangoon River Road","name:zh":"\u5b9e\u9f99\u5c97\u6cb3\u8def","surface":"asphalt","startNodeId":"10801079216","endNodeId":"5252702372"},"geometry":{"type":"LineString","coordinates":[[103.9037432,1.3664403],[103.9032886,1.365826]]}},{"type":"Feature","id":"way/1161269789-0-2-0","properties":{"highway":"tertiary","name":"Serangoon River Lane","name:zh":"\u5b9e\u9f99\u5c97\u6cb3\u5df7","surface":"asphalt","startNodeId":"14155841854","endNodeId":"10801079208"},"geometry":{"type":"LineString","coordinates":[[103.904956,1.3659525],[103.9048044,1.3660589]]}},{"type":"Feature","id":"way/1161269789-0-3-0","properties":{"highway":"tertiary","name":"Serangoon River Lane","name:zh":"\u5b9e\u9f99\u5c97\u6cb3\u5df7","surface":"asphalt","startNodeId":"10801079208","endNodeId":"14155841837"},"geometry":{"type":"LineString","coordinates":[[103.9048044,1.3660589],[103.904147,1.366459]]}},{"type":"Feature","id":"way/1161269789-0-4-0","properties":{"highway":"tertiary","name":"Serangoon River Lane","name:zh":"\u5b9e\u9f99\u5c97\u6cb3\u5df7","surface":"asphalt","startNodeId":"14155841837","endNodeId":"10801079214"},"geometry":{"type":"LineString","coordinates":[[103.904147,1.366459],[103.9040313,1.3665379]]}},{"type":"Feature","id":"way/1161269789-0-5-0","properties":{"highway":"tertiary","name":"Serangoon River Lane","name:zh":"\u5b9e\u9f99\u5c97\u6cb3\u5df7","surface":"asphalt","startNodeId":"10801079214","endNodeId":"14155841844"},"geometry":{"type":"LineString","coordinates":[[103.9040313,1.3665379],[103.9039306,1.3665923]]}},{"type":"Feature","id":"way/1161269789-0-6-0","properties":{"highway":"tertiary","name":"Serangoon River Lane","name:zh":"\u5b9e\u9f99\u5c97\u6cb3\u5df7","surface":"asphalt","startNodeId":"14155841844","endNodeId":"10801076379"},"geometry":{"type":"LineString","coordinates":[[103.9039306,1.3665923],[103.9038756,1.366622]]}},{"type":"Feature","id":"way/1161269789-0-7-0","properties":{"highway":"tertiary","name":"Serangoon River Lane","name:zh":"\u5b9e\u9f99\u5c97\u6cb3\u5df7","surface":"asphalt","startNodeId":"10801076379","endNodeId":"10801076380"},"geometry":{"type":"LineString","coordinates":[[103.9038756,1.366622],[103.9036937,1.3667339]]}},{"type":"Feature","id":"way/1161269790-0-19-0","properties":{"highway":"tertiary","name":"Serangoon River Lane","name:zh":"\u5b9e\u9f99\u5c97\u6cb3\u5df7","startNodeId":"14155841857","endNodeId":"10801076394"},"geometry":{"type":"LineString","coordinates":[[103.9049943,1.3658079],[103.9042399,1.3647222]]}},{"type":"Feature","id":"way/1161269790-0-39-0","properties":{"highway":"tertiary","name":"Serangoon River Lane","name:zh":"\u5b9e\u9f99\u5c97\u6cb3\u5df7","startNodeId":"14155841834","endNodeId":"10801079210"},"geometry":{"type":"LineString","coordinates":[[103.9042503,1.3648747],[103.9047765,1.3656076]]}},{"type":"Feature","id":"way/1161269790-0-40-0","properties":{"highway":"tertiary","name":"Serangoon River Lane","name:zh":"\u5b9e\u9f99\u5c97\u6cb3\u5df7","startNodeId":"10801079210","endNodeId":"14155841856"},"geometry":{"type":"LineString","coordinates":[[103.9047765,1.3656076],[103.9049471,1.3658391]]}},{"type":"Feature","id":"way/1161269791-0-0-0","properties":{"highway":"tertiary","oneway":"yes","surface":"asphalt","startNodeId":"10801079208","endNodeId":"10801079209"},"geometry":{"type":"LineString","coordinates":[[103.9048044,1.3660589],[103.9050041,1.3660829]]}},{"type":"Feature","id":"way/1161269792-0-0-0","properties":{"highway":"tertiary","oneway":"yes","surface":"asphalt","startNodeId":"10801079210","endNodeId":"14155841852"},"geometry":{"type":"LineString","coordinates":[[103.9047765,1.3656076],[103.9048321,1.365882]]}},{"type":"Feature","id":"way/1161269792-0-1-0","properties":{"highway":"tertiary","oneway":"yes","surface":"asphalt","startNodeId":"14155841852","endNodeId":"10801079211"},"geometry":{"type":"LineString","coordinates":[[103.9048321,1.365882],[103.9048338,1.3658903]]}},{"type":"Feature","id":"way/1161269792-0-2-0","properties":{"highway":"tertiary","oneway":"yes","surface":"asphalt","startNodeId":"10801079211","endNodeId":"10801079208"},"geometry":{"type":"LineString","coordinates":[[103.9048338,1.3658903],[103.9048044,1.3660589]]}},{"type":"Feature","id":"way/1161269793-0-0-0","properties":{"highway":"tertiary","oneway":"yes","surface":"asphalt","startNodeId":"10801079212","endNodeId":"10801079213"},"geometry":{"type":"LineString","coordinates":[[103.9040569,1.3669991],[103.9040264,1.3666693]]}},{"type":"Feature","id":"way/1161269793-0-1-0","properties":{"highway":"tertiary","oneway":"yes","surface":"asphalt","startNodeId":"10801079213","endNodeId":"10801079214"},"geometry":{"type":"LineString","coordinates":[[103.9040264,1.3666693],[103.9040313,1.3665379]]}},{"type":"Feature","id":"way/1161269794-0-0-0","properties":{"highway":"tertiary","oneway":"yes","surface":"asphalt","startNodeId":"14155841837","endNodeId":"10801079215"},"geometry":{"type":"LineString","coordinates":[[103.904147,1.366459],[103.90394,1.366472]]}},{"type":"Feature","id":"way/1161269794-0-1-0","properties":{"highway":"tertiary","oneway":"yes","surface":"asphalt","startNodeId":"10801079215","endNodeId":"14155841846"},"geometry":{"type":"LineString","coordinates":[[103.90394,1.366472],[103.9038853,1.3664717]]}},{"type":"Feature","id":"way/1161269794-0-2-0","properties":{"highway":"tertiary","oneway":"yes","surface":"asphalt","startNodeId":"14155841846","endNodeId":"14155841838"},"geometry":{"type":"LineString","coordinates":[[103.9038853,1.3664717],[103.9038472,1.3664715]]}},{"type":"Feature","id":"way/1161269794-0-3-0","properties":{"highway":"tertiary","oneway":"yes","surface":"asphalt","startNodeId":"14155841838","endNodeId":"10801079216"},"geometry":{"type":"LineString","coordinates":[[103.9038472,1.3664715],[103.9037432,1.3664403]]}}]}