{"type":"FeatureCollection","features":[{"type":"Feature","id":"way/452783629-0","properties":{"building":"yes","clearanceGeometry":{"type":"Polygon","coordinates":[[[103.9082445,1.3513699],[103.9086581,1.3511918],[103.9085422,1.3509227],[103.9081286,1.3511009],[103.9082445,1.3513699]]]},"clearanceHeight":1.7,"clearancePrepared":true},"geometry":{"type":"Polygon","coordinates":[[[103.9081286,1.3511009],[103.9082445,1.3513699],[103.9086581,1.3511918],[103.9085422,1.3509227],[103.9081286,1.3511009]]]}},{"type":"Feature","id":"way/453418199-0","properties":{"building":"yes","clearanceGeometry":{"type":"Polygon","coordinates":[[[103.9072724,1.3480704],[103.9074836,1.3479855],[103.9074428,1.347884],[103.9072316,1.3479689],[103.9072724,1.3480704]]]},"clearanceHeight":1.7,"clearancePrepared":true},"geometry":{"type":"Polygon","coordinates":[[[103.9072316,1.3479689],[103.9072724,1.3480704],[103.9074836,1.3479855],[103.9074428,1.347884],[103.9072316,1.3479689]]]}},{"type":"Feature","id":"way/453418200-0","properties":{"building":"yes","clearanceGeometry":{"type":"Polygon","coordinates":[[[103.907354,1.3475827],[103.907279,1.3473962],[103.9070322,1.3474955],[103.9071072,1.3476819],[103.907354,1.3475827]]]},"clearanceHeight":1.7,"clearancePrepared":true},"geometry":{"type":"Polygon","coordinates":[[[103.9071072,1.3476819],[103.907354,1.3475827],[103.907279,1.3473962],[103.9070322,1.3474955],[103.9071072,1.3476819]]]}},{"type":"Feature","id":"way/453418201-0","properties":{"building":"yes","clearanceGeometry":{"type":"Polygon","coordinates":[[[103.9078437,1.3499481],[103.9081748,1.3498125],[103.9081133,1.3496625],[103.9077823,1.3497981],[103.9078437,1.3499481]]]},"clearanceHeight":1.7,"clearancePrepared":true},"geometry":{"type":"Polygon","coordinates":[[[103.9077823,1.3497981],[103.9078437,1.3499481],[103.9081748,1.3498125],[103.9081133,1.3496625],[103.9077823,1.3497981]]]}},{"type":"Feature","id":"way/453418202-0","properties":{"building":"yes","clearanceGeometry":{"type":"Polygon","coordinates":[[[103.907279,1.3473962],[103.907204,1.3472097],[103.9069572,1.347309],[103.9070322,1.3474955],[103.907279,1.3473962]]]},"clearanceHeight":1.7,"clearancePrepared":true},"geometry":{"type":"Polygon","coordinates":[[[103.9070322,1.3474955],[103.907279,1.3473962],[103.907204,1.3472097],[103.9069572,1.347309],[103.9070322,1.3474955]]]}},{"type":"Feature","id":"way/453418203-0","properties":{"building":"yes","clearanceGeometry":{"type":"Polygon","coordinates":[[[103.9079276,1.3499233],[103.9079551,1.3499905],[103.9082155,1.3498839],[103.908188,1.3498166],[103.9079276,1.3499233]]]},"clearanceHeight":1.7,"clearancePrepared":true},"geometry":{"type":"Polygon","coordinates":[[[103.908188,1.3498166],[103.9079276,1.3499233],[103.9079551,1.3499905],[103.9082155,1.3498839],[103.908188,1.3498166]]]}},{"type":"Feature","id":"way/453418204-0","properties":{"building":"yes","clearanceGeometry":{"type":"Polygon","coordinates":[[[103.9072926,1.3476467],[103.9071182,1.3477168],[103.9072,1.3479202],[103.9073744,1.3478501],[103.9072926,1.3476467]]]},"clearanceHeight":1.7,"clearancePrepared":true},"geometry":{"type":"Polygon","coordinates":[[[103.9073744,1.3478501],[103.9072926,1.3476467],[103.9071182,1.3477168],[103.9072,1.3479202],[103.9073744,1.3478501]]]}},{"type":"Feature","id":"way/453418205-0","properties":{"building":"yes","clearanceGeometry":{"type":"Polygon","coordinates":[[[103.9076788,1.3501586],[103.9077832,1.3501158],[103.9077579,1.350054],[103.9076535,1.3500968],[103.9076788,1.3501586]]]},"clearanceHeight":1.7,"clearancePrepared":true},"geometry":{"type":"Polygon","coordinates":[[[103.9076535,1.3500968],[103.9076788,1.3501586],[103.9077832,1.3501158],[103.9077579,1.350054],[103.9076535,1.3500968]]]}},{"type":"Feature","id":"way/453418206-0","properties":{"building":"yes","clearanceGeometry":{"type":"Polygon","coordinates":[[[103.907204,1.3472097],[103.9071289,1.3470233],[103.9068822,1.3471225],[103.9069572,1.347309],[103.907204,1.3472097]]]},"clearanceHeight":1.7,"clearancePrepared":true},"geometry":{"type":"Polygon","coordinates":[[[103.9069572,1.347309],[103.907204,1.3472097],[103.9071289,1.3470233],[103.9068822,1.3471225],[103.9069572,1.347309]]]}},{"type":"Feature","id":"way/453418207-0","properties":{"building":"yes","clearanceGeometry":{"type":"Polygon","coordinates":[[[103.9077552,1.3503221],[103.9078485,1.3502839],[103.9078196,1.3502135],[103.9077264,1.3502517],[103.9077552,1.3503221]]]},"clearanceHeight":1.7,"clearancePrepared":true},"geometry":{"type":"Polygon","coordinates":[[[103.9077264,1.3502517],[103.9077552,1.3503221],[103.9078485,1.3502839],[103.9078196,1.3502135],[103.9077264,1.3502517]]]}},{"type":"Feature","id":"way/453418208-0","properties":{"building":"yes","clearanceGeometry":{"type":"Polygon","coordinates":[[[103.9075263,1.3493227],[103.907558,1.3494],[103.9077151,1.3493357],[103.907601,1.3490571],[103.9073784,1.3491483],[103.9074608,1.3493495],[103.9075263,1.3493227]]]},"clearanceHeight":1.7,"clearancePrepared":true},"geometry":{"type":"Polygon","coordinates":[[[103.9074608,1.3493495],[103.9075263,1.3493227],[103.907558,1.3494],[103.9077151,1.3493357],[103.907601,1.3490571],[103.9073784,1.3491483],[103.9074608,1.3493495]]]}},{"type":"Feature","id":"way/453418209-0","properties":{"building":"yes","clearanceGeometry":{"type":"Polygon","coordinates":[[[103.9076439,1.3500488],[103.9077347,1.3500116],[103.9076127,1.3497138],[103.9080733,1.3495252],[103.9079915,1.3493257],[103.9074401,1.3495515],[103.9076439,1.3500488]]]},"clearanceHeight":1.7,"clearancePrepared":true},"geometry":{"type":"Polygon","coordinates":[[[103.9074401,1.3495515],[103.9076439,1.3500488],[103.9077347,1.3500116],[103.9076127,1.3497138],[103.9080733,1.3495252],[103.9079915,1.3493257],[103.9074401,1.3495515]]]}},{"type":"Feature","id":"way/453418210-0","properties":{"building":"yes","clearanceGeometry":{"type":"Polygon","coordinates":[[[103.9077748,1.3497946],[103.9081211,1.3496528],[103.9080988,1.3495985],[103.9076944,1.3497641],[103.9077324,1.3498569],[103.9077906,1.3498331],[103.9077748,1.3497946]]]},"clearanceHeight":1.7,"clearancePrepared":true},"geometry":{"type":"Polygon","coordinates":[[[103.9077906,1.3498331],[103.9077748,1.3497946],[103.9081211,1.3496528],[103.9080988,1.3495985],[103.9076944,1.3497641],[103.9077324,1.3498569],[103.9077906,1.3498331]]]}},{"type":"Feature","id":"way/453418212-0","properties":{"building":"yes","clearanceGeometry":{"type":"Polygon","coordinates":[[[103.908411,1.3503516],[103.908511,1.3503107],[103.9084459,1.3501519],[103.9083459,1.3501928],[103.908411,1.3503516]]]},"clearanceHeight":1.7,"clearancePrepared":true},"geometry":{"type":"Polygon","coordinates":[[[103.9083459,1.3501928],[103.908411,1.3503516],[103.908511,1.3503107],[103.9084459,1.3501519],[103.9083459,1.3501928]]]}},{"type":"Feature","id":"way/1144990026-0-0-0","properties":{"highway":"service","startNodeId":"10656541456","endNodeId":"1318772273"},"geometry":{"type":"LineString","coordinates":[[103.9071778,1.3470146],[103.9074146,1.3475838]]}},{"type":"Feature","id":"way/1144990027-0-0-0","properties":{"highway":"service","startNodeId":"1318772269","endNodeId":"10656541457"},"geometry":{"type":"LineString","coordinates":[[103.9070069,1.3477501],[103.9067738,1.3471994]]}}]}