{"type":"FeatureCollection","features":[{"type":"Feature","id":"way/483100679-0-3-1","properties":{"highway":"motorway","lanes":"3","lit":"yes","maxheight":"4.5","maxspeed":"80","name":"Kallang-Paya Lebar Expressway","name:ms":"Lebuhraya Kallang-Paya Lebar","name:ta":"\u0b95\u0bb2\u0bbe\u0b99\u0bcd-\u0baa\u0bbe\u0baf\u0bb2\u0bc7\u0baa\u0bbe\u0bb0\u0bcd \u0bb5\u0bbf\u0bb0\u0bc8\u0bb5\u0bc1\u0b9a\u0bcd\u0b9a\u0bbe\u0bb2\u0bc8","name:zh":"\u52a0\u51b7\uff0d\u5df4\u8036\u5229\u5cc7\u9ad8\u901f\u516c\u8def","oneway":"yes","ref":"KPE","ref:ta":"\u0b95\u0bc7\u0baa\u0bbf\u0b87","short_name:ta":"\u0b95\u0bc7\u0baa\u0bbf\u0b87","surface":"asphalt","wikidata":"Q1722056","wikipedia":"en:Kallang\u2013Paya Lebar Expressway","startNodeId":"way/483100679-0:3:1","endNodeId":"6750555327"},"geometry":{"type":"LineString","coordinates":[[103.9139733,1.3788079],[103.9127496,1.3780451]]}},{"type":"Feature","id":"way/635098148-0-3-0","properties":{"destination":"Halus Link;Lorong Halus;Punggol Central","destination:lanes":"CTE/SLE|Halus Link;Lorong Halus;Punggol Central","destination:ref":"TPE","destination:ref:lanes":"TPE|none","destination:ref:to":"CTE/SLE","highway":"motorway_link","lanes":"2","maxspeed":"70","name":"Halus Link","name:en":"Halus Link","name:zh":"\u54c8\u9c81\u58eb\u8fde\u8def","oneway":"yes","startNodeId":"11028022945","endNodeId":"6094013083"},"geometry":{"type":"LineString","coordinates":[[103.9127642,1.378378],[103.9129535,1.3785092]]}},{"type":"Feature","id":"way/635098148-0-4-0","properties":{"destination":"Halus Link;Lorong Halus;Punggol Central","destination:lanes":"CTE/SLE|Halus Link;Lorong Halus;Punggol Central","destination:ref":"TPE","destination:ref:lanes":"TPE|none","destination:ref:to":"CTE/SLE","highway":"motorway_link","lanes":"2","maxspeed":"70","name":"Halus Link","name:en":"Halus Link","name:zh":"\u54c8\u9c81\u58eb\u8fde\u8def","oneway":"yes","startNodeId":"6094013083","endNodeId":"6094013084"},"geometry":{"type":"LineString","coordinates":[[103.9129535,1.3785092],[103.9134735,1.3788728]]}},{"type":"Feature","id":"way/736721782-0-0-0","properties":{"bridge":"yes","destination":"Halus Link;Lorong Halus;Punggol Central","destination:lanes":"CTE/SLE|CTE/SLE|Halus Link;Lorong Halus;Punggol Central","destination:ref":"TPE","destination:ref:lanes":"TPE|TPE|none","destination:ref:to":"CTE/SLE","highway":"motorway_link","lanes":"3","layer":"1","maxspeed":"70","name":"Halus Link","name:en":"Halus Link","name:zh":"\u54c8\u9c81\u58eb\u8fde\u8def","oneway":"yes","startNodeId":"6094013084","endNodeId":"6094013586"},"geometry":{"type":"LineString","coordinates":[[103.9134735,1.3788728],[103.9136951,1.3790635]]}},{"type":"Feature","id":"way/736721782-0-1-0","properties":{"bridge":"yes","destination":"Halus Link;Lorong Halus;Punggol Central","destination:lanes":"CTE/SLE|CTE/SLE|Halus Link;Lorong Halus;Punggol Central","destination:ref":"TPE","destination:ref:lanes":"TPE|TPE|none","destination:ref:to":"CTE/SLE","highway":"motorway_link","lanes":"3","layer":"1","maxspeed":"70","name":"Halus Link","name:en":"Halus Link","name:zh":"\u54c8\u9c81\u58eb\u8fde\u8def","oneway":"yes","startNodeId":"6094013586","endNodeId":"6094013585"},"geometry":{"type":"LineString","coordinates":[[103.9136951,1.3790635],[103.9138457,1.3792478]]}},{"type":"Feature","id":"way/924526184-0-0-0","properties":{"highway":"motorway_link","lanes":"2","lit":"yes","maxheight":"4.5","maxspeed":"50","name":"Kallang-Paya Lebar Expressway","name:ms":"Lebuhraya Kallang-Paya Lebar","name:ta":"\u0b95\u0bb2\u0bbe\u0b99\u0bcd-\u0baa\u0bbe\u0baf\u0bb2\u0bc7\u0baa\u0bbe\u0bb0\u0bcd \u0bb5\u0bbf\u0bb0\u0bc8\u0bb5\u0bc1\u0b9a\u0bcd\u0b9a\u0bbe\u0bb2\u0bc8","name:zh":"\u52a0\u51b7\uff0d\u5df4\u8036\u5229\u5cc7\u9ad8\u901f\u516c\u8def","oneway":"yes","ref":"KPE","ref:ta":"\u0b95\u0bc7\u0baa\u0bbf\u0b87","short_name:ta":"\u0b95\u0bc7\u0baa\u0bbf\u0b87","surface":"asphalt","turn:lanes":"through|through","startNodeId":"4491733717","endNodeId":"5910801271"},"geometry":{"type":"LineString","coordinates":[[103.9129709,1.3783324],[103.9140178,1.3789827]]}}]}