{"type":"FeatureCollection","features":[{"type":"Feature","id":"way/455076880-0","properties":{"building":"yes","clearanceGeometry":{"type":"Polygon","coordinates":[[[103.9152184,1.3639129],[103.9154866,1.3636983],[103.9153759,1.36356],[103.9151077,1.3637745],[103.9152184,1.3639129]]]},"clearanceHeight":1.7,"clearancePrepared":true},"geometry":{"type":"Polygon","coordinates":[[[103.9151077,1.3637745],[103.9152184,1.3639129],[103.9154866,1.3636983],[103.9153759,1.36356],[103.9151077,1.3637745]]]}},{"type":"Feature","id":"way/455076881-0","properties":{"building":"yes","clearanceGeometry":{"type":"Polygon","coordinates":[[[103.9153525,1.3646996],[103.9153491,1.3645361],[103.91509854343927,1.3645413117337986],[103.91510069948143,1.364593326250954],[103.91509538372885,1.3645935464823897],[103.9150977,1.364705],[103.9153525,1.3646996]]]},"clearanceHeight":1.7,"clearancePrepared":true},"geometry":{"type":"Polygon","coordinates":[[[103.9150977,1.364705],[103.9153525,1.3646996],[103.9153491,1.3645361],[103.9150943,1.3645414],[103.9150977,1.364705]]]}},{"type":"Feature","id":"way/452357539-0-0-0","properties":{"highway":"service","startNodeId":"4491668455","endNodeId":"way/452357539-0:0:1"},"geometry":{"type":"LineString","coordinates":[[103.9146481,1.3612945],[103.9155173,1.3611836]]}},{"type":"Feature","id":"way/452357539-0-0-1","properties":{"highway":"service","startNodeId":"way/452357539-0:0:1","endNodeId":"4491668456"},"geometry":{"type":"LineString","coordinates":[[103.9155173,1.3611836],[103.9163866,1.3610726]]}},{"type":"Feature","id":"way/539102495-0-0-0","properties":{"highway":"service","startNodeId":"5217050623","endNodeId":"5217050622"},"geometry":{"type":"LineString","coordinates":[[103.9144537,1.3632527],[103.9150818,1.364096]]}},{"type":"Feature","id":"way/539102495-0-1-0","properties":{"highway":"service","startNodeId":"5217050622","endNodeId":"5217050621"},"geometry":{"type":"LineString","coordinates":[[103.9150818,1.364096],[103.9151448,1.3641326]]}},{"type":"Feature","id":"way/539102495-0-2-0","properties":{"highway":"service","startNodeId":"5217050621","endNodeId":"5217048820"},"geometry":{"type":"LineString","coordinates":[[103.9151448,1.3641326],[103.915214,1.3641448]]}},{"type":"Feature","id":"way/539102495-0-3-0","properties":{"highway":"service","startNodeId":"5217048820","endNodeId":"4491734737"},"geometry":{"type":"LineString","coordinates":[[103.915214,1.3641448],[103.9153718,1.3641489]]}},{"type":"Feature","id":"way/643247898-0-0-0","properties":{"highway":"service","startNodeId":"6053862893","endNodeId":"6053862892"},"geometry":{"type":"LineString","coordinates":[[103.9154935,1.3644288],[103.9151019,1.3644368]]}},{"type":"Feature","id":"way/643247898-0-1-0","properties":{"highway":"service","startNodeId":"6053862892","endNodeId":"6777037923"},"geometry":{"type":"LineString","coordinates":[[103.9151019,1.3644368],[103.915069,1.3644549]]}},{"type":"Feature","id":"way/643247898-0-2-0","properties":{"highway":"service","startNodeId":"6777037923","endNodeId":"6053862891"},"geometry":{"type":"LineString","coordinates":[[103.915069,1.3644549],[103.9150563,1.3644985]]}},{"type":"Feature","id":"way/643247898-0-3-0","properties":{"highway":"service","startNodeId":"6053862891","endNodeId":"6053862890"},"geometry":{"type":"LineString","coordinates":[[103.9150563,1.3644985],[103.9150603,1.364595]]}},{"type":"Feature","id":"way/643247901-0-0-0","properties":{"highway":"service","startNodeId":"6053862895","endNodeId":"6053862893"},"geometry":{"type":"LineString","coordinates":[[103.9154637,1.3641432],[103.9154935,1.3644288]]}},{"type":"Feature","id":"way/643247902-0-0-0","properties":{"highway":"service","lanes":"2","lanes:backward":"1","lanes:forward":"1","startNodeId":"6053862897","endNodeId":"6053862896"},"geometry":{"type":"LineString","coordinates":[[103.9156142,1.3636217],[103.9156259,1.3641331]]}},{"type":"Feature","id":"way/643247904-0-0-0","properties":{"highway":"service","startNodeId":"6053862907","endNodeId":"6053862906"},"geometry":{"type":"LineString","coordinates":[[103.9174837,1.3603959],[103.917473,1.3606372]]}},{"type":"Feature","id":"way/643247904-0-1-0","properties":{"highway":"service","startNodeId":"6053862906","endNodeId":"6053862905"},"geometry":{"type":"LineString","coordinates":[[103.917473,1.3606372],[103.9174247,1.3608142]]}},{"type":"Feature","id":"way/643247904-0-2-0","properties":{"highway":"service","startNodeId":"6053862905","endNodeId":"6053862904"},"geometry":{"type":"LineString","coordinates":[[103.9174247,1.3608142],[103.9173657,1.3610984]]}},{"type":"Feature","id":"way/643247904-0-3-0","properties":{"highway":"service","startNodeId":"6053862904","endNodeId":"6053862903"},"geometry":{"type":"LineString","coordinates":[[103.9173657,1.3610984],[103.9173388,1.3617795]]}},{"type":"Feature","id":"way/643247904-0-4-0","properties":{"highway":"service","startNodeId":"6053862903","endNodeId":"6053862902"},"geometry":{"type":"LineString","coordinates":[[103.9173388,1.3617795],[103.9173281,1.3621817]]}},{"type":"Feature","id":"way/643247904-0-5-0","properties":{"highway":"service","startNodeId":"6053862902","endNodeId":"6053862901"},"geometry":{"type":"LineString","coordinates":[[103.9173281,1.3621817],[103.917253,1.3624016]]}},{"type":"Feature","id":"way/643247904-0-6-0","properties":{"highway":"service","startNodeId":"6053862901","endNodeId":"6053862900"},"geometry":{"type":"LineString","coordinates":[[103.917253,1.3624016],[103.9171082,1.3625142]]}},{"type":"Feature","id":"way/643247904-0-7-0","properties":{"highway":"service","startNodeId":"6053862900","endNodeId":"6053862899"},"geometry":{"type":"LineString","coordinates":[[103.9171082,1.3625142],[103.9168775,1.3625786]]}},{"type":"Feature","id":"way/643247904-0-8-0","properties":{"highway":"service","startNodeId":"6053862899","endNodeId":"6053862898"},"geometry":{"type":"LineString","coordinates":[[103.9168775,1.3625786],[103.9165365,1.3625885]]}},{"type":"Feature","id":"way/644454427-0-0-0","properties":{"highway":"service","lanes":"2","lanes:backward":"1","lanes:forward":"1","startNodeId":"4491734738","endNodeId":"5217048818"},"geometry":{"type":"LineString","coordinates":[[103.9164201,1.3641136],[103.916171,1.3641038]]}},{"type":"Feature","id":"way/644454427-0-1-0","properties":{"highway":"service","lanes":"2","lanes:backward":"1","lanes:forward":"1","startNodeId":"5217048818","endNodeId":"5217048819"},"geometry":{"type":"LineString","coordinates":[[103.916171,1.3641038],[103.9158702,1.3641179]]}},{"type":"Feature","id":"way/644454427-0-2-0","properties":{"highway":"service","lanes":"2","lanes:backward":"1","lanes:forward":"1","startNodeId":"5217048819","endNodeId":"6053862896"},"geometry":{"type":"LineString","coordinates":[[103.9158702,1.3641179],[103.9156259,1.3641331]]}},{"type":"Feature","id":"way/644824730-0-2-0","properties":{"highway":"service","lanes":"2","lanes:backward":"1","lanes:forward":"1","startNodeId":"4491668457","endNodeId":"4491668456"},"geometry":{"type":"LineString","coordinates":[[103.9163464,1.3604076],[103.9163866,1.3610726]]}},{"type":"Feature","id":"way/644824731-0-0-0","properties":{"highway":"service","lanes":"2","lanes:backward":"1","lanes:forward":"1","startNodeId":"6053862898","endNodeId":"4491895093"},"geometry":{"type":"LineString","coordinates":[[103.9165365,1.3625885],[103.916691,1.3641504]]}},{"type":"Feature","id":"way/644824732-0-0-0","properties":{"highway":"service","lanes":"2","lanes:backward":"1","lanes:forward":"1","startNodeId":"4491668456","endNodeId":"6053862898"},"geometry":{"type":"LineString","coordinates":[[103.9163866,1.3610726],[103.9165365,1.3625885]]}},{"type":"Feature","id":"way/644865892-0-3-0","properties":{"highway":"service","lanes":"2","lanes:backward":"1","lanes:forward":"1","turn:lanes:backward":"through","turn:lanes:forward":"through","startNodeId":"4491734741","endNodeId":"4491734740"},"geometry":{"type":"LineString","coordinates":[[103.9183203,1.3645765],[103.917934,1.3644746]]}},{"type":"Feature","id":"way/644865892-0-4-0","properties":{"highway":"service","lanes":"2","lanes:backward":"1","lanes:forward":"1","turn:lanes:backward":"through","turn:lanes:forward":"through","startNodeId":"4491734740","endNodeId":"4491734739"},"geometry":{"type":"LineString","coordinates":[[103.917934,1.3644746],[103.9170596,1.3642654]]}},{"type":"Feature","id":"way/676794555-0-0-0","properties":{"highway":"service","lanes":"2","lanes:backward":"1","lanes:forward":"1","turn:lanes:forward":"left;through","startNodeId":"4491734739","endNodeId":"4491895093"},"geometry":{"type":"LineString","coordinates":[[103.9170596,1.3642654],[103.916691,1.3641504]]}},{"type":"Feature","id":"way/682803558-0-0-0","properties":{"highway":"service","lanes":"2","lanes:backward":"1","lanes:forward":"1","turn:lanes:backward":"through;right","startNodeId":"4491895093","endNodeId":"4491734738"},"geometry":{"type":"LineString","coordinates":[[103.916691,1.3641504],[103.9164201,1.3641136]]}},{"type":"Feature","id":"way/722491980-0-0-0","properties":{"highway":"service","startNodeId":"6053862893","endNodeId":"6053862894"},"geometry":{"type":"LineString","coordinates":[[103.9154935,1.3644288],[103.9155096,1.3646272]]}},{"type":"Feature","id":"way/722491981-0-0-0","properties":{"highway":"service","lanes":"2","lanes:backward":"1","lanes:forward":"1","startNodeId":"6053862895","endNodeId":"4491734737"},"geometry":{"type":"LineString","coordinates":[[103.9154637,1.3641432],[103.9153718,1.3641489]]}},{"type":"Feature","id":"way/722491982-0-0-0","properties":{"highway":"service","lanes":"2","lanes:backward":"1","lanes:forward":"1","startNodeId":"6053862896","endNodeId":"6053862895"},"geometry":{"type":"LineString","coordinates":[[103.9156259,1.3641331],[103.9154637,1.3641432]]}}]}