{"type":"FeatureCollection","features":[{"type":"Feature","id":"way/826116495-0","properties":{"building":"roof","clearanceGeometry":{"type":"Polygon","coordinates":[[[103.9154885,1.3018303],[103.9154521,1.3018555],[103.9154939,1.3019157],[103.9155303,1.3018905],[103.9154885,1.3018303]]]},"clearanceHeight":1.7,"clearancePrepared":true},"geometry":{"type":"Polygon","coordinates":[[[103.9155303,1.3018905],[103.9154885,1.3018303],[103.9154521,1.3018555],[103.9154939,1.3019157],[103.9155303,1.3018905]]]}},{"type":"Feature","id":"way/841782727-0","properties":{"addr:city":"Singapore","addr:housenumber":"1010","addr:postcode":"449892","addr:street":"East Coast Parkway","amenity":"bar","brewery":"yes","building":"commercial","check_date":"2023-11-05","contact:facebook":"https://www.facebook.com/georgessg","contact:instagram":"https://www.instagram.com/georges_sg","name":"Georges Beach Club","website":"https://www.georges.com.sg/","clearanceGeometry":{"type":"Polygon","coordinates":[[[103.9150492,1.3014401],[103.9149754,1.3014172],[103.9149568,1.3014774],[103.9147994,1.3014287],[103.9147575,1.3015641],[103.9149886,1.3016356],[103.9150492,1.3014401]]]},"clearanceHeight":1.7,"clearancePrepared":true},"geometry":{"type":"Polygon","coordinates":[[[103.9149886,1.3016356],[103.9150492,1.3014401],[103.9149754,1.3014172],[103.9149568,1.3014774],[103.9147994,1.3014287],[103.9147575,1.3015641],[103.9149886,1.3016356]]]}},{"type":"Feature","id":"way/926105403-0","properties":{"building":"yes","clearanceGeometry":{"type":"Polygon","coordinates":[[[103.9178772,1.3018873],[103.9178062,1.3018684],[103.9177868,1.3019415],[103.9178578,1.3019604],[103.9178772,1.3018873]]]},"clearanceHeight":1.7,"clearancePrepared":true},"geometry":{"type":"Polygon","coordinates":[[[103.9178578,1.3019604],[103.9178772,1.3018873],[103.9178062,1.3018684],[103.9177868,1.3019415],[103.9178578,1.3019604]]]}},{"type":"Feature","id":"way/935016845-0","properties":{"building":"yes","clearanceGeometry":{"type":"Polygon","coordinates":[[[103.9152521,1.3012635],[103.9152121,1.3012614],[103.9152094,1.3013124],[103.9152494,1.3013145],[103.9152521,1.3012635]]]},"clearanceHeight":1.7,"clearancePrepared":true},"geometry":{"type":"Polygon","coordinates":[[[103.9152494,1.3013145],[103.9152521,1.3012635],[103.9152121,1.3012614],[103.9152094,1.3013124],[103.9152494,1.3013145]]]}},{"type":"Feature","id":"way/935016846-0","properties":{"building":"yes","clearanceGeometry":{"type":"Polygon","coordinates":[[[103.9154126,1.3013468],[103.9153872,1.3013359],[103.9153658,1.3013855],[103.9153911,1.3013965],[103.9154126,1.3013468]]]},"clearanceHeight":1.7,"clearancePrepared":true},"geometry":{"type":"Polygon","coordinates":[[[103.9153911,1.3013965],[103.9154126,1.3013468],[103.9153872,1.3013359],[103.9153658,1.3013855],[103.9153911,1.3013965]]]}},{"type":"Feature","id":"way/935016847-0","properties":{"building":"yes","clearanceGeometry":{"type":"Polygon","coordinates":[[[103.9141687,1.301582],[103.9141671,1.3016012],[103.9141729,1.3016196],[103.9141853,1.3016343],[103.9142024,1.3016432],[103.9142216,1.3016449],[103.91424,1.301639],[103.9142547,1.3016266],[103.9142636,1.3016095],[103.9142652,1.3015903],[103.9142594,1.301572],[103.9142559,1.3015678],[103.9142645,1.3015582],[103.9142601,1.3015492],[103.914252,1.3015414],[103.914251,1.3015153],[103.9142557,1.3015009],[103.9142712,1.301476],[103.9142967,1.3014576],[103.9143037,1.3014445],[103.9142963,1.3014241],[103.9142812,1.3014023],[103.9142611,1.3013969],[103.9142497,1.3014227],[103.9142393,1.3014271],[103.9142406,1.301413],[103.9142406,1.3013929],[103.9142252,1.3013728],[103.9141964,1.3013734],[103.9141856,1.3013828],[103.9141863,1.3014043],[103.9141897,1.3014224],[103.914191,1.3014512],[103.9141917,1.3014787],[103.9142004,1.3014942],[103.9142219,1.301517],[103.9142107,1.3015467],[103.9141923,1.3015525],[103.9141776,1.3015649],[103.9141687,1.301582]]]},"clearanceHeight":1.7,"clearancePrepared":true},"geometry":{"type":"Polygon","coordinates":[[[103.9141776,1.3015649],[103.9141687,1.301582],[103.9141671,1.3016012],[103.9141729,1.3016196],[103.9141853,1.3016343],[103.9142024,1.3016432],[103.9142216,1.3016449],[103.91424,1.301639],[103.9142547,1.3016266],[103.9142636,1.3016095],[103.9142652,1.3015903],[103.9142594,1.301572],[103.9142559,1.3015678],[103.9142645,1.3015582],[103.9142601,1.3015492],[103.914252,1.3015414],[103.914251,1.3015153],[103.9142557,1.3015009],[103.9142712,1.301476],[103.9142967,1.3014576],[103.9143037,1.3014445],[103.9142963,1.3014241],[103.9142812,1.3014023],[103.9142611,1.3013969],[103.9142497,1.3014227],[103.9142393,1.3014271],[103.9142406,1.301413],[103.9142406,1.3013929],[103.9142252,1.3013728],[103.9141964,1.3013734],[103.9141856,1.3013828],[103.9141863,1.3014043],[103.9141897,1.3014224],[103.914191,1.3014512],[103.9141917,1.3014787],[103.9142004,1.3014942],[103.9142219,1.301517],[103.9142107,1.3015467],[103.9141923,1.3015525],[103.9141776,1.3015649]]]}},{"type":"Feature","id":"way/427934672-0-3-0","properties":{"highway":"service","lanes":"2","lanes:backward":"1","lanes:forward":"1","service":"parking_aisle","surface":"asphalt","turn:lanes:backward":"through","turn:lanes:forward":"through","startNodeId":"5240248170","endNodeId":"5240248169"},"geometry":{"type":"LineString","coordinates":[[103.9144833,1.3019678],[103.914486,1.3019571]]}},{"type":"Feature","id":"way/427934672-0-4-0","properties":{"highway":"service","lanes":"2","lanes:backward":"1","lanes:forward":"1","service":"parking_aisle","surface":"asphalt","turn:lanes:backward":"through","turn:lanes:forward":"through","startNodeId":"5240248169","endNodeId":"4271005992"},"geometry":{"type":"LineString","coordinates":[[103.914486,1.3019571],[103.9146258,1.3016862]]}},{"type":"Feature","id":"way/427934672-0-5-0","properties":{"highway":"service","lanes":"2","lanes:backward":"1","lanes:forward":"1","service":"parking_aisle","surface":"asphalt","turn:lanes:backward":"through","turn:lanes:forward":"through","startNodeId":"4271005992","endNodeId":"5240248168"},"geometry":{"type":"LineString","coordinates":[[103.9146258,1.3016862],[103.9146365,1.3016741]]}},{"type":"Feature","id":"way/427934672-0-6-0","properties":{"highway":"service","lanes":"2","lanes:backward":"1","lanes:forward":"1","service":"parking_aisle","surface":"asphalt","turn:lanes:backward":"through","turn:lanes:forward":"through","startNodeId":"5240248168","endNodeId":"5240248167"},"geometry":{"type":"LineString","coordinates":[[103.9146365,1.3016741],[103.9146499,1.3016688]]}},{"type":"Feature","id":"way/427934672-0-7-0","properties":{"highway":"service","lanes":"2","lanes:backward":"1","lanes:forward":"1","service":"parking_aisle","surface":"asphalt","turn:lanes:backward":"through","turn:lanes:forward":"through","startNodeId":"5240248167","endNodeId":"5240248166"},"geometry":{"type":"LineString","coordinates":[[103.9146499,1.3016688],[103.9146647,1.3016694]]}},{"type":"Feature","id":"way/427934672-0-8-0","properties":{"highway":"service","lanes":"2","lanes:backward":"1","lanes:forward":"1","service":"parking_aisle","surface":"asphalt","turn:lanes:backward":"through","turn:lanes:forward":"through","startNodeId":"5240248166","endNodeId":"4271005993"},"geometry":{"type":"LineString","coordinates":[[103.9146647,1.3016694],[103.9150434,1.3017825]]}}]}