{"type":"FeatureCollection","features":[{"type":"Feature","id":"way/1288456963-0","properties":{"addr:city":"Singapore","addr:housenumber":"11","addr:postcode":"536590","addr:street":"Lorong Halus","building":"industrial","clearanceGeometry":{"type":"Polygon","coordinates":[[[103.9198998,1.3829131],[103.9197215,1.3829905],[103.9199195,1.3834462],[103.9200978,1.3833687],[103.9198998,1.3829131]]]},"clearanceHeight":1.7,"clearancePrepared":true},"geometry":{"type":"Polygon","coordinates":[[[103.9200978,1.3833687],[103.9198998,1.3829131],[103.9197215,1.3829905],[103.9199195,1.3834462],[103.9200978,1.3833687]]]}},{"type":"Feature","id":"way/1288456964-0","properties":{"addr:city":"Singapore","addr:housenumber":"13","addr:postcode":"533850","addr:street":"Lorong Halus","building":"industrial","clearanceGeometry":{"type":"Polygon","coordinates":[[[103.9206961,1.383311],[103.9203076,1.3834759],[103.9203646,1.38361],[103.9207531,1.3834452],[103.9206961,1.383311]]]},"clearanceHeight":1.7,"clearancePrepared":true},"geometry":{"type":"Polygon","coordinates":[[[103.9207531,1.3834452],[103.9206961,1.383311],[103.9203076,1.3834759],[103.9203646,1.38361],[103.9207531,1.3834452]]]}},{"type":"Feature","id":"way/180147807-0-0-0","properties":{"highway":"unclassified","lanes":"2","lanes:backward":"1","lanes:forward":"1","maxspeed":"40","name":"Lorong Halus","surface":"asphalt","startNodeId":"369941952","endNodeId":"4600849679"},"geometry":{"type":"LineString","coordinates":[[103.9228434,1.3836095],[103.9228608,1.3837235]]}},{"type":"Feature","id":"way/180147807-0-1-0","properties":{"highway":"unclassified","lanes":"2","lanes:backward":"1","lanes:forward":"1","maxspeed":"40","name":"Lorong Halus","surface":"asphalt","startNodeId":"4600849679","endNodeId":"4600849678"},"geometry":{"type":"LineString","coordinates":[[103.9228608,1.3837235],[103.9228648,1.3842745]]}},{"type":"Feature","id":"way/180147807-0-2-0","properties":{"highway":"unclassified","lanes":"2","lanes:backward":"1","lanes:forward":"1","maxspeed":"40","name":"Lorong Halus","surface":"asphalt","startNodeId":"4600849678","endNodeId":"369941953"},"geometry":{"type":"LineString","coordinates":[[103.9228648,1.3842745],[103.9228747,1.3844262]]}},{"type":"Feature","id":"way/539102497-0-9-0","properties":{"highway":"service","startNodeId":"5217050666","endNodeId":"5217050665"},"geometry":{"type":"LineString","coordinates":[[103.9205932,1.3825925],[103.9207826,1.3831516]]}},{"type":"Feature","id":"way/635098150-0-0-0","properties":{"highway":"motorway_link","lanes":"4","maxspeed":"60","name":"Halus Link","name:en":"Halus Link","name:zh":"\u54c8\u9c81\u58eb\u8fde\u8def","oneway":"yes","startNodeId":"5992186786","endNodeId":"6094013633"},"geometry":{"type":"LineString","coordinates":[[103.9199982,1.3852016],[103.9201786,1.3852614]]}},{"type":"Feature","id":"way/635098150-0-1-0","properties":{"highway":"motorway_link","lanes":"4","maxspeed":"60","name":"Halus Link","name:en":"Halus Link","name:zh":"\u54c8\u9c81\u58eb\u8fde\u8def","oneway":"yes","startNodeId":"6094013633","endNodeId":"6094013632"},"geometry":{"type":"LineString","coordinates":[[103.9201786,1.3852614],[103.9204056,1.3853447]]}},{"type":"Feature","id":"way/635098150-0-2-0","properties":{"highway":"motorway_link","lanes":"4","maxspeed":"60","name":"Halus Link","name:en":"Halus Link","name:zh":"\u54c8\u9c81\u58eb\u8fde\u8def","oneway":"yes","startNodeId":"6094013632","endNodeId":"5991894320"},"geometry":{"type":"LineString","coordinates":[[103.9204056,1.3853447],[103.9205862,1.3854302]]}},{"type":"Feature","id":"way/635098150-0-3-0","properties":{"highway":"motorway_link","lanes":"4","maxspeed":"60","name":"Halus Link","name:en":"Halus Link","name:zh":"\u54c8\u9c81\u58eb\u8fde\u8def","oneway":"yes","startNodeId":"5991894320","endNodeId":"9566124478"},"geometry":{"type":"LineString","coordinates":[[103.9205862,1.3854302],[103.920654,1.3854643]]}},{"type":"Feature","id":"way/635098150-0-4-0","properties":{"highway":"motorway_link","lanes":"4","maxspeed":"60","name":"Halus Link","name:en":"Halus Link","name:zh":"\u54c8\u9c81\u58eb\u8fde\u8def","oneway":"yes","startNodeId":"9566124478","endNodeId":"6094013631"},"geometry":{"type":"LineString","coordinates":[[103.920654,1.3854643],[103.9207682,1.3855216]]}},{"type":"Feature","id":"way/635098150-0-5-0","properties":{"highway":"motorway_link","lanes":"4","maxspeed":"60","name":"Halus Link","name:en":"Halus Link","name:zh":"\u54c8\u9c81\u58eb\u8fde\u8def","oneway":"yes","startNodeId":"6094013631","endNodeId":"6094013630"},"geometry":{"type":"LineString","coordinates":[[103.9207682,1.3855216],[103.9209775,1.3856231]]}},{"type":"Feature","id":"way/635098150-0-6-0","properties":{"highway":"motorway_link","lanes":"4","maxspeed":"60","name":"Halus Link","name:en":"Halus Link","name:zh":"\u54c8\u9c81\u58eb\u8fde\u8def","oneway":"yes","startNodeId":"6094013630","endNodeId":"6094013629"},"geometry":{"type":"LineString","coordinates":[[103.9209775,1.3856231],[103.9212527,1.3857975]]}},{"type":"Feature","id":"way/635098150-0-7-0","properties":{"highway":"motorway_link","lanes":"4","maxspeed":"60","name":"Halus Link","name:en":"Halus Link","name:zh":"\u54c8\u9c81\u58eb\u8fde\u8def","oneway":"yes","startNodeId":"6094013629","endNodeId":"5991894325"},"geometry":{"type":"LineString","coordinates":[[103.9212527,1.3857975],[103.921474,1.3859625]]}},{"type":"Feature","id":"way/635098150-0-8-0","properties":{"highway":"motorway_link","lanes":"4","maxspeed":"60","name":"Halus Link","name:en":"Halus Link","name:zh":"\u54c8\u9c81\u58eb\u8fde\u8def","oneway":"yes","startNodeId":"5991894325","endNodeId":"5991894321"},"geometry":{"type":"LineString","coordinates":[[103.921474,1.3859625],[103.921787,1.386258]]}},{"type":"Feature","id":"way/635099106-0-0-0","properties":{"bridge":"yes","highway":"motorway_link","lanes":"4","layer":"1","maxspeed":"60","name":"Halus Link","name:en":"Halus Link","name:zh":"\u54c8\u9c81\u58eb\u8fde\u8def","oneway":"yes","startNodeId":"5991894321","endNodeId":"6094013065"},"geometry":{"type":"LineString","coordinates":[[103.921787,1.386258],[103.9221142,1.3865882]]}},{"type":"Feature","id":"way/635099106-0-1-0","properties":{"bridge":"yes","highway":"motorway_link","lanes":"4","layer":"1","maxspeed":"60","name":"Halus Link","name:en":"Halus Link","name:zh":"\u54c8\u9c81\u58eb\u8fde\u8def","oneway":"yes","startNodeId":"6094013065","endNodeId":"6094013064"},"geometry":{"type":"LineString","coordinates":[[103.9221142,1.3865882],[103.9223617,1.3868885]]}},{"type":"Feature","id":"way/635099106-0-2-0","properties":{"bridge":"yes","highway":"motorway_link","lanes":"4","layer":"1","maxspeed":"60","name":"Halus Link","name:en":"Halus Link","name:zh":"\u54c8\u9c81\u58eb\u8fde\u8def","oneway":"yes","startNodeId":"6094013064","endNodeId":"6094013063"},"geometry":{"type":"LineString","coordinates":[[103.9223617,1.3868885],[103.9225129,1.387079]]}},{"type":"Feature","id":"way/635099106-0-3-0","properties":{"bridge":"yes","highway":"motorway_link","lanes":"4","layer":"1","maxspeed":"60","name":"Halus Link","name:en":"Halus Link","name:zh":"\u54c8\u9c81\u58eb\u8fde\u8def","oneway":"yes","startNodeId":"6094013063","endNodeId":"5991894322"},"geometry":{"type":"LineString","coordinates":[[103.9225129,1.387079],[103.9227515,1.3874234]]}},{"type":"Feature","id":"way/635149563-0-3-0","properties":{"highway":"motorway_link","name":"Tampines Expressway","oneway":"yes","startNodeId":"5992186785","endNodeId":"9566124458"},"geometry":{"type":"LineString","coordinates":[[103.9188482,1.3851112],[103.919962,1.3852821]]}},{"type":"Feature","id":"way/635149563-0-4-0","properties":{"highway":"motorway_link","name":"Tampines Expressway","oneway":"yes","startNodeId":"9566124458","endNodeId":"9566124478"},"geometry":{"type":"LineString","coordinates":[[103.919962,1.3852821],[103.920654,1.3854643]]}},{"type":"Feature","id":"way/646117452-0-1-0","properties":{"bridge":"yes","highway":"motorway_link","lanes":"4","layer":"1","maxspeed":"50","name":"Halus Link","name:en":"Halus Link","name:zh":"\u54c8\u9c81\u58eb\u8fde\u8def","oneway":"yes","startNodeId":"6094013066","endNodeId":"6094013067"},"geometry":{"type":"LineString","coordinates":[[103.9226296,1.3869622],[103.9224578,1.3867423]]}},{"type":"Feature","id":"way/646117452-0-2-0","properties":{"bridge":"yes","highway":"motorway_link","lanes":"4","layer":"1","maxspeed":"50","name":"Halus Link","name:en":"Halus Link","name:zh":"\u54c8\u9c81\u58eb\u8fde\u8def","oneway":"yes","startNodeId":"6094013067","endNodeId":"6094013068"},"geometry":{"type":"LineString","coordinates":[[103.9224578,1.3867423],[103.9221252,1.3863562]]}},{"type":"Feature","id":"way/646117452-0-3-0","properties":{"bridge":"yes","highway":"motorway_link","lanes":"4","layer":"1","maxspeed":"50","name":"Halus Link","name:en":"Halus Link","name:zh":"\u54c8\u9c81\u58eb\u8fde\u8def","oneway":"yes","startNodeId":"6094013068","endNodeId":"6094013658"},"geometry":{"type":"LineString","coordinates":[[103.9221252,1.3863562],[103.9217197,1.3859685]]}},{"type":"Feature","id":"way/646117453-0-0-0","properties":{"highway":"motorway_link","lanes":"3","maxspeed":"50","name":"Halus Link","name:en":"Halus Link","name:zh":"\u54c8\u9c81\u58eb\u8fde\u8def","oneway":"yes","startNodeId":"6094013656","endNodeId":"6094013655"},"geometry":{"type":"LineString","coordinates":[[103.9213005,1.3855853],[103.921169,1.3854942]]}},{"type":"Feature","id":"way/646117453-0-1-0","properties":{"highway":"motorway_link","lanes":"3","maxspeed":"50","name":"Halus Link","name:en":"Halus Link","name:zh":"\u54c8\u9c81\u58eb\u8fde\u8def","oneway":"yes","startNodeId":"6094013655","endNodeId":"6071833814"},"geometry":{"type":"LineString","coordinates":[[103.921169,1.3854942],[103.9209223,1.385336]]}},{"type":"Feature","id":"way/646117453-0-2-0","properties":{"highway":"motorway_link","lanes":"3","maxspeed":"50","name":"Halus Link","name:en":"Halus Link","name:zh":"\u54c8\u9c81\u58eb\u8fde\u8def","oneway":"yes","startNodeId":"6071833814","endNodeId":"13340698486"},"geometry":{"type":"LineString","coordinates":[[103.9209223,1.385336],[103.9207023,1.3852046]]}},{"type":"Feature","id":"way/646117453-0-3-0","properties":{"highway":"motorway_link","lanes":"3","maxspeed":"50","name":"Halus Link","name:en":"Halus Link","name:zh":"\u54c8\u9c81\u58eb\u8fde\u8def","oneway":"yes","startNodeId":"13340698486","endNodeId":"6071833812"},"geometry":{"type":"LineString","coordinates":[[103.9207023,1.3852046],[103.9205162,1.3851326]]}},{"type":"Feature","id":"way/646117453-0-4-0","properties":{"highway":"motorway_link","lanes":"3","maxspeed":"50","name":"Halus Link","name:en":"Halus Link","name:zh":"\u54c8\u9c81\u58eb\u8fde\u8def","oneway":"yes","startNodeId":"6071833812","endNodeId":"6089860518"},"geometry":{"type":"LineString","coordinates":[[103.9205162,1.3851326],[103.9203391,1.385053]]}},{"type":"Feature","id":"way/646117454-0-0-0","properties":{"bridge":"yes","highway":"motorway_link","lanes":"2","layer":"1","maxspeed":"50","oneway":"yes","startNodeId":"6089860518","endNodeId":"6094013595"},"geometry":{"type":"LineString","coordinates":[[103.9203391,1.385053],[103.9200331,1.3849116]]}},{"type":"Feature","id":"way/646117454-0-1-0","properties":{"bridge":"yes","highway":"motorway_link","lanes":"2","layer":"1","maxspeed":"50","oneway":"yes","startNodeId":"6094013595","endNodeId":"6094013594"},"geometry":{"type":"LineString","coordinates":[[103.9200331,1.3849116],[103.9196783,1.3847799]]}},{"type":"Feature","id":"way/646117454-0-2-0","properties":{"bridge":"yes","highway":"motorway_link","lanes":"2","layer":"1","maxspeed":"50","oneway":"yes","startNodeId":"6094013594","endNodeId":"6094013596"},"geometry":{"type":"LineString","coordinates":[[103.9196783,1.3847799],[103.9194843,1.3847056]]}},{"type":"Feature","id":"way/646117454-0-3-0","properties":{"bridge":"yes","highway":"motorway_link","lanes":"2","layer":"1","maxspeed":"50","oneway":"yes","startNodeId":"6094013596","endNodeId":"6094013593"},"geometry":{"type":"LineString","coordinates":[[103.9194843,1.3847056],[103.9193481,1.3846305]]}},{"type":"Feature","id":"way/646117454-0-4-0","properties":{"bridge":"yes","highway":"motorway_link","lanes":"2","layer":"1","maxspeed":"50","oneway":"yes","startNodeId":"6094013593","endNodeId":"6094013597"},"geometry":{"type":"LineString","coordinates":[[103.9193481,1.3846305],[103.9191994,1.3845287]]}},{"type":"Feature","id":"way/646117454-0-5-0","properties":{"bridge":"yes","highway":"motorway_link","lanes":"2","layer":"1","maxspeed":"50","oneway":"yes","startNodeId":"6094013597","endNodeId":"6071833819"},"geometry":{"type":"LineString","coordinates":[[103.9191994,1.3845287],[103.9190454,1.3843909]]}},{"type":"Feature","id":"way/646117454-0-6-0","properties":{"bridge":"yes","highway":"motorway_link","lanes":"2","layer":"1","maxspeed":"50","oneway":"yes","startNodeId":"6071833819","endNodeId":"6094013598"},"geometry":{"type":"LineString","coordinates":[[103.9190454,1.3843909],[103.9189183,1.3842322]]}},{"type":"Feature","id":"way/646117454-0-7-0","properties":{"bridge":"yes","highway":"motorway_link","lanes":"2","layer":"1","maxspeed":"50","oneway":"yes","startNodeId":"6094013598","endNodeId":"6094013599"},"geometry":{"type":"LineString","coordinates":[[103.9189183,1.3842322],[103.9188353,1.3840988]]}},{"type":"Feature","id":"way/646117454-0-8-0","properties":{"bridge":"yes","highway":"motorway_link","lanes":"2","layer":"1","maxspeed":"50","oneway":"yes","startNodeId":"6094013599","endNodeId":"6094013600"},"geometry":{"type":"LineString","coordinates":[[103.9188353,1.3840988],[103.9187543,1.3839153]]}},{"type":"Feature","id":"way/646117454-0-9-0","properties":{"bridge":"yes","highway":"motorway_link","lanes":"2","layer":"1","maxspeed":"50","oneway":"yes","startNodeId":"6094013600","endNodeId":"6071833820"},"geometry":{"type":"LineString","coordinates":[[103.9187543,1.3839153],[103.9186876,1.3837228]]}},{"type":"Feature","id":"way/646117454-0-10-0","properties":{"bridge":"yes","highway":"motorway_link","lanes":"2","layer":"1","maxspeed":"50","oneway":"yes","startNodeId":"6071833820","endNodeId":"6094013601"},"geometry":{"type":"LineString","coordinates":[[103.9186876,1.3837228],[103.918637,1.3835547]]}},{"type":"Feature","id":"way/646117454-0-11-0","properties":{"bridge":"yes","highway":"motorway_link","lanes":"2","layer":"1","maxspeed":"50","oneway":"yes","startNodeId":"6094013601","endNodeId":"6071833821"},"geometry":{"type":"LineString","coordinates":[[103.918637,1.3835547],[103.9185807,1.3833238]]}},{"type":"Feature","id":"way/646117454-0-12-0","properties":{"bridge":"yes","highway":"motorway_link","lanes":"2","layer":"1","maxspeed":"50","oneway":"yes","startNodeId":"6071833821","endNodeId":"6094013590"},"geometry":{"type":"LineString","coordinates":[[103.9185807,1.3833238],[103.9184644,1.3828378]]}},{"type":"Feature","id":"way/646147804-0-0-0","properties":{"highway":"unclassified","lanes":"2","lanes:backward":"1","lanes:forward":"1","maxspeed":"50","name":"Lorong Halus","sidewalk":"both","surface":"asphalt","startNodeId":"369941951","endNodeId":"4600849682"},"geometry":{"type":"LineString","coordinates":[[103.922492,1.3831229],[103.9225577,1.3831792]]}},{"type":"Feature","id":"way/646147804-0-1-0","properties":{"highway":"unclassified","lanes":"2","lanes:backward":"1","lanes:forward":"1","maxspeed":"50","name":"Lorong Halus","sidewalk":"both","surface":"asphalt","startNodeId":"4600849682","endNodeId":"4600849681"},"geometry":{"type":"LineString","coordinates":[[103.9225577,1.3831792],[103.922787,1.3834929]]}},{"type":"Feature","id":"way/646147804-0-2-0","properties":{"highway":"unclassified","lanes":"2","lanes:backward":"1","lanes:forward":"1","maxspeed":"50","name":"Lorong Halus","sidewalk":"both","surface":"asphalt","startNodeId":"4600849681","endNodeId":"4600849680"},"geometry":{"type":"LineString","coordinates":[[103.922787,1.3834929],[103.9228219,1.3835465]]}},{"type":"Feature","id":"way/646147804-0-3-0","properties":{"highway":"unclassified","lanes":"2","lanes:backward":"1","lanes:forward":"1","maxspeed":"50","name":"Lorong Halus","sidewalk":"both","surface":"asphalt","startNodeId":"4600849680","endNodeId":"369941952"},"geometry":{"type":"LineString","coordinates":[[103.9228219,1.3835465],[103.9228434,1.3836095]]}},{"type":"Feature","id":"way/648721689-0-0-0","properties":{"bridge":"yes","destination:ref":"KPE","highway":"motorway_link","lanes":"2","layer":"1","maxspeed":"50","oneway":"yes","startNodeId":"6089860518","endNodeId":"6071833818"},"geometry":{"type":"LineString","coordinates":[[103.9203391,1.385053],[103.9200206,1.3849779]]}},{"type":"Feature","id":"way/648721689-0-1-0","properties":{"bridge":"yes","destination:ref":"KPE","highway":"motorway_link","lanes":"2","layer":"1","maxspeed":"50","oneway":"yes","startNodeId":"6071833818","endNodeId":"6094013607"},"geometry":{"type":"LineString","coordinates":[[103.9200206,1.3849779],[103.9194978,1.38481]]}},{"type":"Feature","id":"way/648721689-0-2-0","properties":{"bridge":"yes","destination:ref":"KPE","highway":"motorway_link","lanes":"2","layer":"1","maxspeed":"50","oneway":"yes","startNodeId":"6094013607","endNodeId":"6094013608"},"geometry":{"type":"LineString","coordinates":[[103.9194978,1.38481],[103.9193396,1.3847579]]}},{"type":"Feature","id":"way/648721689-0-3-0","properties":{"bridge":"yes","destination:ref":"KPE","highway":"motorway_link","lanes":"2","layer":"1","maxspeed":"50","oneway":"yes","startNodeId":"6094013608","endNodeId":"6094013609"},"geometry":{"type":"LineString","coordinates":[[103.9193396,1.3847579],[103.9192074,1.3847125]]}},{"type":"Feature","id":"way/648721689-0-4-0","properties":{"bridge":"yes","destination:ref":"KPE","highway":"motorway_link","lanes":"2","layer":"1","maxspeed":"50","oneway":"yes","startNodeId":"6094013609","endNodeId":"6094013610"},"geometry":{"type":"LineString","coordinates":[[103.9192074,1.3847125],[103.9190549,1.3846525]]}},{"type":"Feature","id":"way/648721689-0-5-0","properties":{"bridge":"yes","destination:ref":"KPE","highway":"motorway_link","lanes":"2","layer":"1","maxspeed":"50","oneway":"yes","startNodeId":"6094013610","endNodeId":"6071833811"},"geometry":{"type":"LineString","coordinates":[[103.9190549,1.3846525],[103.9189368,1.3845936]]}},{"type":"Feature","id":"way/648721689-0-6-0","properties":{"bridge":"yes","destination:ref":"KPE","highway":"motorway_link","lanes":"2","layer":"1","maxspeed":"50","oneway":"yes","startNodeId":"6071833811","endNodeId":"6094013611"},"geometry":{"type":"LineString","coordinates":[[103.9189368,1.3845936],[103.9188325,1.384527]]}},{"type":"Feature","id":"way/648721689-0-7-0","properties":{"bridge":"yes","destination:ref":"KPE","highway":"motorway_link","lanes":"2","layer":"1","maxspeed":"50","oneway":"yes","startNodeId":"6094013611","endNodeId":"6094013613"},"geometry":{"type":"LineString","coordinates":[[103.9188325,1.384527],[103.9187199,1.3844406]]}},{"type":"Feature","id":"way/648721689-0-8-0","properties":{"bridge":"yes","destination:ref":"KPE","highway":"motorway_link","lanes":"2","layer":"1","maxspeed":"50","oneway":"yes","startNodeId":"6094013613","endNodeId":"6094013612"},"geometry":{"type":"LineString","coordinates":[[103.9187199,1.3844406],[103.9186266,1.384348]]}},{"type":"Feature","id":"way/648721689-0-9-0","properties":{"bridge":"yes","destination:ref":"KPE","highway":"motorway_link","lanes":"2","layer":"1","maxspeed":"50","oneway":"yes","startNodeId":"6094013612","endNodeId":"6094013614"},"geometry":{"type":"LineString","coordinates":[[103.9186266,1.384348],[103.9185333,1.3842333]]}},{"type":"Feature","id":"way/648721689-0-10-0","properties":{"bridge":"yes","destination:ref":"KPE","highway":"motorway_link","lanes":"2","layer":"1","maxspeed":"50","oneway":"yes","startNodeId":"6094013614","endNodeId":"6071833815"},"geometry":{"type":"LineString","coordinates":[[103.9185333,1.3842333],[103.9184278,1.3840847]]}},{"type":"Feature","id":"way/648721689-0-11-0","properties":{"bridge":"yes","destination:ref":"KPE","highway":"motorway_link","lanes":"2","layer":"1","maxspeed":"50","oneway":"yes","startNodeId":"6071833815","endNodeId":"6094013606"},"geometry":{"type":"LineString","coordinates":[[103.9184278,1.3840847],[103.9183608,1.3839393]]}},{"type":"Feature","id":"way/700595302-0-0-0","properties":{"destination":"Punggol Road","destination:ref":"TPE","destination:ref:to":"SLE","highway":"motorway_link","lanes":"2","lit":"yes","maxspeed":"50","oneway":"yes","surface":"asphalt","startNodeId":"13340698488","endNodeId":"13340698487"},"geometry":{"type":"LineString","coordinates":[[103.9209347,1.3854781],[103.9204391,1.3852312]]}},{"type":"Feature","id":"way/700595302-0-1-0","properties":{"destination":"Punggol Road","destination:ref":"TPE","destination:ref:to":"SLE","highway":"motorway_link","lanes":"2","lit":"yes","maxspeed":"50","oneway":"yes","surface":"asphalt","startNodeId":"13340698487","endNodeId":"6579182683"},"geometry":{"type":"LineString","coordinates":[[103.9204391,1.3852312],[103.9200564,1.3850881]]}},{"type":"Feature","id":"way/711901303-0-8-0","properties":{"bridge":"viaduct","destination":"Halus Link;Lorong Halus;Punggol Central","highway":"motorway_link","lanes":"3","layer":"1","lit":"yes","maxspeed":"70","name":"Halus Link","name:en":"Halus Link","name:zh":"\u54c8\u9c81\u58eb\u8fde\u8def","oneway":"yes","startNodeId":"13340656814","endNodeId":"5991894324"},"geometry":{"type":"LineString","coordinates":[[103.9182166,1.3848667],[103.9186274,1.3849441]]}},{"type":"Feature","id":"way/711902215-0-0-0","properties":{"destination":"Halus Link;Lorong Halus;Punggol Central","highway":"motorway_link","lanes":"3","maxspeed":"70","name":"Halus Link","name:en":"Halus Link","name:zh":"\u54c8\u9c81\u58eb\u8fde\u8def","oneway":"yes","startNodeId":"5991894324","endNodeId":"9566124459"},"geometry":{"type":"LineString","coordinates":[[103.9186274,1.3849441],[103.919671,1.3851174]]}},{"type":"Feature","id":"way/711902215-0-1-0","properties":{"destination":"Halus Link;Lorong Halus;Punggol Central","highway":"motorway_link","lanes":"3","maxspeed":"70","name":"Halus Link","name:en":"Halus Link","name:zh":"\u54c8\u9c81\u58eb\u8fde\u8def","oneway":"yes","startNodeId":"9566124459","endNodeId":"5992186786"},"geometry":{"type":"LineString","coordinates":[[103.919671,1.3851174],[103.9199982,1.3852016]]}},{"type":"Feature","id":"way/715627057-0-0-0","properties":{"highway":"motorway_link","lanes":"3","maxspeed":"50","name":"Halus Link","name:en":"Halus Link","name:zh":"\u54c8\u9c81\u58eb\u8fde\u8def","oneway":"yes","turn:lanes":"left|left;through|through","startNodeId":"6094013658","endNodeId":"6094013657"},"geometry":{"type":"LineString","coordinates":[[103.9217197,1.3859685],[103.9215915,1.3858226]]}},{"type":"Feature","id":"way/715627057-0-1-0","properties":{"highway":"motorway_link","lanes":"3","maxspeed":"50","name":"Halus Link","name:en":"Halus Link","name:zh":"\u54c8\u9c81\u58eb\u8fde\u8def","oneway":"yes","turn:lanes":"left|left;through|through","startNodeId":"6094013657","endNodeId":"6094013656"},"geometry":{"type":"LineString","coordinates":[[103.9215915,1.3858226],[103.9213005,1.3855853]]}},{"type":"Feature","id":"way/736721778-0-0-0","properties":{"bridge":"viaduct","destination":"Punggol Road","destination:ref":"TPE","destination:ref:to":"SLE","highway":"motorway_link","lanes":"2","layer":"1","lit":"yes","maxspeed":"50","oneway":"yes","surface":"asphalt","startNodeId":"6579182683","endNodeId":"13340698485"},"geometry":{"type":"LineString","coordinates":[[103.9200564,1.3850881],[103.9194992,1.3849501]]}},{"type":"Feature","id":"way/736721778-0-1-0","properties":{"bridge":"viaduct","destination":"Punggol Road","destination:ref":"TPE","destination:ref:to":"SLE","highway":"motorway_link","lanes":"2","layer":"1","lit":"yes","maxspeed":"50","oneway":"yes","surface":"asphalt","startNodeId":"13340698485","endNodeId":"13340656815"},"geometry":{"type":"LineString","coordinates":[[103.9194992,1.3849501],[103.9185325,1.3848052]]}},{"type":"Feature","id":"way/740115389-0-1-0","properties":{"highway":"unclassified","lanes":"2","lanes:backward":"1","lanes:forward":"1","maxspeed":"50","name":"Lorong Halus","sidewalk":"both","surface":"asphalt","startNodeId":"12278014939","endNodeId":"369941951"},"geometry":{"type":"LineString","coordinates":[[103.9218914,1.3827945],[103.922492,1.3831229]]}},{"type":"Feature","id":"way/1454691049-0-0-0","properties":{"destination":"Punggol Road","destination:ref":"TPE","destination:ref:to":"SLE","highway":"motorway_link","lanes":"1","lit":"yes","maxspeed":"50","oneway":"yes","surface":"asphalt","startNodeId":"6094013658","endNodeId":"13340698489"},"geometry":{"type":"LineString","coordinates":[[103.9217197,1.3859685],[103.9215064,1.3858597]]}},{"type":"Feature","id":"way/1454691049-0-1-0","properties":{"destination":"Punggol Road","destination:ref":"TPE","destination:ref:to":"SLE","highway":"motorway_link","lanes":"1","lit":"yes","maxspeed":"50","oneway":"yes","surface":"asphalt","startNodeId":"13340698489","endNodeId":"13340698488"},"geometry":{"type":"LineString","coordinates":[[103.9215064,1.3858597],[103.9209347,1.3854781]]}}]}