{"type":"FeatureCollection","features":[{"type":"Feature","id":"way/616193732-0-5-0","properties":{"alt_name":"Punggol Central","highway":"secondary","lanes":"3","maxspeed":"60","name":"Pasir Ris Industrial Drive 1","oneway":"yes","sidewalk:left":"separate","sidewalk:right":"no","surface":"asphalt"},"geometry":{"type":"LineString","coordinates":[[103.9228296,1.3904354],[103.9230312,1.3900105]]}},{"type":"Feature","id":"way/616193732-0-6-0","properties":{"alt_name":"Punggol Central","highway":"secondary","lanes":"3","maxspeed":"60","name":"Pasir Ris Industrial Drive 1","oneway":"yes","sidewalk:left":"separate","sidewalk:right":"no","surface":"asphalt"},"geometry":{"type":"LineString","coordinates":[[103.9230312,1.3900105],[103.9231959,1.3896463]]}},{"type":"Feature","id":"way/616193733-0-0-0","properties":{"alt_name":"Punggol Central","highway":"secondary","lanes":"3","maxspeed":"60","name":"Pasir Ris Industrial Drive 1","oneway":"yes","sidewalk:left":"separate","sidewalk:right":"no"},"geometry":{"type":"LineString","coordinates":[[103.923667,1.3883892],[103.9236091,1.3885097]]}},{"type":"Feature","id":"way/635099106-0-4-0","properties":{"bridge":"yes","highway":"motorway_link","lanes":"4","layer":"1","maxspeed":"60","name":"Halus Link","name:en":"Halus Link","name:zh":"\u54c8\u9c81\u58eb\u8fde\u8def","oneway":"yes"},"geometry":{"type":"LineString","coordinates":[[103.9227515,1.3874234],[103.9232465,1.3880656]]}},{"type":"Feature","id":"way/635099108-0-0-0","properties":{"destination":"Pasir Ris Industrial Drive 1;Pasir Ris Farmway 3;Pasir Ris Coast Industrial Park 1-3,6","destination:to":"Pasir Ris Drive 12","highway":"motorway_link","lanes":"4","maxspeed":"60","oneway":"yes","turn:lanes":"through|through|through;right|right"},"geometry":{"type":"LineString","coordinates":[[103.9232465,1.3880656],[103.9235419,1.3884103]]}},{"type":"Feature","id":"way/635099108-0-1-0","properties":{"destination":"Pasir Ris Industrial Drive 1;Pasir Ris Farmway 3;Pasir Ris Coast Industrial Park 1-3,6","destination:to":"Pasir Ris Drive 12","highway":"motorway_link","lanes":"4","maxspeed":"60","oneway":"yes","turn:lanes":"through|through|through;right|right"},"geometry":{"type":"LineString","coordinates":[[103.9235419,1.3884103],[103.9236091,1.3885097]]}},{"type":"Feature","id":"way/644499291-0-0-0","properties":{"highway":"service","lanes":"2","lanes:backward":"1","lanes:forward":"1","name":"Pasir Ris Farmway 3","surface":"asphalt","turn:lanes:backward":"left;through;right"},"geometry":{"type":"LineString","coordinates":[[103.9260296,1.3915204],[103.9259606,1.3915906]]}},{"type":"Feature","id":"way/644499291-0-1-0","properties":{"highway":"service","lanes":"2","lanes:backward":"1","lanes:forward":"1","name":"Pasir Ris Farmway 3","surface":"asphalt","turn:lanes:backward":"left;through;right"},"geometry":{"type":"LineString","coordinates":[[103.9259606,1.3915906],[103.9259125,1.3916362]]}},{"type":"Feature","id":"way/644499291-0-2-0","properties":{"highway":"service","lanes":"2","lanes:backward":"1","lanes:forward":"1","name":"Pasir Ris Farmway 3","surface":"asphalt","turn:lanes:backward":"left;through;right"},"geometry":{"type":"LineString","coordinates":[[103.9259125,1.3916362],[103.9256988,1.3918185]]}},{"type":"Feature","id":"way/646117450-0-0-0","properties":{"highway":"unclassified","lanes":"3","maxspeed":"50","name":"Lorong Halus","name:zh":"\u7f57\u5f04\u54c8\u9c81\u58eb","oneway":"yes","sidewalk:left":"separate","sidewalk:right":"no","surface":"asphalt"},"geometry":{"type":"LineString","coordinates":[[103.9236872,1.3886248],[103.9237487,1.3887172]]}},{"type":"Feature","id":"way/646117450-0-1-0","properties":{"highway":"unclassified","lanes":"3","maxspeed":"50","name":"Lorong Halus","name:zh":"\u7f57\u5f04\u54c8\u9c81\u58eb","oneway":"yes","sidewalk:left":"separate","sidewalk:right":"no","surface":"asphalt"},"geometry":{"type":"LineString","coordinates":[[103.9237487,1.3887172],[103.9238651,1.3888874]]}},{"type":"Feature","id":"way/646117450-0-2-0","properties":{"highway":"unclassified","lanes":"3","maxspeed":"50","name":"Lorong Halus","name:zh":"\u7f57\u5f04\u54c8\u9c81\u58eb","oneway":"yes","sidewalk:left":"separate","sidewalk:right":"no","surface":"asphalt"},"geometry":{"type":"LineString","coordinates":[[103.9238651,1.3888874],[103.9243173,1.3894912]]}},{"type":"Feature","id":"way/646117450-0-3-0","properties":{"highway":"unclassified","lanes":"3","maxspeed":"50","name":"Lorong Halus","name:zh":"\u7f57\u5f04\u54c8\u9c81\u58eb","oneway":"yes","sidewalk:left":"separate","sidewalk:right":"no","surface":"asphalt"},"geometry":{"type":"LineString","coordinates":[[103.9243173,1.3894912],[103.924608,1.3898713]]}},{"type":"Feature","id":"way/646117450-0-4-0","properties":{"highway":"unclassified","lanes":"3","maxspeed":"50","name":"Lorong Halus","name:zh":"\u7f57\u5f04\u54c8\u9c81\u58eb","oneway":"yes","sidewalk:left":"separate","sidewalk:right":"no","surface":"asphalt"},"geometry":{"type":"LineString","coordinates":[[103.924608,1.3898713],[103.9250068,1.3903374]]}},{"type":"Feature","id":"way/646117450-0-5-0","properties":{"highway":"unclassified","lanes":"3","maxspeed":"50","name":"Lorong Halus","name:zh":"\u7f57\u5f04\u54c8\u9c81\u58eb","oneway":"yes","sidewalk:left":"separate","sidewalk:right":"no","surface":"asphalt"},"geometry":{"type":"LineString","coordinates":[[103.9250068,1.3903374],[103.925366,1.3907498]]}},{"type":"Feature","id":"way/646117452-0-0-0","properties":{"bridge":"yes","highway":"motorway_link","lanes":"4","layer":"1","maxspeed":"50","name":"Halus Link","name:en":"Halus Link","name:zh":"\u54c8\u9c81\u58eb\u8fde\u8def","oneway":"yes"},"geometry":{"type":"LineString","coordinates":[[103.9231868,1.3877102],[103.9226296,1.3869622]]}},{"type":"Feature","id":"way/646832246-0-4-0","properties":{"highway":"unclassified","lanes":"2","lanes:backward":"1","lanes:forward":"1","maxspeed":"40","name":"Lorong Halus","surface":"asphalt","turn:lanes:forward":"through;right"},"geometry":{"type":"LineString","coordinates":[[103.9234123,1.3873141],[103.9234291,1.3873636]]}},{"type":"Feature","id":"way/646832246-0-5-0","properties":{"highway":"unclassified","lanes":"2","lanes:backward":"1","lanes:forward":"1","maxspeed":"40","name":"Lorong Halus","surface":"asphalt","turn:lanes:forward":"through;right"},"geometry":{"type":"LineString","coordinates":[[103.9234291,1.3873636],[103.9234543,1.3874131]]}},{"type":"Feature","id":"way/646832246-0-6-0","properties":{"highway":"unclassified","lanes":"2","lanes:backward":"1","lanes:forward":"1","maxspeed":"40","name":"Lorong Halus","surface":"asphalt","turn:lanes:forward":"through;right"},"geometry":{"type":"LineString","coordinates":[[103.9234543,1.3874131],[103.9234951,1.3874557]]}},{"type":"Feature","id":"way/646832246-0-7-0","properties":{"highway":"unclassified","lanes":"2","lanes:backward":"1","lanes:forward":"1","maxspeed":"40","name":"Lorong Halus","surface":"asphalt","turn:lanes:forward":"through;right"},"geometry":{"type":"LineString","coordinates":[[103.9234951,1.3874557],[103.9235579,1.3875046]]}},{"type":"Feature","id":"way/646832246-0-8-0","properties":{"highway":"unclassified","lanes":"2","lanes:backward":"1","lanes:forward":"1","maxspeed":"40","name":"Lorong Halus","surface":"asphalt","turn:lanes:forward":"through;right"},"geometry":{"type":"LineString","coordinates":[[103.9235579,1.3875046],[103.9236682,1.3875936]]}},{"type":"Feature","id":"way/646832246-0-9-0","properties":{"highway":"unclassified","lanes":"2","lanes:backward":"1","lanes:forward":"1","maxspeed":"40","name":"Lorong Halus","surface":"asphalt","turn:lanes:forward":"through;right"},"geometry":{"type":"LineString","coordinates":[[103.9236682,1.3875936],[103.9237143,1.3876292]]}},{"type":"Feature","id":"way/646832246-0-10-0","properties":{"highway":"unclassified","lanes":"2","lanes:backward":"1","lanes:forward":"1","maxspeed":"40","name":"Lorong Halus","surface":"asphalt","turn:lanes:forward":"through;right"},"geometry":{"type":"LineString","coordinates":[[103.9237143,1.3876292],[103.9238139,1.3877022]]}},{"type":"Feature","id":"way/646832246-0-11-0","properties":{"highway":"unclassified","lanes":"2","lanes:backward":"1","lanes:forward":"1","maxspeed":"40","name":"Lorong Halus","surface":"asphalt","turn:lanes:forward":"through;right"},"geometry":{"type":"LineString","coordinates":[[103.9238139,1.3877022],[103.9239216,1.387769]]}},{"type":"Feature","id":"way/648218952-0-0-0","properties":{"highway":"service","lanes":"2","name":"Lorong Halus","name:zh":"\u7f57\u5f04\u54c8\u9c81\u58eb","oneway":"yes","surface":"asphalt","turn:lanes":"left;through|through;right"},"geometry":{"type":"LineString","coordinates":[[103.9261802,1.3915701],[103.9260875,1.3914549]]}},{"type":"Feature","id":"way/648218955-0-0-0","properties":{"highway":"unclassified","maxspeed":"50","name":"Pasir Ris Farmway 3","surface":"asphalt"},"geometry":{"type":"LineString","coordinates":[[103.9260875,1.3914549],[103.9260296,1.3915204]]}},{"type":"Feature","id":"way/648218958-0-0-0","properties":{"highway":"service","lanes":"1","name":"Lorong Halus","name:zh":"\u7f57\u5f04\u54c8\u9c81\u58eb","oneway":"yes","surface":"asphalt"},"geometry":{"type":"LineString","coordinates":[[103.9260296,1.3915204],[103.9261174,1.3916178]]}},{"type":"Feature","id":"way/648935785-0-0-0","properties":{"highway":"unclassified","maxspeed":"50","name":"Lorong Halus","oneway":"yes","sidewalk:left":"separate","sidewalk:right":"no"},"geometry":{"type":"LineString","coordinates":[[103.9237378,1.3884968],[103.923667,1.3883892]]}},{"type":"Feature","id":"way/648935786-0-0-0","properties":{"destination":"Pasir Ris Industrial Drive 1;Punggol East","destination:to":"Punggol Central","highway":"motorway_link","lanes":"2","oneway":"yes","sidewalk:left":"separate","sidewalk:right":"no"},"geometry":{"type":"LineString","coordinates":[[103.9232465,1.3880656],[103.9232539,1.3881786]]}},{"type":"Feature","id":"way/648935786-0-1-0","properties":{"destination":"Pasir Ris Industrial Drive 1;Punggol East","destination:to":"Punggol Central","highway":"motorway_link","lanes":"2","oneway":"yes","sidewalk:left":"separate","sidewalk:right":"no"},"geometry":{"type":"LineString","coordinates":[[103.9232539,1.3881786],[103.9233149,1.3882964]]}},{"type":"Feature","id":"way/648935786-0-2-0","properties":{"destination":"Pasir Ris Industrial Drive 1;Punggol East","destination:to":"Punggol Central","highway":"motorway_link","lanes":"2","oneway":"yes","sidewalk:left":"separate","sidewalk:right":"no"},"geometry":{"type":"LineString","coordinates":[[103.9233149,1.3882964],[103.9233686,1.3884152]]}},{"type":"Feature","id":"way/648935786-0-3-0","properties":{"destination":"Pasir Ris Industrial Drive 1;Punggol East","destination:to":"Punggol Central","highway":"motorway_link","lanes":"2","oneway":"yes","sidewalk:left":"separate","sidewalk:right":"no"},"geometry":{"type":"LineString","coordinates":[[103.9233686,1.3884152],[103.9234131,1.3885173]]}},{"type":"Feature","id":"way/648935786-0-4-0","properties":{"destination":"Pasir Ris Industrial Drive 1;Punggol East","destination:to":"Punggol Central","highway":"motorway_link","lanes":"2","oneway":"yes","sidewalk:left":"separate","sidewalk:right":"no"},"geometry":{"type":"LineString","coordinates":[[103.9234131,1.3885173],[103.9234329,1.3886083]]}},{"type":"Feature","id":"way/648935786-0-5-0","properties":{"destination":"Pasir Ris Industrial Drive 1;Punggol East","destination:to":"Punggol Central","highway":"motorway_link","lanes":"2","oneway":"yes","sidewalk:left":"separate","sidewalk:right":"no"},"geometry":{"type":"LineString","coordinates":[[103.9234329,1.3886083],[103.923432,1.3886788]]}},{"type":"Feature","id":"way/648935786-0-6-0","properties":{"destination":"Pasir Ris Industrial Drive 1;Punggol East","destination:to":"Punggol Central","highway":"motorway_link","lanes":"2","oneway":"yes","sidewalk:left":"separate","sidewalk:right":"no"},"geometry":{"type":"LineString","coordinates":[[103.923432,1.3886788],[103.9234002,1.3887642]]}},{"type":"Feature","id":"way/648935786-0-7-0","properties":{"destination":"Pasir Ris Industrial Drive 1;Punggol East","destination:to":"Punggol Central","highway":"motorway_link","lanes":"2","oneway":"yes","sidewalk:left":"separate","sidewalk:right":"no"},"geometry":{"type":"LineString","coordinates":[[103.9234002,1.3887642],[103.9232884,1.3890055]]}},{"type":"Feature","id":"way/648935786-0-8-0","properties":{"destination":"Pasir Ris Industrial Drive 1;Punggol East","destination:to":"Punggol Central","highway":"motorway_link","lanes":"2","oneway":"yes","sidewalk:left":"separate","sidewalk:right":"no"},"geometry":{"type":"LineString","coordinates":[[103.9232884,1.3890055],[103.9232441,1.3892365]]}},{"type":"Feature","id":"way/648935787-0-0-0","properties":{"highway":"secondary_link","lanes":"1","maxspeed":"50","oneway":"yes","sidewalk:both":"separate","surface":"asphalt"},"geometry":{"type":"LineString","coordinates":[[103.9234789,1.3890467],[103.9235893,1.3889407]]}},{"type":"Feature","id":"way/648935787-0-1-0","properties":{"highway":"secondary_link","lanes":"1","maxspeed":"50","oneway":"yes","sidewalk:both":"separate","surface":"asphalt"},"geometry":{"type":"LineString","coordinates":[[103.9235893,1.3889407],[103.9236498,1.3888749]]}},{"type":"Feature","id":"way/648935787-0-2-0","properties":{"highway":"secondary_link","lanes":"1","maxspeed":"50","oneway":"yes","sidewalk:both":"separate","surface":"asphalt"},"geometry":{"type":"LineString","coordinates":[[103.9236498,1.3888749],[103.9237197,1.3888525]]}},{"type":"Feature","id":"way/648935787-0-3-0","properties":{"highway":"secondary_link","lanes":"1","maxspeed":"50","oneway":"yes","sidewalk:both":"separate","surface":"asphalt"},"geometry":{"type":"LineString","coordinates":[[103.9237197,1.3888525],[103.9238651,1.3888874]]}},{"type":"Feature","id":"way/648935788-0-0-0","properties":{"highway":"secondary_link","lanes":"2","maxspeed":"50","name":"Lorong Halus","name:zh":"\u7f57\u5f04\u54c8\u9c81\u58eb","oneway":"yes","sidewalk:both":"separate","turn:lanes":"left|left"},"geometry":{"type":"LineString","coordinates":[[103.9241542,1.389022],[103.9240827,1.3887907]]}},{"type":"Feature","id":"way/648935788-0-1-0","properties":{"highway":"secondary_link","lanes":"2","maxspeed":"50","name":"Lorong Halus","name:zh":"\u7f57\u5f04\u54c8\u9c81\u58eb","oneway":"yes","sidewalk:both":"separate","turn:lanes":"left|left"},"geometry":{"type":"LineString","coordinates":[[103.9240827,1.3887907],[103.923976,1.388551]]}},{"type":"Feature","id":"way/648935788-0-2-0","properties":{"highway":"secondary_link","lanes":"2","maxspeed":"50","name":"Lorong Halus","name:zh":"\u7f57\u5f04\u54c8\u9c81\u58eb","oneway":"yes","sidewalk:both":"separate","turn:lanes":"left|left"},"geometry":{"type":"LineString","coordinates":[[103.923976,1.388551],[103.9239335,1.3884608]]}},{"type":"Feature","id":"way/648935788-0-3-0","properties":{"highway":"secondary_link","lanes":"2","maxspeed":"50","name":"Lorong Halus","name:zh":"\u7f57\u5f04\u54c8\u9c81\u58eb","oneway":"yes","sidewalk:both":"separate","turn:lanes":"left|left"},"geometry":{"type":"LineString","coordinates":[[103.9239335,1.3884608],[103.9238999,1.388334]]}},{"type":"Feature","id":"way/648935788-0-4-0","properties":{"highway":"secondary_link","lanes":"2","maxspeed":"50","name":"Lorong Halus","name:zh":"\u7f57\u5f04\u54c8\u9c81\u58eb","oneway":"yes","sidewalk:both":"separate","turn:lanes":"left|left"},"geometry":{"type":"LineString","coordinates":[[103.9238999,1.388334],[103.9239043,1.3881545]]}},{"type":"Feature","id":"way/648935789-0-0-0","properties":{"highway":"motorway_link","lanes":"2","oneway":"yes"},"geometry":{"type":"LineString","coordinates":[[103.9239216,1.387769],[103.9238095,1.3879206]]}},{"type":"Feature","id":"way/648935789-0-1-0","properties":{"highway":"motorway_link","lanes":"2","oneway":"yes"},"geometry":{"type":"LineString","coordinates":[[103.9238095,1.3879206],[103.9237813,1.3879779]]}},{"type":"Feature","id":"way/648935789-0-2-0","properties":{"highway":"motorway_link","lanes":"2","oneway":"yes"},"geometry":{"type":"LineString","coordinates":[[103.9237813,1.3879779],[103.9237495,1.3880444]]}},{"type":"Feature","id":"way/648935789-0-3-0","properties":{"highway":"motorway_link","lanes":"2","oneway":"yes"},"geometry":{"type":"LineString","coordinates":[[103.9237495,1.3880444],[103.9236956,1.3880885]]}},{"type":"Feature","id":"way/648935789-0-4-0","properties":{"highway":"motorway_link","lanes":"2","oneway":"yes"},"geometry":{"type":"LineString","coordinates":[[103.9236956,1.3880885],[103.9236494,1.3881158]]}},{"type":"Feature","id":"way/648935789-0-5-0","properties":{"highway":"motorway_link","lanes":"2","oneway":"yes"},"geometry":{"type":"LineString","coordinates":[[103.9236494,1.3881158],[103.9236096,1.3881177]]}},{"type":"Feature","id":"way/648935789-0-6-0","properties":{"highway":"motorway_link","lanes":"2","oneway":"yes"},"geometry":{"type":"LineString","coordinates":[[103.9236096,1.3881177],[103.9235511,1.3881163]]}},{"type":"Feature","id":"way/648935789-0-7-0","properties":{"highway":"motorway_link","lanes":"2","oneway":"yes"},"geometry":{"type":"LineString","coordinates":[[103.9235511,1.3881163],[103.923426,1.3880569]]}},{"type":"Feature","id":"way/648935790-0-0-0","properties":{"highway":"secondary","lanes":"3","lit":"yes","maxspeed":"60","name":"Pasir Ris Industrial Drive 1","oneway":"yes","sidewalk:left":"separate","sidewalk:right":"no","surface":"asphalt"},"geometry":{"type":"LineString","coordinates":[[103.9239043,1.3881545],[103.9239942,1.3879906]]}},{"type":"Feature","id":"way/648935790-0-1-0","properties":{"highway":"secondary","lanes":"3","lit":"yes","maxspeed":"60","name":"Pasir Ris Industrial Drive 1","oneway":"yes","sidewalk:left":"separate","sidewalk:right":"no","surface":"asphalt"},"geometry":{"type":"LineString","coordinates":[[103.9239942,1.3879906],[103.9240166,1.3879357]]}},{"type":"Feature","id":"way/648935790-0-2-0","properties":{"highway":"secondary","lanes":"3","lit":"yes","maxspeed":"60","name":"Pasir Ris Industrial Drive 1","oneway":"yes","sidewalk:left":"separate","sidewalk:right":"no","surface":"asphalt"},"geometry":{"type":"LineString","coordinates":[[103.9240166,1.3879357],[103.9241692,1.3876178]]}},{"type":"Feature","id":"way/648935790-0-3-0","properties":{"highway":"secondary","lanes":"3","lit":"yes","maxspeed":"60","name":"Pasir Ris Industrial Drive 1","oneway":"yes","sidewalk:left":"separate","sidewalk:right":"no","surface":"asphalt"},"geometry":{"type":"LineString","coordinates":[[103.9241692,1.3876178],[103.9243821,1.387188]]}},{"type":"Feature","id":"way/648935791-0-11-0","properties":{"highway":"secondary","lanes":"3","lit":"yes","maxspeed":"60","name":"Pasir Ris Industrial Drive 1","oneway":"yes","shoulder":"no","sidewalk:left":"separate","sidewalk:right":"no","surface":"asphalt"},"geometry":{"type":"LineString","coordinates":[[103.924269,1.3870602],[103.9240148,1.3875883]]}},{"type":"Feature","id":"way/648935791-0-12-0","properties":{"highway":"secondary","lanes":"3","lit":"yes","maxspeed":"60","name":"Pasir Ris Industrial Drive 1","oneway":"yes","shoulder":"no","sidewalk:left":"separate","sidewalk:right":"no","surface":"asphalt"},"geometry":{"type":"LineString","coordinates":[[103.9240148,1.3875883],[103.9239216,1.387769]]}},{"type":"Feature","id":"way/649311563-0-0-0","properties":{"highway":"secondary","lanes":"3","maxspeed":"60","name":"Pasir Ris Industrial Drive 1","oneway":"yes","sidewalk:left":"separate","sidewalk:right":"no","surface":"asphalt"},"geometry":{"type":"LineString","coordinates":[[103.9237378,1.3884968],[103.9237802,1.3883885]]}},{"type":"Feature","id":"way/649311563-0-1-0","properties":{"highway":"secondary","lanes":"3","maxspeed":"60","name":"Pasir Ris Industrial Drive 1","oneway":"yes","sidewalk:left":"separate","sidewalk:right":"no","surface":"asphalt"},"geometry":{"type":"LineString","coordinates":[[103.9237802,1.3883885],[103.9239043,1.3881545]]}},{"type":"Feature","id":"way/649311564-0-0-0","properties":{"highway":"unclassified","lanes":"3","maxspeed":"50","name":"Lorong Halus","name:zh":"\u7f57\u5f04\u54c8\u9c81\u58eb","oneway":"yes","sidewalk:left":"separate","sidewalk:right":"no","surface":"asphalt"},"geometry":{"type":"LineString","coordinates":[[103.9260875,1.3914549],[103.9260033,1.3913581]]}},{"type":"Feature","id":"way/649311564-0-1-0","properties":{"highway":"unclassified","lanes":"3","maxspeed":"50","name":"Lorong Halus","name:zh":"\u7f57\u5f04\u54c8\u9c81\u58eb","oneway":"yes","sidewalk:left":"separate","sidewalk:right":"no","surface":"asphalt"},"geometry":{"type":"LineString","coordinates":[[103.9260033,1.3913581],[103.9257652,1.3910722]]}},{"type":"Feature","id":"way/649311564-0-2-0","properties":{"highway":"unclassified","lanes":"3","maxspeed":"50","name":"Lorong Halus","name:zh":"\u7f57\u5f04\u54c8\u9c81\u58eb","oneway":"yes","sidewalk:left":"separate","sidewalk:right":"no","surface":"asphalt"},"geometry":{"type":"LineString","coordinates":[[103.9257652,1.3910722],[103.9253606,1.390595]]}},{"type":"Feature","id":"way/649311564-0-3-0","properties":{"highway":"unclassified","lanes":"3","maxspeed":"50","name":"Lorong Halus","name:zh":"\u7f57\u5f04\u54c8\u9c81\u58eb","oneway":"yes","sidewalk:left":"separate","sidewalk:right":"no","surface":"asphalt"},"geometry":{"type":"LineString","coordinates":[[103.9253606,1.390595],[103.9249056,1.3900327]]}},{"type":"Feature","id":"way/649311564-0-4-0","properties":{"highway":"unclassified","lanes":"3","maxspeed":"50","name":"Lorong Halus","name:zh":"\u7f57\u5f04\u54c8\u9c81\u58eb","oneway":"yes","sidewalk:left":"separate","sidewalk:right":"no","surface":"asphalt"},"geometry":{"type":"LineString","coordinates":[[103.9249056,1.3900327],[103.9244461,1.3893821]]}},{"type":"Feature","id":"way/649787121-0-0-0","properties":{"alt_name":"Punggol Central","highway":"secondary","lanes":"3","maxspeed":"60","name":"Pasir Ris Industrial Drive 1","oneway":"yes","sidewalk:left":"separate","sidewalk:right":"no","surface":"asphalt"},"geometry":{"type":"LineString","coordinates":[[103.9232441,1.3892365],[103.9231053,1.3895079]]}},{"type":"Feature","id":"way/649787121-0-1-0","properties":{"alt_name":"Punggol Central","highway":"secondary","lanes":"3","maxspeed":"60","name":"Pasir Ris Industrial Drive 1","oneway":"yes","sidewalk:left":"separate","sidewalk:right":"no","surface":"asphalt"},"geometry":{"type":"LineString","coordinates":[[103.9231053,1.3895079],[103.9228911,1.3899859]]}},{"type":"Feature","id":"way/649787122-0-0-0","properties":{"highway":"unclassified","maxspeed":"50","oneway":"yes","sidewalk:left":"separate","sidewalk:right":"no"},"geometry":{"type":"LineString","coordinates":[[103.9236091,1.3885097],[103.9236872,1.3886248]]}},{"type":"Feature","id":"way/649787123-0-0-0","properties":{"highway":"motorway_link","lanes":"4","maxspeed":"50","name":"Halus Link","name:en":"Halus Link","name:zh":"\u54c8\u9c81\u58eb\u8fde\u8def","oneway":"yes"},"geometry":{"type":"LineString","coordinates":[[103.923426,1.3880569],[103.9231868,1.3877102]]}},{"type":"Feature","id":"way/654751577-0-0-0","properties":{"alt_name":"Punggol Central","highway":"secondary","lanes":"4","maxspeed":"60","name":"Pasir Ris Industrial Drive 1","oneway":"yes","sidewalk:left":"separate","sidewalk:right":"no","surface":"asphalt"},"geometry":{"type":"LineString","coordinates":[[103.9236872,1.3886248],[103.9237378,1.3884968]]}},{"type":"Feature","id":"way/654760635-0-0-0","properties":{"highway":"motorway_link","lanes":"3","maxspeed":"50","name":"Halus Link","name:en":"Halus Link","name:zh":"\u54c8\u9c81\u58eb\u8fde\u8def","oneway":"yes"},"geometry":{"type":"LineString","coordinates":[[103.923667,1.3883892],[103.923602,1.3882933]]}},{"type":"Feature","id":"way/654760635-0-1-0","properties":{"highway":"motorway_link","lanes":"3","maxspeed":"50","name":"Halus Link","name:en":"Halus Link","name:zh":"\u54c8\u9c81\u58eb\u8fde\u8def","oneway":"yes"},"geometry":{"type":"LineString","coordinates":[[103.923602,1.3882933],[103.923426,1.3880569]]}},{"type":"Feature","id":"way/696350671-0-0-0","properties":{"highway":"unclassified","lanes":"4","maxspeed":"50","name":"Lorong Halus","name:zh":"\u7f57\u5f04\u54c8\u9c81\u58eb","oneway":"yes","sidewalk:left":"separate","sidewalk:right":"no","surface":"asphalt","turn:lanes":"left|through|through|through;right"},"geometry":{"type":"LineString","coordinates":[[103.9244461,1.3893821],[103.9241542,1.389022]]}},{"type":"Feature","id":"way/696351780-0-0-0","properties":{"highway":"unclassified","lanes":"4","maxspeed":"50","name":"Lorong Halus","name:zh":"\u7f57\u5f04\u54c8\u9c81\u58eb","oneway":"yes","sidewalk:left":"separate","sidewalk:right":"no","surface":"asphalt","turn:lanes":"through|through|through;right|right"},"geometry":{"type":"LineString","coordinates":[[103.9241542,1.389022],[103.9238068,1.388599]]}},{"type":"Feature","id":"way/696351780-0-1-0","properties":{"highway":"unclassified","lanes":"4","maxspeed":"50","name":"Lorong Halus","name:zh":"\u7f57\u5f04\u54c8\u9c81\u58eb","oneway":"yes","sidewalk:left":"separate","sidewalk:right":"no","surface":"asphalt","turn:lanes":"through|through|through;right|right"},"geometry":{"type":"LineString","coordinates":[[103.9238068,1.388599],[103.9237378,1.3884968]]}},{"type":"Feature","id":"way/698056825-0-0-0","properties":{"highway":"unclassified","lanes":"4","maxspeed":"50","name":"Lorong Halus","name:zh":"\u7f57\u5f04\u54c8\u9c81\u58eb","oneway":"yes","sidewalk:left":"separate","sidewalk:right":"no","surface":"asphalt","turn:lanes":"left|through|through|right"},"geometry":{"type":"LineString","coordinates":[[103.925366,1.3907498],[103.9255754,1.3909909]]}},{"type":"Feature","id":"way/698056825-0-1-0","properties":{"highway":"unclassified","lanes":"4","maxspeed":"50","name":"Lorong Halus","name:zh":"\u7f57\u5f04\u54c8\u9c81\u58eb","oneway":"yes","sidewalk:left":"separate","sidewalk:right":"no","surface":"asphalt","turn:lanes":"left|through|through|right"},"geometry":{"type":"LineString","coordinates":[[103.9255754,1.3909909],[103.9257525,1.3911995]]}},{"type":"Feature","id":"way/698056825-0-2-0","properties":{"highway":"unclassified","lanes":"4","maxspeed":"50","name":"Lorong Halus","name:zh":"\u7f57\u5f04\u54c8\u9c81\u58eb","oneway":"yes","sidewalk:left":"separate","sidewalk:right":"no","surface":"asphalt","turn:lanes":"left|through|through|right"},"geometry":{"type":"LineString","coordinates":[[103.9257525,1.3911995],[103.9259223,1.3914157]]}},{"type":"Feature","id":"way/698056825-0-3-0","properties":{"highway":"unclassified","lanes":"4","maxspeed":"50","name":"Lorong Halus","name:zh":"\u7f57\u5f04\u54c8\u9c81\u58eb","oneway":"yes","sidewalk:left":"separate","sidewalk:right":"no","surface":"asphalt","turn:lanes":"left|through|through|right"},"geometry":{"type":"LineString","coordinates":[[103.9259223,1.3914157],[103.9260296,1.3915204]]}},{"type":"Feature","id":"way/816859250-0-0-0","properties":{"highway":"secondary","lanes":"3","maxspeed":"60","name":"Pasir Ris Industrial Drive 1","oneway":"yes","sidewalk:left":"separate","sidewalk:right":"no","surface":"asphalt","turn:lanes":"through|through;right|right"},"geometry":{"type":"LineString","coordinates":[[103.9239216,1.387769],[103.9239235,1.3878723]]}},{"type":"Feature","id":"way/816859250-0-1-0","properties":{"highway":"secondary","lanes":"3","maxspeed":"60","name":"Pasir Ris Industrial Drive 1","oneway":"yes","sidewalk:left":"separate","sidewalk:right":"no","surface":"asphalt","turn:lanes":"through|through;right|right"},"geometry":{"type":"LineString","coordinates":[[103.9239235,1.3878723],[103.9238606,1.3880146]]}},{"type":"Feature","id":"way/816859250-0-2-0","properties":{"highway":"secondary","lanes":"3","maxspeed":"60","name":"Pasir Ris Industrial Drive 1","oneway":"yes","sidewalk:left":"separate","sidewalk:right":"no","surface":"asphalt","turn:lanes":"through|through;right|right"},"geometry":{"type":"LineString","coordinates":[[103.9238606,1.3880146],[103.9238179,1.3881073]]}},{"type":"Feature","id":"way/816859250-0-3-0","properties":{"highway":"secondary","lanes":"3","maxspeed":"60","name":"Pasir Ris Industrial Drive 1","oneway":"yes","sidewalk:left":"separate","sidewalk:right":"no","surface":"asphalt","turn:lanes":"through|through;right|right"},"geometry":{"type":"LineString","coordinates":[[103.9238179,1.3881073],[103.9237136,1.3883014]]}},{"type":"Feature","id":"way/816859250-0-4-0","properties":{"highway":"secondary","lanes":"3","maxspeed":"60","name":"Pasir Ris Industrial Drive 1","oneway":"yes","sidewalk:left":"separate","sidewalk:right":"no","surface":"asphalt","turn:lanes":"through|through;right|right"},"geometry":{"type":"LineString","coordinates":[[103.9237136,1.3883014],[103.923667,1.3883892]]}},{"type":"Feature","id":"way/829560089-0-0-0","properties":{"alt_name":"Punggol Central","highway":"secondary","lanes":"3","maxspeed":"60","name":"Pasir Ris Industrial Drive 1","oneway":"yes","sidewalk:left":"separate","sidewalk:right":"no","turn:lanes":"through|through;right|right"},"geometry":{"type":"LineString","coordinates":[[103.9231959,1.3896463],[103.9233148,1.389393]]}},{"type":"Feature","id":"way/829560090-0-0-0","properties":{"alt_name":"Punggol Central","highway":"secondary","lanes":"5","maxspeed":"60","name":"Pasir Ris Industrial Drive 1","oneway":"yes","sidewalk:left":"separate","sidewalk:right":"no","surface":"asphalt","turn:lanes":"left|through|through;right|right|right"},"geometry":{"type":"LineString","coordinates":[[103.9233148,1.389393],[103.9233859,1.3892463]]}},{"type":"Feature","id":"way/829560091-0-0-0","properties":{"alt_name":"Punggol Central","highway":"secondary","lanes":"4","maxspeed":"60","name":"Pasir Ris Industrial Drive 1","oneway":"yes","sidewalk:left":"separate","sidewalk:right":"no","surface":"asphalt","turn:lanes":"through|through;right|right|right"},"geometry":{"type":"LineString","coordinates":[[103.9233859,1.3892463],[103.9234789,1.3890467]]}},{"type":"Feature","id":"way/829560091-0-1-0","properties":{"alt_name":"Punggol Central","highway":"secondary","lanes":"4","maxspeed":"60","name":"Pasir Ris Industrial Drive 1","oneway":"yes","sidewalk:left":"separate","sidewalk:right":"no","surface":"asphalt","turn:lanes":"through|through;right|right|right"},"geometry":{"type":"LineString","coordinates":[[103.9234789,1.3890467],[103.9236532,1.3887093]]}},{"type":"Feature","id":"way/829560091-0-2-0","properties":{"alt_name":"Punggol Central","highway":"secondary","lanes":"4","maxspeed":"60","name":"Pasir Ris Industrial Drive 1","oneway":"yes","sidewalk:left":"separate","sidewalk:right":"no","surface":"asphalt","turn:lanes":"through|through;right|right|right"},"geometry":{"type":"LineString","coordinates":[[103.9236532,1.3887093],[103.9236872,1.3886248]]}},{"type":"Feature","id":"way/1441590099-0-0-0","properties":{"alt_name":"Punggol Central","highway":"secondary","lanes":"3","maxspeed":"60","name":"Pasir Ris Industrial Drive 1","oneway":"yes","sidewalk:left":"separate","sidewalk:right":"no","surface":"asphalt"},"geometry":{"type":"LineString","coordinates":[[103.9236091,1.3885097],[103.92357,1.3885913]]}},{"type":"Feature","id":"way/1441590099-0-1-0","properties":{"alt_name":"Punggol Central","highway":"secondary","lanes":"3","maxspeed":"60","name":"Pasir Ris Industrial Drive 1","oneway":"yes","sidewalk:left":"separate","sidewalk:right":"no","surface":"asphalt"},"geometry":{"type":"LineString","coordinates":[[103.92357,1.3885913],[103.9232441,1.3892365]]}}]}