{"type":"FeatureCollection","features":[{"type":"Feature","id":"way/252391743-0","properties":{"addr:city":"Singapore","addr:housenumber":"10","addr:postcode":"528778","addr:street":"Tampines Place","building":"residential","building:levels":"11"},"geometry":{"type":"Polygon","coordinates":[[[103.9303303,1.3677972],[103.9305561,1.3677034],[103.9305411,1.3678725],[103.9304363,1.3678604],[103.9304214,1.3679653],[103.9304575,1.3679688],[103.9304601,1.3679375],[103.930534,1.3679449],[103.9305129,1.3681155],[103.9302785,1.3679592],[103.9302522,1.3679966],[103.9302856,1.3680131],[103.9302669,1.3680405],[103.9304755,1.3681762],[103.9304823,1.3681662],[103.9304924,1.3681743],[103.930511,1.3681766],[103.9305106,1.368199],[103.9305733,1.368206],[103.9306351,1.3676255],[103.9305786,1.3676219],[103.9305766,1.3676414],[103.9305539,1.3676397],[103.9305398,1.3676439],[103.9305357,1.3676368],[103.9303036,1.3677341],[103.9303303,1.3677972]]]}},{"type":"Feature","id":"way/252391764-0","properties":{"addr:city":"Singapore","addr:housenumber":"91","addr:postcode":"528746","addr:street":"Tampines Link","amenity":"crematorium","building":"yes","name":"Singapore Funeral Parlour","source":"Bing"},"geometry":{"type":"Polygon","coordinates":[[[103.9291656,1.3674456],[103.9290244,1.3676663],[103.9292586,1.3678229],[103.9294071,1.367604],[103.9291656,1.3674456]]]}},{"type":"Feature","id":"way/252391790-0","properties":{"addr:city":"Singapore","addr:housenumber":"87","addr:postcode":"528742","addr:street":"Tampines Link","amenity":"place_of_worship","building":"yes","name":"Kwang Hua Monastery","name:zh":"\u4f5b\u6559\u5ee3\u5316\u5bfa","religion":"buddhist","source":"Bing"},"geometry":{"type":"Polygon","coordinates":[[[103.929616,1.3679613],[103.9297926,1.3680756],[103.9298889,1.3679268],[103.9297123,1.3678126],[103.929616,1.3679613]]]}},{"type":"Feature","id":"way/252391837-0","properties":{"addr:city":"Singapore","addr:housenumber":"93","addr:postcode":"528744","addr:street":"Tampines Link","building":"yes","name":"Hiang Tong Keng Tua Peh Kong Association","source":"Bing"},"geometry":{"type":"Polygon","coordinates":[[[103.9288033,1.3672353],[103.9287289,1.3673681],[103.9290013,1.3675206],[103.9290757,1.3673878],[103.9288033,1.3672353]]]}},{"type":"Feature","id":"way/252391886-0","properties":{"addr:city":"Singapore","addr:housenumber":"1","addr:postcode":"529783","addr:street":"Tampines Avenue","amenity":"place_of_worship","building":"yes","name":"Xian Gu Tian","source":"Bing"},"geometry":{"type":"Polygon","coordinates":[[[103.9281651,1.3671304],[103.9281923,1.3671478],[103.9281698,1.3671828],[103.9282846,1.3672563],[103.9283085,1.3672191],[103.9283251,1.3672298],[103.9284602,1.3670188],[103.9283015,1.3669173],[103.9281651,1.3671304]]]}},{"type":"Feature","id":"way/252391906-0","properties":{"addr:city":"Singapore","addr:housenumber":"85","addr:postcode":"528741","addr:street":"Tampines Link","amenity":"place_of_worship","building":"temple","name":"Tian Kong Temple","name:zh":"\u5929\u5bab\u5e99","source":"Bing"},"geometry":{"type":"Polygon","coordinates":[[[103.9298896,1.3680479],[103.9300503,1.3681546],[103.9301103,1.3680644],[103.9299495,1.3679577],[103.9298896,1.3680479]]]}},{"type":"Feature","id":"way/252391915-0","properties":{"addr:city":"Singapore","addr:housenumber":"89","addr:postcode":"528743","addr:street":"Tampines Link","building":"yes","name":"Hean Thuan Toh Tong","source":"Bing"},"geometry":{"type":"Polygon","coordinates":[[[103.9294944,1.3676573],[103.929388,1.3678261],[103.9295703,1.367941],[103.9296768,1.3677722],[103.9294944,1.3676573]]]}},{"type":"Feature","id":"way/252391951-0","properties":{"addr:city":"Singapore","addr:housenumber":"81","addr:postcode":"528739","addr:street":"Tampines Link","amenity":"place_of_worship","building":"temple","name":"Hiap Tien Keng Leng Poh Tian Temple","name:zh":"\u534f\u5929\u5bab","source":"Bing"},"geometry":{"type":"Polygon","coordinates":[[[103.9303709,1.3684656],[103.9304525,1.3683457],[103.930451,1.368304],[103.9303915,1.3682634],[103.9302909,1.3684111],[103.9303709,1.3684656]]]}},{"type":"Feature","id":"way/252391962-0","properties":{"addr:city":"Singapore","addr:housenumber":"95","addr:postcode":"528745","addr:street":"Tampines Link","amenity":"place_of_worship","building":"yes","name":"Tian Teck Keng Temple","name:zh":"\u5929\u5fb7\u5bab","source":"Bing"},"geometry":{"type":"Polygon","coordinates":[[[103.9287505,1.3672065],[103.9285012,1.3670543],[103.92836,1.3672854],[103.9286092,1.3674377],[103.9287505,1.3672065]]]}},{"type":"Feature","id":"way/252391991-0","properties":{"addr:city":"Singapore","addr:housenumber":"2","addr:postcode":"528821","addr:street":"Tampines Place","building":"residential","building:levels":"6"},"geometry":{"type":"Polygon","coordinates":[[[103.9293138,1.367024],[103.9293627,1.3669542],[103.9292204,1.3668652],[103.929182,1.3669219],[103.9290197,1.3668181],[103.9293156,1.3667893],[103.9293112,1.3667081],[103.929347,1.3667038],[103.9293522,1.3667867],[103.9296656,1.3667605],[103.9296595,1.3666802],[103.9296935,1.3666759],[103.9296996,1.3667579],[103.9298568,1.3667465],[103.9298576,1.3667745],[103.930013,1.3667605],[103.930006,1.3666802],[103.9300436,1.3666759],[103.9300514,1.3667561],[103.930219,1.3667448],[103.9302068,1.3666366],[103.9301788,1.3666383],[103.9301675,1.366517],[103.9298611,1.3665389],[103.9298637,1.3666034],[103.9298262,1.3666069],[103.9298192,1.3665179],[103.9295085,1.3665441],[103.9295155,1.3666322],[103.929477,1.3666357],[103.9294701,1.3665458],[103.9291584,1.3665685],[103.929166,1.366663],[103.9291262,1.3666665],[103.9291216,1.3665726],[103.9288112,1.366596],[103.9288212,1.3667193],[103.9287886,1.3667213],[103.9287921,1.3667529],[103.9287258,1.3667114],[103.9286605,1.3668124],[103.929113,1.3671125],[103.929134,1.3670793],[103.9293814,1.3672439],[103.9294481,1.3671411],[103.9294821,1.3671637],[103.9294165,1.3672634],[103.9296748,1.3674347],[103.9297405,1.367332],[103.9297751,1.367355],[103.9297059,1.3674548],[103.9299667,1.3676254],[103.9300335,1.367522],[103.9300505,1.3675347],[103.9302195,1.3672734],[103.9301289,1.3672145],[103.9300753,1.3672945],[103.9300757,1.3672456],[103.9301031,1.3672466],[103.9301024,1.3671732],[103.9300763,1.3671735],[103.9300767,1.3671206],[103.930092,1.36712],[103.930092,1.3671403],[103.9301986,1.3671403],[103.9301984,1.3668288],[103.9300919,1.3668288],[103.9300919,1.3668507],[103.9300776,1.3668507],[103.9300775,1.3667993],[103.9299705,1.3667994],[103.9299708,1.3669687],[103.9300523,1.3669685],[103.9300511,1.3670044],[103.9299709,1.3670038],[103.9299684,1.3673191],[103.9300569,1.3673198],[103.9299717,1.3674527],[103.9299002,1.3674048],[103.9299458,1.3673338],[103.9296867,1.3671675],[103.9296411,1.3672385],[103.9296084,1.3672161],[103.929655,1.3671453],[103.9293965,1.3669749],[103.9293498,1.3670457],[103.9293138,1.367024]]]}},{"type":"Feature","id":"way/252392008-0","properties":{"addr:city":"Singapore","addr:housenumber":"3","addr:postcode":"529784","addr:street":"Tampines Avenue","amenity":"place_of_worship","building":"temple","fixme:zh":"or \u5929\u7235\u9053\u573a","name":"Tian Jue Columbarium","name:zh":"\u5929\u7235\u7075\u5b9d\u5854","source":"Bing"},"geometry":{"type":"Polygon","coordinates":[[[103.9282545,1.3668603],[103.9280889,1.3667514],[103.9279076,1.3670269],[103.9280732,1.3671358],[103.9282545,1.3668603]]]}},{"type":"Feature","id":"way/252392034-0","properties":{"addr:city":"Singapore","addr:housenumber":"83","addr:postcode":"528740","addr:street":"Tampines Link","amenity":"place_of_worship","building":"temple","name":"Golden Pagoda Buddhist Temple","name:zh":"\u62a4\u56fd\u91d1\u5854\u5bfa","source":"Bing"},"geometry":{"type":"Polygon","coordinates":[[[103.9301775,1.3684099],[103.9303174,1.3681996],[103.9301644,1.3680979],[103.9300245,1.3683082],[103.9301775,1.3684099]]]}},{"type":"Feature","id":"way/252392080-0","properties":{"building":"yes","source":"Bing"},"geometry":{"type":"Polygon","coordinates":[[[103.9286434,1.3667725],[103.9286749,1.366762],[103.9287256,1.366681],[103.928722,1.3666506],[103.9287091,1.3666228],[103.9286881,1.3666004],[103.9286612,1.3665857],[103.9286311,1.3665802],[103.9286007,1.3665844],[103.9285731,1.3665979],[103.9285512,1.3666193],[103.9285371,1.3666465],[103.9285322,1.3666768],[103.9285378,1.3667095],[103.9285542,1.3667383],[103.9285793,1.3667599],[103.9286103,1.3667718],[103.9286434,1.3667725]]]}},{"type":"Feature","id":"way/252392095-0","properties":{"addr:city":"Singapore","addr:housenumber":"7","addr:postcode":"529786","addr:street":"Tampines Avenue","amenity":"place_of_worship","building":"yes","name":"Kew Sian King","name:zh":"\u4e5d\u4ed9\u5bab","religion":"buddhist","source":"Bing"},"geometry":{"type":"Polygon","coordinates":[[[103.9275406,1.3667091],[103.9275395,1.3668444],[103.9275881,1.3668448],[103.9275872,1.3669496],[103.9276963,1.3669505],[103.9276971,1.3668485],[103.9277469,1.3668489],[103.9277481,1.3667107],[103.9275406,1.3667091]]]}},{"type":"Feature","id":"way/462005329-0","properties":{"addr:city":"Singapore","addr:housenumber":"10","addr:postcode":"528553","addr:street":"Tampines North Drive 4","building":"yes","building:levels":"8","name":"JTC Space @ Tampines North","office":"yes","source":"Kaart Ground Survey 2017"},"geometry":{"type":"Polygon","coordinates":[[[103.9313652,1.3656758],[103.9313652,1.3657396],[103.9314139,1.3657396],[103.9314139,1.3657509],[103.9317056,1.3657506],[103.9317056,1.3657428],[103.9317994,1.3657426],[103.9317994,1.3657512],[103.932272,1.3657505],[103.932272,1.365724],[103.9323086,1.3657239],[103.9323085,1.3656826],[103.9322663,1.3656827],[103.9322663,1.3656462],[103.9322933,1.3656461],[103.9322928,1.3652831],[103.932201,1.3652833],[103.9322009,1.3652127],[103.9321274,1.3652128],[103.931908,1.3652132],[103.931908,1.3652243],[103.9318898,1.3652243],[103.9318426,1.3652244],[103.9318172,1.3652244],[103.9318172,1.3652124],[103.9313421,1.365213],[103.9313421,1.3652221],[103.9312865,1.3652221],[103.9312866,1.3652917],[103.9313476,1.3652916],[103.9313476,1.3653056],[103.9312744,1.3653057],[103.9312745,1.3654345],[103.9313223,1.3654344],[103.9313226,1.3656759],[103.9313652,1.3656758]]]}},{"type":"Feature","id":"way/123669955-0-0-0","properties":{"highway":"unclassified","lanes":"1","maxspeed":"50","name":"Tampines Place","oneway":"yes","sidewalk:both":"separate","surface":"asphalt"},"geometry":{"type":"LineString","coordinates":[[103.9279949,1.3664414],[103.9280075,1.3664852]]}},{"type":"Feature","id":"way/123669955-0-1-0","properties":{"highway":"unclassified","lanes":"1","maxspeed":"50","name":"Tampines Place","oneway":"yes","sidewalk:both":"separate","surface":"asphalt"},"geometry":{"type":"LineString","coordinates":[[103.9280075,1.3664852],[103.9280402,1.366533]]}},{"type":"Feature","id":"way/123669955-0-2-0","properties":{"highway":"unclassified","lanes":"1","maxspeed":"50","name":"Tampines Place","oneway":"yes","sidewalk:both":"separate","surface":"asphalt"},"geometry":{"type":"LineString","coordinates":[[103.9280402,1.366533],[103.9280704,1.3665576]]}},{"type":"Feature","id":"way/123669955-0-3-0","properties":{"highway":"unclassified","lanes":"1","maxspeed":"50","name":"Tampines Place","oneway":"yes","sidewalk:both":"separate","surface":"asphalt"},"geometry":{"type":"LineString","coordinates":[[103.9280704,1.3665576],[103.9282626,1.3667141]]}},{"type":"Feature","id":"way/123669955-0-4-0","properties":{"highway":"unclassified","lanes":"1","maxspeed":"50","name":"Tampines Place","oneway":"yes","sidewalk:both":"separate","surface":"asphalt"},"geometry":{"type":"LineString","coordinates":[[103.9282626,1.3667141],[103.9284565,1.3668433]]}},{"type":"Feature","id":"way/170864846-0-0-0","properties":{"highway":"primary_link","lanes":"1","lit":"yes","maxspeed":"50","oneway":"yes","sidewalk:both":"separate","surface":"asphalt"},"geometry":{"type":"LineString","coordinates":[[103.9303611,1.3662134],[103.9305765,1.3662918]]}},{"type":"Feature","id":"way/170864846-0-1-0","properties":{"highway":"primary_link","lanes":"1","lit":"yes","maxspeed":"50","oneway":"yes","sidewalk:both":"separate","surface":"asphalt"},"geometry":{"type":"LineString","coordinates":[[103.9305765,1.3662918],[103.930682,1.3663555]]}},{"type":"Feature","id":"way/170864846-0-2-0","properties":{"highway":"primary_link","lanes":"1","lit":"yes","maxspeed":"50","oneway":"yes","sidewalk:both":"separate","surface":"asphalt"},"geometry":{"type":"LineString","coordinates":[[103.930682,1.3663555],[103.9307863,1.3664342]]}},{"type":"Feature","id":"way/170864846-0-3-0","properties":{"highway":"primary_link","lanes":"1","lit":"yes","maxspeed":"50","oneway":"yes","sidewalk:both":"separate","surface":"asphalt"},"geometry":{"type":"LineString","coordinates":[[103.9307863,1.3664342],[103.9308573,1.3665367]]}},{"type":"Feature","id":"way/170864847-0-0-0","properties":{"foot":"no","highway":"secondary","lanes":"4","lit":"yes","maxspeed":"60","name":"Tampines Road","oneway":"yes","shoulder":"no","sidewalk:left":"separate","sidewalk:right":"no","surface":"asphalt","turn:lanes":"through|through|through;right|right"},"geometry":{"type":"LineString","coordinates":[[103.9310127,1.3660498],[103.9308526,1.3660536]]}},{"type":"Feature","id":"way/170864848-0-0-0","properties":{"highway":"primary_link","lanes":"1","lit":"yes","maxspeed":"50","oneway":"yes","sidewalk:both":"separate","surface":"asphalt"},"geometry":{"type":"LineString","coordinates":[[103.9308404,1.3655759],[103.930741,1.3657992]]}},{"type":"Feature","id":"way/170864848-0-1-0","properties":{"highway":"primary_link","lanes":"1","lit":"yes","maxspeed":"50","oneway":"yes","sidewalk:both":"separate","surface":"asphalt"},"geometry":{"type":"LineString","coordinates":[[103.930741,1.3657992],[103.9306921,1.3658971]]}},{"type":"Feature","id":"way/170864848-0-2-0","properties":{"highway":"primary_link","lanes":"1","lit":"yes","maxspeed":"50","oneway":"yes","sidewalk:both":"separate","surface":"asphalt"},"geometry":{"type":"LineString","coordinates":[[103.9306921,1.3658971],[103.930637,1.3659607]]}},{"type":"Feature","id":"way/170864848-0-3-0","properties":{"highway":"primary_link","lanes":"1","lit":"yes","maxspeed":"50","oneway":"yes","sidewalk:both":"separate","surface":"asphalt"},"geometry":{"type":"LineString","coordinates":[[103.930637,1.3659607],[103.9305661,1.3660207]]}},{"type":"Feature","id":"way/170864848-0-4-0","properties":{"highway":"primary_link","lanes":"1","lit":"yes","maxspeed":"50","oneway":"yes","sidewalk:both":"separate","surface":"asphalt"},"geometry":{"type":"LineString","coordinates":[[103.9305661,1.3660207],[103.9304475,1.3660793]]}},{"type":"Feature","id":"way/170864850-0-0-0","properties":{"highway":"unclassified","lanes":"1","maxspeed":"50","name":"Tampines Place","oneway":"yes","sidewalk:both":"separate","surface":"asphalt","turn:lanes":"left"},"geometry":{"type":"LineString","coordinates":[[103.9284565,1.3668433],[103.928416,1.3666994]]}},{"type":"Feature","id":"way/170864850-0-1-0","properties":{"highway":"unclassified","lanes":"1","maxspeed":"50","name":"Tampines Place","oneway":"yes","sidewalk:both":"separate","surface":"asphalt","turn:lanes":"left"},"geometry":{"type":"LineString","coordinates":[[103.928416,1.3666994],[103.9284106,1.3666297]]}},{"type":"Feature","id":"way/170864850-0-2-0","properties":{"highway":"unclassified","lanes":"1","maxspeed":"50","name":"Tampines Place","oneway":"yes","sidewalk:both":"separate","surface":"asphalt","turn:lanes":"left"},"geometry":{"type":"LineString","coordinates":[[103.9284106,1.3666297],[103.9284227,1.3665667]]}},{"type":"Feature","id":"way/170864850-0-3-0","properties":{"highway":"unclassified","lanes":"1","maxspeed":"50","name":"Tampines Place","oneway":"yes","sidewalk:both":"separate","surface":"asphalt","turn:lanes":"left"},"geometry":{"type":"LineString","coordinates":[[103.9284227,1.3665667],[103.9284535,1.3665144]]}},{"type":"Feature","id":"way/170864850-0-4-0","properties":{"highway":"unclassified","lanes":"1","maxspeed":"50","name":"Tampines Place","oneway":"yes","sidewalk:both":"separate","surface":"asphalt","turn:lanes":"left"},"geometry":{"type":"LineString","coordinates":[[103.9284535,1.3665144],[103.9284836,1.3664866]]}},{"type":"Feature","id":"way/170864850-0-5-0","properties":{"highway":"unclassified","lanes":"1","maxspeed":"50","name":"Tampines Place","oneway":"yes","sidewalk:both":"separate","surface":"asphalt","turn:lanes":"left"},"geometry":{"type":"LineString","coordinates":[[103.9284836,1.3664866],[103.9285058,1.3664661]]}},{"type":"Feature","id":"way/170864850-0-6-0","properties":{"highway":"unclassified","lanes":"1","maxspeed":"50","name":"Tampines Place","oneway":"yes","sidewalk:both":"separate","surface":"asphalt","turn:lanes":"left"},"geometry":{"type":"LineString","coordinates":[[103.9285058,1.3664661],[103.9285702,1.3664246]]}},{"type":"Feature","id":"way/170864850-0-7-0","properties":{"highway":"unclassified","lanes":"1","maxspeed":"50","name":"Tampines Place","oneway":"yes","sidewalk:both":"separate","surface":"asphalt","turn:lanes":"left"},"geometry":{"type":"LineString","coordinates":[[103.9285702,1.3664246],[103.9286333,1.366387]]}},{"type":"Feature","id":"way/170864850-0-8-0","properties":{"highway":"unclassified","lanes":"1","maxspeed":"50","name":"Tampines Place","oneway":"yes","sidewalk:both":"separate","surface":"asphalt","turn:lanes":"left"},"geometry":{"type":"LineString","coordinates":[[103.9286333,1.366387],[103.9287145,1.3663559]]}},{"type":"Feature","id":"way/170864851-0-0-0","properties":{"highway":"unclassified","lanes":"2","lanes:backward":"1","lanes:forward":"1","maxspeed":"50","name":"Tampines Place","sidewalk:both":"separate","surface":"asphalt"},"geometry":{"type":"LineString","coordinates":[[103.92906,1.3672335],[103.9295803,1.3675767]]}},{"type":"Feature","id":"way/170864851-0-1-0","properties":{"highway":"unclassified","lanes":"2","lanes:backward":"1","lanes:forward":"1","maxspeed":"50","name":"Tampines Place","sidewalk:both":"separate","surface":"asphalt"},"geometry":{"type":"LineString","coordinates":[[103.9295803,1.3675767],[103.9299148,1.3677867]]}},{"type":"Feature","id":"way/170864851-0-2-0","properties":{"highway":"unclassified","lanes":"2","lanes:backward":"1","lanes:forward":"1","maxspeed":"50","name":"Tampines Place","sidewalk:both":"separate","surface":"asphalt"},"geometry":{"type":"LineString","coordinates":[[103.9299148,1.3677867],[103.9299544,1.3677966]]}},{"type":"Feature","id":"way/170864851-0-3-0","properties":{"highway":"unclassified","lanes":"2","lanes:backward":"1","lanes:forward":"1","maxspeed":"50","name":"Tampines Place","sidewalk:both":"separate","surface":"asphalt"},"geometry":{"type":"LineString","coordinates":[[103.9299544,1.3677966],[103.9300089,1.367798]]}},{"type":"Feature","id":"way/170864851-0-4-0","properties":{"highway":"unclassified","lanes":"2","lanes:backward":"1","lanes:forward":"1","maxspeed":"50","name":"Tampines Place","sidewalk:both":"separate","surface":"asphalt"},"geometry":{"type":"LineString","coordinates":[[103.9300089,1.367798],[103.9300446,1.367781]]}},{"type":"Feature","id":"way/170864851-0-5-0","properties":{"highway":"unclassified","lanes":"2","lanes:backward":"1","lanes:forward":"1","maxspeed":"50","name":"Tampines Place","sidewalk:both":"separate","surface":"asphalt"},"geometry":{"type":"LineString","coordinates":[[103.9300446,1.367781],[103.9300785,1.3677564]]}},{"type":"Feature","id":"way/170864851-0-6-0","properties":{"highway":"unclassified","lanes":"2","lanes:backward":"1","lanes:forward":"1","maxspeed":"50","name":"Tampines Place","sidewalk:both":"separate","surface":"asphalt"},"geometry":{"type":"LineString","coordinates":[[103.9300785,1.3677564],[103.930319,1.3673854]]}},{"type":"Feature","id":"way/170864856-0-0-0","properties":{"highway":"service"},"geometry":{"type":"LineString","coordinates":[[103.9302392,1.3665003],[103.9301953,1.3664662]]}},{"type":"Feature","id":"way/170864856-0-1-0","properties":{"highway":"service"},"geometry":{"type":"LineString","coordinates":[[103.9301953,1.3664662],[103.9301453,1.3664562]]}},{"type":"Feature","id":"way/170864856-0-2-0","properties":{"highway":"service"},"geometry":{"type":"LineString","coordinates":[[103.9301453,1.3664562],[103.9286709,1.3665554]]}},{"type":"Feature","id":"way/170864856-0-3-0","properties":{"highway":"service"},"geometry":{"type":"LineString","coordinates":[[103.9286709,1.3665554],[103.928595,1.3665606]]}},{"type":"Feature","id":"way/170864856-0-4-0","properties":{"highway":"service"},"geometry":{"type":"LineString","coordinates":[[103.928595,1.3665606],[103.9285401,1.3665901]]}},{"type":"Feature","id":"way/170864856-0-5-0","properties":{"highway":"service"},"geometry":{"type":"LineString","coordinates":[[103.9285401,1.3665901],[103.9284978,1.3666429]]}},{"type":"Feature","id":"way/170864856-0-6-0","properties":{"highway":"service"},"geometry":{"type":"LineString","coordinates":[[103.9284978,1.3666429],[103.9285042,1.3667169]]}},{"type":"Feature","id":"way/170864856-0-7-0","properties":{"highway":"service"},"geometry":{"type":"LineString","coordinates":[[103.9285042,1.3667169],[103.9285802,1.3668035]]}},{"type":"Feature","id":"way/170864856-0-8-0","properties":{"highway":"service"},"geometry":{"type":"LineString","coordinates":[[103.9285802,1.3668035],[103.9286922,1.3668774]]}},{"type":"Feature","id":"way/170864856-0-9-0","properties":{"highway":"service"},"geometry":{"type":"LineString","coordinates":[[103.9286922,1.3668774],[103.9291106,1.3671499]]}},{"type":"Feature","id":"way/170868650-0-3-0","properties":{"highway":"tertiary","lanes":"2","maxspeed":"50","name":"Tampines Link","oneway":"yes","surface":"asphalt"},"geometry":{"type":"LineString","coordinates":[[103.9273937,1.367282],[103.9275223,1.3673471]]}},{"type":"Feature","id":"way/170868650-0-4-0","properties":{"highway":"tertiary","lanes":"2","maxspeed":"50","name":"Tampines Link","oneway":"yes","surface":"asphalt"},"geometry":{"type":"LineString","coordinates":[[103.9275223,1.3673471],[103.9276813,1.3673843]]}},{"type":"Feature","id":"way/170868658-0-2-0","properties":{"highway":"primary_link","lanes":"1","lit":"yes","maxspeed":"50","oneway":"yes","sidewalk:both":"separate","surface":"asphalt"},"geometry":{"type":"LineString","coordinates":[[103.9308428,1.3693445],[103.9308963,1.3693137]]}},{"type":"Feature","id":"way/170868658-0-3-0","properties":{"highway":"primary_link","lanes":"1","lit":"yes","maxspeed":"50","oneway":"yes","sidewalk:both":"separate","surface":"asphalt"},"geometry":{"type":"LineString","coordinates":[[103.9308963,1.3693137],[103.9309615,1.3692814]]}},{"type":"Feature","id":"way/170868658-0-4-0","properties":{"highway":"primary_link","lanes":"1","lit":"yes","maxspeed":"50","oneway":"yes","sidewalk:both":"separate","surface":"asphalt"},"geometry":{"type":"LineString","coordinates":[[103.9309615,1.3692814],[103.9310357,1.369287]]}},{"type":"Feature","id":"way/170868660-0-0-0","properties":{"highway":"primary_link","lanes":"1","lit":"yes","maxspeed":"50","oneway":"yes","sidewalk:both":"separate","surface":"asphalt"},"geometry":{"type":"LineString","coordinates":[[103.9311752,1.3692749],[103.9310737,1.3690856]]}},{"type":"Feature","id":"way/170868660-0-1-0","properties":{"highway":"primary_link","lanes":"1","lit":"yes","maxspeed":"50","oneway":"yes","sidewalk:both":"separate","surface":"asphalt"},"geometry":{"type":"LineString","coordinates":[[103.9310737,1.3690856],[103.9309555,1.3689354]]}},{"type":"Feature","id":"way/170868660-0-2-0","properties":{"highway":"primary_link","lanes":"1","lit":"yes","maxspeed":"50","oneway":"yes","sidewalk:both":"separate","surface":"asphalt"},"geometry":{"type":"LineString","coordinates":[[103.9309555,1.3689354],[103.9308988,1.3688679]]}},{"type":"Feature","id":"way/170868660-0-3-0","properties":{"highway":"primary_link","lanes":"1","lit":"yes","maxspeed":"50","oneway":"yes","sidewalk:both":"separate","surface":"asphalt"},"geometry":{"type":"LineString","coordinates":[[103.9308988,1.3688679],[103.9308757,1.3688062]]}},{"type":"Feature","id":"way/170868660-0-4-0","properties":{"highway":"primary_link","lanes":"1","lit":"yes","maxspeed":"50","oneway":"yes","sidewalk:both":"separate","surface":"asphalt"},"geometry":{"type":"LineString","coordinates":[[103.9308757,1.3688062],[103.9308392,1.3687039]]}},{"type":"Feature","id":"way/174765803-0-0-0","properties":{"highway":"primary","lanes":"3","lit":"yes","maxspeed":"70","name":"Tampines Avenue 10","name:zh":"\u6de1\u6ee8\u5c3c10\u9053","oneway":"yes","shoulder":"no","sidewalk:left":"separate","sidewalk:right":"no","smoothness":"excellent","surface":"asphalt"},"geometry":{"type":"LineString","coordinates":[[103.9308392,1.3687039],[103.9309016,1.3683089]]}},{"type":"Feature","id":"way/174765803-0-1-0","properties":{"highway":"primary","lanes":"3","lit":"yes","maxspeed":"70","name":"Tampines Avenue 10","name:zh":"\u6de1\u6ee8\u5c3c10\u9053","oneway":"yes","shoulder":"no","sidewalk:left":"separate","sidewalk:right":"no","smoothness":"excellent","surface":"asphalt"},"geometry":{"type":"LineString","coordinates":[[103.9309016,1.3683089],[103.9309299,1.3681099]]}},{"type":"Feature","id":"way/174765803-0-2-0","properties":{"highway":"primary","lanes":"3","lit":"yes","maxspeed":"70","name":"Tampines Avenue 10","name:zh":"\u6de1\u6ee8\u5c3c10\u9053","oneway":"yes","shoulder":"no","sidewalk:left":"separate","sidewalk:right":"no","smoothness":"excellent","surface":"asphalt"},"geometry":{"type":"LineString","coordinates":[[103.9309299,1.3681099],[103.9309762,1.3675743]]}},{"type":"Feature","id":"way/174765803-0-3-0","properties":{"highway":"primary","lanes":"3","lit":"yes","maxspeed":"70","name":"Tampines Avenue 10","name:zh":"\u6de1\u6ee8\u5c3c10\u9053","oneway":"yes","shoulder":"no","sidewalk:left":"separate","sidewalk:right":"no","smoothness":"excellent","surface":"asphalt"},"geometry":{"type":"LineString","coordinates":[[103.9309762,1.3675743],[103.9310087,1.3671421]]}},{"type":"Feature","id":"way/174765809-0-0-0","properties":{"foot":"no","highway":"primary","lane_markings":"no","lit":"yes","maxspeed":"70","name":"Tampines Avenue 10","name:zh":"\u6de1\u6ee8\u5c3c10\u9053","oneway":"yes","sidewalk:left":"separate","sidewalk:right":"no","surface":"asphalt"},"geometry":{"type":"LineString","coordinates":[[103.9307767,1.3690787],[103.9307983,1.3689581]]}},{"type":"Feature","id":"way/174765811-0-0-0","properties":{"foot":"no","highway":"primary","lane_markings":"no","lit":"yes","maxspeed":"70","name":"Tampines Avenue 10","name:zh":"\u6de1\u6ee8\u5c3c10\u9053","oneway":"yes","sidewalk:left":"separate","sidewalk:right":"no","surface":"asphalt"},"geometry":{"type":"LineString","coordinates":[[103.9306694,1.3688578],[103.9306414,1.3689678]]}},{"type":"Feature","id":"way/268217169-0-0-0","properties":{"highway":"service","service":"parking_aisle","surface":"paved"},"geometry":{"type":"LineString","coordinates":[[103.9274791,1.3665653],[103.9274687,1.3666639]]}},{"type":"Feature","id":"way/268217169-0-1-0","properties":{"highway":"service","service":"parking_aisle","surface":"paved"},"geometry":{"type":"LineString","coordinates":[[103.9274687,1.3666639],[103.9274705,1.3668671]]}},{"type":"Feature","id":"way/268217169-0-2-0","properties":{"highway":"service","service":"parking_aisle","surface":"paved"},"geometry":{"type":"LineString","coordinates":[[103.9274705,1.3668671],[103.9274736,1.3669641]]}},{"type":"Feature","id":"way/268217169-0-3-0","properties":{"highway":"service","service":"parking_aisle","surface":"paved"},"geometry":{"type":"LineString","coordinates":[[103.9274736,1.3669641],[103.9274766,1.3670119]]}},{"type":"Feature","id":"way/268217169-0-4-0","properties":{"highway":"service","service":"parking_aisle","surface":"paved"},"geometry":{"type":"LineString","coordinates":[[103.9274766,1.3670119],[103.9274975,1.3670522]]}},{"type":"Feature","id":"way/448937628-0-0-0","properties":{"highway":"tertiary","lanes":"1","lit":"yes","maxspeed":"50","name":"Tampines Link","oneway":"yes","sidewalk":"left","surface":"asphalt"},"geometry":{"type":"LineString","coordinates":[[103.9306694,1.3688578],[103.93058,1.3687894]]}},{"type":"Feature","id":"way/448937628-0-1-0","properties":{"highway":"tertiary","lanes":"1","lit":"yes","maxspeed":"50","name":"Tampines Link","oneway":"yes","sidewalk":"left","surface":"asphalt"},"geometry":{"type":"LineString","coordinates":[[103.93058,1.3687894],[103.930489,1.3687735]]}},{"type":"Feature","id":"way/448937628-0-2-0","properties":{"highway":"tertiary","lanes":"1","lit":"yes","maxspeed":"50","name":"Tampines Link","oneway":"yes","sidewalk":"left","surface":"asphalt"},"geometry":{"type":"LineString","coordinates":[[103.930489,1.3687735],[103.9303371,1.3687266]]}},{"type":"Feature","id":"way/462004566-0-0-0","properties":{"highway":"secondary","lanes":"3","lit":"yes","maxspeed":"50","name":"Tampines Avenue 11","oneway":"yes","sidewalk:left":"separate","sidewalk:right":"no","surface":"asphalt"},"geometry":{"type":"LineString","coordinates":[[103.9310104,1.3661874],[103.9311198,1.3661865]]}},{"type":"Feature","id":"way/462004566-0-1-0","properties":{"highway":"secondary","lanes":"3","lit":"yes","maxspeed":"50","name":"Tampines Avenue 11","oneway":"yes","sidewalk:left":"separate","sidewalk:right":"no","surface":"asphalt"},"geometry":{"type":"LineString","coordinates":[[103.9311198,1.3661865],[103.9315096,1.3661836]]}},{"type":"Feature","id":"way/465063684-0-0-0","properties":{"highway":"service"},"geometry":{"type":"LineString","coordinates":[[103.9291106,1.3671499],[103.9298846,1.3676329]]}},{"type":"Feature","id":"way/465063684-0-1-0","properties":{"highway":"service"},"geometry":{"type":"LineString","coordinates":[[103.9298846,1.3676329],[103.929936,1.3676493]]}},{"type":"Feature","id":"way/465063684-0-2-0","properties":{"highway":"service"},"geometry":{"type":"LineString","coordinates":[[103.929936,1.3676493],[103.9299752,1.3676495]]}},{"type":"Feature","id":"way/465063684-0-3-0","properties":{"highway":"service"},"geometry":{"type":"LineString","coordinates":[[103.9299752,1.3676495],[103.9300063,1.3676318]]}},{"type":"Feature","id":"way/465063684-0-4-0","properties":{"highway":"service"},"geometry":{"type":"LineString","coordinates":[[103.9300063,1.3676318],[103.9302194,1.3673181]]}},{"type":"Feature","id":"way/465063684-0-5-0","properties":{"highway":"service"},"geometry":{"type":"LineString","coordinates":[[103.9302194,1.3673181],[103.9302479,1.3672727]]}},{"type":"Feature","id":"way/465063684-0-6-0","properties":{"highway":"service"},"geometry":{"type":"LineString","coordinates":[[103.9302479,1.3672727],[103.9302607,1.3665593]]}},{"type":"Feature","id":"way/465063684-0-7-0","properties":{"highway":"service"},"geometry":{"type":"LineString","coordinates":[[103.9302607,1.3665593],[103.9302513,1.3665231]]}},{"type":"Feature","id":"way/465063684-0-8-0","properties":{"highway":"service"},"geometry":{"type":"LineString","coordinates":[[103.9302513,1.3665231],[103.9302392,1.3665003]]}},{"type":"Feature","id":"way/471994627-0-0-0","properties":{"highway":"primary","lanes":"4","lit":"yes","maxspeed":"70","name":"Tampines Avenue 10","name:zh":"\u6de1\u6ee8\u5c3c10\u9053","oneway":"yes","shoulder":"no","sidewalk:left":"separate","sidewalk:right":"no","surface":"asphalt"},"geometry":{"type":"LineString","coordinates":[[103.9308524,1.3651266],[103.9308458,1.3654014]]}},{"type":"Feature","id":"way/471994628-0-0-0","properties":{"highway":"primary","lanes":"5","lit":"yes","maxspeed":"70","name":"Tampines Avenue 10","name:zh":"\u6de1\u6ee8\u5c3c10\u9053","oneway":"yes","shoulder":"no","sidewalk:left":"separate","sidewalk:right":"no","surface":"asphalt","turn:lanes":"through|through|through|through|right"},"geometry":{"type":"LineString","coordinates":[[103.9308404,1.3655759],[103.9308505,1.3659724]]}},{"type":"Feature","id":"way/471994628-0-1-0","properties":{"highway":"primary","lanes":"5","lit":"yes","maxspeed":"70","name":"Tampines Avenue 10","name:zh":"\u6de1\u6ee8\u5c3c10\u9053","oneway":"yes","shoulder":"no","sidewalk:left":"separate","sidewalk:right":"no","surface":"asphalt","turn:lanes":"through|through|through|through|right"},"geometry":{"type":"LineString","coordinates":[[103.9308505,1.3659724],[103.9308526,1.3660536]]}},{"type":"Feature","id":"way/471994629-0-0-0","properties":{"highway":"primary","lanes":"3","lit":"yes","maxspeed":"70","name":"Tampines Avenue 10","name:zh":"\u6de1\u6ee8\u5c3c10\u9053","oneway":"yes","shoulder":"no","sidewalk:left":"separate","sidewalk:right":"no","surface":"asphalt"},"geometry":{"type":"LineString","coordinates":[[103.9308573,1.3665367],[103.9308557,1.3670551]]}},{"type":"Feature","id":"way/471994629-0-1-0","properties":{"highway":"primary","lanes":"3","lit":"yes","maxspeed":"70","name":"Tampines Avenue 10","name:zh":"\u6de1\u6ee8\u5c3c10\u9053","oneway":"yes","shoulder":"no","sidewalk:left":"separate","sidewalk:right":"no","surface":"asphalt"},"geometry":{"type":"LineString","coordinates":[[103.9308557,1.3670551],[103.9308526,1.3673671]]}},{"type":"Feature","id":"way/471994629-0-2-0","properties":{"highway":"primary","lanes":"3","lit":"yes","maxspeed":"70","name":"Tampines Avenue 10","name:zh":"\u6de1\u6ee8\u5c3c10\u9053","oneway":"yes","shoulder":"no","sidewalk:left":"separate","sidewalk:right":"no","surface":"asphalt"},"geometry":{"type":"LineString","coordinates":[[103.9308526,1.3673671],[103.9308438,1.3675639]]}},{"type":"Feature","id":"way/471994630-0-0-0","properties":{"highway":"primary","lanes":"4","lit":"yes","maxspeed":"70","name":"Tampines Avenue 10","name:zh":"\u6de1\u6ee8\u5c3c10\u9053","oneway":"yes","shoulder":"no","sidewalk:left":"separate","sidewalk:right":"no","surface":"asphalt","turn:lanes":"left;through|through|through|right"},"geometry":{"type":"LineString","coordinates":[[103.9308438,1.3675639],[103.9308198,1.3679227]]}},{"type":"Feature","id":"way/471994630-0-1-0","properties":{"highway":"primary","lanes":"4","lit":"yes","maxspeed":"70","name":"Tampines Avenue 10","name:zh":"\u6de1\u6ee8\u5c3c10\u9053","oneway":"yes","shoulder":"no","sidewalk:left":"separate","sidewalk:right":"no","surface":"asphalt","turn:lanes":"left;through|through|through|right"},"geometry":{"type":"LineString","coordinates":[[103.9308198,1.3679227],[103.9307687,1.3683303]]}},{"type":"Feature","id":"way/471994630-0-2-0","properties":{"highway":"primary","lanes":"4","lit":"yes","maxspeed":"70","name":"Tampines Avenue 10","name:zh":"\u6de1\u6ee8\u5c3c10\u9053","oneway":"yes","shoulder":"no","sidewalk:left":"separate","sidewalk:right":"no","surface":"asphalt","turn:lanes":"left;through|through|through|right"},"geometry":{"type":"LineString","coordinates":[[103.9307687,1.3683303],[103.9307355,1.3685458]]}},{"type":"Feature","id":"way/471994630-0-3-0","properties":{"highway":"primary","lanes":"4","lit":"yes","maxspeed":"70","name":"Tampines Avenue 10","name:zh":"\u6de1\u6ee8\u5c3c10\u9053","oneway":"yes","shoulder":"no","sidewalk:left":"separate","sidewalk:right":"no","surface":"asphalt","turn:lanes":"left;through|through|through|right"},"geometry":{"type":"LineString","coordinates":[[103.9307355,1.3685458],[103.9306931,1.3687708]]}},{"type":"Feature","id":"way/471994630-0-4-0","properties":{"highway":"primary","lanes":"4","lit":"yes","maxspeed":"70","name":"Tampines Avenue 10","name:zh":"\u6de1\u6ee8\u5c3c10\u9053","oneway":"yes","shoulder":"no","sidewalk:left":"separate","sidewalk:right":"no","surface":"asphalt","turn:lanes":"left;through|through|through|right"},"geometry":{"type":"LineString","coordinates":[[103.9306931,1.3687708],[103.9306694,1.3688578]]}},{"type":"Feature","id":"way/472012066-0-0-0","properties":{"highway":"primary","lanes":"3","maxspeed":"70","name":"Tampines Avenue 10","name:zh":"\u6de1\u6ee8\u5c3c10\u9053","oneway":"yes","shoulder":"no","sidewalk:left":"separate","sidewalk:right":"no","surface":"asphalt"},"geometry":{"type":"LineString","coordinates":[[103.9310185,1.3657124],[103.9310178,1.3652373]]}},{"type":"Feature","id":"way/472012066-0-1-0","properties":{"highway":"primary","lanes":"3","maxspeed":"70","name":"Tampines Avenue 10","name:zh":"\u6de1\u6ee8\u5c3c10\u9053","oneway":"yes","shoulder":"no","sidewalk:left":"separate","sidewalk:right":"no","surface":"asphalt"},"geometry":{"type":"LineString","coordinates":[[103.9310178,1.3652373],[103.9310215,1.3646017]]}},{"type":"Feature","id":"way/472012069-0-0-0","properties":{"highway":"primary_link","lanes":"1","lit":"yes","maxspeed":"50","oneway":"yes","sidewalk:both":"separate","surface":"asphalt"},"geometry":{"type":"LineString","coordinates":[[103.9310008,1.366733],[103.9310926,1.3664901]]}},{"type":"Feature","id":"way/472012069-0-1-0","properties":{"highway":"primary_link","lanes":"1","lit":"yes","maxspeed":"50","oneway":"yes","sidewalk:both":"separate","surface":"asphalt"},"geometry":{"type":"LineString","coordinates":[[103.9310926,1.3664901],[103.9311293,1.3663929]]}},{"type":"Feature","id":"way/472012069-0-2-0","properties":{"highway":"primary_link","lanes":"1","lit":"yes","maxspeed":"50","oneway":"yes","sidewalk:both":"separate","surface":"asphalt"},"geometry":{"type":"LineString","coordinates":[[103.9311293,1.3663929],[103.9311739,1.366314]]}},{"type":"Feature","id":"way/472012069-0-3-0","properties":{"highway":"primary_link","lanes":"1","lit":"yes","maxspeed":"50","oneway":"yes","sidewalk:both":"separate","surface":"asphalt"},"geometry":{"type":"LineString","coordinates":[[103.9311739,1.366314],[103.9312282,1.3662545]]}},{"type":"Feature","id":"way/472012069-0-4-0","properties":{"highway":"primary_link","lanes":"1","lit":"yes","maxspeed":"50","oneway":"yes","sidewalk:both":"separate","surface":"asphalt"},"geometry":{"type":"LineString","coordinates":[[103.9312282,1.3662545],[103.9313369,1.3662197]]}},{"type":"Feature","id":"way/472012069-0-5-0","properties":{"highway":"primary_link","lanes":"1","lit":"yes","maxspeed":"50","oneway":"yes","sidewalk:both":"separate","surface":"asphalt"},"geometry":{"type":"LineString","coordinates":[[103.9313369,1.3662197],[103.9315096,1.3661836]]}},{"type":"Feature","id":"way/472012072-0-0-0","properties":{"highway":"primary_link","lanes":"1","lit":"yes","maxspeed":"50","oneway":"yes","sidewalk:both":"separate","surface":"asphalt"},"geometry":{"type":"LineString","coordinates":[[103.931487,1.3660385],[103.9313632,1.3659792]]}},{"type":"Feature","id":"way/472012072-0-1-0","properties":{"highway":"primary_link","lanes":"1","lit":"yes","maxspeed":"50","oneway":"yes","sidewalk:both":"separate","surface":"asphalt"},"geometry":{"type":"LineString","coordinates":[[103.9313632,1.3659792],[103.9312593,1.365929]]}},{"type":"Feature","id":"way/472012072-0-2-0","properties":{"highway":"primary_link","lanes":"1","lit":"yes","maxspeed":"50","oneway":"yes","sidewalk:both":"separate","surface":"asphalt"},"geometry":{"type":"LineString","coordinates":[[103.9312593,1.365929],[103.9311711,1.3658856]]}},{"type":"Feature","id":"way/472012072-0-3-0","properties":{"highway":"primary_link","lanes":"1","lit":"yes","maxspeed":"50","oneway":"yes","sidewalk:both":"separate","surface":"asphalt"},"geometry":{"type":"LineString","coordinates":[[103.9311711,1.3658856],[103.931112,1.3658416]]}},{"type":"Feature","id":"way/472012072-0-4-0","properties":{"highway":"primary_link","lanes":"1","lit":"yes","maxspeed":"50","oneway":"yes","sidewalk:both":"separate","surface":"asphalt"},"geometry":{"type":"LineString","coordinates":[[103.931112,1.3658416],[103.9310663,1.3657913]]}},{"type":"Feature","id":"way/472012072-0-5-0","properties":{"highway":"primary_link","lanes":"1","lit":"yes","maxspeed":"50","oneway":"yes","sidewalk:both":"separate","surface":"asphalt"},"geometry":{"type":"LineString","coordinates":[[103.9310663,1.3657913],[103.9310185,1.3657124]]}},{"type":"Feature","id":"way/472012074-0-0-0","properties":{"highway":"primary","lanes":"4","lit":"yes","maxspeed":"70","name":"Tampines Avenue 10","name:zh":"\u6de1\u6ee8\u5c3c10\u9053","oneway":"yes","shoulder":"no","sidewalk:left":"separate","sidewalk:right":"no","smoothness":"excellent","surface":"asphalt","turn:lanes":"through|through|through|right"},"geometry":{"type":"LineString","coordinates":[[103.9310087,1.3671421],[103.9310008,1.366733]]}},{"type":"Feature","id":"way/472012077-0-0-0","properties":{"highway":"primary","lanes":"4","lit":"yes","maxspeed":"70","name":"Tampines Avenue 10","name:zh":"\u6de1\u6ee8\u5c3c10\u9053","oneway":"yes","shoulder":"no","sidewalk:left":"separate","sidewalk:right":"no","surface":"asphalt","turn:lanes":"through|through|through|right"},"geometry":{"type":"LineString","coordinates":[[103.9310008,1.366733],[103.9310091,1.3662544]]}},{"type":"Feature","id":"way/472012077-0-1-0","properties":{"highway":"primary","lanes":"4","lit":"yes","maxspeed":"70","name":"Tampines Avenue 10","name:zh":"\u6de1\u6ee8\u5c3c10\u9053","oneway":"yes","shoulder":"no","sidewalk:left":"separate","sidewalk:right":"no","surface":"asphalt","turn:lanes":"through|through|through|right"},"geometry":{"type":"LineString","coordinates":[[103.9310091,1.3662544],[103.9310104,1.3661874]]}},{"type":"Feature","id":"way/472012081-0-0-0","properties":{"foot":"no","highway":"tertiary","lane_markings":"no","lit":"yes","maxspeed":"50","name":"Tampines Link","oneway":"yes","sidewalk:left":"separate","sidewalk:right":"no","surface":"asphalt"},"geometry":{"type":"LineString","coordinates":[[103.9306414,1.3689678],[103.9307767,1.3690787]]}},{"type":"Feature","id":"way/472012084-0-0-0","properties":{"highway":"tertiary","lanes":"3","lit":"yes","maxspeed":"50","name":"Tampines Link","oneway":"yes","sidewalk:left":"separate","sidewalk:right":"no","surface":"asphalt","turn:lanes":"through|right|right"},"geometry":{"type":"LineString","coordinates":[[103.9311752,1.3692749],[103.9308997,1.3690341]]}},{"type":"Feature","id":"way/472012084-0-1-0","properties":{"highway":"tertiary","lanes":"3","lit":"yes","maxspeed":"50","name":"Tampines Link","oneway":"yes","sidewalk:left":"separate","sidewalk:right":"no","surface":"asphalt","turn:lanes":"through|right|right"},"geometry":{"type":"LineString","coordinates":[[103.9308997,1.3690341],[103.9307983,1.3689581]]}},{"type":"Feature","id":"way/472012088-0-1-0","properties":{"highway":"tertiary","lanes":"4","maxspeed":"50","name":"Tampines Link","oneway":"yes","sidewalk:left":"separate","sidewalk:right":"no","surface":"asphalt","turn:lanes":"left|through|right|right"},"geometry":{"type":"LineString","coordinates":[[103.9312302,1.3693325],[103.9311752,1.3692749]]}},{"type":"Feature","id":"way/472024684-0-0-0","properties":{"highway":"primary","lanes":"4","lit":"yes","maxspeed":"70","name":"Tampines Avenue 10","name:zh":"\u6de1\u6ee8\u5c3c10\u9053","oneway":"yes","shoulder":"no","sidewalk:left":"separate","sidewalk:right":"no","surface":"asphalt","turn:lanes":"through|through|through|right"},"geometry":{"type":"LineString","coordinates":[[103.9307077,1.3694675],[103.930765,1.3691442]]}},{"type":"Feature","id":"way/472024684-0-1-0","properties":{"highway":"primary","lanes":"4","lit":"yes","maxspeed":"70","name":"Tampines Avenue 10","name:zh":"\u6de1\u6ee8\u5c3c10\u9053","oneway":"yes","shoulder":"no","sidewalk:left":"separate","sidewalk:right":"no","surface":"asphalt","turn:lanes":"through|through|through|right"},"geometry":{"type":"LineString","coordinates":[[103.930765,1.3691442],[103.9307767,1.3690787]]}},{"type":"Feature","id":"way/472033396-0-0-0","properties":{"highway":"secondary","lanes":"4","lit":"yes","maxspeed":"60","name":"Tampines Road","oneway":"yes","shoulder":"no","sidewalk:left":"separate","sidewalk:right":"no","surface":"asphalt","turn:lanes":"through|through|through|right"},"geometry":{"type":"LineString","coordinates":[[103.9303611,1.3662134],[103.930773,1.3661927]]}},{"type":"Feature","id":"way/472033396-0-1-0","properties":{"highway":"secondary","lanes":"4","lit":"yes","maxspeed":"60","name":"Tampines Road","oneway":"yes","shoulder":"no","sidewalk:left":"separate","sidewalk:right":"no","surface":"asphalt","turn:lanes":"through|through|through|right"},"geometry":{"type":"LineString","coordinates":[[103.930773,1.3661927],[103.930856,1.3661885]]}},{"type":"Feature","id":"way/472105373-0-0-0","properties":{"highway":"secondary","lanes":"4","maxspeed":"50","name":"Tampines Avenue 11","oneway":"yes","sidewalk:left":"separate","sidewalk:right":"no","surface":"asphalt"},"geometry":{"type":"LineString","coordinates":[[103.9315096,1.3661836],[103.9317061,1.3661882]]}},{"type":"Feature","id":"way/472106153-0-0-0","properties":{"highway":"secondary","lanes":"6","maxspeed":"50","name":"Tampines Avenue 11","oneway":"yes","sidewalk":"left","surface":"asphalt","turn:lanes":"left|left|through|through|through;right|right"},"geometry":{"type":"LineString","coordinates":[[103.9316849,1.3660288],[103.931487,1.3660385]]}},{"type":"Feature","id":"way/472106154-0-0-0","properties":{"highway":"secondary","lanes":"4","lit":"yes","maxspeed":"50","name":"Tampines Avenue 11","oneway":"yes","sidewalk:left":"separate","sidewalk:right":"no","surface":"asphalt","turn:lanes":"through|through|through;right|right"},"geometry":{"type":"LineString","coordinates":[[103.931487,1.3660385],[103.9311253,1.3660471]]}},{"type":"Feature","id":"way/472106154-0-1-0","properties":{"highway":"secondary","lanes":"4","lit":"yes","maxspeed":"50","name":"Tampines Avenue 11","oneway":"yes","sidewalk:left":"separate","sidewalk:right":"no","surface":"asphalt","turn:lanes":"through|through|through;right|right"},"geometry":{"type":"LineString","coordinates":[[103.9311253,1.3660471],[103.9310127,1.3660498]]}},{"type":"Feature","id":"way/472106155-0-0-0","properties":{"highway":"secondary","lanes":"5","maxspeed":"60","name":"Tampines Road","oneway":"yes","sidewalk:left":"separate","sidewalk:right":"no","surface":"asphalt","turn:lanes":"left|through|through|through|right"},"geometry":{"type":"LineString","coordinates":[[103.927829,1.3663365],[103.927372,1.3664689]]}},{"type":"Feature","id":"way/480252560-0-0-0","properties":{"highway":"tertiary","lanes":"2","lanes:backward":"1","lanes:forward":"2","lit":"yes","maxspeed":"50","name":"Tampines Link","oneway":"no","sidewalk":"both","surface":"asphalt","turn:lanes":"left;through|right"},"geometry":{"type":"LineString","coordinates":[[103.929653,1.3682778],[103.9303371,1.3687266]]}},{"type":"Feature","id":"way/512918053-0-0-0","properties":{"foot":"no","highway":"tertiary","lane_markings":"no","lit":"yes","maxspeed":"50","name":"Tampines Link","oneway":"yes","sidewalk:left":"separate","sidewalk:right":"no","surface":"asphalt"},"geometry":{"type":"LineString","coordinates":[[103.9307983,1.3689581],[103.9306694,1.3688578]]}},{"type":"Feature","id":"way/512918065-0-0-0","properties":{"highway":"primary","lanes":"3","lit":"yes","maxspeed":"70","name":"Tampines Avenue 10","name:zh":"\u6de1\u6ee8\u5c3c10\u9053","oneway":"yes","shoulder":"no","sidewalk:left":"separate","sidewalk:right":"no","surface":"asphalt"},"geometry":{"type":"LineString","coordinates":[[103.9306414,1.3689678],[103.9306245,1.3690371]]}},{"type":"Feature","id":"way/522404890-0-0-0","properties":{"foot":"no","highway":"secondary","lanes":"4","lit":"yes","maxspeed":"60","name":"Tampines Road","oneway":"yes","shoulder":"no","sidewalk:left":"separate","sidewalk:right":"no","surface":"asphalt","turn:lanes":"through|through|through|right"},"geometry":{"type":"LineString","coordinates":[[103.930856,1.3661885],[103.9310104,1.3661874]]}},{"type":"Feature","id":"way/539092838-0-0-0","properties":{"highway":"service","name":"Tampines Avenue","oneway":"yes"},"geometry":{"type":"LineString","coordinates":[[103.9283811,1.3675538],[103.9280798,1.3673041]]}},{"type":"Feature","id":"way/544899970-0-0-0","properties":{"highway":"service","lanes":"1","oneway":"yes","service":"parking_aisle","surface":"asphalt"},"geometry":{"type":"LineString","coordinates":[[103.9312455,1.3654516],[103.9312436,1.3656861]]}},{"type":"Feature","id":"way/544899970-0-1-0","properties":{"highway":"service","lanes":"1","oneway":"yes","service":"parking_aisle","surface":"asphalt"},"geometry":{"type":"LineString","coordinates":[[103.9312436,1.3656861],[103.9312646,1.3657273]]}},{"type":"Feature","id":"way/544899970-0-2-0","properties":{"highway":"service","lanes":"1","oneway":"yes","service":"parking_aisle","surface":"asphalt"},"geometry":{"type":"LineString","coordinates":[[103.9312646,1.3657273],[103.9313164,1.3657624]]}},{"type":"Feature","id":"way/544899970-0-3-0","properties":{"highway":"service","lanes":"1","oneway":"yes","service":"parking_aisle","surface":"asphalt"},"geometry":{"type":"LineString","coordinates":[[103.9313164,1.3657624],[103.9313804,1.3657754]]}},{"type":"Feature","id":"way/544899970-0-4-0","properties":{"highway":"service","lanes":"1","oneway":"yes","service":"parking_aisle","surface":"asphalt"},"geometry":{"type":"LineString","coordinates":[[103.9313804,1.3657754],[103.9322031,1.3657755]]}},{"type":"Feature","id":"way/635638638-0-0-0","properties":{"highway":"tertiary","lanes":"2","lit":"yes","maxspeed":"50","name":"Tampines Link","oneway":"yes","sidewalk:left":"separate","sidewalk:right":"no","surface":"asphalt"},"geometry":{"type":"LineString","coordinates":[[103.9307767,1.3690787],[103.9308739,1.369161]]}},{"type":"Feature","id":"way/635638638-0-1-0","properties":{"highway":"tertiary","lanes":"2","lit":"yes","maxspeed":"50","name":"Tampines Link","oneway":"yes","sidewalk:left":"separate","sidewalk:right":"no","surface":"asphalt"},"geometry":{"type":"LineString","coordinates":[[103.9308739,1.369161],[103.9310357,1.369287]]}},{"type":"Feature","id":"way/635670011-0-0-0","properties":{"highway":"secondary","lanes":"3","maxspeed":"60","name":"Tampines Road","oneway":"yes","sidewalk:left":"separate","sidewalk:right":"no","surface":"asphalt"},"geometry":{"type":"LineString","coordinates":[[103.9279949,1.3664414],[103.9285359,1.3663687]]}},{"type":"Feature","id":"way/635670011-0-1-0","properties":{"highway":"secondary","lanes":"3","maxspeed":"60","name":"Tampines Road","oneway":"yes","sidewalk:left":"separate","sidewalk:right":"no","surface":"asphalt"},"geometry":{"type":"LineString","coordinates":[[103.9285359,1.3663687],[103.9287145,1.3663559]]}},{"type":"Feature","id":"way/635670011-0-2-0","properties":{"highway":"secondary","lanes":"3","maxspeed":"60","name":"Tampines Road","oneway":"yes","sidewalk:left":"separate","sidewalk:right":"no","surface":"asphalt"},"geometry":{"type":"LineString","coordinates":[[103.9287145,1.3663559],[103.9289409,1.3663374]]}},{"type":"Feature","id":"way/635670011-0-3-0","properties":{"highway":"secondary","lanes":"3","maxspeed":"60","name":"Tampines Road","oneway":"yes","sidewalk:left":"separate","sidewalk:right":"no","surface":"asphalt"},"geometry":{"type":"LineString","coordinates":[[103.9289409,1.3663374],[103.9295459,1.3662881]]}},{"type":"Feature","id":"way/635670011-0-4-0","properties":{"highway":"secondary","lanes":"3","maxspeed":"60","name":"Tampines Road","oneway":"yes","sidewalk:left":"separate","sidewalk:right":"no","surface":"asphalt"},"geometry":{"type":"LineString","coordinates":[[103.9295459,1.3662881],[103.9299761,1.3662441]]}},{"type":"Feature","id":"way/635673116-0-0-0","properties":{"highway":"primary","lanes":"3","lit":"yes","maxspeed":"70","name":"Tampines Avenue 10","name:zh":"\u6de1\u6ee8\u5c3c10\u9053","oneway":"yes","shoulder":"no","sidewalk:left":"separate","sidewalk:right":"no","surface":"asphalt"},"geometry":{"type":"LineString","coordinates":[[103.9310127,1.3660498],[103.9310142,1.3659648]]}},{"type":"Feature","id":"way/635673116-0-1-0","properties":{"highway":"primary","lanes":"3","lit":"yes","maxspeed":"70","name":"Tampines Avenue 10","name:zh":"\u6de1\u6ee8\u5c3c10\u9053","oneway":"yes","shoulder":"no","sidewalk:left":"separate","sidewalk:right":"no","surface":"asphalt"},"geometry":{"type":"LineString","coordinates":[[103.9310142,1.3659648],[103.9310185,1.3657124]]}},{"type":"Feature","id":"way/635674222-0-0-0","properties":{"foot":"no","highway":"primary","lanes":"3","lit":"yes","maxspeed":"70","name":"Tampines Avenue 10","name:zh":"\u6de1\u6ee8\u5c3c10\u9053","oneway":"yes","shoulder":"no","sidewalk:left":"separate","sidewalk:right":"no","surface":"asphalt","turn:lanes":"through|through|right"},"geometry":{"type":"LineString","coordinates":[[103.9310104,1.3661874],[103.9310127,1.3660498]]}},{"type":"Feature","id":"way/635718429-0-0-0","properties":{"highway":"secondary","lanes":"3","lit":"yes","maxspeed":"60","name":"Tampines Road","oneway":"yes","shoulder":"no","sidewalk:left":"separate","sidewalk:right":"no","surface":"asphalt"},"geometry":{"type":"LineString","coordinates":[[103.9308526,1.3660536],[103.9307738,1.3660585]]}},{"type":"Feature","id":"way/635718429-0-1-0","properties":{"highway":"secondary","lanes":"3","lit":"yes","maxspeed":"60","name":"Tampines Road","oneway":"yes","shoulder":"no","sidewalk:left":"separate","sidewalk:right":"no","surface":"asphalt"},"geometry":{"type":"LineString","coordinates":[[103.9307738,1.3660585],[103.9304475,1.3660793]]}},{"type":"Feature","id":"way/635718430-0-0-0","properties":{"foot":"no","highway":"primary","lanes":"4","lit":"yes","maxspeed":"70","name":"Tampines Avenue 10","name:zh":"\u6de1\u6ee8\u5c3c10\u9053","oneway":"yes","shoulder":"no","sidewalk:left":"separate","sidewalk:right":"no","surface":"asphalt","turn:lanes":"through|through|through|right"},"geometry":{"type":"LineString","coordinates":[[103.9308526,1.3660536],[103.930856,1.3661885]]}},{"type":"Feature","id":"way/635718577-0-0-0","properties":{"highway":"primary","lanes":"3","lit":"yes","maxspeed":"70","name":"Tampines Avenue 10","name:zh":"\u6de1\u6ee8\u5c3c10\u9053","oneway":"yes","shoulder":"no","sidewalk:left":"separate","sidewalk:right":"no","surface":"asphalt"},"geometry":{"type":"LineString","coordinates":[[103.930856,1.3661885],[103.9308578,1.3662579]]}},{"type":"Feature","id":"way/635718577-0-1-0","properties":{"highway":"primary","lanes":"3","lit":"yes","maxspeed":"70","name":"Tampines Avenue 10","name:zh":"\u6de1\u6ee8\u5c3c10\u9053","oneway":"yes","shoulder":"no","sidewalk:left":"separate","sidewalk:right":"no","surface":"asphalt"},"geometry":{"type":"LineString","coordinates":[[103.9308578,1.3662579],[103.9308573,1.3665367]]}},{"type":"Feature","id":"way/635751749-0-0-0","properties":{"highway":"primary","lanes":"3","lit":"yes","maxspeed":"70","name":"Tampines Avenue 10","name:zh":"\u6de1\u6ee8\u5c3c10\u9053","oneway":"yes","shoulder":"no","sidewalk:left":"separate","sidewalk:right":"no","smoothness":"excellent","surface":"asphalt"},"geometry":{"type":"LineString","coordinates":[[103.9307983,1.3689581],[103.9308141,1.36887]]}},{"type":"Feature","id":"way/635751749-0-1-0","properties":{"highway":"primary","lanes":"3","lit":"yes","maxspeed":"70","name":"Tampines Avenue 10","name:zh":"\u6de1\u6ee8\u5c3c10\u9053","oneway":"yes","shoulder":"no","sidewalk:left":"separate","sidewalk:right":"no","smoothness":"excellent","surface":"asphalt"},"geometry":{"type":"LineString","coordinates":[[103.9308141,1.36887],[103.9308392,1.3687039]]}},{"type":"Feature","id":"way/640191136-0-0-0","properties":{"highway":"tertiary","lanes":"2","lanes:backward":"1","lanes:forward":"1","maxspeed":"50","name":"Tampines Link","oneway":"no","surface":"asphalt"},"geometry":{"type":"LineString","coordinates":[[103.9280307,1.3674549],[103.9283811,1.3675538]]}},{"type":"Feature","id":"way/640191137-0-0-0","properties":{"highway":"tertiary","lanes":"1","maxspeed":"50","name":"Tampines Link","oneway":"yes","sidewalk:left":"separate","sidewalk:right":"no","surface":"asphalt"},"geometry":{"type":"LineString","coordinates":[[103.9280307,1.3674549],[103.9278477,1.367381]]}},{"type":"Feature","id":"way/640191137-0-1-0","properties":{"highway":"tertiary","lanes":"1","maxspeed":"50","name":"Tampines Link","oneway":"yes","sidewalk:left":"separate","sidewalk:right":"no","surface":"asphalt"},"geometry":{"type":"LineString","coordinates":[[103.9278477,1.367381],[103.9276528,1.3673215]]}},{"type":"Feature","id":"way/640191137-0-2-0","properties":{"highway":"tertiary","lanes":"1","maxspeed":"50","name":"Tampines Link","oneway":"yes","sidewalk:left":"separate","sidewalk:right":"no","surface":"asphalt"},"geometry":{"type":"LineString","coordinates":[[103.9276528,1.3673215],[103.9274638,1.3672303]]}},{"type":"Feature","id":"way/640191137-0-3-0","properties":{"highway":"tertiary","lanes":"1","maxspeed":"50","name":"Tampines Link","oneway":"yes","sidewalk:left":"separate","sidewalk:right":"no","surface":"asphalt"},"geometry":{"type":"LineString","coordinates":[[103.9274638,1.3672303],[103.9273555,1.3671194]]}},{"type":"Feature","id":"way/641074740-0-0-0","properties":{"highway":"service","name":"Tampines Avenue","sidewalk":"right","surface":"asphalt"},"geometry":{"type":"LineString","coordinates":[[103.9280307,1.3674549],[103.9280591,1.3673646]]}},{"type":"Feature","id":"way/641074740-0-1-0","properties":{"highway":"service","name":"Tampines Avenue","sidewalk":"right","surface":"asphalt"},"geometry":{"type":"LineString","coordinates":[[103.9280591,1.3673646],[103.9280798,1.3673041]]}},{"type":"Feature","id":"way/641090205-0-0-0","properties":{"highway":"secondary","lanes":"3","maxspeed":"60","name":"Tampines Road","oneway":"yes","sidewalk:left":"separate","sidewalk:right":"no","surface":"asphalt"},"geometry":{"type":"LineString","coordinates":[[103.9274791,1.3665653],[103.9275343,1.3665519]]}},{"type":"Feature","id":"way/641090205-0-1-0","properties":{"highway":"secondary","lanes":"3","maxspeed":"60","name":"Tampines Road","oneway":"yes","sidewalk:left":"separate","sidewalk:right":"no","surface":"asphalt"},"geometry":{"type":"LineString","coordinates":[[103.9275343,1.3665519],[103.9279949,1.3664414]]}},{"type":"Feature","id":"way/641090206-0-0-0","properties":{"highway":"secondary","lanes":"3","maxspeed":"60","name":"Tampines Road","oneway":"yes","sidewalk:left":"separate","sidewalk:right":"no","surface":"asphalt"},"geometry":{"type":"LineString","coordinates":[[103.9304475,1.3660793],[103.9297327,1.3661332]]}},{"type":"Feature","id":"way/641090206-0-1-0","properties":{"highway":"secondary","lanes":"3","maxspeed":"60","name":"Tampines Road","oneway":"yes","sidewalk:left":"separate","sidewalk:right":"no","surface":"asphalt"},"geometry":{"type":"LineString","coordinates":[[103.9297327,1.3661332],[103.9289321,1.3662001]]}},{"type":"Feature","id":"way/641090206-0-2-0","properties":{"highway":"secondary","lanes":"3","maxspeed":"60","name":"Tampines Road","oneway":"yes","sidewalk:left":"separate","sidewalk:right":"no","surface":"asphalt"},"geometry":{"type":"LineString","coordinates":[[103.9289321,1.3662001],[103.9285995,1.3662237]]}},{"type":"Feature","id":"way/641090207-0-0-0","properties":{"highway":"secondary_link","maxspeed":"50","name":"Tampines Road","oneway":"yes","surface":"asphalt"},"geometry":{"type":"LineString","coordinates":[[103.9280678,1.3662958],[103.928011,1.3663568]]}},{"type":"Feature","id":"way/641090207-0-1-0","properties":{"highway":"secondary_link","maxspeed":"50","name":"Tampines Road","oneway":"yes","surface":"asphalt"},"geometry":{"type":"LineString","coordinates":[[103.928011,1.3663568],[103.9279949,1.3664414]]}},{"type":"Feature","id":"way/644402028-0-0-0","properties":{"highway":"service","name":"Tampines Avenue","sidewalk":"right","surface":"asphalt"},"geometry":{"type":"LineString","coordinates":[[103.9280798,1.3673041],[103.9280356,1.3672647]]}},{"type":"Feature","id":"way/644402028-0-1-0","properties":{"highway":"service","name":"Tampines Avenue","sidewalk":"right","surface":"asphalt"},"geometry":{"type":"LineString","coordinates":[[103.9280356,1.3672647],[103.9280143,1.3672489]]}},{"type":"Feature","id":"way/644402028-0-2-0","properties":{"highway":"service","name":"Tampines Avenue","sidewalk":"right","surface":"asphalt"},"geometry":{"type":"LineString","coordinates":[[103.9280143,1.3672489],[103.9278324,1.3671577]]}},{"type":"Feature","id":"way/644402028-0-3-0","properties":{"highway":"service","name":"Tampines Avenue","sidewalk":"right","surface":"asphalt"},"geometry":{"type":"LineString","coordinates":[[103.9278324,1.3671577],[103.9276875,1.3671038]]}},{"type":"Feature","id":"way/644402028-0-4-0","properties":{"highway":"service","name":"Tampines Avenue","sidewalk":"right","surface":"asphalt"},"geometry":{"type":"LineString","coordinates":[[103.9276875,1.3671038],[103.9275406,1.3670713]]}},{"type":"Feature","id":"way/644402028-0-5-0","properties":{"highway":"service","name":"Tampines Avenue","sidewalk":"right","surface":"asphalt"},"geometry":{"type":"LineString","coordinates":[[103.9275406,1.3670713],[103.9274975,1.3670522]]}},{"type":"Feature","id":"way/646856639-0-0-0","properties":{"highway":"service"},"geometry":{"type":"LineString","coordinates":[[103.92906,1.3672335],[103.9290826,1.3671962]]}},{"type":"Feature","id":"way/646856639-0-1-0","properties":{"highway":"service"},"geometry":{"type":"LineString","coordinates":[[103.9290826,1.3671962],[103.9290856,1.3671917]]}},{"type":"Feature","id":"way/646856639-0-2-0","properties":{"highway":"service"},"geometry":{"type":"LineString","coordinates":[[103.9290856,1.3671917],[103.9291106,1.3671499]]}},{"type":"Feature","id":"way/646856832-0-0-0","properties":{"highway":"unclassified","lanes":"2","lanes:backward":"1","lanes:forward":"1","maxspeed":"50","name":"Tampines Place","sidewalk:both":"separate","surface":"asphalt","turn:lanes:backward":"through","turn:lanes:forward":"through;right"},"geometry":{"type":"LineString","coordinates":[[103.9284565,1.3668433],[103.9286649,1.3669822]]}},{"type":"Feature","id":"way/646856832-0-1-0","properties":{"highway":"unclassified","lanes":"2","lanes:backward":"1","lanes:forward":"1","maxspeed":"50","name":"Tampines Place","sidewalk:both":"separate","surface":"asphalt","turn:lanes:backward":"through","turn:lanes:forward":"through;right"},"geometry":{"type":"LineString","coordinates":[[103.9286649,1.3669822],[103.9288963,1.3671293]]}},{"type":"Feature","id":"way/646856832-0-2-0","properties":{"highway":"unclassified","lanes":"2","lanes:backward":"1","lanes:forward":"1","maxspeed":"50","name":"Tampines Place","sidewalk:both":"separate","surface":"asphalt","turn:lanes:backward":"through","turn:lanes:forward":"through;right"},"geometry":{"type":"LineString","coordinates":[[103.9288963,1.3671293],[103.9289268,1.3671497]]}},{"type":"Feature","id":"way/646856832-0-3-0","properties":{"highway":"unclassified","lanes":"2","lanes:backward":"1","lanes:forward":"1","maxspeed":"50","name":"Tampines Place","sidewalk:both":"separate","surface":"asphalt","turn:lanes:backward":"through","turn:lanes:forward":"through;right"},"geometry":{"type":"LineString","coordinates":[[103.9289268,1.3671497],[103.92906,1.3672335]]}},{"type":"Feature","id":"way/649335021-0-0-0","properties":{"highway":"primary","lanes":"6","lit":"yes","maxspeed":"70","name":"Tampines Avenue 10","name:zh":"\u6de1\u6ee8\u5c3c10\u9053","oneway":"yes","shoulder":"no","sidewalk:left":"separate","sidewalk:right":"no","surface":"asphalt","turn:lanes":"left|none|none|none|none|none"},"geometry":{"type":"LineString","coordinates":[[103.9308458,1.3654014],[103.9308404,1.3655759]]}},{"type":"Feature","id":"way/649371736-0-0-0","properties":{"highway":"secondary","lanes":"5","maxspeed":"60","name":"Tampines Road","oneway":"yes","sidewalk:left":"separate","sidewalk:right":"no","surface":"asphalt","turn:lanes":"left|through|through|through|right"},"geometry":{"type":"LineString","coordinates":[[103.9299761,1.3662441],[103.9303611,1.3662134]]}},{"type":"Feature","id":"way/697182164-0-0-0","properties":{"highway":"secondary","lanes":"3","maxspeed":"60","name":"Tampines Road","oneway":"yes","sidewalk:left":"separate","sidewalk:right":"no","surface":"asphalt"},"geometry":{"type":"LineString","coordinates":[[103.9280678,1.3662958],[103.927829,1.3663365]]}},{"type":"Feature","id":"way/700124869-0-2-0","properties":{"highway":"secondary","lanes":"3","maxspeed":"60","name":"Tampines Road","oneway":"yes","sidewalk:left":"separate","sidewalk:right":"no","surface":"asphalt"},"geometry":{"type":"LineString","coordinates":[[103.9273843,1.3665941],[103.9274791,1.3665653]]}},{"type":"Feature","id":"way/722227893-0-0-0","properties":{"highway":"secondary","lanes":"4","maxspeed":"60","name":"Tampines Road","oneway":"yes","sidewalk:left":"separate","sidewalk:right":"no","surface":"asphalt","turn:lanes":"through|through|through|right"},"geometry":{"type":"LineString","coordinates":[[103.9285995,1.3662237],[103.9283055,1.3662531]]}},{"type":"Feature","id":"way/722227893-0-1-0","properties":{"highway":"secondary","lanes":"4","maxspeed":"60","name":"Tampines Road","oneway":"yes","sidewalk:left":"separate","sidewalk:right":"no","surface":"asphalt","turn:lanes":"through|through|through|right"},"geometry":{"type":"LineString","coordinates":[[103.9283055,1.3662531],[103.9280678,1.3662958]]}},{"type":"Feature","id":"way/822119763-0-0-0","properties":{"highway":"service","lanes":"2","oneway":"yes","service":"driveway","surface":"asphalt","turn:lanes":"through|through"},"geometry":{"type":"LineString","coordinates":[[103.9312476,1.3653094],[103.9312455,1.3654516]]}},{"type":"Feature","id":"way/822119764-0-0-0","properties":{"highway":"service","lanes":"1","oneway":"yes","service":"driveway","surface":"asphalt"},"geometry":{"type":"LineString","coordinates":[[103.9313789,1.3651772],[103.9312919,1.3651797]]}},{"type":"Feature","id":"way/822119764-0-1-0","properties":{"highway":"service","lanes":"1","oneway":"yes","service":"driveway","surface":"asphalt"},"geometry":{"type":"LineString","coordinates":[[103.9312919,1.3651797],[103.9312586,1.3651999]]}},{"type":"Feature","id":"way/822119764-0-2-0","properties":{"highway":"service","lanes":"1","oneway":"yes","service":"driveway","surface":"asphalt"},"geometry":{"type":"LineString","coordinates":[[103.9312586,1.3651999],[103.9312483,1.365227]]}},{"type":"Feature","id":"way/822119764-0-3-0","properties":{"highway":"service","lanes":"1","oneway":"yes","service":"driveway","surface":"asphalt"},"geometry":{"type":"LineString","coordinates":[[103.9312483,1.365227],[103.9312476,1.3653094]]}},{"type":"Feature","id":"way/822119765-0-1-0","properties":{"highway":"service","lanes":"1","oneway":"yes","service":"driveway","turn:lanes":"through"},"geometry":{"type":"LineString","coordinates":[[103.9318904,1.3651786],[103.9318428,1.3651785]]}},{"type":"Feature","id":"way/822119765-0-2-0","properties":{"highway":"service","lanes":"1","oneway":"yes","service":"driveway","turn:lanes":"through"},"geometry":{"type":"LineString","coordinates":[[103.9318428,1.3651785],[103.9313789,1.3651772]]}},{"type":"Feature","id":"way/822119768-0-0-0","properties":{"highway":"secondary","lanes":"4","maxspeed":"50","name":"Tampines Avenue 11","oneway":"yes","sidewalk:left":"separate","sidewalk:right":"no","surface":"asphalt","turn:lanes":"through|through|through|through"},"geometry":{"type":"LineString","coordinates":[[103.9317061,1.3661882],[103.9318968,1.3661843]]}},{"type":"Feature","id":"way/822419625-0-0-0","properties":{"highway":"secondary","lanes":"5","maxspeed":"50","name":"Tampines Avenue 11","oneway":"yes","sidewalk":"left","surface":"asphalt","turn:lanes":"left|left|through|through|through;right"},"geometry":{"type":"LineString","coordinates":[[103.9319062,1.3660226],[103.9316849,1.3660288]]}},{"type":"Feature","id":"way/939703417-0-0-0","properties":{"highway":"service","lanes":"1","oneway":"yes","service":"driveway"},"geometry":{"type":"LineString","coordinates":[[103.9318428,1.3651785],[103.9318426,1.3652244]]}},{"type":"Feature","id":"way/1243148528-0-0-0","properties":{"highway":"tertiary","lanes":"1","maxspeed":"50","name":"Tampines Link","oneway":"yes","sidewalk:left":"separate","sidewalk:right":"no","surface":"asphalt"},"geometry":{"type":"LineString","coordinates":[[103.9276813,1.3673843],[103.9280307,1.3674549]]}},{"type":"Feature","id":"way/1243148529-0-0-0","properties":{"highway":"tertiary","lanes":"2","lit":"yes","maxspeed":"50","name":"Tampines Link","oneway":"yes","sidewalk":"left","surface":"asphalt","turn:lanes":"left;through|right"},"geometry":{"type":"LineString","coordinates":[[103.9303371,1.3687266],[103.9304224,1.3688078]]}},{"type":"Feature","id":"way/1243148529-0-1-0","properties":{"highway":"tertiary","lanes":"2","lit":"yes","maxspeed":"50","name":"Tampines Link","oneway":"yes","sidewalk":"left","surface":"asphalt","turn:lanes":"left;through|right"},"geometry":{"type":"LineString","coordinates":[[103.9304224,1.3688078],[103.930557,1.3688976]]}},{"type":"Feature","id":"way/1243148529-0-2-0","properties":{"highway":"tertiary","lanes":"2","lit":"yes","maxspeed":"50","name":"Tampines Link","oneway":"yes","sidewalk":"left","surface":"asphalt","turn:lanes":"left;through|right"},"geometry":{"type":"LineString","coordinates":[[103.930557,1.3688976],[103.9306414,1.3689678]]}},{"type":"Feature","id":"way/1243148530-0-0-0","properties":{"highway":"tertiary","lanes":"2","lanes:backward":"1","lanes:forward":"1","maxspeed":"50","name":"Tampines Link","oneway":"no","sidewalk":"right","surface":"asphalt"},"geometry":{"type":"LineString","coordinates":[[103.9283811,1.3675538],[103.9286186,1.3676584]]}},{"type":"Feature","id":"way/1243148530-0-1-0","properties":{"highway":"tertiary","lanes":"2","lanes:backward":"1","lanes:forward":"1","maxspeed":"50","name":"Tampines Link","oneway":"no","sidewalk":"right","surface":"asphalt"},"geometry":{"type":"LineString","coordinates":[[103.9286186,1.3676584],[103.9288738,1.3678072]]}},{"type":"Feature","id":"way/1243148530-0-2-0","properties":{"highway":"tertiary","lanes":"2","lanes:backward":"1","lanes:forward":"1","maxspeed":"50","name":"Tampines Link","oneway":"no","sidewalk":"right","surface":"asphalt"},"geometry":{"type":"LineString","coordinates":[[103.9288738,1.3678072],[103.929653,1.3682778]]}}]}