{"type":"FeatureCollection","features":[{"type":"Feature","id":"way/116690139-0","properties":{"addr:street":"Bedok South Avenue 1","building":"warehouse","building:levels":"3","source":"Kaart Ground Survey 2017"},"geometry":{"type":"Polygon","coordinates":[[[103.9322885,1.3197287],[103.9323626,1.3193172],[103.9320704,1.3192646],[103.9319963,1.3196762],[103.9322885,1.3197287]]]}},{"type":"Feature","id":"way/116692209-0","properties":{"addr:city":"Singapore","addr:country":"SG","addr:housenumber":"19","addr:postcode":"460019","addr:street":"Bedok South Road","building":"residential","building:levels":"25","image":"https://images.mapillary.com/ffkMdn3F9A_de8PSoA-f4g/thumb-2048.jpg","mapillary":"220441496172616","residential":"HDB"},"geometry":{"type":"Polygon","coordinates":[[[103.9343754,1.3198617],[103.9343917,1.3197672],[103.9343397,1.3197583],[103.9343461,1.3197214],[103.9343995,1.3197306],[103.9344149,1.3196417],[103.9341777,1.3196009],[103.9341624,1.3196897],[103.9342159,1.3196989],[103.9342095,1.3197358],[103.9341554,1.3197265],[103.9341391,1.319821],[103.9343754,1.3198617]]]}},{"type":"Feature","id":"way/116692215-0","properties":{"addr:city":"Singapore","addr:country":"SG","addr:housenumber":"20","addr:postcode":"460020","addr:street":"Bedok South Road","building":"residential","building:levels":"25","image":"https://images.mapillary.com/ffkMdn3F9A_de8PSoA-f4g/thumb-2048.jpg","mapillary":"220441496172616","residential":"HDB"},"geometry":{"type":"Polygon","coordinates":[[[103.9338135,1.3200507],[103.9338298,1.3199563],[103.9337778,1.3199473],[103.9337841,1.3199104],[103.9338376,1.3199196],[103.9338529,1.3198308],[103.9336158,1.3197899],[103.9336005,1.3198787],[103.933654,1.319888],[103.9336476,1.3199249],[103.9335935,1.3199155],[103.9335772,1.32001],[103.9338135,1.3200507]]]}},{"type":"Feature","id":"way/388268883-0","properties":{"building":"yes","building:levels":"2","source":"Bing"},"geometry":{"type":"Polygon","coordinates":[[[103.9323102,1.3184285],[103.9323264,1.3183414],[103.9324835,1.3183705],[103.9325951,1.3177681],[103.9318143,1.3176236],[103.931797,1.3177168],[103.9315917,1.3176788],[103.931607,1.3175963],[103.9314882,1.3175743],[103.9313624,1.318253],[103.9323102,1.3184285]]]}},{"type":"Feature","id":"way/388268919-0","properties":{"building":"yes","building:levels":"2","source":"Bing"},"geometry":{"type":"Polygon","coordinates":[[[103.932739,1.3162786],[103.9319517,1.3161665],[103.9317849,1.3173371],[103.9325722,1.3174492],[103.932739,1.3162786]]]}},{"type":"Feature","id":"way/388268932-0","properties":{"building":"yes","building:levels":"3","source":"Bing"},"geometry":{"type":"Polygon","coordinates":[[[103.932773,1.3160346],[103.9328032,1.3158414],[103.9320308,1.315721],[103.9320006,1.3159141],[103.932773,1.3160346]]]}},{"type":"Feature","id":"way/388268946-0","properties":{"building":"yes","source":"Bing"},"geometry":{"type":"Polygon","coordinates":[[[103.9325861,1.3153215],[103.9321319,1.3152535],[103.9320779,1.3156145],[103.932532,1.3156825],[103.9325861,1.3153215]]]}},{"type":"Feature","id":"way/453790247-0","properties":{"building":"yes"},"geometry":{"type":"Polygon","coordinates":[[[103.9360119,1.317611],[103.9361832,1.3175113],[103.9361518,1.3174574],[103.9359806,1.3175571],[103.9360119,1.317611]]]}},{"type":"Feature","id":"way/453790253-0","properties":{"building":"yes"},"geometry":{"type":"Polygon","coordinates":[[[103.9361061,1.3177727],[103.9362773,1.317673],[103.9362459,1.3176191],[103.9360747,1.3177188],[103.9361061,1.3177727]]]}},{"type":"Feature","id":"way/453790259-0","properties":{"building":"yes"},"geometry":{"type":"Polygon","coordinates":[[[103.9360747,1.3177188],[103.9362459,1.3176191],[103.9362146,1.3175652],[103.9360433,1.3176649],[103.9360747,1.3177188]]]}},{"type":"Feature","id":"way/453790263-0","properties":{"building":"yes"},"geometry":{"type":"Polygon","coordinates":[[[103.9361689,1.3178805],[103.9363401,1.3177808],[103.9363087,1.3177269],[103.9361375,1.3178266],[103.9361689,1.3178805]]]}},{"type":"Feature","id":"way/453790266-0","properties":{"building":"yes"},"geometry":{"type":"Polygon","coordinates":[[[103.9359178,1.3174493],[103.936089,1.3173496],[103.9360577,1.3172957],[103.9358864,1.3173954],[103.9359178,1.3174493]]]}},{"type":"Feature","id":"way/453790268-0","properties":{"building":"yes"},"geometry":{"type":"Polygon","coordinates":[[[103.9359806,1.3175571],[103.9361518,1.3174574],[103.9361204,1.3174035],[103.9359492,1.3175032],[103.9359806,1.3175571]]]}},{"type":"Feature","id":"way/453790272-0","properties":{"building":"yes"},"geometry":{"type":"Polygon","coordinates":[[[103.9359492,1.3175032],[103.9361204,1.3174035],[103.936089,1.3173496],[103.9359178,1.3174493],[103.9359492,1.3175032]]]}},{"type":"Feature","id":"way/453790277-0","properties":{"building":"yes"},"geometry":{"type":"Polygon","coordinates":[[[103.9360433,1.3176649],[103.9362146,1.3175652],[103.9361832,1.3175113],[103.9360119,1.317611],[103.9360433,1.3176649]]]}},{"type":"Feature","id":"way/453790286-0","properties":{"building":"yes"},"geometry":{"type":"Polygon","coordinates":[[[103.9362781,1.3180718],[103.9364387,1.3179784],[103.9364065,1.317923],[103.9362459,1.3180165],[103.9362781,1.3180718]]]}},{"type":"Feature","id":"way/453790293-0","properties":{"building":"yes"},"geometry":{"type":"Polygon","coordinates":[[[103.9362459,1.3180165],[103.9364065,1.317923],[103.9363743,1.3178677],[103.9362137,1.3179612],[103.9362459,1.3180165]]]}},{"type":"Feature","id":"way/453790295-0","properties":{"building":"yes"},"geometry":{"type":"Polygon","coordinates":[[[103.9361375,1.3178266],[103.9363087,1.3177269],[103.9362773,1.317673],[103.9361061,1.3177727],[103.9361375,1.3178266]]]}},{"type":"Feature","id":"way/453790304-0","properties":{"building":"yes"},"geometry":{"type":"Polygon","coordinates":[[[103.9362002,1.3179344],[103.9363715,1.3178347],[103.9363401,1.3177808],[103.9361689,1.3178805],[103.9362002,1.3179344]]]}},{"type":"Feature","id":"way/453858790-0","properties":{"building":"yes"},"geometry":{"type":"Polygon","coordinates":[[[103.9362214,1.3168134],[103.9362534,1.3166432],[103.9361375,1.3166214],[103.9361054,1.3167915],[103.9362214,1.3168134]]]}},{"type":"Feature","id":"way/453858791-0","properties":{"building":"yes"},"geometry":{"type":"Polygon","coordinates":[[[103.9355295,1.316994],[103.9354268,1.3169216],[103.9353308,1.3170577],[103.9354335,1.31713],[103.9355295,1.316994]]]}},{"type":"Feature","id":"way/453858794-0","properties":{"building":"yes"},"geometry":{"type":"Polygon","coordinates":[[[103.9356234,1.3172695],[103.9357341,1.3171126],[103.935644,1.3170491],[103.9355334,1.317206],[103.9356234,1.3172695]]]}},{"type":"Feature","id":"way/453858795-0","properties":{"building":"yes"},"geometry":{"type":"Polygon","coordinates":[[[103.9360264,1.3167766],[103.9361054,1.3167915],[103.9361375,1.3166214],[103.9360585,1.3166065],[103.9360264,1.3167766]]]}},{"type":"Feature","id":"way/453858797-0","properties":{"building":"yes"},"geometry":{"type":"Polygon","coordinates":[[[103.9358201,1.3165659],[103.9357907,1.3167326],[103.935858,1.3167444],[103.9358874,1.3165778],[103.9358201,1.3165659]]]}},{"type":"Feature","id":"way/453858798-0","properties":{"building":"yes"},"geometry":{"type":"Polygon","coordinates":[[[103.9355334,1.317206],[103.935644,1.3170491],[103.9355562,1.3169873],[103.9354456,1.3171441],[103.9355334,1.317206]]]}},{"type":"Feature","id":"way/453858799-0","properties":{"building":"yes"},"geometry":{"type":"Polygon","coordinates":[[[103.9358874,1.3165778],[103.935858,1.3167444],[103.9359253,1.3167563],[103.9359547,1.3165896],[103.9358874,1.3165778]]]}},{"type":"Feature","id":"way/453858800-0","properties":{"building":"yes"},"geometry":{"type":"Polygon","coordinates":[[[103.9354268,1.3169216],[103.9353625,1.3168762],[103.9352665,1.3170123],[103.9353308,1.3170577],[103.9354268,1.3169216]]]}},{"type":"Feature","id":"way/453858804-0","properties":{"building":"yes"},"geometry":{"type":"Polygon","coordinates":[[[103.9359547,1.3165896],[103.9359253,1.3167563],[103.9359926,1.3167681],[103.9360219,1.3166015],[103.9359547,1.3165896]]]}},{"type":"Feature","id":"way/453858805-0","properties":{"building":"yes"},"geometry":{"type":"Polygon","coordinates":[[[103.9358581,1.317218],[103.9357688,1.3171542],[103.9356819,1.3172758],[103.9357712,1.3173396],[103.9358581,1.317218]]]}},{"type":"Feature","id":"way/453858808-0","properties":{"building":"yes"},"geometry":{"type":"Polygon","coordinates":[[[103.9359566,1.3172735],[103.9358651,1.3172082],[103.9358581,1.317218],[103.9357712,1.3173396],[103.9358627,1.3174049],[103.9359566,1.3172735]]]}},{"type":"Feature","id":"way/453962130-0","properties":{"building":"yes"},"geometry":{"type":"Polygon","coordinates":[[[103.9359118,1.3162224],[103.9359728,1.3162311],[103.9359931,1.316089],[103.9359321,1.3160802],[103.9359118,1.3162224]]]}},{"type":"Feature","id":"way/453962132-0","properties":{"building":"yes"},"geometry":{"type":"Polygon","coordinates":[[[103.935527,1.3167476],[103.9355766,1.31658],[103.9354305,1.3165368],[103.9353809,1.3167044],[103.935527,1.3167476]]]}},{"type":"Feature","id":"way/453962134-0","properties":{"building":"yes"},"geometry":{"type":"Polygon","coordinates":[[[103.9342802,1.315975],[103.9344036,1.315975],[103.9344036,1.3158919],[103.9342802,1.3158919],[103.9342802,1.315975]]]}},{"type":"Feature","id":"way/453962139-0","properties":{"building":"yes"},"geometry":{"type":"Polygon","coordinates":[[[103.9347925,1.3161097],[103.9348058,1.3158773],[103.9346771,1.3158699],[103.9346638,1.3161024],[103.9347925,1.3161097]]]}},{"type":"Feature","id":"way/453962140-0","properties":{"building":"yes"},"geometry":{"type":"Polygon","coordinates":[[[103.9358109,1.3162087],[103.9358753,1.3162221],[103.9359053,1.3160782],[103.9358409,1.3160648],[103.9358109,1.3162087]]]}},{"type":"Feature","id":"way/453962143-0","properties":{"building":"yes"},"geometry":{"type":"Polygon","coordinates":[[[103.9350431,1.3161104],[103.9351678,1.3161144],[103.9351754,1.3158785],[103.9350507,1.3158744],[103.9350431,1.3161104]]]}},{"type":"Feature","id":"way/453962144-0","properties":{"building":"yes"},"geometry":{"type":"Polygon","coordinates":[[[103.9356262,1.3163453],[103.9356986,1.3162984],[103.9355942,1.3161372],[103.9355217,1.3161841],[103.9356262,1.3163453]]]}},{"type":"Feature","id":"way/453962145-0","properties":{"building":"yes"},"geometry":{"type":"Polygon","coordinates":[[[103.935511,1.3159736],[103.9355774,1.3157929],[103.935446,1.3157446],[103.9353796,1.3159254],[103.935511,1.3159736]]]}},{"type":"Feature","id":"way/453962146-0","properties":{"building":"yes"},"geometry":{"type":"Polygon","coordinates":[[[103.9346135,1.3160997],[103.934615,1.3158819],[103.9345184,1.3158812],[103.9345169,1.316099],[103.9346135,1.3160997]]]}},{"type":"Feature","id":"way/453962151-0","properties":{"building":"yes"},"geometry":{"type":"Polygon","coordinates":[[[103.9344352,1.316056],[103.9344976,1.3160566],[103.9344995,1.3158778],[103.9344371,1.3158771],[103.9344352,1.316056]]]}},{"type":"Feature","id":"way/453962152-0","properties":{"building":"yes"},"geometry":{"type":"Polygon","coordinates":[[[103.9354319,1.3162016],[103.9354928,1.3160231],[103.9353788,1.3159842],[103.9353179,1.3161627],[103.9354319,1.3162016]]]}},{"type":"Feature","id":"way/453962158-0","properties":{"building":"yes"},"geometry":{"type":"Polygon","coordinates":[[[103.9355717,1.3165262],[103.935632,1.3163572],[103.9354815,1.3163035],[103.9354212,1.3164724],[103.9355717,1.3165262]]]}},{"type":"Feature","id":"way/453962159-0","properties":{"building":"yes"},"geometry":{"type":"Polygon","coordinates":[[[103.9350239,1.3161426],[103.9350239,1.3158932],[103.9348736,1.3158932],[103.9348736,1.3161426],[103.9350239,1.3161426]]]}},{"type":"Feature","id":"way/453962162-0","properties":{"building":"yes"},"geometry":{"type":"Polygon","coordinates":[[[103.9359985,1.3155573],[103.9360192,1.3154069],[103.9358248,1.3153801],[103.935804,1.3155305],[103.9359985,1.3155573]]]}},{"type":"Feature","id":"way/453962163-0","properties":{"building":"yes"},"geometry":{"type":"Polygon","coordinates":[[[103.9356129,1.3157591],[103.935688,1.3155678],[103.9355512,1.3155142],[103.9354761,1.3157055],[103.9356129,1.3157591]]]}},{"type":"Feature","id":"way/453962164-0","properties":{"building":"yes"},"geometry":{"type":"Polygon","coordinates":[[[103.9348725,1.3162762],[103.9349085,1.3162961],[103.9349635,1.3161969],[103.9349275,1.3161769],[103.9349072,1.3162136],[103.9347842,1.3161598],[103.9347556,1.316225],[103.9348725,1.3162762]]]}},{"type":"Feature","id":"way/453962165-0","properties":{"building":"yes"},"geometry":{"type":"Polygon","coordinates":[[[103.9357842,1.3157783],[103.9356176,1.3158912],[103.9356713,1.3159703],[103.9358378,1.3158574],[103.9358325,1.3158496],[103.9358899,1.3158148],[103.935863,1.3157705],[103.9358034,1.3158067],[103.9357842,1.3157783]]]}},{"type":"Feature","id":"way/453962166-0","properties":{"building":"yes"},"geometry":{"type":"Polygon","coordinates":[[[103.9352716,1.3163095],[103.9352481,1.3162994],[103.9352052,1.3163987],[103.9353326,1.3164536],[103.9353673,1.3163733],[103.9353867,1.3163796],[103.9354238,1.3162646],[103.9352991,1.3162244],[103.9352716,1.3163095]]]}},{"type":"Feature","id":"way/453962168-0","properties":{"addr:housenumber":"19B","addr:street":"Jalan Remis","building":"yes"},"geometry":{"type":"Polygon","coordinates":[[[103.9359658,1.3160031],[103.9359666,1.315996],[103.9360159,1.3160038],[103.9360307,1.3159113],[103.9359311,1.3158954],[103.935926,1.3159278],[103.9358175,1.3159153],[103.9358094,1.315985],[103.9359658,1.3160031]]]}},{"type":"Feature","id":"way/453962169-0","properties":{"building":"yes"},"geometry":{"type":"Polygon","coordinates":[[[103.9360106,1.3156137],[103.9359544,1.3156059],[103.935958,1.315573],[103.9357515,1.3155502],[103.935733,1.3157182],[103.9359395,1.315741],[103.9359491,1.3156543],[103.9360039,1.3156619],[103.9360106,1.3156137]]]}},{"type":"Feature","id":"way/453962171-0","properties":{"building":"yes"},"geometry":{"type":"Polygon","coordinates":[[[103.9356827,1.3160809],[103.9356116,1.3161265],[103.935707,1.3162752],[103.9357781,1.3162296],[103.9357534,1.3161911],[103.9357841,1.3161952],[103.935802,1.3160621],[103.9357323,1.3160528],[103.9357205,1.3161399],[103.9356827,1.3160809]]]}},{"type":"Feature","id":"way/453962942-0","properties":{"building":"yes"},"geometry":{"type":"Polygon","coordinates":[[[103.9344817,1.3157531],[103.9344934,1.3154895],[103.934252,1.3154788],[103.9342403,1.3157424],[103.9344817,1.3157531]]]}},{"type":"Feature","id":"way/453962945-0","properties":{"building":"yes"},"geometry":{"type":"Polygon","coordinates":[[[103.9337705,1.3169094],[103.9337753,1.3168811],[103.9338259,1.3168954],[103.9338488,1.3168146],[103.9337777,1.3167945],[103.9337648,1.3168402],[103.9336167,1.3167949],[103.9336011,1.3168741],[103.9337705,1.3169094]]]}},{"type":"Feature","id":"way/454237483-0","properties":{"building":"yes"},"geometry":{"type":"Polygon","coordinates":[[[103.9362445,1.3163954],[103.9363867,1.3164142],[103.9364199,1.3161624],[103.9362778,1.3161436],[103.9362445,1.3163954]]]}},{"type":"Feature","id":"way/602810823-0","properties":{"building":"yes"},"geometry":{"type":"Polygon","coordinates":[[[103.9334242,1.3183306],[103.9335866,1.3175227],[103.9334153,1.3174882],[103.9333687,1.3177247],[103.9332922,1.3177108],[103.9332583,1.3182928],[103.9334242,1.3183306]]]}},{"type":"Feature","id":"way/801982117-0","properties":{"building:levels":"26","building:min_level":"25","building:part":"yes"},"geometry":{"type":"Polygon","coordinates":[[[103.9343158,1.3197912],[103.9343334,1.319687],[103.9342408,1.3196714],[103.9342232,1.3197756],[103.9343158,1.3197912]]]}},{"type":"Feature","id":"way/801982118-0","properties":{"building:levels":"26","building:min_level":"25","building:part":"yes"},"geometry":{"type":"Polygon","coordinates":[[[103.9337566,1.3199776],[103.9337742,1.3198733],[103.9336816,1.3198577],[103.933664,1.319962],[103.9337566,1.3199776]]]}},{"type":"Feature","id":"way/1319823208-0","properties":{"addr:housenumber":"24","addr:street":"Jalan Remis","building":"house"},"geometry":{"type":"Polygon","coordinates":[[[103.9363396,1.3155962],[103.9363584,1.3154617],[103.9362879,1.3154519],[103.9362692,1.3155865],[103.9363396,1.3155962]]]}},{"type":"Feature","id":"way/1319823209-0","properties":{"addr:housenumber":"22","addr:street":"Jalan Remis","building":"house"},"geometry":{"type":"Polygon","coordinates":[[[103.9362692,1.3155865],[103.9362879,1.3154519],[103.9362173,1.3154421],[103.9361988,1.3155765],[103.9362692,1.3155865]]]}},{"type":"Feature","id":"way/1319823248-0","properties":{"addr:housenumber":"25","addr:street":"Jalan Remis","building":"house"},"geometry":{"type":"Polygon","coordinates":[[[103.936324,1.3159963],[103.9363428,1.3158618],[103.9362722,1.315852],[103.9362536,1.3159864],[103.936324,1.3159963]]]}},{"type":"Feature","id":"way/1319823249-0","properties":{"addr:street":"Jalan Remis","building":"house"},"geometry":{"type":"Polygon","coordinates":[[[103.9362074,1.3159783],[103.9362261,1.3158439],[103.9361557,1.315834],[103.9361369,1.3159686],[103.9362074,1.3159783]]]}},{"type":"Feature","id":"way/1319823250-0","properties":{"addr:housenumber":"21","addr:street":"Jalan Remis","building":"house"},"geometry":{"type":"Polygon","coordinates":[[[103.9361369,1.3159686],[103.9361557,1.315834],[103.9360851,1.3158242],[103.9360665,1.3159586],[103.9361369,1.3159686]]]}},{"type":"Feature","id":"way/1319959488-0","properties":{"addr:city":"Singapore","addr:country":"SG","addr:housenumber":"1","addr:street":"Primrose Avenue","building":"house","building:levels":"2","house":"terraced"},"geometry":{"type":"Polygon","coordinates":[[[103.9352144,1.3156914],[103.9352694,1.3156919],[103.9352707,1.3155351],[103.9352157,1.3155345],[103.9352144,1.3156914]]]}},{"type":"Feature","id":"way/1319959489-0","properties":{"addr:city":"Singapore","addr:country":"SG","addr:housenumber":"3","addr:street":"Primrose Avenue","building":"house","building:levels":"2","house":"terraced"},"geometry":{"type":"Polygon","coordinates":[[[103.9351595,1.315691],[103.9352144,1.3156914],[103.9352157,1.3155345],[103.9351608,1.3155341],[103.9351595,1.315691]]]}},{"type":"Feature","id":"way/1319959490-0","properties":{"addr:city":"Singapore","addr:country":"SG","addr:housenumber":"5","addr:street":"Primrose Avenue","building":"house","building:levels":"2","house":"terraced"},"geometry":{"type":"Polygon","coordinates":[[[103.9351045,1.3156905],[103.9351595,1.315691],[103.9351608,1.3155341],[103.9351058,1.3155336],[103.9351045,1.3156905]]]}},{"type":"Feature","id":"way/1319959491-0","properties":{"addr:city":"Singapore","addr:country":"SG","addr:housenumber":"7","addr:street":"Primrose Avenue","building":"house","building:levels":"2","house":"terraced"},"geometry":{"type":"Polygon","coordinates":[[[103.9350496,1.31569],[103.9351045,1.3156905],[103.9351058,1.3155336],[103.9350509,1.3155331],[103.9350496,1.31569]]]}},{"type":"Feature","id":"way/1319959492-0","properties":{"addr:city":"Singapore","addr:country":"SG","addr:housenumber":"9","addr:street":"Primrose Avenue","building":"house","building:levels":"2","house":"terraced"},"geometry":{"type":"Polygon","coordinates":[[[103.9349946,1.3156896],[103.9350496,1.31569],[103.9350509,1.3155331],[103.934996,1.3155326],[103.9349946,1.3156896]]]}},{"type":"Feature","id":"way/1319959493-0","properties":{"addr:city":"Singapore","addr:country":"SG","addr:housenumber":"11","addr:street":"Primrose Avenue","building":"house","building:levels":"2","house":"terraced"},"geometry":{"type":"Polygon","coordinates":[[[103.9349397,1.3156891],[103.9349946,1.3156896],[103.934996,1.3155326],[103.934941,1.3155321],[103.9349397,1.3156891]]]}},{"type":"Feature","id":"way/1319959494-0","properties":{"addr:city":"Singapore","addr:country":"SG","addr:housenumber":"15","addr:street":"Primrose Avenue","building":"house","building:levels":"2","house":"terraced"},"geometry":{"type":"Polygon","coordinates":[[[103.9348847,1.3156887],[103.9349397,1.3156891],[103.934941,1.3155321],[103.9348861,1.3155317],[103.9348847,1.3156887]]]}},{"type":"Feature","id":"way/1319959495-0","properties":{"addr:city":"Singapore","addr:country":"SG","addr:housenumber":"17","addr:street":"Primrose Avenue","building":"house","building:levels":"2","house":"terraced"},"geometry":{"type":"Polygon","coordinates":[[[103.9348299,1.3156882],[103.9348847,1.3156887],[103.9348861,1.3155317],[103.9348311,1.3155312],[103.9348299,1.3156882]]]}},{"type":"Feature","id":"way/1319959496-0","properties":{"addr:city":"Singapore","addr:country":"SG","addr:housenumber":"19","addr:street":"Primrose Avenue","building":"house","building:levels":"2","house":"terraced"},"geometry":{"type":"Polygon","coordinates":[[[103.9347749,1.3156877],[103.9348299,1.3156882],[103.9348311,1.3155312],[103.9347762,1.3155308],[103.9347749,1.3156877]]]}},{"type":"Feature","id":"way/1319959497-0","properties":{"addr:city":"Singapore","addr:country":"SG","addr:housenumber":"21","addr:street":"Primrose Avenue","building":"house","building:levels":"2","house":"terraced"},"geometry":{"type":"Polygon","coordinates":[[[103.93472,1.3156873],[103.9347749,1.3156877],[103.9347762,1.3155308],[103.9347212,1.3155303],[103.93472,1.3156873]]]}},{"type":"Feature","id":"way/1319959498-0","properties":{"addr:city":"Singapore","addr:country":"SG","addr:housenumber":"23","addr:street":"Primrose Avenue","building":"house","building:levels":"2","house":"terraced"},"geometry":{"type":"Polygon","coordinates":[[[103.934665,1.3156868],[103.93472,1.3156873],[103.9347212,1.3155303],[103.9346663,1.3155299],[103.934665,1.3156868]]]}},{"type":"Feature","id":"way/1320429300-0","properties":{"addr:housenumber":"213","addr:street":"Bedok South Avenue 1","building":"yes"},"geometry":{"type":"Polygon","coordinates":[[[103.933744,1.3163232],[103.9337722,1.3162001],[103.9335848,1.3161572],[103.9335565,1.3162808],[103.9335949,1.3162895],[103.9335927,1.3162992],[103.9335516,1.3162898],[103.9335029,1.3165028],[103.9335501,1.3165135],[103.9335484,1.3165207],[103.9334995,1.3165095],[103.9334558,1.3167005],[103.9335638,1.3167252],[103.9335704,1.3166962],[103.9335759,1.3166974],[103.9335689,1.3167281],[103.9337928,1.3167793],[103.9338001,1.3167474],[103.9338392,1.3167563],[103.933832,1.3167877],[103.934054,1.3168385],[103.934061,1.3168077],[103.9340688,1.3168095],[103.9340616,1.3168407],[103.9341697,1.3168654],[103.9342138,1.3166725],[103.9341648,1.3166613],[103.934166,1.316656],[103.9342132,1.3166668],[103.9342623,1.3164523],[103.9342212,1.3164429],[103.9342231,1.3164345],[103.9342614,1.3164433],[103.93429,1.3163187],[103.9341018,1.3162756],[103.9340734,1.3163992],[103.9341112,1.3164079],[103.934109,1.3164174],[103.9340726,1.316409],[103.9340286,1.3166006],[103.934036,1.3166188],[103.9340057,1.3166423],[103.9339827,1.3166318],[103.9339798,1.3166076],[103.9338781,1.316583],[103.9338675,1.3166264],[103.933827,1.3166166],[103.9338369,1.3165759],[103.9337376,1.3165518],[103.9337245,1.3165724],[103.9336992,1.3165718],[103.9336822,1.3165374],[103.9336967,1.3165243],[103.9337405,1.3163328],[103.9337041,1.3163245],[103.9337064,1.3163146],[103.933744,1.3163232]]]}},{"type":"Feature","id":"way/1320429302-0","properties":{"addr:housenumber":"211","addr:street":"Bedok South Avenue 1","building":"yes"},"geometry":{"type":"Polygon","coordinates":[[[103.9337531,1.3161403],[103.9337808,1.3160161],[103.9337454,1.3160082],[103.9337483,1.3159955],[103.9337792,1.3160024],[103.9338313,1.3157688],[103.9337925,1.3157601],[103.9337969,1.3157403],[103.9338075,1.3157427],[103.933847,1.3155651],[103.9337912,1.3155527],[103.9338132,1.315454],[103.9337935,1.3154496],[103.9338087,1.3153814],[103.9337206,1.3153618],[103.933693,1.3154859],[103.9337204,1.315492],[103.9337161,1.3155112],[103.9336916,1.3155057],[103.9336463,1.3157089],[103.9336932,1.3157193],[103.9336888,1.315739],[103.9336434,1.3157289],[103.9335916,1.3159612],[103.9336357,1.3159711],[103.933632,1.3159877],[103.9335871,1.3159777],[103.9335604,1.3160972],[103.9337531,1.3161403]]]}},{"type":"Feature","id":"way/22701163-0-0-0","properties":{"highway":"primary","lanes":"2","lit":"yes","maxheight":"4.5","maxspeed":"60","name":"Bedok South Avenue 1","name:zh":"\u52ff\u6d1b\u53571\u9053","oneway":"yes","sidewalk:left":"separate","sidewalk:right":"no","source":"Yahoo aerial images","surface":"asphalt"},"geometry":{"type":"LineString","coordinates":[[103.9329842,1.3183378],[103.9331842,1.3168562]]}},{"type":"Feature","id":"way/22701163-0-1-0","properties":{"highway":"primary","lanes":"2","lit":"yes","maxheight":"4.5","maxspeed":"60","name":"Bedok South Avenue 1","name:zh":"\u52ff\u6d1b\u53571\u9053","oneway":"yes","sidewalk:left":"separate","sidewalk:right":"no","source":"Yahoo aerial images","surface":"asphalt"},"geometry":{"type":"LineString","coordinates":[[103.9331842,1.3168562],[103.9332154,1.3166453]]}},{"type":"Feature","id":"way/22701163-0-2-0","properties":{"highway":"primary","lanes":"2","lit":"yes","maxheight":"4.5","maxspeed":"60","name":"Bedok South Avenue 1","name:zh":"\u52ff\u6d1b\u53571\u9053","oneway":"yes","sidewalk:left":"separate","sidewalk:right":"no","source":"Yahoo aerial images","surface":"asphalt"},"geometry":{"type":"LineString","coordinates":[[103.9332154,1.3166453],[103.9333243,1.3159982]]}},{"type":"Feature","id":"way/22701163-0-3-0","properties":{"highway":"primary","lanes":"2","lit":"yes","maxheight":"4.5","maxspeed":"60","name":"Bedok South Avenue 1","name:zh":"\u52ff\u6d1b\u53571\u9053","oneway":"yes","sidewalk:left":"separate","sidewalk:right":"no","source":"Yahoo aerial images","surface":"asphalt"},"geometry":{"type":"LineString","coordinates":[[103.9333243,1.3159982],[103.9334939,1.3152104]]}},{"type":"Feature","id":"way/22701178-0-0-0","properties":{"highway":"secondary","lanes":"3","lit":"yes","maxspeed":"60","name":"Bedok South Road","oneway":"yes","sidewalk:left":"separate","sidewalk:right":"no","surface":"asphalt"},"geometry":{"type":"LineString","coordinates":[[103.9327728,1.3189132],[103.932892,1.3189394]]}},{"type":"Feature","id":"way/23914301-0-0-0","properties":{"highway":"residential","lanes":"2","lanes:backward":"1","lanes:forward":"1","lit":"yes","maxspeed":"50","name":"Evergreen Avenue","sidewalk:both":"separate","source":"Yahoo aerial images","surface":"asphalt"},"geometry":{"type":"LineString","coordinates":[[103.9353348,1.315803],[103.935472,1.3154475]]}},{"type":"Feature","id":"way/23924487-0-0-0","properties":{"highway":"residential","lanes":"2","lanes:backward":"1","lanes:forward":"1","maxspeed":"50","name":"Primrose Avenue","sidewalk:both":"separate","source":"Yahoo aerial images","surface":"asphalt"},"geometry":{"type":"LineString","coordinates":[[103.9342253,1.3158015],[103.9345933,1.3158091]]}},{"type":"Feature","id":"way/23960912-0-0-0","properties":{"highway":"residential","maxspeed":"40","name":"Sennett Avenue","sidewalk:both":"separate","surface":"asphalt"},"geometry":{"type":"LineString","coordinates":[[103.9356152,1.3168603],[103.93595,1.3171162]]}},{"type":"Feature","id":"way/23960912-0-1-0","properties":{"highway":"residential","maxspeed":"40","name":"Sennett Avenue","sidewalk:both":"separate","surface":"asphalt"},"geometry":{"type":"LineString","coordinates":[[103.93595,1.3171162],[103.9361051,1.3172331]]}},{"type":"Feature","id":"way/23960912-0-2-0","properties":{"highway":"residential","maxspeed":"40","name":"Sennett Avenue","sidewalk:both":"separate","surface":"asphalt"},"geometry":{"type":"LineString","coordinates":[[103.9361051,1.3172331],[103.9361331,1.3172582]]}},{"type":"Feature","id":"way/23960912-0-3-0","properties":{"highway":"residential","maxspeed":"40","name":"Sennett Avenue","sidewalk:both":"separate","surface":"asphalt"},"geometry":{"type":"LineString","coordinates":[[103.9361331,1.3172582],[103.9361509,1.3172769]]}},{"type":"Feature","id":"way/23960912-0-4-0","properties":{"highway":"residential","maxspeed":"40","name":"Sennett Avenue","sidewalk:both":"separate","surface":"asphalt"},"geometry":{"type":"LineString","coordinates":[[103.9361509,1.3172769],[103.9361646,1.3172932]]}},{"type":"Feature","id":"way/23960912-0-5-0","properties":{"highway":"residential","maxspeed":"40","name":"Sennett Avenue","sidewalk:both":"separate","surface":"asphalt"},"geometry":{"type":"LineString","coordinates":[[103.9361646,1.3172932],[103.9361819,1.3173166]]}},{"type":"Feature","id":"way/23960936-0-0-0","properties":{"highway":"residential","lanes":"2","lanes:backward":"1","lanes:forward":"1","maxspeed":"40","name":"Sennett Lane","sidewalk:both":"separate","surface":"asphalt"},"geometry":{"type":"LineString","coordinates":[[103.9356152,1.3168603],[103.9356258,1.3168281]]}},{"type":"Feature","id":"way/23960936-0-1-0","properties":{"highway":"residential","lanes":"2","lanes:backward":"1","lanes:forward":"1","maxspeed":"40","name":"Sennett Lane","sidewalk:both":"separate","surface":"asphalt"},"geometry":{"type":"LineString","coordinates":[[103.9356258,1.3168281],[103.9357348,1.316496]]}},{"type":"Feature","id":"way/23960936-0-2-0","properties":{"highway":"residential","lanes":"2","lanes:backward":"1","lanes:forward":"1","maxspeed":"40","name":"Sennett Lane","sidewalk:both":"separate","surface":"asphalt"},"geometry":{"type":"LineString","coordinates":[[103.9357348,1.316496],[103.9357622,1.3164509]]}},{"type":"Feature","id":"way/23960936-0-3-0","properties":{"highway":"residential","lanes":"2","lanes:backward":"1","lanes:forward":"1","maxspeed":"40","name":"Sennett Lane","sidewalk:both":"separate","surface":"asphalt"},"geometry":{"type":"LineString","coordinates":[[103.9357622,1.3164509],[103.9357976,1.3164333]]}},{"type":"Feature","id":"way/23960936-0-4-0","properties":{"highway":"residential","lanes":"2","lanes:backward":"1","lanes:forward":"1","maxspeed":"40","name":"Sennett Lane","sidewalk:both":"separate","surface":"asphalt"},"geometry":{"type":"LineString","coordinates":[[103.9357976,1.3164333],[103.9358339,1.316427]]}},{"type":"Feature","id":"way/23960936-0-5-0","properties":{"highway":"residential","lanes":"2","lanes:backward":"1","lanes:forward":"1","maxspeed":"40","name":"Sennett Lane","sidewalk:both":"separate","surface":"asphalt"},"geometry":{"type":"LineString","coordinates":[[103.9358339,1.316427],[103.9358774,1.3164309]]}},{"type":"Feature","id":"way/23960936-0-6-0","properties":{"highway":"residential","lanes":"2","lanes:backward":"1","lanes:forward":"1","maxspeed":"40","name":"Sennett Lane","sidewalk:both":"separate","surface":"asphalt"},"geometry":{"type":"LineString","coordinates":[[103.9358774,1.3164309],[103.935919,1.3164377]]}},{"type":"Feature","id":"way/23960958-0-2-0","properties":{"highway":"residential","lanes":"2","lanes:backward":"1","lanes:forward":"1","maxspeed":"50","name":"Jalan Remis","sidewalk:both":"separate","surface":"asphalt"},"geometry":{"type":"LineString","coordinates":[[103.9360808,1.315581],[103.9360707,1.3156534]]}},{"type":"Feature","id":"way/23960958-0-3-0","properties":{"highway":"residential","lanes":"2","lanes:backward":"1","lanes:forward":"1","maxspeed":"50","name":"Jalan Remis","sidewalk:both":"separate","surface":"asphalt"},"geometry":{"type":"LineString","coordinates":[[103.9360707,1.3156534],[103.9360727,1.3156769]]}},{"type":"Feature","id":"way/23960958-0-4-0","properties":{"highway":"residential","lanes":"2","lanes:backward":"1","lanes:forward":"1","maxspeed":"50","name":"Jalan Remis","sidewalk:both":"separate","surface":"asphalt"},"geometry":{"type":"LineString","coordinates":[[103.9360727,1.3156769],[103.9360875,1.315695]]}},{"type":"Feature","id":"way/74518981-0-0-0","properties":{"highway":"primary","lanes":"3","lit":"yes","maxspeed":"60","name":"Bedok South Avenue 1","name:zh":"\u52ff\u6d1b\u53571\u9053","oneway":"yes","sidewalk:left":"separate","sidewalk:right":"no","source":"Yahoo aerial images","surface":"asphalt"},"geometry":{"type":"LineString","coordinates":[[103.9327918,1.3187956],[103.9327728,1.3189132]]}},{"type":"Feature","id":"way/74518983-0-0-0","properties":{"highway":"primary","lanes":"2","maxspeed":"60","name":"Bedok South Avenue 1","name:zh":"\u52ff\u6d1b\u53571\u9053","oneway":"yes","sidewalk:left":"separate","sidewalk:right":"no","source":"Yahoo aerial images","surface":"asphalt"},"geometry":{"type":"LineString","coordinates":[[103.9326723,1.3194392],[103.9325701,1.3199927]]}},{"type":"Feature","id":"way/116692173-0-0-0","properties":{"highway":"service","service":"driveway","sidewalk":"left"},"geometry":{"type":"LineString","coordinates":[[103.9349778,1.319906],[103.9346984,1.3198444]]}},{"type":"Feature","id":"way/173166845-0-0-0","properties":{"highway":"secondary","lanes":"3","lit":"yes","maxspeed":"60","name":"Bedok South Road","oneway":"yes","sidewalk:left":"separate","sidewalk:right":"no","surface":"asphalt"},"geometry":{"type":"LineString","coordinates":[[103.9329141,1.318825],[103.9327918,1.3187956]]}},{"type":"Feature","id":"way/438931581-0-0-0","properties":{"highway":"secondary","lanes":"3","lit":"yes","maxspeed":"60","name":"Bedok South Road","oneway":"yes","sidewalk:left":"separate","sidewalk:right":"no","surface":"asphalt"},"geometry":{"type":"LineString","coordinates":[[103.932892,1.3189394],[103.9329275,1.3189488]]}},{"type":"Feature","id":"way/438931581-0-1-0","properties":{"highway":"secondary","lanes":"3","lit":"yes","maxspeed":"60","name":"Bedok South Road","oneway":"yes","sidewalk:left":"separate","sidewalk:right":"no","surface":"asphalt"},"geometry":{"type":"LineString","coordinates":[[103.9329275,1.3189488],[103.9333444,1.3190653]]}},{"type":"Feature","id":"way/438931582-0-0-0","properties":{"highway":"secondary","lanes":"3","maxspeed":"40","name":"Bedok South Road","oneway":"yes","sidewalk":"left","surface":"asphalt","turn:lanes":"through|through|through"},"geometry":{"type":"LineString","coordinates":[[103.9347838,1.3194824],[103.9354085,1.3196715]]}},{"type":"Feature","id":"way/438931582-0-1-0","properties":{"highway":"secondary","lanes":"3","maxspeed":"40","name":"Bedok South Road","oneway":"yes","sidewalk":"left","surface":"asphalt","turn:lanes":"through|through|through"},"geometry":{"type":"LineString","coordinates":[[103.9354085,1.3196715],[103.9354639,1.3196873]]}},{"type":"Feature","id":"way/445283016-0-0-0","properties":{"highway":"primary","lanes":"3","lit":"yes","maxspeed":"60","name":"Bedok South Avenue 1","name:zh":"\u52ff\u6d1b\u53571\u9053","oneway":"yes","sidewalk:left":"separate","sidewalk:right":"no","source":"Yahoo aerial images","surface":"asphalt"},"geometry":{"type":"LineString","coordinates":[[103.932892,1.3189394],[103.9329141,1.318825]]}},{"type":"Feature","id":"way/464135430-0-0-0","properties":{"highway":"primary_link","lanes":"1","lit":"yes","maxspeed":"50","oneway":"yes","sidewalk:both":"separate","surface":"asphalt"},"geometry":{"type":"LineString","coordinates":[[103.9323833,1.3188313],[103.9324434,1.3189055]]}},{"type":"Feature","id":"way/464135430-0-1-0","properties":{"highway":"primary_link","lanes":"1","lit":"yes","maxspeed":"50","oneway":"yes","sidewalk:both":"separate","surface":"asphalt"},"geometry":{"type":"LineString","coordinates":[[103.9324434,1.3189055],[103.9324857,1.3189693]]}},{"type":"Feature","id":"way/464135430-0-2-0","properties":{"highway":"primary_link","lanes":"1","lit":"yes","maxspeed":"50","oneway":"yes","sidewalk:both":"separate","surface":"asphalt"},"geometry":{"type":"LineString","coordinates":[[103.9324857,1.3189693],[103.9325321,1.3190406]]}},{"type":"Feature","id":"way/464135430-0-3-0","properties":{"highway":"primary_link","lanes":"1","lit":"yes","maxspeed":"50","oneway":"yes","sidewalk:both":"separate","surface":"asphalt"},"geometry":{"type":"LineString","coordinates":[[103.9325321,1.3190406],[103.9325955,1.3191715]]}},{"type":"Feature","id":"way/464135430-0-4-0","properties":{"highway":"primary_link","lanes":"1","lit":"yes","maxspeed":"50","oneway":"yes","sidewalk:both":"separate","surface":"asphalt"},"geometry":{"type":"LineString","coordinates":[[103.9325955,1.3191715],[103.9326369,1.3193075]]}},{"type":"Feature","id":"way/464135430-0-5-0","properties":{"highway":"primary_link","lanes":"1","lit":"yes","maxspeed":"50","oneway":"yes","sidewalk:both":"separate","surface":"asphalt"},"geometry":{"type":"LineString","coordinates":[[103.9326369,1.3193075],[103.9326723,1.3194392]]}},{"type":"Feature","id":"way/464135431-0-0-0","properties":{"highway":"primary_link","lanes":"1","maxspeed":"50","oneway":"yes","sidewalk:both":"separate","surface":"asphalt"},"geometry":{"type":"LineString","coordinates":[[103.9327727,1.3194892],[103.9328903,1.3192805]]}},{"type":"Feature","id":"way/464135431-0-1-0","properties":{"highway":"primary_link","lanes":"1","maxspeed":"50","oneway":"yes","sidewalk:both":"separate","surface":"asphalt"},"geometry":{"type":"LineString","coordinates":[[103.9328903,1.3192805],[103.9329664,1.3192036]]}},{"type":"Feature","id":"way/464135431-0-2-0","properties":{"highway":"primary_link","lanes":"1","maxspeed":"50","oneway":"yes","sidewalk:both":"separate","surface":"asphalt"},"geometry":{"type":"LineString","coordinates":[[103.9329664,1.3192036],[103.9330703,1.3191358]]}},{"type":"Feature","id":"way/464135431-0-3-0","properties":{"highway":"primary_link","lanes":"1","maxspeed":"50","oneway":"yes","sidewalk:both":"separate","surface":"asphalt"},"geometry":{"type":"LineString","coordinates":[[103.9330703,1.3191358],[103.9331911,1.3190921]]}},{"type":"Feature","id":"way/464135431-0-4-0","properties":{"highway":"primary_link","lanes":"1","maxspeed":"50","oneway":"yes","sidewalk:both":"separate","surface":"asphalt"},"geometry":{"type":"LineString","coordinates":[[103.9331911,1.3190921],[103.9333444,1.3190653]]}},{"type":"Feature","id":"way/464135432-0-0-0","properties":{"highway":"primary_link","lanes":"1","lit":"yes","maxspeed":"50","oneway":"yes","sidewalk:both":"separate","surface":"asphalt"},"geometry":{"type":"LineString","coordinates":[[103.9328766,1.318241],[103.932707,1.3185355]]}},{"type":"Feature","id":"way/464135432-0-1-0","properties":{"highway":"primary_link","lanes":"1","lit":"yes","maxspeed":"50","oneway":"yes","sidewalk:both":"separate","surface":"asphalt"},"geometry":{"type":"LineString","coordinates":[[103.932707,1.3185355],[103.9326166,1.3186259]]}},{"type":"Feature","id":"way/464135432-0-2-0","properties":{"highway":"primary_link","lanes":"1","lit":"yes","maxspeed":"50","oneway":"yes","sidewalk:both":"separate","surface":"asphalt"},"geometry":{"type":"LineString","coordinates":[[103.9326166,1.3186259],[103.9325842,1.3186465]]}},{"type":"Feature","id":"way/464135432-0-3-0","properties":{"highway":"primary_link","lanes":"1","lit":"yes","maxspeed":"50","oneway":"yes","sidewalk:both":"separate","surface":"asphalt"},"geometry":{"type":"LineString","coordinates":[[103.9325842,1.3186465],[103.9323293,1.3187045]]}},{"type":"Feature","id":"way/464135433-0-0-0","properties":{"highway":"primary_link","lanes":"1","lit":"yes","maxspeed":"50","oneway":"yes","sidewalk:both":"separate","surface":"asphalt"},"geometry":{"type":"LineString","coordinates":[[103.9332806,1.3189289],[103.9331328,1.3188016]]}},{"type":"Feature","id":"way/464135433-0-1-0","properties":{"highway":"primary_link","lanes":"1","lit":"yes","maxspeed":"50","oneway":"yes","sidewalk:both":"separate","surface":"asphalt"},"geometry":{"type":"LineString","coordinates":[[103.9331328,1.3188016],[103.9331049,1.3187597]]}},{"type":"Feature","id":"way/464135433-0-2-0","properties":{"highway":"primary_link","lanes":"1","lit":"yes","maxspeed":"50","oneway":"yes","sidewalk:both":"separate","surface":"asphalt"},"geometry":{"type":"LineString","coordinates":[[103.9331049,1.3187597],[103.9330821,1.3187256]]}},{"type":"Feature","id":"way/464135433-0-3-0","properties":{"highway":"primary_link","lanes":"1","lit":"yes","maxspeed":"50","oneway":"yes","sidewalk:both":"separate","surface":"asphalt"},"geometry":{"type":"LineString","coordinates":[[103.9330821,1.3187256],[103.9330559,1.3186419]]}},{"type":"Feature","id":"way/464135433-0-4-0","properties":{"highway":"primary_link","lanes":"1","lit":"yes","maxspeed":"50","oneway":"yes","sidewalk:both":"separate","surface":"asphalt"},"geometry":{"type":"LineString","coordinates":[[103.9330559,1.3186419],[103.9329842,1.3183378]]}},{"type":"Feature","id":"way/464204340-0-0-0","properties":{"check_date:surface":"2026-02-14","highway":"service","lanes":"2","lanes:backward":"1","lanes:forward":"1","surface":"asphalt"},"geometry":{"type":"LineString","coordinates":[[103.933065,1.3169072],[103.9330242,1.3168985]]}},{"type":"Feature","id":"way/464204340-0-1-0","properties":{"check_date:surface":"2026-02-14","highway":"service","lanes":"2","lanes:backward":"1","lanes:forward":"1","surface":"asphalt"},"geometry":{"type":"LineString","coordinates":[[103.9330242,1.3168985],[103.9327869,1.3168529]]}},{"type":"Feature","id":"way/464204341-0-0-0","properties":{"highway":"service","service":"driveway"},"geometry":{"type":"LineString","coordinates":[[103.9342034,1.3169794],[103.9341865,1.3169762]]}},{"type":"Feature","id":"way/464204341-0-1-0","properties":{"highway":"service","service":"driveway"},"geometry":{"type":"LineString","coordinates":[[103.9341865,1.3169762],[103.9341769,1.3170248]]}},{"type":"Feature","id":"way/464204341-0-2-0","properties":{"highway":"service","service":"driveway"},"geometry":{"type":"LineString","coordinates":[[103.9341769,1.3170248],[103.9338974,1.3169651]]}},{"type":"Feature","id":"way/464204341-0-3-0","properties":{"highway":"service","service":"driveway"},"geometry":{"type":"LineString","coordinates":[[103.9338974,1.3169651],[103.9338714,1.3169784]]}},{"type":"Feature","id":"way/464204341-0-4-0","properties":{"highway":"service","service":"driveway"},"geometry":{"type":"LineString","coordinates":[[103.9338714,1.3169784],[103.9338371,1.3169959]]}},{"type":"Feature","id":"way/464204341-0-5-0","properties":{"highway":"service","service":"driveway"},"geometry":{"type":"LineString","coordinates":[[103.9338371,1.3169959],[103.9336514,1.3169561]]}},{"type":"Feature","id":"way/464204343-0-0-0","properties":{"highway":"service","surface":"asphalt"},"geometry":{"type":"LineString","coordinates":[[103.933676,1.3153091],[103.9334229,1.316742]]}},{"type":"Feature","id":"way/464204343-0-1-0","properties":{"highway":"service","surface":"asphalt"},"geometry":{"type":"LineString","coordinates":[[103.9334229,1.316742],[103.9334473,1.3167752]]}},{"type":"Feature","id":"way/464204343-0-2-0","properties":{"highway":"service","surface":"asphalt"},"geometry":{"type":"LineString","coordinates":[[103.9334473,1.3167752],[103.9334956,1.3168073]]}},{"type":"Feature","id":"way/464204343-0-3-0","properties":{"highway":"service","surface":"asphalt"},"geometry":{"type":"LineString","coordinates":[[103.9334956,1.3168073],[103.9335733,1.3168157]]}},{"type":"Feature","id":"way/464205498-0-0-0","properties":{"highway":"residential","maxspeed":"40","name":"Sennett Avenue","sidewalk:both":"separate","surface":"asphalt"},"geometry":{"type":"LineString","coordinates":[[103.9353194,1.3167439],[103.9356152,1.3168603]]}},{"type":"Feature","id":"way/464205877-0-0-0","properties":{"highway":"residential","lanes":"2","lanes:backward":"1","lanes:forward":"1","maxspeed":"50","name":"Jalan Remis","sidewalk:both":"separate","surface":"asphalt"},"geometry":{"type":"LineString","coordinates":[[103.9360875,1.315695],[103.9361143,1.3157111]]}},{"type":"Feature","id":"way/464205877-0-1-0","properties":{"highway":"residential","lanes":"2","lanes:backward":"1","lanes:forward":"1","maxspeed":"50","name":"Jalan Remis","sidewalk:both":"separate","surface":"asphalt"},"geometry":{"type":"LineString","coordinates":[[103.9361143,1.3157111],[103.9361364,1.3157178]]}},{"type":"Feature","id":"way/464289015-0-0-0","properties":{"highway":"secondary","lanes":"3","lit":"yes","maxspeed":"60","name":"Bedok South Road","oneway":"yes","sidewalk:left":"separate","sidewalk:right":"no","surface":"asphalt"},"geometry":{"type":"LineString","coordinates":[[103.9327918,1.3187956],[103.9326996,1.3187797]]}},{"type":"Feature","id":"way/464289015-0-1-0","properties":{"highway":"secondary","lanes":"3","lit":"yes","maxspeed":"60","name":"Bedok South Road","oneway":"yes","sidewalk:left":"separate","sidewalk:right":"no","surface":"asphalt"},"geometry":{"type":"LineString","coordinates":[[103.9326996,1.3187797],[103.9323293,1.3187045]]}},{"type":"Feature","id":"way/464289016-0-0-0","properties":{"highway":"secondary","lanes":"3","lit":"yes","maxspeed":"60","name":"Bedok South Road","oneway":"yes","sidewalk:left":"separate","sidewalk:right":"no","source":"Yahoo aerial images","surface":"asphalt","turn:lanes":"through|through;right|right"},"geometry":{"type":"LineString","coordinates":[[103.9323833,1.3188313],[103.9326759,1.3188932]]}},{"type":"Feature","id":"way/464289016-0-1-0","properties":{"highway":"secondary","lanes":"3","lit":"yes","maxspeed":"60","name":"Bedok South Road","oneway":"yes","sidewalk:left":"separate","sidewalk:right":"no","source":"Yahoo aerial images","surface":"asphalt","turn:lanes":"through|through;right|right"},"geometry":{"type":"LineString","coordinates":[[103.9326759,1.3188932],[103.9327728,1.3189132]]}},{"type":"Feature","id":"way/464289017-0-0-0","properties":{"highway":"primary","lanes":"2","lit":"yes","maxspeed":"60","name":"Bedok South Avenue 1","name:zh":"\u52ff\u6d1b\u53571\u9053","oneway":"yes","sidewalk:left":"separate","sidewalk:right":"no","source":"Yahoo aerial images","surface":"asphalt"},"geometry":{"type":"LineString","coordinates":[[103.9327728,1.3189132],[103.9327565,1.3189901]]}},{"type":"Feature","id":"way/464289017-0-1-0","properties":{"highway":"primary","lanes":"2","lit":"yes","maxspeed":"60","name":"Bedok South Avenue 1","name:zh":"\u52ff\u6d1b\u53571\u9053","oneway":"yes","sidewalk:left":"separate","sidewalk:right":"no","source":"Yahoo aerial images","surface":"asphalt"},"geometry":{"type":"LineString","coordinates":[[103.9327565,1.3189901],[103.9327072,1.3192567]]}},{"type":"Feature","id":"way/464289018-0-0-0","properties":{"highway":"primary","lanes":"3","lit":"yes","maxspeed":"60","name":"Bedok South Avenue 1","name:zh":"\u52ff\u6d1b\u53571\u9053","oneway":"yes","sidewalk:left":"separate","sidewalk:right":"no","source":"Yahoo aerial images","surface":"asphalt","turn:lanes":"through|through|right"},"geometry":{"type":"LineString","coordinates":[[103.9327727,1.3194892],[103.9328195,1.3192737]]}},{"type":"Feature","id":"way/464289019-0-0-0","properties":{"highway":"secondary","lanes":"3","maxspeed":"60","name":"Bedok South Road","oneway":"yes","sidewalk":"left","surface":"asphalt"},"geometry":{"type":"LineString","coordinates":[[103.9333444,1.3190653],[103.9343816,1.3193747]]}},{"type":"Feature","id":"way/464289020-0-0-0","properties":{"highway":"secondary","lanes":"3","lit":"yes","maxspeed":"60","name":"Bedok South Road","oneway":"yes","sidewalk:left":"separate","sidewalk:right":"no","source":"Yahoo aerial images","surface":"asphalt","turn:lanes":"through|through|right"},"geometry":{"type":"LineString","coordinates":[[103.9332806,1.3189289],[103.9329518,1.3188357]]}},{"type":"Feature","id":"way/464289020-0-1-0","properties":{"highway":"secondary","lanes":"3","lit":"yes","maxspeed":"60","name":"Bedok South Road","oneway":"yes","sidewalk:left":"separate","sidewalk:right":"no","source":"Yahoo aerial images","surface":"asphalt","turn:lanes":"through|through|right"},"geometry":{"type":"LineString","coordinates":[[103.9329518,1.3188357],[103.9329141,1.318825]]}},{"type":"Feature","id":"way/464289021-0-0-0","properties":{"highway":"primary","lanes":"2","lit":"yes","maxspeed":"60","name":"Bedok South Avenue 1","name:zh":"\u52ff\u6d1b\u53571\u9053","oneway":"yes","sidewalk:left":"separate","sidewalk:right":"no","source":"Yahoo aerial images","surface":"asphalt"},"geometry":{"type":"LineString","coordinates":[[103.9329141,1.318825],[103.9329231,1.3187621]]}},{"type":"Feature","id":"way/464289021-0-1-0","properties":{"highway":"primary","lanes":"2","lit":"yes","maxspeed":"60","name":"Bedok South Avenue 1","name:zh":"\u52ff\u6d1b\u53571\u9053","oneway":"yes","sidewalk:left":"separate","sidewalk:right":"no","source":"Yahoo aerial images","surface":"asphalt"},"geometry":{"type":"LineString","coordinates":[[103.9329231,1.3187621],[103.9329842,1.3183378]]}},{"type":"Feature","id":"way/464289022-0-0-0","properties":{"highway":"primary","lanes":"3","lit":"yes","maxspeed":"60","name":"Bedok South Avenue 1","name:zh":"\u52ff\u6d1b\u53571\u9053","oneway":"yes","sidewalk:left":"separate","sidewalk:right":"no","source":"Yahoo aerial images","surface":"asphalt","turn:lanes":"through|through;right|right"},"geometry":{"type":"LineString","coordinates":[[103.9328766,1.318241],[103.9327995,1.318741]]}},{"type":"Feature","id":"way/464289022-0-1-0","properties":{"highway":"primary","lanes":"3","lit":"yes","maxspeed":"60","name":"Bedok South Avenue 1","name:zh":"\u52ff\u6d1b\u53571\u9053","oneway":"yes","sidewalk:left":"separate","sidewalk:right":"no","source":"Yahoo aerial images","surface":"asphalt","turn:lanes":"through|through;right|right"},"geometry":{"type":"LineString","coordinates":[[103.9327995,1.318741],[103.9327918,1.3187956]]}},{"type":"Feature","id":"way/473393244-0-0-0","properties":{"highway":"primary","lanes":"4","maxspeed":"60","name":"Bedok South Avenue 1","name:zh":"\u52ff\u6d1b\u53571\u9053","oneway":"yes","sidewalk:left":"separate","sidewalk:right":"no","source":"Yahoo aerial images","surface":"asphalt","turn:lanes":"left|through|through|right"},"geometry":{"type":"LineString","coordinates":[[103.9327232,1.3197362],[103.9327727,1.3194892]]}},{"type":"Feature","id":"way/473393247-0-0-0","properties":{"highway":"primary","lanes":"4","lit":"yes","maxspeed":"60","name":"Bedok South Avenue 1","name:zh":"\u52ff\u6d1b\u53571\u9053","oneway":"yes","sidewalk:left":"separate","sidewalk:right":"no","source":"Yahoo aerial images","surface":"asphalt","turn:lanes":"left|through|through;right|right"},"geometry":{"type":"LineString","coordinates":[[103.9329148,1.3179743],[103.9328766,1.318241]]}},{"type":"Feature","id":"way/474471906-0-0-0","properties":{"highway":"primary","lanes":"3","lit":"yes","maxheight":"4.5","maxspeed":"60","name":"Bedok South Avenue 1","name:zh":"\u52ff\u6d1b\u53571\u9053","oneway":"yes","sidewalk:left":"separate","sidewalk:right":"no","source":"Yahoo aerial images","surface":"asphalt"},"geometry":{"type":"LineString","coordinates":[[103.9332105,1.3159916],[103.9331827,1.3161675]]}},{"type":"Feature","id":"way/474471906-0-1-0","properties":{"highway":"primary","lanes":"3","lit":"yes","maxheight":"4.5","maxspeed":"60","name":"Bedok South Avenue 1","name:zh":"\u52ff\u6d1b\u53571\u9053","oneway":"yes","sidewalk:left":"separate","sidewalk:right":"no","source":"Yahoo aerial images","surface":"asphalt"},"geometry":{"type":"LineString","coordinates":[[103.9331827,1.3161675],[103.9331324,1.3164886]]}},{"type":"Feature","id":"way/474471906-0-2-0","properties":{"highway":"primary","lanes":"3","lit":"yes","maxheight":"4.5","maxspeed":"60","name":"Bedok South Avenue 1","name:zh":"\u52ff\u6d1b\u53571\u9053","oneway":"yes","sidewalk:left":"separate","sidewalk:right":"no","source":"Yahoo aerial images","surface":"asphalt"},"geometry":{"type":"LineString","coordinates":[[103.9331324,1.3164886],[103.9330825,1.316806]]}},{"type":"Feature","id":"way/474471906-0-3-0","properties":{"highway":"primary","lanes":"3","lit":"yes","maxheight":"4.5","maxspeed":"60","name":"Bedok South Avenue 1","name:zh":"\u52ff\u6d1b\u53571\u9053","oneway":"yes","sidewalk:left":"separate","sidewalk:right":"no","source":"Yahoo aerial images","surface":"asphalt"},"geometry":{"type":"LineString","coordinates":[[103.9330825,1.316806],[103.933065,1.3169072]]}},{"type":"Feature","id":"way/474471906-0-4-0","properties":{"highway":"primary","lanes":"3","lit":"yes","maxheight":"4.5","maxspeed":"60","name":"Bedok South Avenue 1","name:zh":"\u52ff\u6d1b\u53571\u9053","oneway":"yes","sidewalk:left":"separate","sidewalk:right":"no","source":"Yahoo aerial images","surface":"asphalt"},"geometry":{"type":"LineString","coordinates":[[103.933065,1.3169072],[103.9329386,1.3178033]]}},{"type":"Feature","id":"way/474492136-0-0-0","properties":{"highway":"secondary","lanes":"3","maxspeed":"40","name":"Bedok South Road","oneway":"yes","sidewalk":"no","source":"Yahoo aerial images","surface":"asphalt","turn:lanes":"through|through|through"},"geometry":{"type":"LineString","coordinates":[[103.9362281,1.3198274],[103.9358594,1.3197119]]}},{"type":"Feature","id":"way/474492437-0-0-0","properties":{"highway":"secondary","lanes":"3","maxspeed":"60","name":"Bedok South Road","oneway":"yes","sidewalk":"no","source":"Yahoo aerial images","surface":"asphalt","turn:lanes":"left;through|through|right"},"geometry":{"type":"LineString","coordinates":[[103.93386,1.3191102],[103.9332806,1.3189289]]}},{"type":"Feature","id":"way/539485032-0-0-0","properties":{"highway":"service"},"geometry":{"type":"LineString","coordinates":[[103.9321294,1.3184279],[103.9324418,1.3184725]]}},{"type":"Feature","id":"way/539485032-0-1-0","properties":{"highway":"service"},"geometry":{"type":"LineString","coordinates":[[103.9324418,1.3184725],[103.9324741,1.318474]]}},{"type":"Feature","id":"way/539485032-0-2-0","properties":{"highway":"service"},"geometry":{"type":"LineString","coordinates":[[103.9324741,1.318474],[103.932508,1.3184663]]}},{"type":"Feature","id":"way/539485032-0-3-0","properties":{"highway":"service"},"geometry":{"type":"LineString","coordinates":[[103.932508,1.3184663],[103.9325219,1.3184509]]}},{"type":"Feature","id":"way/539485032-0-4-0","properties":{"highway":"service"},"geometry":{"type":"LineString","coordinates":[[103.9325219,1.3184509],[103.9325358,1.3184232]]}},{"type":"Feature","id":"way/539485032-0-5-0","properties":{"highway":"service"},"geometry":{"type":"LineString","coordinates":[[103.9325358,1.3184232],[103.9326605,1.3177656]]}},{"type":"Feature","id":"way/539485033-0-0-0","properties":{"highway":"service","surface":"asphalt"},"geometry":{"type":"LineString","coordinates":[[103.9321294,1.3184279],[103.9320976,1.3186309]]}},{"type":"Feature","id":"way/539485033-0-1-0","properties":{"highway":"service","surface":"asphalt"},"geometry":{"type":"LineString","coordinates":[[103.9320976,1.3186309],[103.9320921,1.3186637]]}},{"type":"Feature","id":"way/539485035-0-4-0","properties":{"highway":"service"},"geometry":{"type":"LineString","coordinates":[[103.9314559,1.3175418],[103.9325289,1.3177316]]}},{"type":"Feature","id":"way/539485036-0-2-0","properties":{"highway":"service"},"geometry":{"type":"LineString","coordinates":[[103.9316933,1.317425],[103.9325603,1.3175937]]}},{"type":"Feature","id":"way/539485036-0-3-0","properties":{"highway":"service"},"geometry":{"type":"LineString","coordinates":[[103.9325603,1.3175937],[103.9326101,1.3175917]]}},{"type":"Feature","id":"way/539485036-0-4-0","properties":{"highway":"service"},"geometry":{"type":"LineString","coordinates":[[103.9326101,1.3175917],[103.9326508,1.3175734]]}},{"type":"Feature","id":"way/539485039-0-0-0","properties":{"highway":"service","oneway":"no"},"geometry":{"type":"LineString","coordinates":[[103.9318858,1.3159309],[103.9328954,1.3161184]]}},{"type":"Feature","id":"way/539485040-0-0-0","properties":{"highway":"service","oneway":"yes"},"geometry":{"type":"LineString","coordinates":[[103.932962,1.3156669],[103.9329261,1.3156895]]}},{"type":"Feature","id":"way/539485040-0-1-0","properties":{"highway":"service","oneway":"yes"},"geometry":{"type":"LineString","coordinates":[[103.9329261,1.3156895],[103.9329032,1.3157401]]}},{"type":"Feature","id":"way/539485040-0-2-0","properties":{"highway":"service","oneway":"yes"},"geometry":{"type":"LineString","coordinates":[[103.9329032,1.3157401],[103.9328886,1.3158542]]}},{"type":"Feature","id":"way/539485040-0-3-0","properties":{"highway":"service","oneway":"yes"},"geometry":{"type":"LineString","coordinates":[[103.9328886,1.3158542],[103.9329205,1.3159482]]}},{"type":"Feature","id":"way/543554130-0-0-0","properties":{"highway":"service","service":"parking_aisle"},"geometry":{"type":"LineString","coordinates":[[103.9319269,1.3197156],[103.9323305,1.3197899]]}},{"type":"Feature","id":"way/543554131-0-0-0","properties":{"highway":"service"},"geometry":{"type":"LineString","coordinates":[[103.9323305,1.3197899],[103.9324169,1.3193197]]}},{"type":"Feature","id":"way/543554131-0-1-0","properties":{"highway":"service"},"geometry":{"type":"LineString","coordinates":[[103.9324169,1.3193197],[103.9324182,1.3192875]]}},{"type":"Feature","id":"way/543554131-0-2-0","properties":{"highway":"service"},"geometry":{"type":"LineString","coordinates":[[103.9324182,1.3192875],[103.9324062,1.3192567]]}},{"type":"Feature","id":"way/543554131-0-3-0","properties":{"highway":"service"},"geometry":{"type":"LineString","coordinates":[[103.9324062,1.3192567],[103.9323753,1.3192392]]}},{"type":"Feature","id":"way/543554131-0-4-0","properties":{"highway":"service"},"geometry":{"type":"LineString","coordinates":[[103.9323753,1.3192392],[103.9320282,1.3191715]]}},{"type":"Feature","id":"way/543554132-0-0-0","properties":{"highway":"service"},"geometry":{"type":"LineString","coordinates":[[103.9320282,1.3191715],[103.9320615,1.3189925]]}},{"type":"Feature","id":"way/543554132-0-1-0","properties":{"highway":"service"},"geometry":{"type":"LineString","coordinates":[[103.9320615,1.3189925],[103.932053,1.3189686]]}},{"type":"Feature","id":"way/543554132-0-2-0","properties":{"highway":"service"},"geometry":{"type":"LineString","coordinates":[[103.932053,1.3189686],[103.93204,1.318955]]}},{"type":"Feature","id":"way/543556106-0-0-0","properties":{"highway":"service","oneway":"yes","service":"driveway"},"geometry":{"type":"LineString","coordinates":[[103.9349778,1.319906],[103.9350307,1.319919]]}},{"type":"Feature","id":"way/543556106-0-1-0","properties":{"highway":"service","oneway":"yes","service":"driveway"},"geometry":{"type":"LineString","coordinates":[[103.9350307,1.319919],[103.935059,1.3199189]]}},{"type":"Feature","id":"way/543556106-0-2-0","properties":{"highway":"service","oneway":"yes","service":"driveway"},"geometry":{"type":"LineString","coordinates":[[103.935059,1.3199189],[103.9350887,1.3199051]]}},{"type":"Feature","id":"way/543556106-0-3-0","properties":{"highway":"service","oneway":"yes","service":"driveway"},"geometry":{"type":"LineString","coordinates":[[103.9350887,1.3199051],[103.9351078,1.3198821]]}},{"type":"Feature","id":"way/543556106-0-4-0","properties":{"highway":"service","oneway":"yes","service":"driveway"},"geometry":{"type":"LineString","coordinates":[[103.9351078,1.3198821],[103.9351148,1.3198268]]}},{"type":"Feature","id":"way/543556106-0-5-0","properties":{"highway":"service","oneway":"yes","service":"driveway"},"geometry":{"type":"LineString","coordinates":[[103.9351148,1.3198268],[103.9351094,1.3198117]]}},{"type":"Feature","id":"way/543556106-0-6-0","properties":{"highway":"service","oneway":"yes","service":"driveway"},"geometry":{"type":"LineString","coordinates":[[103.9351094,1.3198117],[103.9350959,1.3197942]]}},{"type":"Feature","id":"way/543556106-0-7-0","properties":{"highway":"service","oneway":"yes","service":"driveway"},"geometry":{"type":"LineString","coordinates":[[103.9350959,1.3197942],[103.9350683,1.3197802]]}},{"type":"Feature","id":"way/543556106-0-8-0","properties":{"highway":"service","oneway":"yes","service":"driveway"},"geometry":{"type":"LineString","coordinates":[[103.9350683,1.3197802],[103.9350402,1.3197807]]}},{"type":"Feature","id":"way/543556106-0-9-0","properties":{"highway":"service","oneway":"yes","service":"driveway"},"geometry":{"type":"LineString","coordinates":[[103.9350402,1.3197807],[103.935023,1.3197882]]}},{"type":"Feature","id":"way/543556106-0-10-0","properties":{"highway":"service","oneway":"yes","service":"driveway"},"geometry":{"type":"LineString","coordinates":[[103.935023,1.3197882],[103.935003,1.3198089]]}},{"type":"Feature","id":"way/543556106-0-11-0","properties":{"highway":"service","oneway":"yes","service":"driveway"},"geometry":{"type":"LineString","coordinates":[[103.935003,1.3198089],[103.9349778,1.319906]]}},{"type":"Feature","id":"way/621462283-0-0-0","properties":{"bridge":"yes","highway":"service","layer":"1"},"geometry":{"type":"LineString","coordinates":[[103.9333095,1.316883],[103.933294,1.3168797]]}},{"type":"Feature","id":"way/621462284-0-0-0","properties":{"highway":"service","lanes":"2","lanes:backward":"1","lanes:forward":"1","service":"driveway"},"geometry":{"type":"LineString","coordinates":[[103.933294,1.3168797],[103.9332493,1.3168702]]}},{"type":"Feature","id":"way/621462284-0-1-0","properties":{"highway":"service","lanes":"2","lanes:backward":"1","lanes:forward":"1","service":"driveway"},"geometry":{"type":"LineString","coordinates":[[103.9332493,1.3168702],[103.9331842,1.3168562]]}},{"type":"Feature","id":"way/630175730-0-0-0","properties":{"highway":"primary","lanes":"3","lit":"yes","maxspeed":"60","name":"Bedok South Avenue 1","name:zh":"\u52ff\u6d1b\u53571\u9053","oneway":"yes","sidewalk:left":"separate","sidewalk:right":"no","source":"Yahoo aerial images","surface":"asphalt","turn:lanes":"through|through|right"},"geometry":{"type":"LineString","coordinates":[[103.9328195,1.3192737],[103.9328757,1.3190101]]}},{"type":"Feature","id":"way/630175730-0-1-0","properties":{"highway":"primary","lanes":"3","lit":"yes","maxspeed":"60","name":"Bedok South Avenue 1","name:zh":"\u52ff\u6d1b\u53571\u9053","oneway":"yes","sidewalk:left":"separate","sidewalk:right":"no","source":"Yahoo aerial images","surface":"asphalt","turn:lanes":"through|through|right"},"geometry":{"type":"LineString","coordinates":[[103.9328757,1.3190101],[103.932892,1.3189394]]}},{"type":"Feature","id":"way/630175731-0-0-0","properties":{"highway":"primary","lanes":"2","lit":"yes","maxspeed":"60","name":"Bedok South Avenue 1","name:zh":"\u52ff\u6d1b\u53571\u9053","oneway":"yes","sidewalk:left":"separate","sidewalk:right":"no","source":"Yahoo aerial images","surface":"asphalt"},"geometry":{"type":"LineString","coordinates":[[103.9327072,1.3192567],[103.9326723,1.3194392]]}},{"type":"Feature","id":"way/633248956-0-1-0","properties":{"highway":"residential","lanes":"2","lanes:backward":"1","lanes:forward":"1","maxspeed":"40","name":"Sennett Place","sidewalk:both":"separate","surface":"asphalt"},"geometry":{"type":"LineString","coordinates":[[103.9362079,1.3173026],[103.9361819,1.3173166]]}},{"type":"Feature","id":"way/635736301-0-0-0","properties":{"highway":"secondary","lanes":"3","lit":"yes","maxheight":"4.5","maxspeed":"60","name":"Bedok South Road","oneway":"yes","sidewalk:left":"separate","sidewalk:right":"no","surface":"asphalt"},"geometry":{"type":"LineString","coordinates":[[103.9323293,1.3187045],[103.9320921,1.3186637]]}},{"type":"Feature","id":"way/636728666-0-0-0","properties":{"highway":"secondary","lanes":"3","maxspeed":"40","name":"Bedok South Road","oneway":"yes","sidewalk":"no","source":"Yahoo aerial images","surface":"asphalt","turn:lanes":"none|none|through;right"},"geometry":{"type":"LineString","coordinates":[[103.9354907,1.3195905],[103.9349473,1.319425]]}},{"type":"Feature","id":"way/636728667-0-0-0","properties":{"highway":"secondary","lanes":"3","maxspeed":"60","name":"Bedok South Road","oneway":"yes","sidewalk":"no","source":"Yahoo aerial images","surface":"asphalt","turn:lanes":"none|through|through;right"},"geometry":{"type":"LineString","coordinates":[[103.9349305,1.3194205],[103.9348088,1.3193851]]}},{"type":"Feature","id":"way/636895198-0-0-0","properties":{"highway":"residential","lanes":"2","lanes:backward":"1","lanes:forward":"1","maxspeed":"50","name":"Evergreen Gardens","sidewalk:both":"separate","source":"Yahoo aerial images","surface":"asphalt"},"geometry":{"type":"LineString","coordinates":[[103.9345503,1.3151446],[103.9345894,1.3157481]]}},{"type":"Feature","id":"way/636895198-0-1-0","properties":{"highway":"residential","lanes":"2","lanes:backward":"1","lanes:forward":"1","maxspeed":"50","name":"Evergreen Gardens","sidewalk:both":"separate","source":"Yahoo aerial images","surface":"asphalt"},"geometry":{"type":"LineString","coordinates":[[103.9345894,1.3157481],[103.9345933,1.3158091]]}},{"type":"Feature","id":"way/636907241-0-0-0","properties":{"highway":"residential","lanes":"2","lanes:backward":"1","lanes:forward":"1","maxspeed":"50","name":"Primrose Avenue","sidewalk:both":"separate","source":"Yahoo aerial images","surface":"asphalt"},"geometry":{"type":"LineString","coordinates":[[103.9345933,1.3158091],[103.9352761,1.3158049]]}},{"type":"Feature","id":"way/636907241-0-1-0","properties":{"highway":"residential","lanes":"2","lanes:backward":"1","lanes:forward":"1","maxspeed":"50","name":"Primrose Avenue","sidewalk:both":"separate","source":"Yahoo aerial images","surface":"asphalt"},"geometry":{"type":"LineString","coordinates":[[103.9352761,1.3158049],[103.9353348,1.315803]]}},{"type":"Feature","id":"way/640168806-0-0-0","properties":{"highway":"service","lanes":"2","lanes:backward":"1","lanes:forward":"1","surface":"asphalt","turn:lanes:backward":"left","turn:lanes:forward":"left;through;right"},"geometry":{"type":"LineString","coordinates":[[103.9358594,1.3197119],[103.9358706,1.3196637]]}},{"type":"Feature","id":"way/640168806-0-1-0","properties":{"highway":"service","lanes":"2","lanes:backward":"1","lanes:forward":"1","surface":"asphalt","turn:lanes:backward":"left","turn:lanes:forward":"left;through;right"},"geometry":{"type":"LineString","coordinates":[[103.9358706,1.3196637],[103.9358807,1.3196199]]}},{"type":"Feature","id":"way/641079351-0-0-0","properties":{"highway":"service","lanes":"2","lanes:backward":"1","lanes:forward":"1","service":"driveway","surface":"asphalt"},"geometry":{"type":"LineString","coordinates":[[103.9362281,1.3198274],[103.936208,1.3199194]]}},{"type":"Feature","id":"way/641079352-0-0-0","properties":{"highway":"secondary","lanes":"3","maxspeed":"40","name":"Bedok South Road","oneway":"yes","sidewalk":"no","source":"Yahoo aerial images","surface":"asphalt","turn:lanes":"through|through|through"},"geometry":{"type":"LineString","coordinates":[[103.9358594,1.3197119],[103.9355036,1.3195947]]}},{"type":"Feature","id":"way/641079352-0-1-0","properties":{"highway":"secondary","lanes":"3","maxspeed":"40","name":"Bedok South Road","oneway":"yes","sidewalk":"no","source":"Yahoo aerial images","surface":"asphalt","turn:lanes":"through|through|through"},"geometry":{"type":"LineString","coordinates":[[103.9355036,1.3195947],[103.9354907,1.3195905]]}},{"type":"Feature","id":"way/641244605-0-0-0","properties":{"highway":"service","lanes":"1","oneway":"yes","service":"driveway","surface":"asphalt"},"geometry":{"type":"LineString","coordinates":[[103.9349473,1.319425],[103.9349378,1.319444]]}},{"type":"Feature","id":"way/641244605-0-1-0","properties":{"highway":"service","lanes":"1","oneway":"yes","service":"driveway","surface":"asphalt"},"geometry":{"type":"LineString","coordinates":[[103.9349378,1.319444],[103.9349315,1.3194491]]}},{"type":"Feature","id":"way/641244605-0-2-0","properties":{"highway":"service","lanes":"1","oneway":"yes","service":"driveway","surface":"asphalt"},"geometry":{"type":"LineString","coordinates":[[103.9349315,1.3194491],[103.9349207,1.3194517]]}},{"type":"Feature","id":"way/641244605-0-3-0","properties":{"highway":"service","lanes":"1","oneway":"yes","service":"driveway","surface":"asphalt"},"geometry":{"type":"LineString","coordinates":[[103.9349207,1.3194517],[103.9348332,1.3194417]]}},{"type":"Feature","id":"way/641244605-0-4-0","properties":{"highway":"service","lanes":"1","oneway":"yes","service":"driveway","surface":"asphalt"},"geometry":{"type":"LineString","coordinates":[[103.9348332,1.3194417],[103.9348185,1.319444]]}},{"type":"Feature","id":"way/641244605-0-5-0","properties":{"highway":"service","lanes":"1","oneway":"yes","service":"driveway","surface":"asphalt"},"geometry":{"type":"LineString","coordinates":[[103.9348185,1.319444],[103.9348074,1.3194504]]}},{"type":"Feature","id":"way/641244605-0-6-0","properties":{"highway":"service","lanes":"1","oneway":"yes","service":"driveway","surface":"asphalt"},"geometry":{"type":"LineString","coordinates":[[103.9348074,1.3194504],[103.9347838,1.3194824]]}},{"type":"Feature","id":"way/641244608-0-0-0","properties":{"highway":"secondary","lanes":"3","maxspeed":"60","name":"Bedok South Road","oneway":"yes","sidewalk":"no","source":"Yahoo aerial images","surface":"asphalt"},"geometry":{"type":"LineString","coordinates":[[103.9348088,1.3193851],[103.93386,1.3191102]]}},{"type":"Feature","id":"way/644825488-0-0-0","properties":{"highway":"residential","lanes":"2","lanes:backward":"1","lanes:forward":"1","lit":"yes","maxspeed":"50","name":"Evergreen Avenue","sidewalk:both":"separate","source":"Yahoo aerial images","surface":"asphalt"},"geometry":{"type":"LineString","coordinates":[[103.935182,1.3162636],[103.9353348,1.315803]]}},{"type":"Feature","id":"way/644898564-0-0-0","properties":{"highway":"service","surface":"asphalt"},"geometry":{"type":"LineString","coordinates":[[103.9327869,1.3168529],[103.9328886,1.316165]]}},{"type":"Feature","id":"way/644898565-0-0-0","properties":{"highway":"service","surface":"asphalt"},"geometry":{"type":"LineString","coordinates":[[103.9326508,1.3175734],[103.9326762,1.317547]]}},{"type":"Feature","id":"way/644898565-0-1-0","properties":{"highway":"service","surface":"asphalt"},"geometry":{"type":"LineString","coordinates":[[103.9326762,1.317547],[103.9326863,1.3175226]]}},{"type":"Feature","id":"way/644898565-0-2-0","properties":{"highway":"service","surface":"asphalt"},"geometry":{"type":"LineString","coordinates":[[103.9326863,1.3175226],[103.9327869,1.3168529]]}},{"type":"Feature","id":"way/644921212-0-0-0","properties":{"highway":"service"},"geometry":{"type":"LineString","coordinates":[[103.9360875,1.315695],[103.9360316,1.3157418]]}},{"type":"Feature","id":"way/644921212-0-1-0","properties":{"highway":"service"},"geometry":{"type":"LineString","coordinates":[[103.9360316,1.3157418],[103.9359917,1.3157752]]}},{"type":"Feature","id":"way/644921212-0-2-0","properties":{"highway":"service"},"geometry":{"type":"LineString","coordinates":[[103.9359917,1.3157752],[103.9359252,1.3158123]]}},{"type":"Feature","id":"way/644921212-0-3-0","properties":{"highway":"service"},"geometry":{"type":"LineString","coordinates":[[103.9359252,1.3158123],[103.9358709,1.3158334]]}},{"type":"Feature","id":"way/646211670-0-0-0","properties":{"highway":"service","lanes":"2","lanes:backward":"1","lanes:forward":"1","service":"driveway","sidewalk":"right","surface":"asphalt","turn:lanes:forward":"left"},"geometry":{"type":"LineString","coordinates":[[103.9346984,1.3198444],[103.9347652,1.3195614]]}},{"type":"Feature","id":"way/646211670-0-1-0","properties":{"highway":"service","lanes":"2","lanes:backward":"1","lanes:forward":"1","service":"driveway","sidewalk":"right","surface":"asphalt","turn:lanes:forward":"left"},"geometry":{"type":"LineString","coordinates":[[103.9347652,1.3195614],[103.9347838,1.3194824]]}},{"type":"Feature","id":"way/646632834-0-1-0","properties":{"highway":"service","oneway":"yes"},"geometry":{"type":"LineString","coordinates":[[103.9319433,1.315434],[103.9319174,1.3154706]]}},{"type":"Feature","id":"way/646632834-0-2-0","properties":{"highway":"service","oneway":"yes"},"geometry":{"type":"LineString","coordinates":[[103.9319174,1.3154706],[103.931895,1.3155425]]}},{"type":"Feature","id":"way/646632834-0-3-0","properties":{"highway":"service","oneway":"yes"},"geometry":{"type":"LineString","coordinates":[[103.931895,1.3155425],[103.9318914,1.3155909]]}},{"type":"Feature","id":"way/646632834-0-4-0","properties":{"highway":"service","oneway":"yes"},"geometry":{"type":"LineString","coordinates":[[103.9318914,1.3155909],[103.9319068,1.3156286]]}},{"type":"Feature","id":"way/646794241-0-0-0","properties":{"highway":"service"},"geometry":{"type":"LineString","coordinates":[[103.9319269,1.3197156],[103.9320282,1.3191715]]}},{"type":"Feature","id":"way/646794242-0-0-0","properties":{"highway":"service"},"geometry":{"type":"LineString","coordinates":[[103.931857,1.3200913],[103.9319269,1.3197156]]}},{"type":"Feature","id":"way/646883833-0-0-0","properties":{"highway":"residential","lanes":"2","lanes:backward":"1","lanes:forward":"1","maxspeed":"40","name":"Sennett Avenue","sidewalk:both":"separate","surface":"asphalt"},"geometry":{"type":"LineString","coordinates":[[103.9361819,1.3173166],[103.9365216,1.3179099]]}},{"type":"Feature","id":"way/646944757-0-0-0","properties":{"highway":"service","service":"driveway"},"geometry":{"type":"LineString","coordinates":[[103.9336514,1.3169561],[103.9333095,1.316883]]}},{"type":"Feature","id":"way/649217419-0-0-0","properties":{"highway":"secondary","lanes":"3","maxspeed":"40","name":"Bedok South Road","oneway":"yes","sidewalk":"left","surface":"asphalt","turn:lanes":"left;through|through|through"},"geometry":{"type":"LineString","coordinates":[[103.9354639,1.3196873],[103.9354745,1.3196906]]}},{"type":"Feature","id":"way/649217419-0-1-0","properties":{"highway":"secondary","lanes":"3","maxspeed":"40","name":"Bedok South Road","oneway":"yes","sidewalk":"left","surface":"asphalt","turn:lanes":"left;through|through|through"},"geometry":{"type":"LineString","coordinates":[[103.9354745,1.3196906],[103.935962,1.3198453]]}},{"type":"Feature","id":"way/649217419-0-2-0","properties":{"highway":"secondary","lanes":"3","maxspeed":"40","name":"Bedok South Road","oneway":"yes","sidewalk":"left","surface":"asphalt","turn:lanes":"left;through|through|through"},"geometry":{"type":"LineString","coordinates":[[103.935962,1.3198453],[103.936208,1.3199194]]}},{"type":"Feature","id":"way/649812722-0-0-0","properties":{"highway":"secondary","lanes":"3","lit":"yes","maxheight":"4.5","maxspeed":"60","name":"Bedok South Road","oneway":"yes","sidewalk:left":"separate","sidewalk:right":"no","source":"Yahoo aerial images","surface":"asphalt","turn:lanes":"left;through|through;right|right"},"geometry":{"type":"LineString","coordinates":[[103.9318574,1.3187387],[103.9323833,1.3188313]]}},{"type":"Feature","id":"way/693944501-0-0-0","properties":{"highway":"primary","lanes":"2","lit":"yes","maxspeed":"60","name":"Bedok South Avenue 1","name:zh":"\u52ff\u6d1b\u53571\u9053","oneway":"yes","sidewalk:left":"separate","sidewalk:right":"no","source":"Yahoo aerial images","surface":"asphalt"},"geometry":{"type":"LineString","coordinates":[[103.9333808,1.3152023],[103.9332105,1.3159916]]}},{"type":"Feature","id":"way/722532427-0-0-0","properties":{"highway":"primary","lanes":"3","lit":"yes","maxheight":"4.5","maxspeed":"60","name":"Bedok South Avenue 1","name:zh":"\u52ff\u6d1b\u53571\u9053","oneway":"yes","sidewalk:left":"separate","sidewalk:right":"no","source":"Yahoo aerial images","surface":"asphalt","turn:lanes":"left|through|through;right"},"geometry":{"type":"LineString","coordinates":[[103.9329386,1.3178033],[103.9329148,1.3179743]]}},{"type":"Feature","id":"way/769232930-0-0-0","properties":{"highway":"secondary","lanes":"3","maxspeed":"60","name":"Bedok South Road","oneway":"yes","sidewalk":"no","source":"Yahoo aerial images","surface":"asphalt"},"geometry":{"type":"LineString","coordinates":[[103.9349473,1.319425],[103.9349305,1.3194205]]}},{"type":"Feature","id":"way/769232932-0-0-0","properties":{"highway":"secondary","lanes":"3","maxspeed":"60","name":"Bedok South Road","oneway":"yes","sidewalk":"left","surface":"asphalt","turn:lanes":"left;through|through|through"},"geometry":{"type":"LineString","coordinates":[[103.9343816,1.3193747],[103.9347838,1.3194824]]}},{"type":"Feature","id":"way/1416872585-0-0-0","properties":{"highway":"service","service":"driveway"},"geometry":{"type":"LineString","coordinates":[[103.9338371,1.3169959],[103.9338913,1.3170075]]}},{"type":"Feature","id":"way/1424056385-0-0-0","properties":{"highway":"service","surface":"asphalt"},"geometry":{"type":"LineString","coordinates":[[103.9328954,1.3161184],[103.9331467,1.3161613]]}},{"type":"Feature","id":"way/1424056386-0-0-0","properties":{"highway":"service","surface":"asphalt"},"geometry":{"type":"LineString","coordinates":[[103.9331467,1.3161613],[103.9331827,1.3161675]]}},{"type":"Feature","id":"way/1446462031-0-0-0","properties":{"highway":"service","oneway":"yes"},"geometry":{"type":"LineString","coordinates":[[103.9329205,1.3159482],[103.9329673,1.3157428]]}},{"type":"Feature","id":"way/1446462031-0-1-0","properties":{"highway":"service","oneway":"yes"},"geometry":{"type":"LineString","coordinates":[[103.9329673,1.3157428],[103.932969,1.3157015]]}},{"type":"Feature","id":"way/1446462031-0-2-0","properties":{"highway":"service","oneway":"yes"},"geometry":{"type":"LineString","coordinates":[[103.932969,1.3157015],[103.932962,1.3156669]]}},{"type":"Feature","id":"way/1446462032-0-0-0","properties":{"highway":"service","oneway":"no"},"geometry":{"type":"LineString","coordinates":[[103.932962,1.3156669],[103.9330123,1.3153269]]}},{"type":"Feature","id":"way/1446462033-0-0-0","properties":{"highway":"service","oneway":"no","surface":"asphalt"},"geometry":{"type":"LineString","coordinates":[[103.9328954,1.3161184],[103.9329205,1.3159482]]}},{"type":"Feature","id":"way/1446462034-0-0-0","properties":{"highway":"service","oneway":"no"},"geometry":{"type":"LineString","coordinates":[[103.9319221,1.3157112],[103.9318858,1.3159309]]}},{"type":"Feature","id":"way/1446462035-0-0-0","properties":{"highway":"service","oneway":"yes"},"geometry":{"type":"LineString","coordinates":[[103.9319068,1.3156286],[103.9319516,1.3156381]]}},{"type":"Feature","id":"way/1446462035-0-1-0","properties":{"highway":"service","oneway":"yes"},"geometry":{"type":"LineString","coordinates":[[103.9319516,1.3156381],[103.931994,1.3153255]]}}]}