{"type":"FeatureCollection","features":[{"type":"Feature","id":"way/554541619-0","properties":{"building":"yes","clearanceGeometry":{"type":"Polygon","coordinates":[[[103.9386211,1.417308],[103.9385251,1.4171939],[103.9382676,1.4174104],[103.9383636,1.4175245],[103.9386211,1.417308]]]},"clearanceHeight":1.7,"clearancePrepared":true},"geometry":{"type":"Polygon","coordinates":[[[103.9383636,1.4175245],[103.9386211,1.417308],[103.9385251,1.4171939],[103.9382676,1.4174104],[103.9383636,1.4175245]]]}},{"type":"Feature","id":"way/554541620-0","properties":{"building":"yes","clearanceGeometry":{"type":"Polygon","coordinates":[[[103.93859360337785,1.4170415156358915],[103.93871574970076,1.4171843260868733],[103.938809,1.4171038],[103.9385013,1.4167477],[103.9384165,1.4168209],[103.9386013,1.4170349],[103.93859360337785,1.4170415156358915]]]},"clearanceHeight":1.7,"clearancePrepared":true},"geometry":{"type":"Polygon","coordinates":[[[103.9386013,1.4170349],[103.9385835,1.4170502],[103.9387064,1.4171924],[103.938809,1.4171038],[103.9385013,1.4167477],[103.9384165,1.4168209],[103.9386013,1.4170349]]]}},{"type":"Feature","id":"way/554541621-0","properties":{"building":"yes","clearanceGeometry":{"type":"Polygon","coordinates":[[[103.9370657,1.4157457],[103.93707458992131,1.4156342851917245],[103.9366304132634,1.415605124028531],[103.9366258,1.4157243],[103.9370657,1.4157457]]]},"clearanceHeight":1.7,"clearancePrepared":true},"geometry":{"type":"Polygon","coordinates":[[[103.9366258,1.4157243],[103.9370657,1.4157457],[103.9370764,1.4156116],[103.9366312,1.4155848],[103.9366258,1.4157243]]]}},{"type":"Feature","id":"way/1084244747-0-0-0","properties":{"highway":"service","service":"driveway","startNodeId":"9935660852","endNodeId":"9935660845"},"geometry":{"type":"LineString","coordinates":[[103.9363309,1.4156171],[103.9364643,1.4155822]]}},{"type":"Feature","id":"way/1084244747-0-1-0","properties":{"highway":"service","service":"driveway","startNodeId":"9935660845","endNodeId":"9935660844"},"geometry":{"type":"LineString","coordinates":[[103.9364643,1.4155822],[103.9365401,1.4155688]]}},{"type":"Feature","id":"way/1084244747-0-2-0","properties":{"highway":"service","service":"driveway","startNodeId":"9935660844","endNodeId":"9935660843"},"geometry":{"type":"LineString","coordinates":[[103.9365401,1.4155688],[103.9366226,1.4155641]]}},{"type":"Feature","id":"way/1084244747-0-3-0","properties":{"highway":"service","service":"driveway","startNodeId":"9935660843","endNodeId":"9935660842"},"geometry":{"type":"LineString","coordinates":[[103.9366226,1.4155641],[103.9370826,1.4155943]]}},{"type":"Feature","id":"way/1084244748-0-3-0","properties":{"highway":"service","startNodeId":"9935660851","endNodeId":"9935660850"},"geometry":{"type":"LineString","coordinates":[[103.9363745,1.4156801],[103.9364523,1.4157518]]}},{"type":"Feature","id":"way/1084244748-0-4-0","properties":{"highway":"service","startNodeId":"9935660850","endNodeId":"9935660849"},"geometry":{"type":"LineString","coordinates":[[103.9364523,1.4157518],[103.9365542,1.4158061]]}},{"type":"Feature","id":"way/1084244748-0-5-0","properties":{"highway":"service","startNodeId":"9935660849","endNodeId":"9935660848"},"geometry":{"type":"LineString","coordinates":[[103.9365542,1.4158061],[103.936636,1.4158369]]}},{"type":"Feature","id":"way/1084244748-0-6-0","properties":{"highway":"service","startNodeId":"9935660848","endNodeId":"9935660847"},"geometry":{"type":"LineString","coordinates":[[103.936636,1.4158369],[103.9367574,1.4158571]]}},{"type":"Feature","id":"way/1084244748-0-7-0","properties":{"highway":"service","startNodeId":"9935660847","endNodeId":"9935660846"},"geometry":{"type":"LineString","coordinates":[[103.9367574,1.4158571],[103.9369538,1.4158765]]}},{"type":"Feature","id":"way/1084244748-0-8-0","properties":{"highway":"service","startNodeId":"9935660846","endNodeId":"9935660841"},"geometry":{"type":"LineString","coordinates":[[103.9369538,1.4158765],[103.9370584,1.4158973]]}},{"type":"Feature","id":"way/1084244748-0-9-0","properties":{"highway":"service","startNodeId":"9935660841","endNodeId":"9935660840"},"geometry":{"type":"LineString","coordinates":[[103.9370584,1.4158973],[103.9371335,1.4159268]]}},{"type":"Feature","id":"way/1084244748-0-10-0","properties":{"highway":"service","startNodeId":"9935660840","endNodeId":"9935660839"},"geometry":{"type":"LineString","coordinates":[[103.9371335,1.4159268],[103.9372154,1.4159898]]}},{"type":"Feature","id":"way/1084244748-0-11-0","properties":{"highway":"service","startNodeId":"9935660839","endNodeId":"9935660838"},"geometry":{"type":"LineString","coordinates":[[103.9372154,1.4159898],[103.9373709,1.4161922]]}},{"type":"Feature","id":"way/1084244748-0-12-0","properties":{"highway":"service","startNodeId":"9935660838","endNodeId":"9935660855"},"geometry":{"type":"LineString","coordinates":[[103.9373709,1.4161922],[103.9378349,1.4167835]]}},{"type":"Feature","id":"way/1084244748-0-13-0","properties":{"highway":"service","startNodeId":"9935660855","endNodeId":"9935660837"},"geometry":{"type":"LineString","coordinates":[[103.9378349,1.4167835],[103.9381213,1.4165515]]}},{"type":"Feature","id":"way/1084244748-0-14-0","properties":{"highway":"service","startNodeId":"9935660837","endNodeId":"9935660835"},"geometry":{"type":"LineString","coordinates":[[103.9381213,1.4165515],[103.9382164,1.4166627]]}},{"type":"Feature","id":"way/1084244748-0-15-0","properties":{"highway":"service","startNodeId":"9935660835","endNodeId":"9935660836"},"geometry":{"type":"LineString","coordinates":[[103.9382164,1.4166627],[103.9387147,1.4172453]]}}]}