{"type":"FeatureCollection","features":[{"type":"Feature","id":"way/54710505-0-1-0","properties":{"highway":"residential","lane_markings":"no","maxspeed":"40","name":"Jalan Wat Siam","name:zh":"\u60f9\u5170\u66b9\u5e99","surface":"asphalt"},"geometry":{"type":"LineString","coordinates":[[103.9547685,1.4142915],[103.9547832,1.4142045]]}},{"type":"Feature","id":"way/54710505-0-2-0","properties":{"highway":"residential","lane_markings":"no","maxspeed":"40","name":"Jalan Wat Siam","name:zh":"\u60f9\u5170\u66b9\u5e99","surface":"asphalt"},"geometry":{"type":"LineString","coordinates":[[103.9547832,1.4142045],[103.9547833,1.4141692]]}},{"type":"Feature","id":"way/54710505-0-3-0","properties":{"highway":"residential","lane_markings":"no","maxspeed":"40","name":"Jalan Wat Siam","name:zh":"\u60f9\u5170\u66b9\u5e99","surface":"asphalt"},"geometry":{"type":"LineString","coordinates":[[103.9547833,1.4141692],[103.9547838,1.4140121]]}},{"type":"Feature","id":"way/54710505-0-4-0","properties":{"highway":"residential","lane_markings":"no","maxspeed":"40","name":"Jalan Wat Siam","name:zh":"\u60f9\u5170\u66b9\u5e99","surface":"asphalt"},"geometry":{"type":"LineString","coordinates":[[103.9547838,1.4140121],[103.9547631,1.4138757]]}},{"type":"Feature","id":"way/54710505-0-5-0","properties":{"highway":"residential","lane_markings":"no","maxspeed":"40","name":"Jalan Wat Siam","name:zh":"\u60f9\u5170\u66b9\u5e99","surface":"asphalt"},"geometry":{"type":"LineString","coordinates":[[103.9547631,1.4138757],[103.9547157,1.4137378]]}},{"type":"Feature","id":"way/54710505-0-6-0","properties":{"highway":"residential","lane_markings":"no","maxspeed":"40","name":"Jalan Wat Siam","name:zh":"\u60f9\u5170\u66b9\u5e99","surface":"asphalt"},"geometry":{"type":"LineString","coordinates":[[103.9547157,1.4137378],[103.9546689,1.4136]]}},{"type":"Feature","id":"way/54710505-0-7-0","properties":{"highway":"residential","lane_markings":"no","maxspeed":"40","name":"Jalan Wat Siam","name:zh":"\u60f9\u5170\u66b9\u5e99","surface":"asphalt"},"geometry":{"type":"LineString","coordinates":[[103.9546689,1.4136],[103.9545012,1.4133455]]}},{"type":"Feature","id":"way/54710505-0-8-0","properties":{"highway":"residential","lane_markings":"no","maxspeed":"40","name":"Jalan Wat Siam","name:zh":"\u60f9\u5170\u66b9\u5e99","surface":"asphalt"},"geometry":{"type":"LineString","coordinates":[[103.9545012,1.4133455],[103.9543859,1.4131344]]}},{"type":"Feature","id":"way/54710505-0-9-0","properties":{"highway":"residential","lane_markings":"no","maxspeed":"40","name":"Jalan Wat Siam","name:zh":"\u60f9\u5170\u66b9\u5e99","surface":"asphalt"},"geometry":{"type":"LineString","coordinates":[[103.9543859,1.4131344],[103.9542959,1.4129117]]}}]}