{"type":"FeatureCollection","features":[{"type":"Feature","id":"way/432952442-0","properties":{"building":"yes"},"geometry":{"type":"Polygon","coordinates":[[[103.9565968,1.4036575],[103.9565265,1.4034999],[103.956442,1.4035376],[103.9565123,1.4036951],[103.9565968,1.4036575]]]}},{"type":"Feature","id":"way/432952443-0","properties":{"building":"yes"},"geometry":{"type":"Polygon","coordinates":[[[103.9558858,1.4030074],[103.9558418,1.4031108],[103.9559835,1.4031711],[103.9560275,1.4030677],[103.9558858,1.4030074]]]}},{"type":"Feature","id":"way/432952457-0","properties":{"building":"yes"},"geometry":{"type":"Polygon","coordinates":[[[103.9563746,1.4051506],[103.9563665,1.4050035],[103.9562417,1.4050104],[103.9562499,1.4051575],[103.9563746,1.4051506]]]}},{"type":"Feature","id":"way/432952465-0","properties":{"building":"yes"},"geometry":{"type":"Polygon","coordinates":[[[103.9552096,1.4050956],[103.9550546,1.4050381],[103.9550199,1.4051315],[103.9551749,1.405189],[103.9552096,1.4050956]]]}},{"type":"Feature","id":"way/432952470-0","properties":{"building":"yes"},"geometry":{"type":"Polygon","coordinates":[[[103.9566405,1.4046547],[103.9565274,1.4046446],[103.956512,1.4048165],[103.9566251,1.4048266],[103.9566405,1.4046547]]]}},{"type":"Feature","id":"way/554541623-0","properties":{"building":"yes"},"geometry":{"type":"Polygon","coordinates":[[[103.9585228,1.4018417],[103.9585284,1.401768],[103.9584326,1.4017608],[103.958427,1.4018345],[103.9585228,1.4018417]]]}},{"type":"Feature","id":"way/554541624-0","properties":{"building":"yes"},"geometry":{"type":"Polygon","coordinates":[[[103.9584281,1.4019151],[103.9585153,1.4019177],[103.9585153,1.4018561],[103.9584295,1.4018534],[103.9584281,1.4019151]]]}},{"type":"Feature","id":"way/554541625-0","properties":{"building":"yes"},"geometry":{"type":"Polygon","coordinates":[[[103.9585676,1.4018326],[103.9586849,1.401828],[103.9586815,1.4017416],[103.9585642,1.4017462],[103.9585676,1.4018326]]]}},{"type":"Feature","id":"way/554541626-0","properties":{"building":"yes"},"geometry":{"type":"Polygon","coordinates":[[[103.9587414,1.4018633],[103.9588219,1.4018609],[103.9588202,1.4018019],[103.9587397,1.4018043],[103.9587414,1.4018633]]]}},{"type":"Feature","id":"way/54710545-0-10-0","properties":{"highway":"residential","lane_markings":"no","maxspeed":"40","name":"Jalan Endut Senin","surface":"asphalt"},"geometry":{"type":"LineString","coordinates":[[103.9554668,1.4052099],[103.9555873,1.4051967]]}},{"type":"Feature","id":"way/54710545-0-11-0","properties":{"highway":"residential","lane_markings":"no","maxspeed":"40","name":"Jalan Endut Senin","surface":"asphalt"},"geometry":{"type":"LineString","coordinates":[[103.9555873,1.4051967],[103.9556961,1.4052198]]}},{"type":"Feature","id":"way/54710545-0-12-0","properties":{"highway":"residential","lane_markings":"no","maxspeed":"40","name":"Jalan Endut Senin","surface":"asphalt"},"geometry":{"type":"LineString","coordinates":[[103.9556961,1.4052198],[103.9558616,1.405278]]}}]}