{"type":"FeatureCollection","features":[{"type":"Feature","id":"way/432952448-0","properties":{"building":"yes"},"geometry":{"type":"Polygon","coordinates":[[[103.9609825,1.4090222],[103.9608954,1.4090321],[103.9609093,1.4091545],[103.9609964,1.4091446],[103.9609825,1.4090222]]]}},{"type":"Feature","id":"way/432952449-0","properties":{"addr:city":"Pulau Ubin, Singapore","addr:housenumber":"224-J","addr:street":"Jalan Endut Senin","amenity":"place_of_worship","building":"yes","name":"Wei Tuo Fa Gong Temple","name:zh":"\u97cb\u9640\u6cd5\u5bab","religion":"taoist"},"geometry":{"type":"Polygon","coordinates":[[[103.9606778,1.4086979],[103.9606759,1.4085969],[103.9607983,1.4085853],[103.9607971,1.4085299],[103.9606725,1.4085411],[103.9606713,1.4085013],[103.9606264,1.4085035],[103.9606245,1.4082819],[103.9605037,1.4083517],[103.9605229,1.4087063],[103.9606778,1.4086979]]]}},{"type":"Feature","id":"way/432952462-0","properties":{"addr:city":"Pulau Ubin, Singapore","addr:street":"Jalan Endut Senin","building":"yes"},"geometry":{"type":"Polygon","coordinates":[[[103.9622198,1.4072138],[103.9621226,1.4072131],[103.9621216,1.4073401],[103.9622189,1.4073408],[103.9622198,1.4072138]]]}},{"type":"Feature","id":"way/432952463-0","properties":{"building":"yes"},"geometry":{"type":"Polygon","coordinates":[[[103.9608728,1.4091913],[103.960857,1.4093066],[103.9609063,1.4093133],[103.9609221,1.409198],[103.9608728,1.4091913]]]}},{"type":"Feature","id":"way/542729459-0","properties":{"addr:city":"Pulau Ubin, Singapore","addr:street":"Jalan Endut Senin","amenity":"place_of_worship","building":"yes","denomination":"tibetan","image":"https://images.mapillary.com/SUs70WruRpJO8HLcl2fMpQ/thumb-2048.jpg","mapillary":"300130658352507","name":"Tibetan Buddhist Temple","religion":"buddhist"},"geometry":{"type":"Polygon","coordinates":[[[103.9612301,1.408566],[103.961225,1.4083891],[103.9611022,1.4083927],[103.9611063,1.4085308],[103.9611074,1.4085696],[103.9612301,1.408566]]]}},{"type":"Feature","id":"way/54710459-0-0-0","properties":{"bridge":"yes","highway":"residential","image":"https://images.mapillary.com/4_JiW_UIrT_lbDS75rij8Q/thumb-2048.jpg","lane_markings":"no","layer":"1","mapillary":"266456801932920","maxspeed":"40","maxweight":"3","name":"Jalan Endut Senin","name:bridge":"Jelutong Bridge","seamark:gate:category":"sluice","seamark:type":"gate","surface":"wood"},"geometry":{"type":"LineString","coordinates":[[103.9613606,1.406224],[103.9614639,1.4062247]]}},{"type":"Feature","id":"way/168820101-0-0-0","properties":{"highway":"residential","maxspeed":"40"},"geometry":{"type":"LineString","coordinates":[[103.9620933,1.4062578],[103.962113,1.406347]]}},{"type":"Feature","id":"way/168820101-0-1-0","properties":{"highway":"residential","maxspeed":"40"},"geometry":{"type":"LineString","coordinates":[[103.962113,1.406347],[103.962122,1.406529]]}},{"type":"Feature","id":"way/168820101-0-2-0","properties":{"highway":"residential","maxspeed":"40"},"geometry":{"type":"LineString","coordinates":[[103.962122,1.406529],[103.962143,1.406607]]}},{"type":"Feature","id":"way/168820101-0-3-0","properties":{"highway":"residential","maxspeed":"40"},"geometry":{"type":"LineString","coordinates":[[103.962143,1.406607],[103.962209,1.406754]]}},{"type":"Feature","id":"way/168820101-0-4-0","properties":{"highway":"residential","maxspeed":"40"},"geometry":{"type":"LineString","coordinates":[[103.962209,1.406754],[103.962331,1.406941]]}},{"type":"Feature","id":"way/168820101-0-5-0","properties":{"highway":"residential","maxspeed":"40"},"geometry":{"type":"LineString","coordinates":[[103.962331,1.406941],[103.962353,1.406999]]}},{"type":"Feature","id":"way/168820101-0-6-0","properties":{"highway":"residential","maxspeed":"40"},"geometry":{"type":"LineString","coordinates":[[103.962353,1.406999],[103.96245,1.407438]]}},{"type":"Feature","id":"way/188591270-0-0-0","properties":{"highway":"residential","lane_markings":"no","maxspeed":"40","name":"Jalan Jelutong","smoothness":"excellent","surface":"asphalt"},"geometry":{"type":"LineString","coordinates":[[103.9620933,1.4062578],[103.9621667,1.4062424]]}},{"type":"Feature","id":"way/188591270-0-1-0","properties":{"highway":"residential","lane_markings":"no","maxspeed":"40","name":"Jalan Jelutong","smoothness":"excellent","surface":"asphalt"},"geometry":{"type":"LineString","coordinates":[[103.9621667,1.4062424],[103.9622685,1.40614]]}},{"type":"Feature","id":"way/188591270-0-2-0","properties":{"highway":"residential","lane_markings":"no","maxspeed":"40","name":"Jalan Jelutong","smoothness":"excellent","surface":"asphalt"},"geometry":{"type":"LineString","coordinates":[[103.9622685,1.40614],[103.9624741,1.405902]]}},{"type":"Feature","id":"way/188591270-0-3-0","properties":{"highway":"residential","lane_markings":"no","maxspeed":"40","name":"Jalan Jelutong","smoothness":"excellent","surface":"asphalt"},"geometry":{"type":"LineString","coordinates":[[103.9624741,1.405902],[103.9626603,1.4057203]]}},{"type":"Feature","id":"way/188591270-0-4-0","properties":{"highway":"residential","lane_markings":"no","maxspeed":"40","name":"Jalan Jelutong","smoothness":"excellent","surface":"asphalt"},"geometry":{"type":"LineString","coordinates":[[103.9626603,1.4057203],[103.9628112,1.4056145]]}},{"type":"Feature","id":"way/188591270-0-5-0","properties":{"highway":"residential","lane_markings":"no","maxspeed":"40","name":"Jalan Jelutong","smoothness":"excellent","surface":"asphalt"},"geometry":{"type":"LineString","coordinates":[[103.9628112,1.4056145],[103.9630102,1.4055341]]}},{"type":"Feature","id":"way/188591270-0-6-0","properties":{"highway":"residential","lane_markings":"no","maxspeed":"40","name":"Jalan Jelutong","smoothness":"excellent","surface":"asphalt"},"geometry":{"type":"LineString","coordinates":[[103.9630102,1.4055341],[103.9632828,1.4054534]]}},{"type":"Feature","id":"way/236944031-0-0-0","properties":{"highway":"service","surface":"fine_gravel"},"geometry":{"type":"LineString","coordinates":[[103.9606428,1.4060189],[103.9606069,1.4062484]]}},{"type":"Feature","id":"way/236944031-0-1-0","properties":{"highway":"service","surface":"fine_gravel"},"geometry":{"type":"LineString","coordinates":[[103.9606069,1.4062484],[103.9605521,1.4064098]]}},{"type":"Feature","id":"way/236944031-0-2-0","properties":{"highway":"service","surface":"fine_gravel"},"geometry":{"type":"LineString","coordinates":[[103.9605521,1.4064098],[103.9605338,1.406518]]}},{"type":"Feature","id":"way/236944031-0-3-0","properties":{"highway":"service","surface":"fine_gravel"},"geometry":{"type":"LineString","coordinates":[[103.9605338,1.406518],[103.9605459,1.4065639]]}},{"type":"Feature","id":"way/236944031-0-4-0","properties":{"highway":"service","surface":"fine_gravel"},"geometry":{"type":"LineString","coordinates":[[103.9605459,1.4065639],[103.9606441,1.4067972]]}},{"type":"Feature","id":"way/236944031-0-5-0","properties":{"highway":"service","surface":"fine_gravel"},"geometry":{"type":"LineString","coordinates":[[103.9606441,1.4067972],[103.9606914,1.4069712]]}},{"type":"Feature","id":"way/644868648-0-0-0","properties":{"highway":"residential","lane_markings":"no","maxspeed":"40","name":"Jalan Endut Senin","smoothness":"excellent","surface":"asphalt"},"geometry":{"type":"LineString","coordinates":[[103.9614639,1.4062247],[103.9616746,1.4061732]]}},{"type":"Feature","id":"way/644868648-0-1-0","properties":{"highway":"residential","lane_markings":"no","maxspeed":"40","name":"Jalan Endut Senin","smoothness":"excellent","surface":"asphalt"},"geometry":{"type":"LineString","coordinates":[[103.9616746,1.4061732],[103.9618296,1.40619]]}},{"type":"Feature","id":"way/644868648-0-2-0","properties":{"highway":"residential","lane_markings":"no","maxspeed":"40","name":"Jalan Endut Senin","smoothness":"excellent","surface":"asphalt"},"geometry":{"type":"LineString","coordinates":[[103.9618296,1.40619],[103.9620933,1.4062578]]}},{"type":"Feature","id":"way/646151464-0-0-0","properties":{"highway":"residential","lane_markings":"no","maxspeed":"40","name":"Jalan Endut Senin","surface":"asphalt"},"geometry":{"type":"LineString","coordinates":[[103.9606428,1.4060189],[103.9610354,1.406114]]}},{"type":"Feature","id":"way/646151464-0-1-0","properties":{"highway":"residential","lane_markings":"no","maxspeed":"40","name":"Jalan Endut Senin","surface":"asphalt"},"geometry":{"type":"LineString","coordinates":[[103.9610354,1.406114],[103.9613606,1.406224]]}},{"type":"Feature","id":"way/647097923-0-1-0","properties":{"highway":"residential","lane_markings":"no","maxspeed":"40","name":"Jalan Endut Senin","surface":"asphalt"},"geometry":{"type":"LineString","coordinates":[[103.9587284,1.4059793],[103.9590735,1.4059209]]}},{"type":"Feature","id":"way/647097923-0-2-0","properties":{"highway":"residential","lane_markings":"no","maxspeed":"40","name":"Jalan Endut Senin","surface":"asphalt"},"geometry":{"type":"LineString","coordinates":[[103.9590735,1.4059209],[103.9593149,1.4058936]]}},{"type":"Feature","id":"way/647097923-0-3-0","properties":{"highway":"residential","lane_markings":"no","maxspeed":"40","name":"Jalan Endut Senin","surface":"asphalt"},"geometry":{"type":"LineString","coordinates":[[103.9593149,1.4058936],[103.9601724,1.4059281]]}},{"type":"Feature","id":"way/647097923-0-4-0","properties":{"highway":"residential","lane_markings":"no","maxspeed":"40","name":"Jalan Endut Senin","surface":"asphalt"},"geometry":{"type":"LineString","coordinates":[[103.9601724,1.4059281],[103.9603405,1.4059475]]}},{"type":"Feature","id":"way/647097923-0-5-0","properties":{"highway":"residential","lane_markings":"no","maxspeed":"40","name":"Jalan Endut Senin","surface":"asphalt"},"geometry":{"type":"LineString","coordinates":[[103.9603405,1.4059475],[103.9606428,1.4060189]]}},{"type":"Feature","id":"way/693988301-0-0-0","properties":{"highway":"service","surface":"fine_gravel"},"geometry":{"type":"LineString","coordinates":[[103.9608567,1.4075203],[103.9608754,1.4075852]]}},{"type":"Feature","id":"way/693988301-0-1-0","properties":{"highway":"service","surface":"fine_gravel"},"geometry":{"type":"LineString","coordinates":[[103.9608754,1.4075852],[103.960934,1.4078485]]}},{"type":"Feature","id":"way/693988301-0-2-0","properties":{"highway":"service","surface":"fine_gravel"},"geometry":{"type":"LineString","coordinates":[[103.960934,1.4078485],[103.9609522,1.4079133]]}},{"type":"Feature","id":"way/693988301-0-3-0","properties":{"highway":"service","surface":"fine_gravel"},"geometry":{"type":"LineString","coordinates":[[103.9609522,1.4079133],[103.9609726,1.4080696]]}},{"type":"Feature","id":"way/693988301-0-4-0","properties":{"highway":"service","surface":"fine_gravel"},"geometry":{"type":"LineString","coordinates":[[103.9609726,1.4080696],[103.9609742,1.4081967]]}},{"type":"Feature","id":"way/693988301-0-5-0","properties":{"highway":"service","surface":"fine_gravel"},"geometry":{"type":"LineString","coordinates":[[103.9609742,1.4081967],[103.9609627,1.4082727]]}},{"type":"Feature","id":"way/693988301-0-6-0","properties":{"highway":"service","surface":"fine_gravel"},"geometry":{"type":"LineString","coordinates":[[103.9609627,1.4082727],[103.9609247,1.4084848]]}},{"type":"Feature","id":"way/693988302-0-0-0","properties":{"highway":"service","image":"https://images.mapillary.com/qdqH-xB8dvCYiuk0-XOjuQ/thumb-2048.jpg","mapillary":"523357052023349","surface":"compacted"},"geometry":{"type":"LineString","coordinates":[[103.9606914,1.4069712],[103.9607238,1.4070904]]}},{"type":"Feature","id":"way/693988302-0-1-0","properties":{"highway":"service","image":"https://images.mapillary.com/qdqH-xB8dvCYiuk0-XOjuQ/thumb-2048.jpg","mapillary":"523357052023349","surface":"compacted"},"geometry":{"type":"LineString","coordinates":[[103.9607238,1.4070904],[103.9608068,1.4073466]]}},{"type":"Feature","id":"way/693988302-0-2-0","properties":{"highway":"service","image":"https://images.mapillary.com/qdqH-xB8dvCYiuk0-XOjuQ/thumb-2048.jpg","mapillary":"523357052023349","surface":"compacted"},"geometry":{"type":"LineString","coordinates":[[103.9608068,1.4073466],[103.9608567,1.4075203]]}}]}