{"type":"FeatureCollection","features":[{"type":"Feature","id":"relation/5614043-0","properties":{"building":"yes","type":"multipolygon"},"geometry":{"type":"Polygon","coordinates":[[[103.9674404,1.417891],[103.9675752,1.4178921],[103.9675754,1.4178675],[103.9678603,1.4178699],[103.9678621,1.4176567],[103.9675653,1.4176543],[103.9675654,1.4176335],[103.9674565,1.4176326],[103.9674551,1.4178022],[103.9674285,1.417802],[103.9674292,1.4177172],[103.9671644,1.4177151],[103.9671632,1.4178642],[103.9674406,1.4178665],[103.9674404,1.417891]],[[103.967589,1.4177391],[103.9675896,1.4177962],[103.9675666,1.4177965],[103.967566,1.4177393],[103.967589,1.4177391]]]}},{"type":"Feature","id":"way/376842673-0","properties":{"building":"yes"},"geometry":{"type":"Polygon","coordinates":[[[103.9670864,1.4175295],[103.9669536,1.4175319],[103.9669555,1.4176376],[103.9670883,1.4176352],[103.9670864,1.4175295]]]}},{"type":"Feature","id":"way/376842674-0","properties":{"building":"yes"},"geometry":{"type":"Polygon","coordinates":[[[103.9669968,1.418004],[103.9670002,1.4183207],[103.9671275,1.4183194],[103.9671241,1.4180026],[103.9669968,1.418004]]]}},{"type":"Feature","id":"way/54710643-0-0-0","properties":{"highway":"residential","maxspeed":"40","name":"Jalan Noordin"},"geometry":{"type":"LineString","coordinates":[[103.9662957,1.4170365],[103.9661894,1.4168847]]}},{"type":"Feature","id":"way/54710643-0-1-0","properties":{"highway":"residential","maxspeed":"40","name":"Jalan Noordin"},"geometry":{"type":"LineString","coordinates":[[103.9661894,1.4168847],[103.9661996,1.4168379]]}},{"type":"Feature","id":"way/54710643-0-2-0","properties":{"highway":"residential","maxspeed":"40","name":"Jalan Noordin"},"geometry":{"type":"LineString","coordinates":[[103.9661996,1.4168379],[103.9662848,1.4167509]]}},{"type":"Feature","id":"way/54710643-0-3-0","properties":{"highway":"residential","maxspeed":"40","name":"Jalan Noordin"},"geometry":{"type":"LineString","coordinates":[[103.9662848,1.4167509],[103.9665968,1.416623]]}},{"type":"Feature","id":"way/54710643-0-4-0","properties":{"highway":"residential","maxspeed":"40","name":"Jalan Noordin"},"geometry":{"type":"LineString","coordinates":[[103.9665968,1.416623],[103.9670303,1.4164178]]}},{"type":"Feature","id":"way/54710643-0-5-0","properties":{"highway":"residential","maxspeed":"40","name":"Jalan Noordin"},"geometry":{"type":"LineString","coordinates":[[103.9670303,1.4164178],[103.967056,1.4163475]]}},{"type":"Feature","id":"way/54710643-0-6-0","properties":{"highway":"residential","maxspeed":"40","name":"Jalan Noordin"},"geometry":{"type":"LineString","coordinates":[[103.967056,1.4163475],[103.967077,1.4160289]]}},{"type":"Feature","id":"way/54710643-0-7-0","properties":{"highway":"residential","maxspeed":"40","name":"Jalan Noordin"},"geometry":{"type":"LineString","coordinates":[[103.967077,1.4160289],[103.9671976,1.4158722]]}},{"type":"Feature","id":"way/54710643-0-8-0","properties":{"highway":"residential","maxspeed":"40","name":"Jalan Noordin"},"geometry":{"type":"LineString","coordinates":[[103.9671976,1.4158722],[103.9677032,1.4148162]]}},{"type":"Feature","id":"way/54710643-0-9-0","properties":{"highway":"residential","maxspeed":"40","name":"Jalan Noordin"},"geometry":{"type":"LineString","coordinates":[[103.9677032,1.4148162],[103.9674155,1.4145337]]}},{"type":"Feature","id":"way/656257997-0-0-0","properties":{"highway":"residential","maxspeed":"40","name":"Jalan Noordin"},"geometry":{"type":"LineString","coordinates":[[103.9648556,1.4183625],[103.9648518,1.4181913]]}},{"type":"Feature","id":"way/656257997-0-1-0","properties":{"highway":"residential","maxspeed":"40","name":"Jalan Noordin"},"geometry":{"type":"LineString","coordinates":[[103.9648518,1.4181913],[103.9648884,1.4180979]]}},{"type":"Feature","id":"way/656257997-0-2-0","properties":{"highway":"residential","maxspeed":"40","name":"Jalan Noordin"},"geometry":{"type":"LineString","coordinates":[[103.9648884,1.4180979],[103.9649997,1.4179442]]}},{"type":"Feature","id":"way/656257997-0-3-0","properties":{"highway":"residential","maxspeed":"40","name":"Jalan Noordin"},"geometry":{"type":"LineString","coordinates":[[103.9649997,1.4179442],[103.9652986,1.4177063]]}},{"type":"Feature","id":"way/656257997-0-4-0","properties":{"highway":"residential","maxspeed":"40","name":"Jalan Noordin"},"geometry":{"type":"LineString","coordinates":[[103.9652986,1.4177063],[103.965545,1.4175817]]}},{"type":"Feature","id":"way/656257997-0-5-0","properties":{"highway":"residential","maxspeed":"40","name":"Jalan Noordin"},"geometry":{"type":"LineString","coordinates":[[103.965545,1.4175817],[103.9657483,1.4175532]]}},{"type":"Feature","id":"way/656257997-0-6-0","properties":{"highway":"residential","maxspeed":"40","name":"Jalan Noordin"},"geometry":{"type":"LineString","coordinates":[[103.9657483,1.4175532],[103.9658283,1.4175114]]}},{"type":"Feature","id":"way/656257997-0-7-0","properties":{"highway":"residential","maxspeed":"40","name":"Jalan Noordin"},"geometry":{"type":"LineString","coordinates":[[103.9658283,1.4175114],[103.9662828,1.4171]]}},{"type":"Feature","id":"way/656257997-0-8-0","properties":{"highway":"residential","maxspeed":"40","name":"Jalan Noordin"},"geometry":{"type":"LineString","coordinates":[[103.9662828,1.4171],[103.9662957,1.4170365]]}}]}