{"type":"FeatureCollection","features":[{"type":"Feature","id":"relation/7791030-0","properties":{"amenity":"parking","building":"yes","parking":"multi-storey","ramp":"yes","type":"multipolygon"},"geometry":{"type":"Polygon","coordinates":[[[103.9725074,1.3673454],[103.9724696,1.3675623],[103.9724219,1.3678354],[103.9725498,1.3679706],[103.9725949,1.367712],[103.972615,1.3677154],[103.972621,1.3677486],[103.9726388,1.3677933],[103.9726649,1.3678337],[103.9726983,1.3678682],[103.9727379,1.3678955],[103.972782,1.3679146],[103.9728291,1.3679247],[103.9728771,1.3679254],[103.9729245,1.3679168],[103.9729692,1.3678991],[103.9730096,1.367873],[103.9730441,1.3678395],[103.9730714,1.3678],[103.9730905,1.3677558],[103.9731006,1.3677088],[103.9731014,1.3676608],[103.9730927,1.3676135],[103.973075,1.3675688],[103.9730489,1.3675284],[103.9730154,1.3674939],[103.9729759,1.3674665],[103.9729317,1.3674475],[103.9728847,1.3674373],[103.9728366,1.3674366],[103.9727893,1.3674453],[103.9727446,1.367463],[103.9727042,1.367489],[103.9726697,1.3675225],[103.9726423,1.3675621],[103.9726406,1.367566],[103.972621,1.3675626],[103.9726544,1.367371],[103.9725074,1.3673454]],[[103.9729418,1.3675708],[103.9729667,1.3675946],[103.9729846,1.3676241],[103.9729943,1.3676573],[103.972995,1.3676918],[103.9729868,1.3677253],[103.9729702,1.3677555],[103.9729463,1.3677804],[103.9729168,1.3677983],[103.9728837,1.367808],[103.9728492,1.3678087],[103.9728156,1.3678005],[103.9727854,1.3677839],[103.9727605,1.3677601],[103.9727426,1.3677306],[103.9727329,1.3676974],[103.9727322,1.3676629],[103.9727404,1.3676294],[103.972757,1.3675992],[103.9727809,1.3675742],[103.9728104,1.3675563],[103.9728435,1.3675467],[103.972878,1.3675459],[103.9729115,1.3675542],[103.9729418,1.3675708]]]}},{"type":"Feature","id":"way/293110163-0","properties":{"amenity":"place_of_worship","building":"church","name":"Changi Baptist Church","religion":"christian"},"geometry":{"type":"Polygon","coordinates":[[[103.9753068,1.3662423],[103.9752744,1.3661385],[103.9751289,1.3661838],[103.9751613,1.3662877],[103.9753068,1.3662423]]]}},{"type":"Feature","id":"way/345831896-0","properties":{"building":"yes"},"geometry":{"type":"Polygon","coordinates":[[[103.9743085,1.369448],[103.9745034,1.3692555],[103.9743886,1.3691393],[103.9741937,1.3693319],[103.9743085,1.369448]]]}},{"type":"Feature","id":"way/345831897-0","properties":{"building":"yes"},"geometry":{"type":"Polygon","coordinates":[[[103.9745818,1.3692333],[103.9747549,1.3690623],[103.9746294,1.3689353],[103.9744563,1.3691063],[103.9745818,1.3692333]]]}},{"type":"Feature","id":"way/345831905-0","properties":{"building":"yes"},"geometry":{"type":"Polygon","coordinates":[[[103.9730622,1.3679227],[103.9731775,1.3680453],[103.9737546,1.3675033],[103.9736394,1.3673807],[103.9730622,1.3679227]]]}},{"type":"Feature","id":"way/345831909-0","properties":{"building":"yes"},"geometry":{"type":"Polygon","coordinates":[[[103.9733499,1.3685574],[103.9734637,1.3686815],[103.9743382,1.3678806],[103.9742244,1.3677564],[103.9733499,1.3685574]]]}},{"type":"Feature","id":"way/345831910-0","properties":{"building":"yes"},"geometry":{"type":"Polygon","coordinates":[[[103.9745594,1.3666504],[103.9745699,1.3665303],[103.9736494,1.3664497],[103.9736388,1.3665698],[103.9745594,1.3666504]]]}},{"type":"Feature","id":"way/345831911-0","properties":{"building":"yes"},"geometry":{"type":"Polygon","coordinates":[[[103.9737122,1.3668297],[103.9737867,1.3667552],[103.9736613,1.3666299],[103.9735868,1.3667043],[103.9737122,1.3668297]]]}},{"type":"Feature","id":"way/345831912-0","properties":{"building":"yes"},"geometry":{"type":"Polygon","coordinates":[[[103.97438,1.3675266],[103.9745307,1.3673847],[103.9739006,1.3667157],[103.9737499,1.3668575],[103.97438,1.3675266]]]}},{"type":"Feature","id":"way/345831913-0","properties":{"building":"yes"},"geometry":{"type":"Polygon","coordinates":[[[103.9743867,1.3670209],[103.974441,1.36697],[103.9746872,1.3672328],[103.9748392,1.3670904],[103.9745208,1.3667507],[103.9743146,1.3669439],[103.9743867,1.3670209]]]}},{"type":"Feature","id":"way/345831914-0","properties":{"building":"yes"},"geometry":{"type":"Polygon","coordinates":[[[103.9748314,1.3669071],[103.9749155,1.3668287],[103.974859,1.3667681],[103.9749002,1.3667298],[103.9747229,1.3665396],[103.9745976,1.3666564],[103.9748314,1.3669071]]]}},{"type":"Feature","id":"way/345831915-0","properties":{"building":"yes"},"geometry":{"type":"Polygon","coordinates":[[[103.9750966,1.3671485],[103.9751604,1.3672192],[103.975433,1.3669728],[103.975365,1.3668976],[103.975314,1.3669437],[103.9752566,1.3668802],[103.9750876,1.3670328],[103.9751492,1.367101],[103.9750966,1.3671485]]]}},{"type":"Feature","id":"way/345832979-0","properties":{"building":"yes"},"geometry":{"type":"Polygon","coordinates":[[[103.9745977,1.3677314],[103.9749976,1.3673465],[103.9748824,1.3672269],[103.9744825,1.3676118],[103.9745977,1.3677314]]]}},{"type":"Feature","id":"way/345832980-0","properties":{"building":"yes"},"geometry":{"type":"Polygon","coordinates":[[[103.9764852,1.3681818],[103.976463,1.3677801],[103.9761224,1.3676025],[103.9759828,1.3677281],[103.9760529,1.3678059],[103.9761199,1.3677456],[103.9763074,1.3678484],[103.9763245,1.3678275],[103.9763717,1.3678591],[103.976376,1.3679425],[103.9763128,1.3679458],[103.9763202,1.3680889],[103.9762542,1.3680924],[103.9762504,1.3680196],[103.97611,1.3680269],[103.9760903,1.368091],[103.9760977,1.3681503],[103.9761199,1.3682021],[103.9764852,1.3681818]]]}},{"type":"Feature","id":"way/345832981-0","properties":{"building":"yes"},"geometry":{"type":"Polygon","coordinates":[[[103.9760283,1.3676394],[103.9758882,1.3674871],[103.975797,1.3675709],[103.9757747,1.3675465],[103.9753457,1.3679397],[103.9753748,1.3679715],[103.975123,1.3682019],[103.9752013,1.3682874],[103.9752583,1.3682353],[103.9753394,1.3683238],[103.9753942,1.3682737],[103.975446,1.3683303],[103.9755153,1.3682669],[103.975535,1.3682884],[103.9755942,1.3682736],[103.9756263,1.368244],[103.9756608,1.3681749],[103.9755648,1.3680707],[103.975508,1.368123],[103.9754696,1.3680812],[103.9756977,1.3678724],[103.9757547,1.3679343],[103.9758104,1.367883],[103.9757534,1.3678212],[103.9759177,1.3676618],[103.9759572,1.3677048],[103.9760283,1.3676394]]]}},{"type":"Feature","id":"way/345832982-0","properties":{"building":"yes"},"geometry":{"type":"Polygon","coordinates":[[[103.9751842,1.3686213],[103.9755518,1.3685908],[103.9755433,1.3684879],[103.9751756,1.3685183],[103.9751842,1.3686213]]]}},{"type":"Feature","id":"way/345832983-0","properties":{"building":"yes"},"geometry":{"type":"Polygon","coordinates":[[[103.9762842,1.3688957],[103.9762811,1.3688534],[103.9764055,1.3688444],[103.9763821,1.3685233],[103.9762225,1.3685349],[103.9762325,1.3686726],[103.9762917,1.3686683],[103.9762952,1.3687165],[103.9761564,1.3687265],[103.9761526,1.3686744],[103.9760726,1.3686802],[103.9760768,1.3687381],[103.9758563,1.3687541],[103.9758324,1.368817],[103.9758411,1.3688712],[103.9758758,1.3689254],[103.9762842,1.3688957]]]}},{"type":"Feature","id":"way/345832984-0","properties":{"building":"yes"},"geometry":{"type":"Polygon","coordinates":[[[103.9757667,1.369237],[103.9757502,1.3690448],[103.9755583,1.3690612],[103.975568,1.369175],[103.9754821,1.3691824],[103.9754888,1.3692609],[103.9757667,1.369237]]]}},{"type":"Feature","id":"way/345832985-0","properties":{"building":"yes"},"geometry":{"type":"Polygon","coordinates":[[[103.9760672,1.3690971],[103.9760542,1.368925],[103.9759238,1.3689348],[103.9759293,1.3690066],[103.9758653,1.3690115],[103.9758729,1.3691117],[103.9760672,1.3690971]]]}},{"type":"Feature","id":"way/345832986-0","properties":{"building":"yes"},"geometry":{"type":"Polygon","coordinates":[[[103.9757151,1.3689844],[103.9756992,1.3687294],[103.9755276,1.3687401],[103.9755436,1.3689951],[103.9757151,1.3689844]]]}},{"type":"Feature","id":"way/345832987-0","properties":{"building":"yes"},"geometry":{"type":"Polygon","coordinates":[[[103.9755301,1.3689732],[103.9755133,1.3687494],[103.9753809,1.3687593],[103.9753976,1.3689831],[103.9755301,1.3689732]]]}},{"type":"Feature","id":"way/345832988-0","properties":{"building":"yes"},"geometry":{"type":"Polygon","coordinates":[[[103.9755196,1.3687323],[103.9755131,1.3686621],[103.9751699,1.3686937],[103.9751764,1.368764],[103.9755196,1.3687323]]]}},{"type":"Feature","id":"way/345837448-0","properties":{"building":"yes"},"geometry":{"type":"Polygon","coordinates":[[[103.9767892,1.3664689],[103.9769035,1.3664195],[103.9767948,1.3661681],[103.9766805,1.3662176],[103.9767892,1.3664689]]]}},{"type":"Feature","id":"way/345837451-0","properties":{"building":"yes"},"geometry":{"type":"Polygon","coordinates":[[[103.9767621,1.3660521],[103.9768328,1.3659614],[103.9767941,1.3659312],[103.9767233,1.3660219],[103.9767621,1.3660521]]]}},{"type":"Feature","id":"way/453270704-0","properties":{"building":"yes"},"geometry":{"type":"Polygon","coordinates":[[[103.974962,1.3659081],[103.9749443,1.3657839],[103.9747284,1.3658147],[103.9747461,1.365939],[103.974962,1.3659081]]]}},{"type":"Feature","id":"way/453270705-0","properties":{"building":"yes"},"geometry":{"type":"Polygon","coordinates":[[[103.974916,1.3660084],[103.9749013,1.366208],[103.9750223,1.3662142],[103.9750308,1.3660131],[103.974916,1.3660084]]]}},{"type":"Feature","id":"way/453270706-0","properties":{"building":"yes"},"geometry":{"type":"Polygon","coordinates":[[[103.9747057,1.3661559],[103.974712,1.3661627],[103.9747755,1.3661629],[103.9747813,1.3661577],[103.974829,1.3661597],[103.9748332,1.366042],[103.9747694,1.3660388],[103.9747695,1.3660046],[103.9747135,1.3660008],[103.9747057,1.3661559]]]}},{"type":"Feature","id":"way/453270711-0","properties":{"building":"yes"},"geometry":{"type":"Polygon","coordinates":[[[103.9749278,1.3650413],[103.9749012,1.3649572],[103.9747558,1.3650105],[103.9747861,1.3650932],[103.9749278,1.3650413]]]}},{"type":"Feature","id":"way/453270712-0","properties":{"building":"yes"},"geometry":{"type":"Polygon","coordinates":[[[103.974961,1.3650291],[103.9749278,1.3650413],[103.9747861,1.3650932],[103.9748147,1.3651711],[103.9749895,1.365107],[103.974961,1.3650291]]]}},{"type":"Feature","id":"way/453270713-0","properties":{"building":"yes"},"geometry":{"type":"Polygon","coordinates":[[[103.9750035,1.3653122],[103.975013,1.3653146],[103.9750243,1.3653129],[103.9750341,1.365307],[103.9750408,1.3652978],[103.9750436,1.3652867],[103.9750418,1.3652754],[103.9750359,1.3652656],[103.9750267,1.3652589],[103.9750164,1.3652563],[103.975009,1.3652331],[103.9748673,1.3652781],[103.9748896,1.3653484],[103.9750035,1.3653122]]]}},{"type":"Feature","id":"way/453270714-0","properties":{"building":"yes"},"geometry":{"type":"Polygon","coordinates":[[[103.9750085,1.3651941],[103.9750138,1.3651827],[103.9750143,1.3651701],[103.97501,1.3651583],[103.9750015,1.3651491],[103.9749901,1.3651438],[103.9749775,1.3651433],[103.9749657,1.3651476],[103.9749582,1.3651545],[103.9748333,1.3651942],[103.9748606,1.3652802],[103.9748673,1.3652781],[103.975009,1.3652331],[103.9749992,1.3652026],[103.9750085,1.3651941]]]}},{"type":"Feature","id":"way/453270715-0","properties":{"building":"yes"},"geometry":{"type":"Polygon","coordinates":[[[103.9747424,1.3653849],[103.9748574,1.3653484],[103.9748075,1.3651912],[103.9746925,1.3652277],[103.9747424,1.3653849]]]}},{"type":"Feature","id":"way/453270716-0","properties":{"building":"yes"},"geometry":{"type":"Polygon","coordinates":[[[103.9747079,1.3656534],[103.974747,1.3657766],[103.9749149,1.3657233],[103.9748959,1.3656635],[103.9749228,1.365655],[103.9748993,1.365581],[103.9747151,1.3656395],[103.9747185,1.3656501],[103.9747079,1.3656534]]]}},{"type":"Feature","id":"way/453270717-0","properties":{"building":"yes"},"geometry":{"type":"Polygon","coordinates":[[[103.9748433,1.3655583],[103.9748521,1.3655555],[103.9748598,1.3655536],[103.9748597,1.3655531],[103.9749149,1.3655356],[103.974874,1.3654069],[103.9748024,1.3654296],[103.9748071,1.3654443],[103.974691,1.3654739],[103.9747043,1.365526],[103.9747225,1.3655214],[103.9747386,1.3655844],[103.9748432,1.3655578],[103.9748433,1.3655583]]]}},{"type":"Feature","id":"way/453270718-0","properties":{"building":"yes"},"geometry":{"type":"Polygon","coordinates":[[[103.9749489,1.365529],[103.9751436,1.3654638],[103.9751204,1.3653946],[103.9751161,1.365396],[103.9749257,1.3654597],[103.9749489,1.365529]]]}},{"type":"Feature","id":"way/453270719-0","properties":{"building":"yes"},"geometry":{"type":"Polygon","coordinates":[[[103.9749257,1.3654597],[103.9751161,1.365396],[103.9750906,1.3653197],[103.9749002,1.3653834],[103.9749257,1.3654597]]]}},{"type":"Feature","id":"way/453270720-0","properties":{"building":"yes"},"geometry":{"type":"Polygon","coordinates":[[[103.9749986,1.3657012],[103.975175,1.3656502],[103.9751349,1.3655114],[103.9749585,1.3655624],[103.9749986,1.3657012]]]}},{"type":"Feature","id":"way/453270721-0","properties":{"building":"yes"},"geometry":{"type":"Polygon","coordinates":[[[103.9750241,1.3658185],[103.9751602,1.3657816],[103.9751355,1.3656904],[103.9749994,1.3657273],[103.9750241,1.3658185]]]}},{"type":"Feature","id":"way/453270722-0","properties":{"building":"yes"},"geometry":{"type":"Polygon","coordinates":[[[103.9750732,1.3659393],[103.9752046,1.3659004],[103.9751758,1.365803],[103.9750443,1.3658419],[103.9750732,1.3659393]]]}},{"type":"Feature","id":"way/453270723-0","properties":{"building":"yes"},"geometry":{"type":"Polygon","coordinates":[[[103.9751224,1.3660564],[103.975241,1.3660215],[103.9752113,1.3659204],[103.9750926,1.3659552],[103.9751224,1.3660564]]]}},{"type":"Feature","id":"way/453270724-0","properties":{"building":"yes"},"geometry":{"type":"Polygon","coordinates":[[[103.9753068,1.3662408],[103.9753859,1.3662221],[103.9753595,1.3661107],[103.9752803,1.3661295],[103.9753068,1.3662408]]]}},{"type":"Feature","id":"way/453270725-0","properties":{"building":"yes"},"geometry":{"type":"Polygon","coordinates":[[[103.9751564,1.3661616],[103.9753019,1.36612],[103.9752784,1.3660377],[103.9751329,1.3660792],[103.9751564,1.3661616]]]}},{"type":"Feature","id":"way/453270728-0","properties":{"building":"yes"},"geometry":{"type":"Polygon","coordinates":[[[103.9762656,1.3660219],[103.976242,1.3661184],[103.9763258,1.3661389],[103.9763854,1.3658953],[103.9763016,1.3658748],[103.976283,1.3659506],[103.9762681,1.365947],[103.9762507,1.3660182],[103.9762656,1.3660219]]]}},{"type":"Feature","id":"way/453270729-0","properties":{"building":"yes"},"geometry":{"type":"Polygon","coordinates":[[[103.9761623,1.3662935],[103.9761742,1.3662448],[103.976132,1.3662345],[103.9761703,1.3660779],[103.9760361,1.3660451],[103.9759717,1.3663078],[103.976106,1.3663407],[103.9761201,1.3662832],[103.9761623,1.3662935]]]}},{"type":"Feature","id":"way/453270733-0","properties":{"building":"yes"},"geometry":{"type":"Polygon","coordinates":[[[103.9763547,1.3648381],[103.9764271,1.3650098],[103.9767858,1.3648585],[103.9767133,1.3646869],[103.9763547,1.3648381]]]}},{"type":"Feature","id":"way/453272699-0","properties":{"building":"yes"},"geometry":{"type":"Polygon","coordinates":[[[103.9750202,1.3686519],[103.9750099,1.3686572],[103.9750024,1.368666],[103.9749989,1.3686771],[103.9749999,1.3686886],[103.9750052,1.3686989],[103.975014,1.3687064],[103.9750251,1.3687099],[103.9750366,1.3687089],[103.9750469,1.3687036],[103.9750544,1.3686948],[103.9750579,1.3686838],[103.975057,1.3686722],[103.9750516,1.3686619],[103.9750428,1.3686544],[103.9750318,1.3686509],[103.9750202,1.3686519]]]}},{"type":"Feature","id":"way/453272700-0","properties":{"building":"yes"},"geometry":{"type":"Polygon","coordinates":[[[103.9747633,1.3689097],[103.9748605,1.3690183],[103.9749198,1.3689653],[103.9748226,1.3688567],[103.9747633,1.3689097]]]}},{"type":"Feature","id":"way/453997301-0","properties":{"building":"yes","layer":"1"},"geometry":{"type":"Polygon","coordinates":[[[103.9733609,1.3656891],[103.9731646,1.3657853],[103.9731947,1.3658466],[103.9732549,1.365817],[103.9732432,1.3657932],[103.9732956,1.3657675],[103.9733301,1.3658379],[103.9732921,1.3658565],[103.9733063,1.3658855],[103.973428,1.3658258],[103.9733609,1.3656891]]]}},{"type":"Feature","id":"way/453997305-0","properties":{"building":"yes"},"geometry":{"type":"Polygon","coordinates":[[[103.974012,1.3659289],[103.973992,1.3659844],[103.9739883,1.3659849],[103.9739675,1.3659966],[103.9739528,1.3660154],[103.9739463,1.3660383],[103.9739492,1.366062],[103.9739609,1.3660829],[103.9739797,1.3660976],[103.9740027,1.366104],[103.9740264,1.3661012],[103.9740472,1.3660895],[103.9740619,1.3660707],[103.9740684,1.3660477],[103.9740655,1.366024],[103.9740538,1.3660032],[103.974035,1.3659885],[103.974027,1.3659862],[103.9740436,1.3659399],[103.9741032,1.3659606],[103.9741415,1.3658506],[103.9738907,1.3657635],[103.9738525,1.3658734],[103.974012,1.3659289]]]}},{"type":"Feature","id":"way/453997336-0","properties":{"building":"yes"},"geometry":{"type":"Polygon","coordinates":[[[103.9745223,1.3654115],[103.9744846,1.3652867],[103.9744653,1.3652925],[103.9744345,1.3651903],[103.9743304,1.3652217],[103.9743544,1.365301],[103.974397,1.3652881],[103.9744034,1.3653091],[103.9743607,1.365322],[103.974399,1.3654487],[103.9745223,1.3654115]]]}},{"type":"Feature","id":"way/453997340-0","properties":{"building":"yes"},"geometry":{"type":"Polygon","coordinates":[[[103.9745391,1.3662381],[103.9745361,1.3660503],[103.9743685,1.366053],[103.9743715,1.3662408],[103.9745391,1.3662381]]]}},{"type":"Feature","id":"way/453997341-0","properties":{"building":"yes"},"geometry":{"type":"Polygon","coordinates":[[[103.9739309,1.3660536],[103.9739685,1.3659477],[103.9738498,1.3659056],[103.9738122,1.3660115],[103.9739309,1.3660536]]]}},{"type":"Feature","id":"way/453997354-0","properties":{"building":"yes"},"geometry":{"type":"Polygon","coordinates":[[[103.9740194,1.3655845],[103.9739588,1.3654057],[103.9738986,1.3654261],[103.9738904,1.3654017],[103.9738156,1.365427],[103.9738389,1.3654955],[103.9738286,1.365499],[103.9738743,1.3656337],[103.9740194,1.3655845]]]}},{"type":"Feature","id":"way/453997364-0","properties":{"addr:housenumber":"32","addr:street":"Toh Crescent","building":"yes","source":"Kaart Ground Survey 2017"},"geometry":{"type":"Polygon","coordinates":[[[103.9727336,1.3658047],[103.9726168,1.3657508],[103.972527,1.3659452],[103.9726438,1.3659991],[103.9727336,1.3658047]]]}},{"type":"Feature","id":"way/453997377-0","properties":{"building":"yes"},"geometry":{"type":"Polygon","coordinates":[[[103.9728838,1.3658584],[103.9727595,1.3658054],[103.972663,1.366032],[103.9727873,1.3660849],[103.9728838,1.3658584]]]}},{"type":"Feature","id":"way/453997379-0","properties":{"building":"yes"},"geometry":{"type":"Polygon","coordinates":[[[103.9745686,1.3657997],[103.9745507,1.3656892],[103.9743268,1.3657254],[103.9743446,1.3658359],[103.9745686,1.3657997]]]}},{"type":"Feature","id":"way/453997382-0","properties":{"building":"yes"},"geometry":{"type":"Polygon","coordinates":[[[103.9725593,1.3657725],[103.9724328,1.365712],[103.9723577,1.3658689],[103.9724842,1.3659294],[103.9725593,1.3657725]]]}},{"type":"Feature","id":"way/453997387-0","properties":{"building":"yes"},"geometry":{"type":"Polygon","coordinates":[[[103.9745257,1.3656629],[103.9745128,1.3655961],[103.9744682,1.3656047],[103.9744579,1.3655516],[103.9742665,1.3655886],[103.9742897,1.3657085],[103.9745257,1.3656629]]]}},{"type":"Feature","id":"way/453997388-0","properties":{"building":"yes"},"geometry":{"type":"Polygon","coordinates":[[[103.9743661,1.3660062],[103.9743661,1.365923],[103.9744586,1.365923],[103.9744586,1.3658506],[103.9742186,1.3658506],[103.9742186,1.3660062],[103.9743661,1.3660062]]]}},{"type":"Feature","id":"way/453997389-0","properties":{"building":"yes","layer":"1"},"geometry":{"type":"Polygon","coordinates":[[[103.9728637,1.36579],[103.9729152,1.3656677],[103.9728136,1.3656249],[103.9727822,1.3656996],[103.9728073,1.3657102],[103.9727873,1.3657578],[103.9728637,1.36579]]]}},{"type":"Feature","id":"way/453997391-0","properties":{"building":"yes"},"geometry":{"type":"Polygon","coordinates":[[[103.9730221,1.3659312],[103.9729753,1.3659132],[103.9729903,1.3658744],[103.9729348,1.365853],[103.9728645,1.3660353],[103.9729004,1.3660492],[103.9728913,1.3660728],[103.9729576,1.3660983],[103.9730221,1.3659312]]]}},{"type":"Feature","id":"way/453997393-0","properties":{"building":"yes"},"geometry":{"type":"Polygon","coordinates":[[[103.9731175,1.3661721],[103.9731308,1.3661378],[103.9732601,1.3661876],[103.9733024,1.3660779],[103.973191,1.3660349],[103.9732078,1.3659912],[103.9730562,1.3659328],[103.9729838,1.3661205],[103.9731175,1.3661721]]]}},{"type":"Feature","id":"way/454062711-0","properties":{"building":"yes"},"geometry":{"type":"Polygon","coordinates":[[[103.9740405,1.365317],[103.9740592,1.3653744],[103.9739877,1.3653976],[103.9740417,1.365564],[103.97406,1.3655581],[103.9740653,1.3655744],[103.9741612,1.3655433],[103.97414,1.3654778],[103.9741112,1.3654871],[103.9740847,1.3654054],[103.9741133,1.3653961],[103.9740832,1.3653032],[103.9740405,1.365317]]]}},{"type":"Feature","id":"way/454062731-0","properties":{"building":"yes"},"geometry":{"type":"Polygon","coordinates":[[[103.9736993,1.3673305],[103.9737999,1.3674417],[103.9738826,1.367367],[103.9737821,1.3672557],[103.9736993,1.3673305]]]}},{"type":"Feature","id":"way/454062736-0","properties":{"building":"yes"},"geometry":{"type":"Polygon","coordinates":[[[103.9735537,1.3649586],[103.9737904,1.3648513],[103.9737596,1.3648124],[103.9737408,1.3647668],[103.9735101,1.3648634],[103.9735537,1.3649586]]]}},{"type":"Feature","id":"way/454062744-0","properties":{"building":"yes"},"geometry":{"type":"Polygon","coordinates":[[[103.974464,1.3651766],[103.9744734,1.3652161],[103.9744981,1.3652585],[103.9746337,1.3652259],[103.9746016,1.3650924],[103.974466,1.365125],[103.974464,1.3651766]]]}},{"type":"Feature","id":"way/454062749-0","properties":{"building":"yes"},"geometry":{"type":"Polygon","coordinates":[[[103.9745036,1.3653315],[103.9745267,1.3653622],[103.9746132,1.3653414],[103.9745901,1.36531],[103.9745927,1.3652564],[103.9745062,1.3652772],[103.9745036,1.3653315]]]}},{"type":"Feature","id":"way/454062752-0","properties":{"building":"yes"},"geometry":{"type":"Polygon","coordinates":[[[103.9742984,1.3653351],[103.9742743,1.3652389],[103.9741939,1.365259],[103.9741652,1.3652308],[103.974129,1.3652731],[103.9741535,1.3653713],[103.9742984,1.3653351]]]}},{"type":"Feature","id":"way/454062759-0","properties":{"building":"yes"},"geometry":{"type":"Polygon","coordinates":[[[103.9741909,1.3655183],[103.9743518,1.3654794],[103.9743306,1.3653955],[103.9742222,1.3654229],[103.9742094,1.3653721],[103.9741507,1.3653869],[103.9741636,1.3654377],[103.9741909,1.3655183]]]}},{"type":"Feature","id":"way/454276014-0","properties":{"building":"yes"},"geometry":{"type":"Polygon","coordinates":[[[103.9739518,1.3656745],[103.9739625,1.3657133],[103.9742441,1.3658099],[103.9742723,1.3657308],[103.9742388,1.3657241],[103.9742562,1.3656758],[103.9741757,1.365649],[103.9741623,1.3656852],[103.9741006,1.3656584],[103.9741194,1.3656168],[103.9739518,1.3656745]]]}},{"type":"Feature","id":"way/454276016-0","properties":{"building":"yes","layer":"1"},"geometry":{"type":"Polygon","coordinates":[[[103.973197,1.3654124],[103.9733431,1.3653453],[103.9732302,1.3650993],[103.9730841,1.3651663],[103.973197,1.3654124]]]}},{"type":"Feature","id":"way/454276017-0","properties":{"building":"yes"},"geometry":{"type":"Polygon","coordinates":[[[103.972836,1.3650792],[103.9727647,1.3648401],[103.9726387,1.3648777],[103.9727099,1.3651167],[103.972836,1.3650792]]]}},{"type":"Feature","id":"way/454276019-0","properties":{"building":"yes","layer":"1"},"geometry":{"type":"Polygon","coordinates":[[[103.9730223,1.3654754],[103.9731524,1.3654244],[103.9730465,1.3651543],[103.9729164,1.3652052],[103.9730223,1.3654754]]]}},{"type":"Feature","id":"way/454276021-0","properties":{"addr:housenumber":"19","addr:street":"Toh Avenue","building":"yes","source":"Kaart Ground Survey 2017"},"geometry":{"type":"Polygon","coordinates":[[[103.973796,1.3651355],[103.9739141,1.3650792],[103.9738123,1.364866],[103.9736943,1.3649223],[103.973796,1.3651355]]]}},{"type":"Feature","id":"way/454276024-0","properties":{"addr:housenumber":"23","addr:street":"Toh Avenue","building":"yes","source":"Kaart Ground Survey 2017"},"geometry":{"type":"Polygon","coordinates":[[[103.9734837,1.3651851],[103.9734092,1.3650072],[103.9732939,1.3650555],[103.9733684,1.3652334],[103.9734837,1.3651851]]]}},{"type":"Feature","id":"way/454276025-0","properties":{"building":"yes"},"geometry":{"type":"Polygon","coordinates":[[[103.9723967,1.3653001],[103.9725872,1.3653699],[103.9726656,1.3651556],[103.9724752,1.3650859],[103.9723967,1.3653001]]]}},{"type":"Feature","id":"way/454276028-0","properties":{"building":"yes"},"geometry":{"type":"Polygon","coordinates":[[[103.9736281,1.3652098],[103.9737568,1.3651561],[103.9736728,1.3649545],[103.9735441,1.3650081],[103.9736281,1.3652098]]]}},{"type":"Feature","id":"way/454276031-0","properties":{"building":"yes"},"geometry":{"type":"Polygon","coordinates":[[[103.9733308,1.3649438],[103.9733094,1.3648687],[103.9732653,1.3648813],[103.9732659,1.3648832],[103.9730996,1.3649529],[103.9731565,1.3650886],[103.9733228,1.3650189],[103.9732955,1.3649539],[103.9733308,1.3649438]]]}},{"type":"Feature","id":"way/454276032-0","properties":{"addr:housenumber":"29","addr:street":"Toh Avenue","building":"yes","layer":"1","source":"Kaart Ground Survey 2017"},"geometry":{"type":"Polygon","coordinates":[[[103.972671,1.3654479],[103.9727649,1.3654975],[103.9728614,1.3654439],[103.9729017,1.365531],[103.9730049,1.3654841],[103.972895,1.365224],[103.9727233,1.3652722],[103.9726683,1.3653554],[103.972671,1.3654479]]]}},{"type":"Feature","id":"way/454276033-0","properties":{"addr:housenumber":"17","addr:street":"Toh Avenue","building":"yes","source":"Kaart Ground Survey 2017"},"geometry":{"type":"Polygon","coordinates":[[[103.9739625,1.3647896],[103.9739021,1.3648097],[103.973913,1.3648422],[103.9738705,1.3648533],[103.9739008,1.3649692],[103.9740188,1.3649384],[103.9739885,1.3648225],[103.9739747,1.3648261],[103.9739625,1.3647896]]]}},{"type":"Feature","id":"way/454276035-0","properties":{"building":"yes"},"geometry":{"type":"Polygon","coordinates":[[[103.9722952,1.3652272],[103.9722848,1.3652562],[103.9723518,1.3652803],[103.9723622,1.3652514],[103.9723679,1.3652535],[103.9724413,1.3650508],[103.9723152,1.3650052],[103.9722419,1.3652079],[103.9722952,1.3652272]]]}},{"type":"Feature","id":"way/455258197-0","properties":{"building":"yes"},"geometry":{"type":"Polygon","coordinates":[[[103.9741967,1.3661256],[103.9742135,1.3661261],[103.9742115,1.3662033],[103.9742506,1.3662043],[103.9742524,1.3661331],[103.9743377,1.3661353],[103.9743393,1.3660714],[103.9741982,1.3660677],[103.9741967,1.3661256]]]}},{"type":"Feature","id":"way/469702919-0","properties":{"addr:housenumber":"15","addr:street":"Toh Avenue","building":"yes","source":"Kaart Ground Survey 2017"},"geometry":{"type":"Polygon","coordinates":[[[103.9741197,1.3649491],[103.9740748,1.3647614],[103.9739993,1.3647795],[103.9740442,1.3649672],[103.9741197,1.3649491]]]}},{"type":"Feature","id":"way/544862590-0","properties":{"amenity":"parking","building":"yes","parking":"multi-storey"},"geometry":{"type":"Polygon","coordinates":[[[103.9726292,1.3696667],[103.9727894,1.3695153],[103.9734344,1.3689053],[103.9725498,1.3679706],[103.9724219,1.3678354],[103.9723186,1.3677262],[103.9722561,1.3677853],[103.9720793,1.3675984],[103.9715828,1.368068],[103.97176,1.3682553],[103.971674,1.3683366],[103.9718537,1.3685265],[103.9717662,1.3686091],[103.971922,1.3687738],[103.9718494,1.3688424],[103.9726292,1.3696667]]]}},{"type":"Feature","id":"way/1149027453-0","properties":{"building":"yes"},"geometry":{"type":"Polygon","coordinates":[[[103.9758564,1.3672748],[103.9757774,1.3671712],[103.9756772,1.3672476],[103.9757563,1.3673512],[103.9758564,1.3672748]]]}},{"type":"Feature","id":"way/173713439-0-0-0","properties":{"highway":"tertiary","lanes":"1","lit":"yes","maxspeed":"50","name":"Upper Changi Road North","name:en":"Upper Changi Road North","name:zh":"\u6a1f\u5b9c\u5317\u8def\u4e0a\u6bb5","oneway":"yes","sidewalk":"no","surface":"asphalt","turn:lanes":"through;right"},"geometry":{"type":"LineString","coordinates":[[103.9758351,1.3668298],[103.9758134,1.366805]]}},{"type":"Feature","id":"way/173713439-0-1-0","properties":{"highway":"tertiary","lanes":"1","lit":"yes","maxspeed":"50","name":"Upper Changi Road North","name:en":"Upper Changi Road North","name:zh":"\u6a1f\u5b9c\u5317\u8def\u4e0a\u6bb5","oneway":"yes","sidewalk":"no","surface":"asphalt","turn:lanes":"through;right"},"geometry":{"type":"LineString","coordinates":[[103.9758134,1.366805],[103.9757374,1.3666999]]}},{"type":"Feature","id":"way/173713439-0-2-0","properties":{"highway":"tertiary","lanes":"1","lit":"yes","maxspeed":"50","name":"Upper Changi Road North","name:en":"Upper Changi Road North","name:zh":"\u6a1f\u5b9c\u5317\u8def\u4e0a\u6bb5","oneway":"yes","sidewalk":"no","surface":"asphalt","turn:lanes":"through;right"},"geometry":{"type":"LineString","coordinates":[[103.9757374,1.3666999],[103.9756914,1.3666224]]}},{"type":"Feature","id":"way/173713439-0-3-0","properties":{"highway":"tertiary","lanes":"1","lit":"yes","maxspeed":"50","name":"Upper Changi Road North","name:en":"Upper Changi Road North","name:zh":"\u6a1f\u5b9c\u5317\u8def\u4e0a\u6bb5","oneway":"yes","sidewalk":"no","surface":"asphalt","turn:lanes":"through;right"},"geometry":{"type":"LineString","coordinates":[[103.9756914,1.3666224],[103.9756414,1.3665267]]}},{"type":"Feature","id":"way/173713439-0-4-0","properties":{"highway":"tertiary","lanes":"1","lit":"yes","maxspeed":"50","name":"Upper Changi Road North","name:en":"Upper Changi Road North","name:zh":"\u6a1f\u5b9c\u5317\u8def\u4e0a\u6bb5","oneway":"yes","sidewalk":"no","surface":"asphalt","turn:lanes":"through;right"},"geometry":{"type":"LineString","coordinates":[[103.9756414,1.3665267],[103.9755834,1.3663851]]}},{"type":"Feature","id":"way/244550966-0-0-0","properties":{"highway":"residential","lanes":"2","lanes:backward":"1","lanes:forward":"1","maxspeed":"50","name":"Toh Avenue","sidewalk:both":"separate","surface":"asphalt"},"geometry":{"type":"LineString","coordinates":[[103.9735632,1.3652793],[103.9739216,1.3651366]]}},{"type":"Feature","id":"way/244550966-0-1-0","properties":{"highway":"residential","lanes":"2","lanes:backward":"1","lanes:forward":"1","maxspeed":"50","name":"Toh Avenue","sidewalk:both":"separate","surface":"asphalt"},"geometry":{"type":"LineString","coordinates":[[103.9739216,1.3651366],[103.9742806,1.3650146]]}},{"type":"Feature","id":"way/244550976-0-0-0","properties":{"highway":"residential","lanes":"2","lanes:backward":"1","lanes:forward":"1","maxspeed":"50","name":"Toh Crescent","sidewalk:both":"separate","surface":"asphalt"},"geometry":{"type":"LineString","coordinates":[[103.974611,1.3663234],[103.9742044,1.3663165]]}},{"type":"Feature","id":"way/244550976-0-1-0","properties":{"highway":"residential","lanes":"2","lanes:backward":"1","lanes:forward":"1","maxspeed":"50","name":"Toh Crescent","sidewalk:both":"separate","surface":"asphalt"},"geometry":{"type":"LineString","coordinates":[[103.9742044,1.3663165],[103.9741453,1.3663021]]}},{"type":"Feature","id":"way/244550976-0-2-0","properties":{"highway":"residential","lanes":"2","lanes:backward":"1","lanes:forward":"1","maxspeed":"50","name":"Toh Crescent","sidewalk:both":"separate","surface":"asphalt"},"geometry":{"type":"LineString","coordinates":[[103.9741453,1.3663021],[103.9733272,1.3660135]]}},{"type":"Feature","id":"way/244550976-0-3-0","properties":{"highway":"residential","lanes":"2","lanes:backward":"1","lanes:forward":"1","maxspeed":"50","name":"Toh Crescent","sidewalk:both":"separate","surface":"asphalt"},"geometry":{"type":"LineString","coordinates":[[103.9733272,1.3660135],[103.9728471,1.3655953]]}},{"type":"Feature","id":"way/244550980-0-4-0","properties":{"highway":"residential","lanes":"2","lanes:backward":"1","lanes:forward":"1","maxspeed":"50","name":"Chin Terrace","sidewalk:both":"separate","surface":"asphalt"},"geometry":{"type":"LineString","coordinates":[[103.9742703,1.3649861],[103.9742806,1.3650146]]}},{"type":"Feature","id":"way/244550981-0-2-0","properties":{"highway":"residential","lanes":"2","lanes:backward":"1","lanes:forward":"1","maxspeed":"50","name":"Toh Street","sidewalk:both":"separate","surface":"asphalt"},"geometry":{"type":"LineString","coordinates":[[103.9732962,1.3645509],[103.9735511,1.3652503]]}},{"type":"Feature","id":"way/244550981-0-3-0","properties":{"highway":"residential","lanes":"2","lanes:backward":"1","lanes:forward":"1","maxspeed":"50","name":"Toh Street","sidewalk:both":"separate","surface":"asphalt"},"geometry":{"type":"LineString","coordinates":[[103.9735511,1.3652503],[103.9735632,1.3652793]]}},{"type":"Feature","id":"way/244550982-0-0-0","properties":{"highway":"residential","lanes":"2","lanes:backward":"1","lanes:forward":"1","maxspeed":"50","name":"Toh Crescent","sidewalk:both":"separate","surface":"asphalt"},"geometry":{"type":"LineString","coordinates":[[103.974611,1.3663234],[103.9746119,1.3662939]]}},{"type":"Feature","id":"way/244550982-0-1-0","properties":{"highway":"residential","lanes":"2","lanes:backward":"1","lanes:forward":"1","maxspeed":"50","name":"Toh Crescent","sidewalk:both":"separate","surface":"asphalt"},"geometry":{"type":"LineString","coordinates":[[103.9746119,1.3662939],[103.9746222,1.3659486]]}},{"type":"Feature","id":"way/244550982-0-2-0","properties":{"highway":"residential","lanes":"2","lanes:backward":"1","lanes:forward":"1","maxspeed":"50","name":"Toh Crescent","sidewalk:both":"separate","surface":"asphalt"},"geometry":{"type":"LineString","coordinates":[[103.9746222,1.3659486],[103.9745975,1.3654919]]}},{"type":"Feature","id":"way/512991768-0-0-0","properties":{"highway":"tertiary","lanes":"1","maxspeed":"50","name":"Upper Changi Road North","name:en":"Upper Changi Road North","name:zh":"\u6a1f\u5b9c\u5317\u8def\u4e0a\u6bb5","oneway":"yes","sidewalk:left":"separate","sidewalk:right":"no","surface":"asphalt","turn:lanes":"left;through"},"geometry":{"type":"LineString","coordinates":[[103.9757932,1.3668693],[103.9758564,1.3669411]]}},{"type":"Feature","id":"way/512991768-0-1-0","properties":{"highway":"tertiary","lanes":"1","maxspeed":"50","name":"Upper Changi Road North","name:en":"Upper Changi Road North","name:zh":"\u6a1f\u5b9c\u5317\u8def\u4e0a\u6bb5","oneway":"yes","sidewalk:left":"separate","sidewalk:right":"no","surface":"asphalt","turn:lanes":"left;through"},"geometry":{"type":"LineString","coordinates":[[103.9758564,1.3669411],[103.9762335,1.3672726]]}},{"type":"Feature","id":"way/512991768-0-2-0","properties":{"highway":"tertiary","lanes":"1","maxspeed":"50","name":"Upper Changi Road North","name:en":"Upper Changi Road North","name:zh":"\u6a1f\u5b9c\u5317\u8def\u4e0a\u6bb5","oneway":"yes","sidewalk:left":"separate","sidewalk:right":"no","surface":"asphalt","turn:lanes":"left;through"},"geometry":{"type":"LineString","coordinates":[[103.9762335,1.3672726],[103.9767064,1.3676247]]}},{"type":"Feature","id":"way/537636434-0-0-0","properties":{"highway":"tertiary","lanes":"1","lit":"yes","maxspeed":"50","name":"Upper Changi Road North","oneway":"yes","sidewalk":"left","surface":"asphalt"},"geometry":{"type":"LineString","coordinates":[[103.9755325,1.366129],[103.9754118,1.3657011]]}},{"type":"Feature","id":"way/537636434-0-1-0","properties":{"highway":"tertiary","lanes":"1","lit":"yes","maxspeed":"50","name":"Upper Changi Road North","oneway":"yes","sidewalk":"left","surface":"asphalt"},"geometry":{"type":"LineString","coordinates":[[103.9754118,1.3657011],[103.9753476,1.3654742]]}},{"type":"Feature","id":"way/537636434-0-2-0","properties":{"highway":"tertiary","lanes":"1","lit":"yes","maxspeed":"50","name":"Upper Changi Road North","oneway":"yes","sidewalk":"left","surface":"asphalt"},"geometry":{"type":"LineString","coordinates":[[103.9753476,1.3654742],[103.9751208,1.3647956]]}},{"type":"Feature","id":"way/537636435-0-0-0","properties":{"highway":"residential","maxspeed":"50","name":"Toh Crescent","surface":"asphalt"},"geometry":{"type":"LineString","coordinates":[[103.9755834,1.3663851],[103.9755334,1.366383]]}},{"type":"Feature","id":"way/537636436-0-0-0","properties":{"highway":"tertiary","lanes":"1","maxspeed":"50","name":"Upper Changi Road North","oneway":"yes","sidewalk:left":"separate","sidewalk:right":"no","surface":"asphalt"},"geometry":{"type":"LineString","coordinates":[[103.9754818,1.3661369],[103.9755334,1.366383]]}},{"type":"Feature","id":"way/537636437-0-0-0","properties":{"highway":"tertiary","lanes":"1","maxspeed":"50","name":"Upper Changi Road North","oneway":"yes","sidewalk:left":"separate","sidewalk:right":"no","surface":"asphalt"},"geometry":{"type":"LineString","coordinates":[[103.9750574,1.3648152],[103.9752727,1.3654528]]}},{"type":"Feature","id":"way/537636437-0-1-0","properties":{"highway":"tertiary","lanes":"1","maxspeed":"50","name":"Upper Changi Road North","oneway":"yes","sidewalk:left":"separate","sidewalk:right":"no","surface":"asphalt"},"geometry":{"type":"LineString","coordinates":[[103.9752727,1.3654528],[103.9754818,1.3661369]]}},{"type":"Feature","id":"way/537636438-0-0-0","properties":{"highway":"unclassified","lane_markings":"no","maxspeed":"50","name":"Cosford Road","surface":"asphalt"},"geometry":{"type":"LineString","coordinates":[[103.9754818,1.3661369],[103.9755325,1.366129]]}},{"type":"Feature","id":"way/539002949-0-0-0","properties":{"highway":"tertiary","lanes":"1","maxspeed":"50","name":"Upper Changi Road North","oneway":"yes","surface":"asphalt"},"geometry":{"type":"LineString","coordinates":[[103.9755834,1.3663851],[103.9755325,1.366129]]}},{"type":"Feature","id":"way/634736475-0-0-0","properties":{"highway":"residential","lanes":"2","lanes:backward":"1","lanes:forward":"1","maxspeed":"50","name":"Toh Avenue","sidewalk:both":"separate","surface":"asphalt"},"geometry":{"type":"LineString","coordinates":[[103.9742806,1.3650146],[103.9746431,1.3649266]]}},{"type":"Feature","id":"way/643362474-0-0-0","properties":{"highway":"residential","lanes":"2","lanes:backward":"1","lanes:forward":"1","maxspeed":"50","name":"Toh Avenue","sidewalk:both":"separate","surface":"asphalt"},"geometry":{"type":"LineString","coordinates":[[103.9728471,1.3655953],[103.9728766,1.3655688]]}},{"type":"Feature","id":"way/643362474-0-1-0","properties":{"highway":"residential","lanes":"2","lanes:backward":"1","lanes:forward":"1","maxspeed":"50","name":"Toh Avenue","sidewalk:both":"separate","surface":"asphalt"},"geometry":{"type":"LineString","coordinates":[[103.9728766,1.3655688],[103.9735632,1.3652793]]}},{"type":"Feature","id":"way/643362475-0-0-0","properties":{"highway":"residential","lanes":"2","lanes:backward":"1","lanes:forward":"1","maxspeed":"50","name":"Toh Avenue","sidewalk:both":"separate","surface":"asphalt"},"geometry":{"type":"LineString","coordinates":[[103.9746431,1.3649266],[103.9750228,1.3648234]]}},{"type":"Feature","id":"way/643877782-0-0-0","properties":{"highway":"residential","lanes":"2","lanes:backward":"1","lanes:forward":"1","maxspeed":"50","name":"Toh Crescent","sidewalk:both":"separate","surface":"asphalt"},"geometry":{"type":"LineString","coordinates":[[103.9728471,1.3655953],[103.9725452,1.3654602]]}},{"type":"Feature","id":"way/643877783-0-0-0","properties":{"highway":"residential","lanes":"2","lanes:backward":"1","lanes:forward":"1","maxspeed":"50","name":"Toh Crescent","sidewalk:both":"separate","surface":"asphalt"},"geometry":{"type":"LineString","coordinates":[[103.9755334,1.366383],[103.9754476,1.3663735]]}},{"type":"Feature","id":"way/643877783-0-1-0","properties":{"highway":"residential","lanes":"2","lanes:backward":"1","lanes:forward":"1","maxspeed":"50","name":"Toh Crescent","sidewalk:both":"separate","surface":"asphalt"},"geometry":{"type":"LineString","coordinates":[[103.9754476,1.3663735],[103.9750218,1.366354]]}},{"type":"Feature","id":"way/643877783-0-2-0","properties":{"highway":"residential","lanes":"2","lanes:backward":"1","lanes:forward":"1","maxspeed":"50","name":"Toh Crescent","sidewalk:both":"separate","surface":"asphalt"},"geometry":{"type":"LineString","coordinates":[[103.9750218,1.366354],[103.974611,1.3663234]]}},{"type":"Feature","id":"way/645298276-0-0-0","properties":{"highway":"tertiary","lanes":"1","maxspeed":"50","name":"Upper Changi Road North","name:en":"Upper Changi Road North","name:zh":"\u6a1f\u5b9c\u5317\u8def\u4e0a\u6bb5","oneway":"yes","sidewalk:left":"separate","sidewalk:right":"no","surface":"asphalt"},"geometry":{"type":"LineString","coordinates":[[103.9755334,1.366383],[103.9755903,1.3665527]]}},{"type":"Feature","id":"way/645298276-0-1-0","properties":{"highway":"tertiary","lanes":"1","maxspeed":"50","name":"Upper Changi Road North","name:en":"Upper Changi Road North","name:zh":"\u6a1f\u5b9c\u5317\u8def\u4e0a\u6bb5","oneway":"yes","sidewalk:left":"separate","sidewalk:right":"no","surface":"asphalt"},"geometry":{"type":"LineString","coordinates":[[103.9755903,1.3665527],[103.9756414,1.3666581]]}},{"type":"Feature","id":"way/645298276-0-2-0","properties":{"highway":"tertiary","lanes":"1","maxspeed":"50","name":"Upper Changi Road North","name:en":"Upper Changi Road North","name:zh":"\u6a1f\u5b9c\u5317\u8def\u4e0a\u6bb5","oneway":"yes","sidewalk:left":"separate","sidewalk:right":"no","surface":"asphalt"},"geometry":{"type":"LineString","coordinates":[[103.9756414,1.3666581],[103.9756978,1.3667432]]}},{"type":"Feature","id":"way/645298276-0-3-0","properties":{"highway":"tertiary","lanes":"1","maxspeed":"50","name":"Upper Changi Road North","name:en":"Upper Changi Road North","name:zh":"\u6a1f\u5b9c\u5317\u8def\u4e0a\u6bb5","oneway":"yes","sidewalk:left":"separate","sidewalk:right":"no","surface":"asphalt"},"geometry":{"type":"LineString","coordinates":[[103.9756978,1.3667432],[103.9757707,1.3668438]]}},{"type":"Feature","id":"way/645298276-0-4-0","properties":{"highway":"tertiary","lanes":"1","maxspeed":"50","name":"Upper Changi Road North","name:en":"Upper Changi Road North","name:zh":"\u6a1f\u5b9c\u5317\u8def\u4e0a\u6bb5","oneway":"yes","sidewalk:left":"separate","sidewalk:right":"no","surface":"asphalt"},"geometry":{"type":"LineString","coordinates":[[103.9757707,1.3668438],[103.9757932,1.3668693]]}},{"type":"Feature","id":"way/645298277-0-1-0","properties":{"highway":"tertiary","lanes":"1","lit":"yes","maxspeed":"50","name":"Upper Changi Road North","name:en":"Upper Changi Road North","name:zh":"\u6a1f\u5b9c\u5317\u8def\u4e0a\u6bb5","oneway":"yes","surface":"asphalt"},"geometry":{"type":"LineString","coordinates":[[103.9767378,1.3675817],[103.9762622,1.3672362]]}},{"type":"Feature","id":"way/645298277-0-2-0","properties":{"highway":"tertiary","lanes":"1","lit":"yes","maxspeed":"50","name":"Upper Changi Road North","name:en":"Upper Changi Road North","name:zh":"\u6a1f\u5b9c\u5317\u8def\u4e0a\u6bb5","oneway":"yes","surface":"asphalt"},"geometry":{"type":"LineString","coordinates":[[103.9762622,1.3672362],[103.9758987,1.3669022]]}},{"type":"Feature","id":"way/645298277-0-3-0","properties":{"highway":"tertiary","lanes":"1","lit":"yes","maxspeed":"50","name":"Upper Changi Road North","name:en":"Upper Changi Road North","name:zh":"\u6a1f\u5b9c\u5317\u8def\u4e0a\u6bb5","oneway":"yes","surface":"asphalt"},"geometry":{"type":"LineString","coordinates":[[103.9758987,1.3669022],[103.9758351,1.3668298]]}},{"type":"Feature","id":"way/645298278-0-0-0","properties":{"highway":"service","name":"Kreta Road","surface":"asphalt"},"geometry":{"type":"LineString","coordinates":[[103.9757932,1.3668693],[103.9758351,1.3668298]]}},{"type":"Feature","id":"way/646472309-0-0-0","properties":{"highway":"unclassified","maxspeed":"50","name":"Cosford Road","name:en":"Cosford Road","name:zh":"\u9ad8\u58eb\u798f\u8def","surface":"asphalt"},"geometry":{"type":"LineString","coordinates":[[103.9755325,1.366129],[103.975642,1.3660986]]}},{"type":"Feature","id":"way/646472309-0-1-0","properties":{"highway":"unclassified","maxspeed":"50","name":"Cosford Road","name:en":"Cosford Road","name:zh":"\u9ad8\u58eb\u798f\u8def","surface":"asphalt"},"geometry":{"type":"LineString","coordinates":[[103.975642,1.3660986],[103.9757258,1.3660698]]}},{"type":"Feature","id":"way/646472309-0-2-0","properties":{"highway":"unclassified","maxspeed":"50","name":"Cosford Road","name:en":"Cosford Road","name:zh":"\u9ad8\u58eb\u798f\u8def","surface":"asphalt"},"geometry":{"type":"LineString","coordinates":[[103.9757258,1.3660698],[103.9757996,1.3660417]]}},{"type":"Feature","id":"way/646472309-0-3-0","properties":{"highway":"unclassified","maxspeed":"50","name":"Cosford Road","name:en":"Cosford Road","name:zh":"\u9ad8\u58eb\u798f\u8def","surface":"asphalt"},"geometry":{"type":"LineString","coordinates":[[103.9757996,1.3660417],[103.9759411,1.3659599]]}},{"type":"Feature","id":"way/646472309-0-4-0","properties":{"highway":"unclassified","maxspeed":"50","name":"Cosford Road","name:en":"Cosford Road","name:zh":"\u9ad8\u58eb\u798f\u8def","surface":"asphalt"},"geometry":{"type":"LineString","coordinates":[[103.9759411,1.3659599],[103.9761637,1.3658043]]}},{"type":"Feature","id":"way/646472309-0-5-0","properties":{"highway":"unclassified","maxspeed":"50","name":"Cosford Road","name:en":"Cosford Road","name:zh":"\u9ad8\u58eb\u798f\u8def","surface":"asphalt"},"geometry":{"type":"LineString","coordinates":[[103.9761637,1.3658043],[103.9763964,1.3656314]]}},{"type":"Feature","id":"way/646472309-0-6-0","properties":{"highway":"unclassified","maxspeed":"50","name":"Cosford Road","name:en":"Cosford Road","name:zh":"\u9ad8\u58eb\u798f\u8def","surface":"asphalt"},"geometry":{"type":"LineString","coordinates":[[103.9763964,1.3656314],[103.9765741,1.3655188]]}},{"type":"Feature","id":"way/646472309-0-7-0","properties":{"highway":"unclassified","maxspeed":"50","name":"Cosford Road","name:en":"Cosford Road","name:zh":"\u9ad8\u58eb\u798f\u8def","surface":"asphalt"},"geometry":{"type":"LineString","coordinates":[[103.9765741,1.3655188],[103.9767243,1.365437]]}},{"type":"Feature","id":"way/699884079-0-0-0","properties":{"highway":"service","lanes":"2","lanes:backward":"1","lanes:forward":"1","turn:lanes:forward":"left;through"},"geometry":{"type":"LineString","coordinates":[[103.9735971,1.3689101],[103.9731393,1.3692986]]}},{"type":"Feature","id":"way/1149027465-0-8-0","properties":{"highway":"service"},"geometry":{"type":"LineString","coordinates":[[103.9760306,1.3693209],[103.9767173,1.3692109]]}},{"type":"Feature","id":"way/1149027465-0-9-0","properties":{"highway":"service"},"geometry":{"type":"LineString","coordinates":[[103.9767173,1.3692109],[103.9767816,1.3692377]]}}]}