{"type":"FeatureCollection","features":[{"type":"Feature","id":"way/1558327020-0","properties":{"building":"construction","check_date":"2026-09-12","construction":"service","name":"Facility Building 2","opening_date":"2035-12-12","clearanceGeometry":{"type":"Polygon","coordinates":[[[103.9732084,1.3238017],[103.9726905,1.3238052],[103.9726905,1.3239849409031372],[103.97269245346381,1.3239860052741874],[103.9732139,1.3240408],[103.9732084,1.3238017]]]},"clearanceHeight":1.7,"clearancePrepared":true},"geometry":{"type":"Polygon","coordinates":[[[103.9732139,1.3240408],[103.9732084,1.3238017],[103.9726905,1.3238052],[103.9726905,1.3239858],[103.9732139,1.3240408]]]}},{"type":"Feature","id":"way/1558327021-0","properties":{"building":"construction","check_date":"2026-09-12","name":"Facility Building 3","opening_date":"2035-12-12","clearanceGeometry":{"type":"Polygon","coordinates":[[[103.9768022,1.3224599],[103.9762745,1.3227349],[103.9763374,1.3228872],[103.97687,1.3226124],[103.9768022,1.3224599]]]},"clearanceHeight":1.7,"clearancePrepared":true},"geometry":{"type":"Polygon","coordinates":[[[103.97687,1.3226124],[103.9768022,1.3224599],[103.9762745,1.3227349],[103.9763374,1.3228872],[103.97687,1.3226124]]]}},{"type":"Feature","id":"way/22617438-0-1-0","properties":{"highway":"motorway_link","lanes":"2","maxspeed":"50","oneway":"yes","source":"Yahoo aerial images","surface":"asphalt","startNodeId":"242651535","endNodeId":"242652457"},"geometry":{"type":"LineString","coordinates":[[103.9723154,1.3242393],[103.9725258,1.3242354]]}},{"type":"Feature","id":"way/22617438-0-2-0","properties":{"highway":"motorway_link","lanes":"2","maxspeed":"50","oneway":"yes","source":"Yahoo aerial images","surface":"asphalt","startNodeId":"242652457","endNodeId":"242652475"},"geometry":{"type":"LineString","coordinates":[[103.9725258,1.3242354],[103.9727299,1.3242332]]}},{"type":"Feature","id":"way/22617438-0-3-0","properties":{"highway":"motorway_link","lanes":"2","maxspeed":"50","oneway":"yes","source":"Yahoo aerial images","surface":"asphalt","startNodeId":"242652475","endNodeId":"242652491"},"geometry":{"type":"LineString","coordinates":[[103.9727299,1.3242332],[103.9729295,1.3242442]]}},{"type":"Feature","id":"way/22617438-0-4-0","properties":{"highway":"motorway_link","lanes":"2","maxspeed":"50","oneway":"yes","source":"Yahoo aerial images","surface":"asphalt","startNodeId":"242652491","endNodeId":"242652507"},"geometry":{"type":"LineString","coordinates":[[103.9729295,1.3242442],[103.9731116,1.324274]]}},{"type":"Feature","id":"way/22617438-0-5-0","properties":{"highway":"motorway_link","lanes":"2","maxspeed":"50","oneway":"yes","source":"Yahoo aerial images","surface":"asphalt","startNodeId":"242652507","endNodeId":"242652531"},"geometry":{"type":"LineString","coordinates":[[103.9731116,1.324274],[103.9732712,1.32433]]}},{"type":"Feature","id":"way/22617438-0-6-0","properties":{"highway":"motorway_link","lanes":"2","maxspeed":"50","oneway":"yes","source":"Yahoo aerial images","surface":"asphalt","startNodeId":"242652531","endNodeId":"242652614"},"geometry":{"type":"LineString","coordinates":[[103.9732712,1.32433],[103.9734107,1.3244249]]}},{"type":"Feature","id":"way/22617440-0-0-0","properties":{"destination":"East Coast Parkway","destination:ref":"ECP","highway":"primary_link","lanes":"1","maxspeed":"50","oneway":"yes","source":"Yahoo aerial images","surface":"asphalt","turn:lanes":"left;through","startNodeId":"242652700","endNodeId":"1781924758"},"geometry":{"type":"LineString","coordinates":[[103.973594,1.324312],[103.9732183,1.3241795]]}},{"type":"Feature","id":"way/22617440-0-1-0","properties":{"destination":"East Coast Parkway","destination:ref":"ECP","highway":"primary_link","lanes":"1","maxspeed":"50","oneway":"yes","source":"Yahoo aerial images","surface":"asphalt","turn:lanes":"left;through","startNodeId":"1781924758","endNodeId":"242652719"},"geometry":{"type":"LineString","coordinates":[[103.9732183,1.3241795],[103.9726963,1.3240546]]}},{"type":"Feature","id":"way/166750119-0-0-0","properties":{"highway":"primary_link","lanes":"1","maxspeed":"50","name":"East Coast Park Service Road","name:en":"East Coast Park Service Road","name:zh":"\u4e1c\u6d77\u5cb8\u516c\u56ed\u526f\u8def","oneway":"yes","surface":"asphalt","startNodeId":"242652719","endNodeId":"2674771697"},"geometry":{"type":"LineString","coordinates":[[103.9726963,1.3240546],[103.9726194,1.3240127]]}},{"type":"Feature","id":"way/166750119-0-1-0","properties":{"highway":"primary_link","lanes":"1","maxspeed":"50","name":"East Coast Park Service Road","name:en":"East Coast Park Service Road","name:zh":"\u4e1c\u6d77\u5cb8\u516c\u56ed\u526f\u8def","oneway":"yes","surface":"asphalt","startNodeId":"2674771697","endNodeId":"2674771690"},"geometry":{"type":"LineString","coordinates":[[103.9726194,1.3240127],[103.9725492,1.3239607]]}},{"type":"Feature","id":"way/166750119-0-2-0","properties":{"highway":"primary_link","lanes":"1","maxspeed":"50","name":"East Coast Park Service Road","name:en":"East Coast Park Service Road","name:zh":"\u4e1c\u6d77\u5cb8\u516c\u56ed\u526f\u8def","oneway":"yes","surface":"asphalt","startNodeId":"2674771690","endNodeId":"2674771687"},"geometry":{"type":"LineString","coordinates":[[103.9725492,1.3239607],[103.9724868,1.3238942]]}},{"type":"Feature","id":"way/166750119-0-3-0","properties":{"highway":"primary_link","lanes":"1","maxspeed":"50","name":"East Coast Park Service Road","name:en":"East Coast Park Service Road","name:zh":"\u4e1c\u6d77\u5cb8\u516c\u56ed\u526f\u8def","oneway":"yes","surface":"asphalt","startNodeId":"2674771687","endNodeId":"2674771686"},"geometry":{"type":"LineString","coordinates":[[103.9724868,1.3238942],[103.9723956,1.3237762]]}},{"type":"Feature","id":"way/166750119-0-4-0","properties":{"highway":"primary_link","lanes":"1","maxspeed":"50","name":"East Coast Park Service Road","name:en":"East Coast Park Service Road","name:zh":"\u4e1c\u6d77\u5cb8\u516c\u56ed\u526f\u8def","oneway":"yes","surface":"asphalt","startNodeId":"2674771686","endNodeId":"2674771684"},"geometry":{"type":"LineString","coordinates":[[103.9723956,1.3237762],[103.9723017,1.3236448]]}},{"type":"Feature","id":"way/261854975-0-0-0","properties":{"destination":"East Coast Parkway","destination:ref":"ECP","highway":"motorway_link","lanes":"1","maxspeed":"50","oneway":"yes","source":"Yahoo aerial images","surface":"asphalt","startNodeId":"242652719","endNodeId":"1143899992"},"geometry":{"type":"LineString","coordinates":[[103.9726963,1.3240546],[103.9724401,1.3239801]]}},{"type":"Feature","id":"way/261854975-0-1-0","properties":{"destination":"East Coast Parkway","destination:ref":"ECP","highway":"motorway_link","lanes":"1","maxspeed":"50","oneway":"yes","source":"Yahoo aerial images","surface":"asphalt","startNodeId":"1143899992","endNodeId":"1143899991"},"geometry":{"type":"LineString","coordinates":[[103.9724401,1.3239801],[103.9722113,1.3239142]]}},{"type":"Feature","id":"way/471540587-0-0-0","properties":{"destination":"Tampines","highway":"primary","lanes":"1","maxspeed":"50","name":"Tanah Merah Coast Road","name:en":"Tanah Merah Coast Road","name:zh":"\u4e39\u90a3\u7f8e\u62c9\u6d77\u5cb8\u8def","oneway":"yes","source":"Yahoo aerial images","surface":"asphalt","startNodeId":"242652700","endNodeId":"1781924759"},"geometry":{"type":"LineString","coordinates":[[103.973594,1.324312],[103.9732024,1.3242316]]}},{"type":"Feature","id":"way/471540587-0-1-0","properties":{"destination":"Tampines","highway":"primary","lanes":"1","maxspeed":"50","name":"Tanah Merah Coast Road","name:en":"Tanah Merah Coast Road","name:zh":"\u4e39\u90a3\u7f8e\u62c9\u6d77\u5cb8\u8def","oneway":"yes","source":"Yahoo aerial images","surface":"asphalt","startNodeId":"1781924759","endNodeId":"1781924757"},"geometry":{"type":"LineString","coordinates":[[103.9732024,1.3242316],[103.972813,1.3241727]]}},{"type":"Feature","id":"way/471540587-0-2-0","properties":{"destination":"Tampines","highway":"primary","lanes":"1","maxspeed":"50","name":"Tanah Merah Coast Road","name:en":"Tanah Merah Coast Road","name:zh":"\u4e39\u90a3\u7f8e\u62c9\u6d77\u5cb8\u8def","oneway":"yes","source":"Yahoo aerial images","surface":"asphalt","startNodeId":"1781924757","endNodeId":"1781924756"},"geometry":{"type":"LineString","coordinates":[[103.972813,1.3241727],[103.9723012,1.3241665]]}},{"type":"Feature","id":"way/728077854-0-2-0","properties":{"access":"yes","destination":"Tampines;East Coast Parkway","foot":"yes","highway":"primary","horse":"no","lanes":"2","maxspeed":"50","name":"Tanah Merah Coast Road","name:en":"Tanah Merah Coast Road","name:zh":"\u4e39\u90a3\u7f8e\u62c9\u6d77\u5cb8\u8def","oneway":"yes","surface":"asphalt","turn:lanes":"slight_left|slight_right","startNodeId":"1781924760","endNodeId":"242652700"},"geometry":{"type":"LineString","coordinates":[[103.9737753,1.324381],[103.973594,1.324312]]}}]}