{"type":"FeatureCollection","features":[{"type":"Feature","id":"way/293136656-0","properties":{"building":"roof"},"geometry":{"type":"Polygon","coordinates":[[[103.9792381,1.4104525],[103.9792013,1.4104225],[103.9791723,1.410458],[103.9792091,1.410488],[103.9792381,1.4104525]]]}},{"type":"Feature","id":"way/1153967249-0","properties":{"building":"yes","fixme":"check"},"geometry":{"type":"Polygon","coordinates":[[[103.9782127,1.4110467],[103.9781946,1.4109667],[103.9781124,1.4109852],[103.9781305,1.4110653],[103.9782127,1.4110467]]]}},{"type":"Feature","id":"way/1153967250-0","properties":{"building":"yes","fixme":"check"},"geometry":{"type":"Polygon","coordinates":[[[103.9778177,1.4100001],[103.977789,1.4098807],[103.9777066,1.4099005],[103.9777353,1.4100199],[103.9778177,1.4100001]]]}},{"type":"Feature","id":"way/54710511-0-3-0","properties":{"highway":"residential","maxspeed":"40","name":"Jalan Sam Heng","name:zh":"\u60f9\u5170\u4e09\u5174"},"geometry":{"type":"LineString","coordinates":[[103.9791442,1.4141876],[103.9791869,1.4140386]]}},{"type":"Feature","id":"way/54710515-0-7-0","properties":{"highway":"residential","lane_markings":"no","maxspeed":"40","name":"Jalan Durian","surface":"asphalt"},"geometry":{"type":"LineString","coordinates":[[103.977052,1.4108984],[103.9774072,1.4108577]]}},{"type":"Feature","id":"way/54710515-0-8-0","properties":{"highway":"residential","lane_markings":"no","maxspeed":"40","name":"Jalan Durian","surface":"asphalt"},"geometry":{"type":"LineString","coordinates":[[103.9774072,1.4108577],[103.977857,1.4107567]]}},{"type":"Feature","id":"way/54710515-0-9-0","properties":{"highway":"residential","lane_markings":"no","maxspeed":"40","name":"Jalan Durian","surface":"asphalt"},"geometry":{"type":"LineString","coordinates":[[103.977857,1.4107567],[103.978742,1.410612]]}},{"type":"Feature","id":"way/646863336-0-0-0","properties":{"highway":"residential","maxspeed":"40","name":"Jalan Durian","surface":"asphalt"},"geometry":{"type":"LineString","coordinates":[[103.978742,1.410612],[103.9788494,1.4105948]]}},{"type":"Feature","id":"way/646863336-0-1-0","properties":{"highway":"residential","maxspeed":"40","name":"Jalan Durian","surface":"asphalt"},"geometry":{"type":"LineString","coordinates":[[103.9788494,1.4105948],[103.9789727,1.4105741]]}},{"type":"Feature","id":"way/646863336-0-2-0","properties":{"highway":"residential","maxspeed":"40","name":"Jalan Durian","surface":"asphalt"},"geometry":{"type":"LineString","coordinates":[[103.9789727,1.4105741],[103.9790843,1.4105209]]}},{"type":"Feature","id":"way/646863336-0-3-0","properties":{"highway":"residential","maxspeed":"40","name":"Jalan Durian","surface":"asphalt"},"geometry":{"type":"LineString","coordinates":[[103.9790843,1.4105209],[103.9791544,1.4104431]]}},{"type":"Feature","id":"way/646863336-0-4-0","properties":{"highway":"residential","maxspeed":"40","name":"Jalan Durian","surface":"asphalt"},"geometry":{"type":"LineString","coordinates":[[103.9791544,1.4104431],[103.9791894,1.4103821]]}},{"type":"Feature","id":"way/816171743-0-0-0","properties":{"highway":"residential","maxspeed":"40","name":"Jalan Durian","surface":"asphalt"},"geometry":{"type":"LineString","coordinates":[[103.9791894,1.4103821],[103.979262,1.410256]]}},{"type":"Feature","id":"way/816361589-0-0-0","properties":{"highway":"residential","maxspeed":"40","name":"Jalan Sam Heng","name:zh":"\u60f9\u5170\u4e09\u5174"},"geometry":{"type":"LineString","coordinates":[[103.9791869,1.4140386],[103.9791636,1.4139505]]}},{"type":"Feature","id":"way/816361589-0-1-0","properties":{"highway":"residential","maxspeed":"40","name":"Jalan Sam Heng","name:zh":"\u60f9\u5170\u4e09\u5174"},"geometry":{"type":"LineString","coordinates":[[103.9791636,1.4139505],[103.9791105,1.4138239]]}},{"type":"Feature","id":"way/816361589-0-2-0","properties":{"highway":"residential","maxspeed":"40","name":"Jalan Sam Heng","name:zh":"\u60f9\u5170\u4e09\u5174"},"geometry":{"type":"LineString","coordinates":[[103.9791105,1.4138239],[103.978905,1.413477]]}},{"type":"Feature","id":"way/816361589-0-3-0","properties":{"highway":"residential","maxspeed":"40","name":"Jalan Sam Heng","name:zh":"\u60f9\u5170\u4e09\u5174"},"geometry":{"type":"LineString","coordinates":[[103.978905,1.413477],[103.9787307,1.4132382]]}},{"type":"Feature","id":"way/816361589-0-4-0","properties":{"highway":"residential","maxspeed":"40","name":"Jalan Sam Heng","name:zh":"\u60f9\u5170\u4e09\u5174"},"geometry":{"type":"LineString","coordinates":[[103.9787307,1.4132382],[103.9785317,1.4130243]]}},{"type":"Feature","id":"way/816361589-0-5-0","properties":{"highway":"residential","maxspeed":"40","name":"Jalan Sam Heng","name:zh":"\u60f9\u5170\u4e09\u5174"},"geometry":{"type":"LineString","coordinates":[[103.9785317,1.4130243],[103.9779796,1.4126261]]}},{"type":"Feature","id":"way/816361589-0-6-0","properties":{"highway":"residential","maxspeed":"40","name":"Jalan Sam Heng","name:zh":"\u60f9\u5170\u4e09\u5174"},"geometry":{"type":"LineString","coordinates":[[103.9779796,1.4126261],[103.9777687,1.4124863]]}},{"type":"Feature","id":"way/816361589-0-7-0","properties":{"highway":"residential","maxspeed":"40","name":"Jalan Sam Heng","name:zh":"\u60f9\u5170\u4e09\u5174"},"geometry":{"type":"LineString","coordinates":[[103.9777687,1.4124863],[103.9774867,1.4123624]]}},{"type":"Feature","id":"way/816361589-0-8-0","properties":{"highway":"residential","maxspeed":"40","name":"Jalan Sam Heng","name:zh":"\u60f9\u5170\u4e09\u5174"},"geometry":{"type":"LineString","coordinates":[[103.9774867,1.4123624],[103.9771553,1.4123056]]}}]}