{"type":"FeatureCollection","features":[{"type":"Feature","id":"way/1451712940-0","properties":{"building":"dormitory","clearanceGeometry":{"type":"Polygon","coordinates":[[[104.0037016,1.3541525],[104.0036886,1.3541214],[104.0036137,1.3541527],[104.0037313,1.3544339],[104.0036943,1.3544494],[104.0037266,1.3545266],[104.0037614,1.3545121],[104.0039129,1.3548744],[104.0040338,1.3548238],[104.0037452,1.3541342],[104.0037016,1.3541525]]]},"clearanceHeight":1.7,"clearancePrepared":true},"geometry":{"type":"Polygon","coordinates":[[[104.0037452,1.3541342],[104.0037016,1.3541525],[104.0036886,1.3541214],[104.0036137,1.3541527],[104.0037313,1.3544339],[104.0036943,1.3544494],[104.0037266,1.3545266],[104.0037614,1.3545121],[104.0039129,1.3548744],[104.0040338,1.3548238],[104.0037452,1.3541342]]]}},{"type":"Feature","id":"way/1451712941-0","properties":{"building":"dormitory","clearanceGeometry":{"type":"Polygon","coordinates":[[[104.0040328,1.3544029],[104.0040676,1.3543883],[104.0040352,1.3543111],[104.0039982,1.3543266],[104.0038805,1.3540455],[104.0038056,1.3540768],[104.0038186,1.3541078],[104.003775,1.3541261],[104.0040635,1.3548157],[104.0041844,1.3547652],[104.0040328,1.3544029]]]},"clearanceHeight":1.7,"clearancePrepared":true},"geometry":{"type":"Polygon","coordinates":[[[104.0041844,1.3547652],[104.0040328,1.3544029],[104.0040676,1.3543883],[104.0040352,1.3543111],[104.0039982,1.3543266],[104.0038805,1.3540455],[104.0038056,1.3540768],[104.0038186,1.3541078],[104.003775,1.3541261],[104.0040635,1.3548157],[104.0041844,1.3547652]]]}},{"type":"Feature","id":"way/1451712945-0","properties":{"building":"dormitory","clearanceGeometry":{"type":"Polygon","coordinates":[[[104.0037304,1.3550745],[104.0036845,1.3550934],[104.0038357,1.3554602],[104.0038779,1.3554428],[104.0038904,1.3554733],[104.0039663,1.355442],[104.0037886,1.3550103],[104.0037162,1.3550401],[104.0037304,1.3550745]]]},"clearanceHeight":1.7,"clearancePrepared":true},"geometry":{"type":"Polygon","coordinates":[[[104.0037162,1.3550401],[104.0037304,1.3550745],[104.0036845,1.3550934],[104.0038357,1.3554602],[104.0038779,1.3554428],[104.0038904,1.3554733],[104.0039663,1.355442],[104.0037886,1.3550103],[104.0037162,1.3550401]]]}},{"type":"Feature","id":"way/1451712947-0","properties":{"building":"dormitory","clearanceGeometry":{"type":"Polygon","coordinates":[[[104.0039618,1.3550438],[104.0039166,1.3549342],[104.0038374,1.3549669],[104.0040198,1.3554088],[104.0042486,1.3553144],[104.0041115,1.354982],[104.0039618,1.3550438]]]},"clearanceHeight":1.7,"clearancePrepared":true},"geometry":{"type":"Polygon","coordinates":[[[104.0041115,1.354982],[104.0039618,1.3550438],[104.0039166,1.3549342],[104.0038374,1.3549669],[104.0040198,1.3554088],[104.0042486,1.3553144],[104.0041115,1.354982]]]}},{"type":"Feature","id":"way/1451712950-0","properties":{"building":"yes","clearanceGeometry":{"type":"Polygon","coordinates":[[[104.0043331,1.3552309],[104.0044179,1.355192],[104.0043888,1.3551283],[104.0043039,1.3551671],[104.0043331,1.3552309]]]},"clearanceHeight":1.7,"clearancePrepared":true},"geometry":{"type":"Polygon","coordinates":[[[104.0043039,1.3551671],[104.0043331,1.3552309],[104.0044179,1.355192],[104.0043888,1.3551283],[104.0043039,1.3551671]]]}},{"type":"Feature","id":"way/1451712951-0","properties":{"building":"yes","clearanceGeometry":{"type":"Polygon","coordinates":[[[104.0043176,1.3551226],[104.0043817,1.355091],[104.0043389,1.3550045],[104.0042749,1.3550361],[104.0043176,1.3551226]]]},"clearanceHeight":1.7,"clearancePrepared":true},"geometry":{"type":"Polygon","coordinates":[[[104.0042749,1.3550361],[104.0043176,1.3551226],[104.0043817,1.355091],[104.0043389,1.3550045],[104.0042749,1.3550361]]]}}]}