{"type":"FeatureCollection","features":[{"type":"Feature","id":"way/468685546-0-1-0","properties":{"highway":"primary","horse":"no","lanes":"3","maxspeed":"70","name":"Tanah Merah Coast Road","name:en":"Tanah Merah Coast Road","name:zh":"\u4e39\u90a3\u7f8e\u62c9\u6d77\u5cb8\u8def","oneway":"yes","surface":"asphalt","startNodeId":"5186771721","endNodeId":"11968163345"},"geometry":{"type":"LineString","coordinates":[[104.0090772,1.3110982],[104.0102578,1.3105824]]}},{"type":"Feature","id":"way/468685546-0-2-0","properties":{"highway":"primary","horse":"no","lanes":"3","maxspeed":"70","name":"Tanah Merah Coast Road","name:en":"Tanah Merah Coast Road","name:zh":"\u4e39\u90a3\u7f8e\u62c9\u6d77\u5cb8\u8def","oneway":"yes","surface":"asphalt","startNodeId":"11968163345","endNodeId":"5186771722"},"geometry":{"type":"LineString","coordinates":[[104.0102578,1.3105824],[104.0104854,1.3104842]]}},{"type":"Feature","id":"way/468685546-0-3-0","properties":{"highway":"primary","horse":"no","lanes":"3","maxspeed":"70","name":"Tanah Merah Coast Road","name:en":"Tanah Merah Coast Road","name:zh":"\u4e39\u90a3\u7f8e\u62c9\u6d77\u5cb8\u8def","oneway":"yes","surface":"asphalt","startNodeId":"5186771722","endNodeId":"11968163346"},"geometry":{"type":"LineString","coordinates":[[104.0104854,1.3104842],[104.0106353,1.3104378]]}},{"type":"Feature","id":"way/468685546-0-4-0","properties":{"highway":"primary","horse":"no","lanes":"3","maxspeed":"70","name":"Tanah Merah Coast Road","name:en":"Tanah Merah Coast Road","name:zh":"\u4e39\u90a3\u7f8e\u62c9\u6d77\u5cb8\u8def","oneway":"yes","surface":"asphalt","startNodeId":"11968163346","endNodeId":"5186771725"},"geometry":{"type":"LineString","coordinates":[[104.0106353,1.3104378],[104.0108205,1.3103804]]}},{"type":"Feature","id":"way/468685546-0-5-0","properties":{"highway":"primary","horse":"no","lanes":"3","maxspeed":"70","name":"Tanah Merah Coast Road","name:en":"Tanah Merah Coast Road","name:zh":"\u4e39\u90a3\u7f8e\u62c9\u6d77\u5cb8\u8def","oneway":"yes","surface":"asphalt","startNodeId":"5186771725","endNodeId":"5186771726"},"geometry":{"type":"LineString","coordinates":[[104.0108205,1.3103804],[104.011137,1.3103147]]}},{"type":"Feature","id":"way/468685546-0-6-0","properties":{"highway":"primary","horse":"no","lanes":"3","maxspeed":"70","name":"Tanah Merah Coast Road","name:en":"Tanah Merah Coast Road","name:zh":"\u4e39\u90a3\u7f8e\u62c9\u6d77\u5cb8\u8def","oneway":"yes","surface":"asphalt","startNodeId":"5186771726","endNodeId":"5186771727"},"geometry":{"type":"LineString","coordinates":[[104.011137,1.3103147],[104.0115224,1.3102833]]}},{"type":"Feature","id":"way/468685546-0-7-0","properties":{"highway":"primary","horse":"no","lanes":"3","maxspeed":"70","name":"Tanah Merah Coast Road","name:en":"Tanah Merah Coast Road","name:zh":"\u4e39\u90a3\u7f8e\u62c9\u6d77\u5cb8\u8def","oneway":"yes","surface":"asphalt","startNodeId":"5186771727","endNodeId":"5186771728"},"geometry":{"type":"LineString","coordinates":[[104.0115224,1.3102833],[104.0118523,1.3102997]]}},{"type":"Feature","id":"way/468685546-0-8-0","properties":{"highway":"primary","horse":"no","lanes":"3","maxspeed":"70","name":"Tanah Merah Coast Road","name:en":"Tanah Merah Coast Road","name:zh":"\u4e39\u90a3\u7f8e\u62c9\u6d77\u5cb8\u8def","oneway":"yes","surface":"asphalt","startNodeId":"5186771728","endNodeId":"11025983492"},"geometry":{"type":"LineString","coordinates":[[104.0118523,1.3102997],[104.0121736,1.3103508]]}},{"type":"Feature","id":"way/468685546-0-9-0","properties":{"highway":"primary","horse":"no","lanes":"3","maxspeed":"70","name":"Tanah Merah Coast Road","name:en":"Tanah Merah Coast Road","name:zh":"\u4e39\u90a3\u7f8e\u62c9\u6d77\u5cb8\u8def","oneway":"yes","surface":"asphalt","startNodeId":"11025983492","endNodeId":"5186771729"},"geometry":{"type":"LineString","coordinates":[[104.0121736,1.3103508],[104.0124608,1.3104235]]}},{"type":"Feature","id":"way/468685546-0-10-0","properties":{"highway":"primary","horse":"no","lanes":"3","maxspeed":"70","name":"Tanah Merah Coast Road","name:en":"Tanah Merah Coast Road","name:zh":"\u4e39\u90a3\u7f8e\u62c9\u6d77\u5cb8\u8def","oneway":"yes","surface":"asphalt","startNodeId":"5186771729","endNodeId":"11026045510"},"geometry":{"type":"LineString","coordinates":[[104.0124608,1.3104235],[104.0128469,1.3105847]]}},{"type":"Feature","id":"way/967290394-0-9-0","properties":{"bus":"yes","highway":"primary","maxspeed":"70","name":"Tanah Merah Coast Road","name:en":"Tanah Merah Coast Road","name:zh":"\u4e39\u90a3\u7f8e\u62c9\u6d77\u5cb8\u8def","oneway":"yes","surface":"paved","startNodeId":"8948947816","endNodeId":"8948977118"},"geometry":{"type":"LineString","coordinates":[[104.0129016,1.3103956],[104.0124883,1.3102408]]}},{"type":"Feature","id":"way/967290394-0-10-0","properties":{"bus":"yes","highway":"primary","maxspeed":"70","name":"Tanah Merah Coast Road","name:en":"Tanah Merah Coast Road","name:zh":"\u4e39\u90a3\u7f8e\u62c9\u6d77\u5cb8\u8def","oneway":"yes","surface":"paved","startNodeId":"8948977118","endNodeId":"11025983493"},"geometry":{"type":"LineString","coordinates":[[104.0124883,1.3102408],[104.0122054,1.3101664]]}},{"type":"Feature","id":"way/967290394-0-11-0","properties":{"bus":"yes","highway":"primary","maxspeed":"70","name":"Tanah Merah Coast Road","name:en":"Tanah Merah Coast Road","name:zh":"\u4e39\u90a3\u7f8e\u62c9\u6d77\u5cb8\u8def","oneway":"yes","surface":"paved","startNodeId":"11025983493","endNodeId":"8948977119"},"geometry":{"type":"LineString","coordinates":[[104.0122054,1.3101664],[104.0118793,1.3101117]]}},{"type":"Feature","id":"way/967290394-0-12-0","properties":{"bus":"yes","highway":"primary","maxspeed":"70","name":"Tanah Merah Coast Road","name:en":"Tanah Merah Coast Road","name:zh":"\u4e39\u90a3\u7f8e\u62c9\u6d77\u5cb8\u8def","oneway":"yes","surface":"paved","startNodeId":"8948977119","endNodeId":"8948977120"},"geometry":{"type":"LineString","coordinates":[[104.0118793,1.3101117],[104.011544,1.3100908]]}},{"type":"Feature","id":"way/967290394-0-13-0","properties":{"bus":"yes","highway":"primary","maxspeed":"70","name":"Tanah Merah Coast Road","name:en":"Tanah Merah Coast Road","name:zh":"\u4e39\u90a3\u7f8e\u62c9\u6d77\u5cb8\u8def","oneway":"yes","surface":"paved","startNodeId":"8948977120","endNodeId":"8948977121"},"geometry":{"type":"LineString","coordinates":[[104.011544,1.3100908],[104.0111342,1.3101201]]}},{"type":"Feature","id":"way/967290394-0-14-0","properties":{"bus":"yes","highway":"primary","maxspeed":"70","name":"Tanah Merah Coast Road","name:en":"Tanah Merah Coast Road","name:zh":"\u4e39\u90a3\u7f8e\u62c9\u6d77\u5cb8\u8def","oneway":"yes","surface":"paved","startNodeId":"8948977121","endNodeId":"8948977122"},"geometry":{"type":"LineString","coordinates":[[104.0111342,1.3101201],[104.0107808,1.3101861]]}},{"type":"Feature","id":"way/967290394-0-15-0","properties":{"bus":"yes","highway":"primary","maxspeed":"70","name":"Tanah Merah Coast Road","name:en":"Tanah Merah Coast Road","name:zh":"\u4e39\u90a3\u7f8e\u62c9\u6d77\u5cb8\u8def","oneway":"yes","surface":"paved","startNodeId":"8948977122","endNodeId":"8948977123"},"geometry":{"type":"LineString","coordinates":[[104.0107808,1.3101861],[104.0103955,1.3103134]]}},{"type":"Feature","id":"way/967290394-0-16-0","properties":{"bus":"yes","highway":"primary","maxspeed":"70","name":"Tanah Merah Coast Road","name:en":"Tanah Merah Coast Road","name:zh":"\u4e39\u90a3\u7f8e\u62c9\u6d77\u5cb8\u8def","oneway":"yes","surface":"paved","startNodeId":"8948977123","endNodeId":"way/967290394-0:16:1"},"geometry":{"type":"LineString","coordinates":[[104.0103955,1.3103134],[104.0093888,1.3107457]]}}]}