{"type":"FeatureCollection","features":[{"type":"Feature","id":"way/213582726-0","properties":{"building":"yes","clearanceGeometry":{"type":"Polygon","coordinates":[[[104.0091272,1.3234398],[104.0090445,1.323244],[104.0087235,1.3233794],[104.0086156,1.3231238],[104.0082416,1.3232816],[104.0084322,1.323733],[104.0091272,1.3234398]]]},"clearanceHeight":1.7,"clearancePrepared":true},"geometry":{"type":"Polygon","coordinates":[[[104.0084322,1.323733],[104.0091272,1.3234398],[104.0090445,1.323244],[104.0087235,1.3233794],[104.0086156,1.3231238],[104.0082416,1.3232816],[104.0084322,1.323733]]]}},{"type":"Feature","id":"way/213582737-0","properties":{"building":"yes","clearanceGeometry":{"type":"Polygon","coordinates":[[[104.0102667,1.322567],[104.0101899,1.3223852],[104.0101151,1.3224168],[104.0101918,1.3225985],[104.0102667,1.322567]]]},"clearanceHeight":1.7,"clearancePrepared":true},"geometry":{"type":"Polygon","coordinates":[[[104.0101918,1.3225985],[104.0102667,1.322567],[104.0101899,1.3223852],[104.0101151,1.3224168],[104.0101918,1.3225985]]]}},{"type":"Feature","id":"way/213582742-0","properties":{"building":"yes","clearanceGeometry":{"type":"Polygon","coordinates":[[[104.009827,1.3230457],[104.0097302,1.3228164],[104.0093775,1.3229652],[104.0094743,1.3231945],[104.009827,1.3230457]]]},"clearanceHeight":1.7,"clearancePrepared":true},"geometry":{"type":"Polygon","coordinates":[[[104.0094743,1.3231945],[104.009827,1.3230457],[104.0097302,1.3228164],[104.0093775,1.3229652],[104.0094743,1.3231945]]]}},{"type":"Feature","id":"way/213582754-0","properties":{"building":"yes","clearanceGeometry":{"type":"Polygon","coordinates":[[[104.0089336,1.3229906],[104.0088067,1.3230442],[104.0088531,1.3231542],[104.00898,1.3231007],[104.0089336,1.3229906]]]},"clearanceHeight":1.7,"clearancePrepared":true},"geometry":{"type":"Polygon","coordinates":[[[104.00898,1.3231007],[104.0089336,1.3229906],[104.0088067,1.3230442],[104.0088531,1.3231542],[104.00898,1.3231007]]]}},{"type":"Feature","id":"way/247370191-0","properties":{"building":"yes","clearanceGeometry":{"type":"Polygon","coordinates":[[[104.0089019,1.3237026],[104.0089411,1.3237953],[104.0089867,1.323776],[104.0090308,1.3238804],[104.0092353,1.3237942],[104.0091521,1.3235971],[104.0089019,1.3237026]]]},"clearanceHeight":1.7,"clearancePrepared":true},"geometry":{"type":"Polygon","coordinates":[[[104.0091521,1.3235971],[104.0089019,1.3237026],[104.0089411,1.3237953],[104.0089867,1.323776],[104.0090308,1.3238804],[104.0092353,1.3237942],[104.0091521,1.3235971]]]}},{"type":"Feature","id":"way/791010721-0-0-3","properties":{"highway":"service","startNodeId":"way/791010721-0:0:3","endNodeId":"7394640981"},"geometry":{"type":"LineString","coordinates":[[104.0078425,1.3233658],[104.0090007,1.3228767]]}}]}