{"type":"FeatureCollection","features":[{"type":"Feature","id":"way/98093775-0","properties":{"building":"yes","clearanceGeometry":{"type":"Polygon","coordinates":[[[104.0299252,1.4101114],[104.02987004860685,1.4101258965694612],[104.0298843266951,1.4102486182168272],[104.0299563,1.4102297],[104.0299252,1.4101114]]]},"clearanceHeight":1.7,"clearancePrepared":true},"geometry":{"type":"Polygon","coordinates":[[[104.0299563,1.4102297],[104.0299252,1.4101114],[104.0298396,1.4101339],[104.0298707,1.4102522],[104.0299563,1.4102297]]]}},{"type":"Feature","id":"way/1499385223-0","properties":{"building":"yes","clearanceGeometry":{"type":"Polygon","coordinates":[[[104.0288141,1.4140049],[104.0287326,1.4140052],[104.028733,1.4140987],[104.0288145,1.4140984],[104.0288141,1.4140049]]]},"clearanceHeight":1.7,"clearancePrepared":true},"geometry":{"type":"Polygon","coordinates":[[[104.0288145,1.4140984],[104.0288141,1.4140049],[104.0287326,1.4140052],[104.028733,1.4140987],[104.0288145,1.4140984]]]}},{"type":"Feature","id":"way/1499385224-0","properties":{"building":"yes","clearanceGeometry":{"type":"Polygon","coordinates":[[[104.0287075,1.4141028],[104.0287072,1.4140295],[104.0286613,1.4140297],[104.0286615,1.4141029],[104.0287075,1.4141028]]]},"clearanceHeight":1.7,"clearancePrepared":true},"geometry":{"type":"Polygon","coordinates":[[[104.0286615,1.4141029],[104.0287075,1.4141028],[104.0287072,1.4140295],[104.0286613,1.4140297],[104.0286615,1.4141029]]]}},{"type":"Feature","id":"way/1499385225-0","properties":{"building":"yes","clearanceGeometry":{"type":"Polygon","coordinates":[[[104.0288259,1.4139819],[104.0288255,1.4138936],[104.0286512,1.4138943],[104.0286515,1.4139826],[104.0288259,1.4139819]]]},"clearanceHeight":1.7,"clearancePrepared":true},"geometry":{"type":"Polygon","coordinates":[[[104.0286515,1.4139826],[104.0288259,1.4139819],[104.0288255,1.4138936],[104.0286512,1.4138943],[104.0286515,1.4139826]]]}},{"type":"Feature","id":"way/691550200-0-0-0","properties":{"highway":"service","startNodeId":"6489588487","endNodeId":"1135207062"},"geometry":{"type":"LineString","coordinates":[[104.0298736,1.4105063],[104.0298205,1.4100499]]}},{"type":"Feature","id":"way/691550201-0-0-0","properties":{"highway":"service","startNodeId":"1135207062","endNodeId":"6489588486"},"geometry":{"type":"LineString","coordinates":[[104.0298205,1.4100499],[104.0296456,1.4097019]]}}]}