{"type":"FeatureCollection","features":[{"type":"Feature","id":"way/453479465-0","properties":{"building":"yes","clearanceGeometry":{"type":"Polygon","coordinates":[[[103.8671505,1.3380329],[103.867266,1.3379297],[103.867426,1.3381087],[103.8675083,1.3380352],[103.8673187,1.3378231],[103.8672852,1.3378531],[103.8672255,1.3377863],[103.8670612,1.3379331],[103.8670595,1.3379788],[103.8670274,1.3380075],[103.86700421488496,1.3379815326711502],[103.86694619832109,1.3380353364983026],[103.86693824227794,1.3380267618199206],[103.866848,1.3381074],[103.867142,1.3384195],[103.8672785,1.3382884],[103.8670947,1.3380828],[103.8671505,1.3380329]]]},"clearanceHeight":1.7,"clearancePrepared":true},"geometry":{"type":"Polygon","coordinates":[[[103.8670947,1.3380828],[103.8671505,1.3380329],[103.867266,1.3379297],[103.867426,1.3381087],[103.8675083,1.3380352],[103.8673187,1.3378231],[103.8672852,1.3378531],[103.8672255,1.3377863],[103.8670612,1.3379331],[103.8670595,1.3379788],[103.8670274,1.3380075],[103.8669974,1.3379739],[103.866848,1.3381074],[103.867142,1.3384195],[103.8672785,1.3382884],[103.8670947,1.3380828]]]}},{"type":"Feature","id":"way/453479466-0","properties":{"building":"yes","clearanceGeometry":{"type":"Polygon","coordinates":[[[103.8673415,1.3385981],[103.8673956,1.3385498],[103.8672745,1.3384144],[103.8672205,1.3384627],[103.8673415,1.3385981]]]},"clearanceHeight":1.7,"clearancePrepared":true},"geometry":{"type":"Polygon","coordinates":[[[103.8672205,1.3384627],[103.8673415,1.3385981],[103.8673956,1.3385498],[103.8672745,1.3384144],[103.8672205,1.3384627]]]}},{"type":"Feature","id":"way/453479467-0","properties":{"building":"yes","clearanceGeometry":{"type":"Polygon","coordinates":[[[103.8681486,1.3394942],[103.8682572,1.3396043],[103.8684275,1.3394366],[103.8683231,1.3393307],[103.8683578,1.3392965],[103.8682838,1.3392214],[103.8680696,1.3394324],[103.8681395,1.3395032],[103.8681486,1.3394942]]]},"clearanceHeight":1.7,"clearancePrepared":true},"geometry":{"type":"Polygon","coordinates":[[[103.8681395,1.3395032],[103.8681486,1.3394942],[103.8682572,1.3396043],[103.8684275,1.3394366],[103.8683231,1.3393307],[103.8683578,1.3392965],[103.8682838,1.3392214],[103.8680696,1.3394324],[103.8681395,1.3395032]]]}},{"type":"Feature","id":"way/454006151-0","properties":{"building":"yes","clearanceGeometry":{"type":"Polygon","coordinates":[[[103.8671594,1.3409251],[103.867044,1.3408929],[103.8670492,1.3408745],[103.8670149,1.3408649],[103.8670289,1.3408147],[103.8669532,1.3407935],[103.8669391,1.3408437],[103.8668722,1.3408249],[103.866842,1.3409329],[103.8671343,1.3410146],[103.8671594,1.3409251]]]},"clearanceHeight":1.7,"clearancePrepared":true},"geometry":{"type":"Polygon","coordinates":[[[103.8671343,1.3410146],[103.8671594,1.3409251],[103.867044,1.3408929],[103.8670492,1.3408745],[103.8670149,1.3408649],[103.8670289,1.3408147],[103.8669532,1.3407935],[103.8669391,1.3408437],[103.8668722,1.3408249],[103.866842,1.3409329],[103.8671343,1.3410146]]]}},{"type":"Feature","id":"way/454006152-0","properties":{"building":"yes","clearanceGeometry":{"type":"Polygon","coordinates":[[[103.8676051,1.3412583],[103.867527,1.3411594],[103.867555,1.3411374],[103.867525,1.3410994],[103.8675436,1.3410847],[103.867501,1.3410307],[103.8674824,1.3410454],[103.8674351,1.3409855],[103.8673399,1.3410606],[103.8675378,1.3413114],[103.8676051,1.3412583]]]},"clearanceHeight":1.7,"clearancePrepared":true},"geometry":{"type":"Polygon","coordinates":[[[103.8675378,1.3413114],[103.8676051,1.3412583],[103.867527,1.3411594],[103.867555,1.3411374],[103.867525,1.3410994],[103.8675436,1.3410847],[103.867501,1.3410307],[103.8674824,1.3410454],[103.8674351,1.3409855],[103.8673399,1.3410606],[103.8675378,1.3413114]]]}},{"type":"Feature","id":"way/454006153-0","properties":{"building":"yes","clearanceGeometry":{"type":"Polygon","coordinates":[[[103.8661233,1.3406356],[103.8662084,1.3406341],[103.8662078,1.3406014],[103.8662474,1.3406006],[103.8662445,1.3404395],[103.8661835,1.3404406],[103.8661829,1.3404068],[103.8660615,1.340409],[103.8660624,1.3404597],[103.8659981,1.3404609],[103.8659998,1.3405548],[103.8661218,1.3405526],[103.8661233,1.3406356]]]},"clearanceHeight":1.7,"clearancePrepared":true},"geometry":{"type":"Polygon","coordinates":[[[103.8661218,1.3405526],[103.8661233,1.3406356],[103.8662084,1.3406341],[103.8662078,1.3406014],[103.8662474,1.3406006],[103.8662445,1.3404395],[103.8661835,1.3404406],[103.8661829,1.3404068],[103.8660615,1.340409],[103.8660624,1.3404597],[103.8659981,1.3404609],[103.8659998,1.3405548],[103.8661218,1.3405526]]]}},{"type":"Feature","id":"way/454006154-0","properties":{"building":"yes","clearanceGeometry":{"type":"Polygon","coordinates":[[[103.8659664,1.3417736],[103.8659988,1.3418253],[103.8660589,1.3417877],[103.8660265,1.341736],[103.8661098,1.3416839],[103.8660759,1.3416297],[103.8660243,1.341662],[103.8660054,1.3416318],[103.8659377,1.3416741],[103.8659566,1.3417044],[103.8659216,1.3417262],[103.8659556,1.3417804],[103.8659664,1.3417736]]]},"clearanceHeight":1.7,"clearancePrepared":true},"geometry":{"type":"Polygon","coordinates":[[[103.8659556,1.3417804],[103.8659664,1.3417736],[103.8659988,1.3418253],[103.8660589,1.3417877],[103.8660265,1.341736],[103.8661098,1.3416839],[103.8660759,1.3416297],[103.8660243,1.341662],[103.8660054,1.3416318],[103.8659377,1.3416741],[103.8659566,1.3417044],[103.8659216,1.3417262],[103.8659556,1.3417804]]]}},{"type":"Feature","id":"way/454006155-0","properties":{"building":"yes","clearanceGeometry":{"type":"Polygon","coordinates":[[[103.8671733,1.3414599],[103.8671332,1.3415407],[103.8671958,1.3415718],[103.8672359,1.341491],[103.8672605,1.3415032],[103.8672902,1.3414433],[103.8672628,1.3414297],[103.867271,1.3414133],[103.8671582,1.3413573],[103.86715,1.3413737],[103.8670998,1.3413488],[103.8670701,1.3414087],[103.8671733,1.3414599]]]},"clearanceHeight":1.7,"clearancePrepared":true},"geometry":{"type":"Polygon","coordinates":[[[103.8670701,1.3414087],[103.8671733,1.3414599],[103.8671332,1.3415407],[103.8671958,1.3415718],[103.8672359,1.341491],[103.8672605,1.3415032],[103.8672902,1.3414433],[103.8672628,1.3414297],[103.867271,1.3414133],[103.8671582,1.3413573],[103.86715,1.3413737],[103.8670998,1.3413488],[103.8670701,1.3414087]]]}},{"type":"Feature","id":"way/454006156-0","properties":{"building":"yes","clearanceGeometry":{"type":"Polygon","coordinates":[[[103.8666631,1.3413471],[103.8666543,1.3414379],[103.8667378,1.3414461],[103.8667467,1.3413553],[103.8668399,1.3413643],[103.8668467,1.3412949],[103.8667738,1.3412877],[103.8667768,1.3412562],[103.8667111,1.3412498],[103.8667081,1.3412813],[103.8666334,1.3412741],[103.8666267,1.3413436],[103.8666631,1.3413471]]]},"clearanceHeight":1.7,"clearancePrepared":true},"geometry":{"type":"Polygon","coordinates":[[[103.8666267,1.3413436],[103.8666631,1.3413471],[103.8666543,1.3414379],[103.8667378,1.3414461],[103.8667467,1.3413553],[103.8668399,1.3413643],[103.8668467,1.3412949],[103.8667738,1.3412877],[103.8667768,1.3412562],[103.8667111,1.3412498],[103.8667081,1.3412813],[103.8666334,1.3412741],[103.8666267,1.3413436]]]}},{"type":"Feature","id":"way/454006157-0","properties":{"building":"yes","clearanceGeometry":{"type":"Polygon","coordinates":[[[103.8666243,1.3404441],[103.8667813,1.3404413],[103.8667809,1.3404234],[103.866856,1.3404221],[103.866854,1.3403061],[103.8667695,1.3403077],[103.8667688,1.3402689],[103.8667091,1.3402699],[103.8667098,1.3403087],[103.8666569,1.3403097],[103.8666574,1.3403374],[103.8665561,1.3403392],[103.8665576,1.3404274],[103.866624,1.3404262],[103.8666243,1.3404441]]]},"clearanceHeight":1.7,"clearancePrepared":true},"geometry":{"type":"Polygon","coordinates":[[[103.866624,1.3404262],[103.8666243,1.3404441],[103.8667813,1.3404413],[103.8667809,1.3404234],[103.866856,1.3404221],[103.866854,1.3403061],[103.8667695,1.3403077],[103.8667688,1.3402689],[103.8667091,1.3402699],[103.8667098,1.3403087],[103.8666569,1.3403097],[103.8666574,1.3403374],[103.8665561,1.3403392],[103.8665576,1.3404274],[103.866624,1.3404262]]]}},{"type":"Feature","id":"way/454006159-0","properties":{"building":"yes","clearanceGeometry":{"type":"Polygon","coordinates":[[[103.8666086,1.3409102],[103.8665767,1.3409108],[103.8665761,1.340881],[103.8665501,1.3408815],[103.8665496,1.3408501],[103.8665178,1.3408507],[103.8665174,1.3408253],[103.8664678,1.3408262],[103.8664669,1.3407744],[103.8664092,1.3407754],[103.8664102,1.3408272],[103.8663295,1.3408287],[103.8663317,1.3409503],[103.8666092,1.3409453],[103.8666086,1.3409102]]]},"clearanceHeight":1.7,"clearancePrepared":true},"geometry":{"type":"Polygon","coordinates":[[[103.8666092,1.3409453],[103.8666086,1.3409102],[103.8665767,1.3409108],[103.8665761,1.340881],[103.8665501,1.3408815],[103.8665496,1.3408501],[103.8665178,1.3408507],[103.8665174,1.3408253],[103.8664678,1.3408262],[103.8664669,1.3407744],[103.8664092,1.3407754],[103.8664102,1.3408272],[103.8663295,1.3408287],[103.8663317,1.3409503],[103.8666092,1.3409453]]]}},{"type":"Feature","id":"way/454006160-0","properties":{"building":"yes","clearanceGeometry":{"type":"Polygon","coordinates":[[[103.8661246,1.3409547],[103.8660688,1.3408732],[103.865812,1.3410488],[103.8658678,1.3411304],[103.8661246,1.3409547]]]},"clearanceHeight":1.7,"clearancePrepared":true},"geometry":{"type":"Polygon","coordinates":[[[103.8658678,1.3411304],[103.8661246,1.3409547],[103.8660688,1.3408732],[103.865812,1.3410488],[103.8658678,1.3411304]]]}},{"type":"Feature","id":"way/454006163-0","properties":{"building":"yes","clearanceGeometry":{"type":"Polygon","coordinates":[[[103.8659726,1.3408559],[103.8658827,1.3409109],[103.8659126,1.3409597],[103.8660024,1.3409047],[103.8659726,1.3408559]]]},"clearanceHeight":1.7,"clearancePrepared":true},"geometry":{"type":"Polygon","coordinates":[[[103.8660024,1.3409047],[103.8659726,1.3408559],[103.8658827,1.3409109],[103.8659126,1.3409597],[103.8660024,1.3409047]]]}},{"type":"Feature","id":"way/454006164-0","properties":{"building":"yes","clearanceGeometry":{"type":"Polygon","coordinates":[[[103.8669606,1.3420191],[103.8673194,1.3420037],[103.8673161,1.341927],[103.8669573,1.3419424],[103.8669606,1.3420191]]]},"clearanceHeight":1.7,"clearancePrepared":true},"geometry":{"type":"Polygon","coordinates":[[[103.8669573,1.3419424],[103.8669606,1.3420191],[103.8673194,1.3420037],[103.8673161,1.341927],[103.8669573,1.3419424]]]}},{"type":"Feature","id":"way/454006165-0","properties":{"building":"yes","clearanceGeometry":{"type":"Polygon","coordinates":[[[103.8663709,1.3413369],[103.8663052,1.341341],[103.8663064,1.3413615],[103.8662869,1.3413627],[103.8662893,1.3414023],[103.8663088,1.3414011],[103.8663146,1.341495],[103.8663803,1.3414909],[103.8663709,1.3413369]]]},"clearanceHeight":1.7,"clearancePrepared":true},"geometry":{"type":"Polygon","coordinates":[[[103.8663803,1.3414909],[103.8663709,1.3413369],[103.8663052,1.341341],[103.8663064,1.3413615],[103.8662869,1.3413627],[103.8662893,1.3414023],[103.8663088,1.3414011],[103.8663146,1.341495],[103.8663803,1.3414909]]]}},{"type":"Feature","id":"way/454006166-0","properties":{"building":"yes","clearanceGeometry":{"type":"Polygon","coordinates":[[[103.8662038,1.3414207],[103.8662349,1.3414188],[103.8662341,1.3414052],[103.8662558,1.3414039],[103.8662526,1.3413512],[103.866189,1.3413551],[103.8661922,1.3414078],[103.8662029,1.3414072],[103.8662038,1.3414207]]]},"clearanceHeight":1.7,"clearancePrepared":true},"geometry":{"type":"Polygon","coordinates":[[[103.8662029,1.3414072],[103.8662038,1.3414207],[103.8662349,1.3414188],[103.8662341,1.3414052],[103.8662558,1.3414039],[103.8662526,1.3413512],[103.866189,1.3413551],[103.8661922,1.3414078],[103.8662029,1.3414072]]]}},{"type":"Feature","id":"way/454006167-0","properties":{"building":"yes","clearanceGeometry":{"type":"Polygon","coordinates":[[[103.8656684,1.3413138],[103.8656442,1.3412886],[103.8655966,1.3413342],[103.8656209,1.3413595],[103.8655757,1.3414028],[103.8656343,1.3414638],[103.8657845,1.3413197],[103.8657259,1.3412586],[103.8656684,1.3413138]]]},"clearanceHeight":1.7,"clearancePrepared":true},"geometry":{"type":"Polygon","coordinates":[[[103.8657259,1.3412586],[103.8656684,1.3413138],[103.8656442,1.3412886],[103.8655966,1.3413342],[103.8656209,1.3413595],[103.8655757,1.3414028],[103.8656343,1.3414638],[103.8657845,1.3413197],[103.8657259,1.3412586]]]}},{"type":"Feature","id":"way/454006168-0","properties":{"building":"yes","clearanceGeometry":{"type":"Polygon","coordinates":[[[103.8673654,1.3406505],[103.8672949,1.340578],[103.8673236,1.3405501],[103.8672842,1.3405096],[103.8672555,1.3405375],[103.8671971,1.3404775],[103.8671129,1.3405595],[103.8672812,1.3407324],[103.8673654,1.3406505]]]},"clearanceHeight":1.7,"clearancePrepared":true},"geometry":{"type":"Polygon","coordinates":[[[103.8672812,1.3407324],[103.8673654,1.3406505],[103.8672949,1.340578],[103.8673236,1.3405501],[103.8672842,1.3405096],[103.8672555,1.3405375],[103.8671971,1.3404775],[103.8671129,1.3405595],[103.8672812,1.3407324]]]}},{"type":"Feature","id":"way/454006274-0","properties":{"building":"yes","clearanceGeometry":{"type":"Polygon","coordinates":[[[103.8666753,1.3422702],[103.8666416,1.3422863],[103.8666028,1.3422053],[103.8665133,1.3422482],[103.8665521,1.3423292],[103.8665157,1.3423466],[103.8665577,1.3424341],[103.8667173,1.3423577],[103.8666753,1.3422702]]]},"clearanceHeight":1.7,"clearancePrepared":true},"geometry":{"type":"Polygon","coordinates":[[[103.8667173,1.3423577],[103.8666753,1.3422702],[103.8666416,1.3422863],[103.8666028,1.3422053],[103.8665133,1.3422482],[103.8665521,1.3423292],[103.8665157,1.3423466],[103.8665577,1.3424341],[103.8667173,1.3423577]]]}},{"type":"Feature","id":"way/454006742-0","properties":{"building":"yes","clearanceGeometry":{"type":"Polygon","coordinates":[[[103.8655665,1.3405546],[103.8655136,1.3405846],[103.8655334,1.3406196],[103.865494,1.3406418],[103.8655086,1.3406677],[103.8654123,1.3407222],[103.8654271,1.3407484],[103.8653803,1.3407749],[103.8654134,1.3408333],[103.8656863,1.3406788],[103.8656238,1.3405684],[103.8655863,1.3405896],[103.8655665,1.3405546]]]},"clearanceHeight":1.7,"clearancePrepared":true},"geometry":{"type":"Polygon","coordinates":[[[103.8655863,1.3405896],[103.8655665,1.3405546],[103.8655136,1.3405846],[103.8655334,1.3406196],[103.865494,1.3406418],[103.8655086,1.3406677],[103.8654123,1.3407222],[103.8654271,1.3407484],[103.8653803,1.3407749],[103.8654134,1.3408333],[103.8656863,1.3406788],[103.8656238,1.3405684],[103.8655863,1.3405896]]]}},{"type":"Feature","id":"way/454006747-0","properties":{"building":"yes","clearanceGeometry":{"type":"Polygon","coordinates":[[[103.8675826,1.3401298],[103.8675121,1.3401291],[103.8675109,1.3402591],[103.8675814,1.3402598],[103.8675826,1.3401298]]]},"clearanceHeight":1.7,"clearancePrepared":true},"geometry":{"type":"Polygon","coordinates":[[[103.8675814,1.3402598],[103.8675826,1.3401298],[103.8675121,1.3401291],[103.8675109,1.3402591],[103.8675814,1.3402598]]]}},{"type":"Feature","id":"way/454006751-0","properties":{"building":"yes","clearanceGeometry":{"type":"Polygon","coordinates":[[[103.8658803,1.3421705],[103.8658492,1.3421982],[103.8658164,1.3421657],[103.8657486,1.342234],[103.8657773,1.3422624],[103.8657314,1.3423033],[103.8657869,1.3423654],[103.8659357,1.3422327],[103.8658803,1.3421705]]]},"clearanceHeight":1.7,"clearancePrepared":true},"geometry":{"type":"Polygon","coordinates":[[[103.8659357,1.3422327],[103.8658803,1.3421705],[103.8658492,1.3421982],[103.8658164,1.3421657],[103.8657486,1.342234],[103.8657773,1.3422624],[103.8657314,1.3423033],[103.8657869,1.3423654],[103.8659357,1.3422327]]]}},{"type":"Feature","id":"way/454006752-0","properties":{"building":"yes","clearanceGeometry":{"type":"Polygon","coordinates":[[[103.8678172,1.3402558],[103.8678391,1.340256],[103.8678395,1.3402138],[103.8678176,1.3402136],[103.8678182,1.3401478],[103.8676781,1.3401465],[103.8676765,1.3403148],[103.8678166,1.3403161],[103.8678172,1.3402558]]]},"clearanceHeight":1.7,"clearancePrepared":true},"geometry":{"type":"Polygon","coordinates":[[[103.8678166,1.3403161],[103.8678172,1.3402558],[103.8678391,1.340256],[103.8678395,1.3402138],[103.8678176,1.3402136],[103.8678182,1.3401478],[103.8676781,1.3401465],[103.8676765,1.3403148],[103.8678166,1.3403161]]]}},{"type":"Feature","id":"way/455063897-0","properties":{"building":"yes","clearanceGeometry":{"type":"Polygon","coordinates":[[[103.8663533,1.3398057],[103.8662564,1.3399832],[103.8663185,1.3400171],[103.8664154,1.3398396],[103.8664955,1.3398832],[103.8665262,1.3398269],[103.8664626,1.3397922],[103.8664781,1.3397637],[103.8663647,1.3397019],[103.8663185,1.3397867],[103.8663533,1.3398057]]]},"clearanceHeight":1.7,"clearancePrepared":true},"geometry":{"type":"Polygon","coordinates":[[[103.8663185,1.3397867],[103.8663533,1.3398057],[103.8662564,1.3399832],[103.8663185,1.3400171],[103.8664154,1.3398396],[103.8664955,1.3398832],[103.8665262,1.3398269],[103.8664626,1.3397922],[103.8664781,1.3397637],[103.8663647,1.3397019],[103.8663185,1.3397867]]]}},{"type":"Feature","id":"way/455063898-0","properties":{"building":"yes","clearanceGeometry":{"type":"Polygon","coordinates":[[[103.8671808,1.3398944],[103.8673359,1.3398845],[103.8673304,1.3397989],[103.8672539,1.3398038],[103.8672508,1.3397547],[103.8671632,1.3397603],[103.867167,1.3398203],[103.8671219,1.3398232],[103.8671293,1.3399382],[103.8671834,1.3399347],[103.8671808,1.3398944]]]},"clearanceHeight":1.7,"clearancePrepared":true},"geometry":{"type":"Polygon","coordinates":[[[103.8671834,1.3399347],[103.8671808,1.3398944],[103.8673359,1.3398845],[103.8673304,1.3397989],[103.8672539,1.3398038],[103.8672508,1.3397547],[103.8671632,1.3397603],[103.867167,1.3398203],[103.8671219,1.3398232],[103.8671293,1.3399382],[103.8671834,1.3399347]]]}},{"type":"Feature","id":"way/684057975-0","properties":{"addr:city":"Singapore","addr:country":"SG","addr:housename":"Park Colonial","addr:housenumber":"2","addr:postcode":"357685","addr:street":"Woodleigh Lane","building":"residential","building:levels":"16","building:levels:underground":"1","residential":"condominium","clearanceGeometry":{"type":"Polygon","coordinates":[[[103.8688657,1.3383784],[103.8687926,1.338328],[103.8687844,1.33834],[103.8687267,1.3383002],[103.8687206,1.3383089],[103.8687104,1.3383019],[103.8686766,1.338351],[103.8687251,1.3383845],[103.8687203,1.3383915],[103.8687361,1.3384024],[103.8687332,1.3384065],[103.8687486,1.3384171],[103.8687393,1.3384307],[103.8687265,1.3384219],[103.8687232,1.3384266],[103.8687033,1.3384129],[103.8686988,1.3384194],[103.8686476,1.3383841],[103.8686148,1.3384315],[103.8686219,1.3384364],[103.8686158,1.3384452],[103.8686734,1.3384849],[103.8686637,1.338499],[103.868694,1.3385198],[103.8687007,1.3385101],[103.8687082,1.3385153],[103.8687044,1.3385209],[103.8687653,1.3385629],[103.8687723,1.3385527],[103.8687909,1.3385656],[103.8687785,1.3385836],[103.8688295,1.3386188],[103.868834,1.3386122],[103.8688745,1.3386401],[103.8688779,1.3386353],[103.8689197,1.3386642],[103.8689176,1.3386673],[103.8689361,1.3386801],[103.8689441,1.3386685],[103.8689549,1.338676],[103.8689922,1.3386219],[103.8689677,1.338605],[103.8689652,1.3386087],[103.8689439,1.3385941],[103.868942,1.3385969],[103.8689281,1.3385874],[103.8689332,1.3385801],[103.8688901,1.3385504],[103.8688966,1.338541],[103.8688934,1.3385388],[103.8689002,1.3385289],[103.8689061,1.338533],[103.8689116,1.338525],[103.8689312,1.3385385],[103.8689365,1.3385308],[103.8689566,1.3385446],[103.8689605,1.3385389],[103.8689694,1.3385451],[103.8689623,1.3385554],[103.8690109,1.3385889],[103.8690436,1.3385415],[103.8690358,1.338536],[103.8690427,1.3385259],[103.8689851,1.3384862],[103.8689894,1.3384799],[103.8689476,1.3384511],[103.8689525,1.3384439],[103.8689047,1.338411],[103.8688947,1.3384255],[103.868853,1.3383968],[103.8688657,1.3383784]]]},"clearanceHeight":1.7,"clearancePrepared":true},"geometry":{"type":"Polygon","coordinates":[[[103.868853,1.3383968],[103.8688657,1.3383784],[103.8687926,1.338328],[103.8687844,1.33834],[103.8687267,1.3383002],[103.8687206,1.3383089],[103.8687104,1.3383019],[103.8686766,1.338351],[103.8687251,1.3383845],[103.8687203,1.3383915],[103.8687361,1.3384024],[103.8687332,1.3384065],[103.8687486,1.3384171],[103.8687393,1.3384307],[103.8687265,1.3384219],[103.8687232,1.3384266],[103.8687033,1.3384129],[103.8686988,1.3384194],[103.8686476,1.3383841],[103.8686148,1.3384315],[103.8686219,1.3384364],[103.8686158,1.3384452],[103.8686734,1.3384849],[103.8686637,1.338499],[103.868694,1.3385198],[103.8687007,1.3385101],[103.8687082,1.3385153],[103.8687044,1.3385209],[103.8687653,1.3385629],[103.8687723,1.3385527],[103.8687909,1.3385656],[103.8687785,1.3385836],[103.8688295,1.3386188],[103.868834,1.3386122],[103.8688745,1.3386401],[103.8688779,1.3386353],[103.8689197,1.3386642],[103.8689176,1.3386673],[103.8689361,1.3386801],[103.8689441,1.3386685],[103.8689549,1.338676],[103.8689922,1.3386219],[103.8689677,1.338605],[103.8689652,1.3386087],[103.8689439,1.3385941],[103.868942,1.3385969],[103.8689281,1.3385874],[103.8689332,1.3385801],[103.8688901,1.3385504],[103.8688966,1.338541],[103.8688934,1.3385388],[103.8689002,1.3385289],[103.8689061,1.338533],[103.8689116,1.338525],[103.8689312,1.3385385],[103.8689365,1.3385308],[103.8689566,1.3385446],[103.8689605,1.3385389],[103.8689694,1.3385451],[103.8689623,1.3385554],[103.8690109,1.3385889],[103.8690436,1.3385415],[103.8690358,1.338536],[103.8690427,1.3385259],[103.8689851,1.3384862],[103.8689894,1.3384799],[103.8689476,1.3384511],[103.8689525,1.3384439],[103.8689047,1.338411],[103.8688947,1.3384255],[103.868853,1.3383968]]]}},{"type":"Feature","id":"way/875707796-0","properties":{"building":"yes","clearanceGeometry":{"type":"Polygon","coordinates":[[[103.8685405,1.339998],[103.8683863,1.3399337],[103.8683309,1.3400663],[103.8684851,1.3401307],[103.8685405,1.339998]]]},"clearanceHeight":1.7,"clearancePrepared":true},"geometry":{"type":"Polygon","coordinates":[[[103.8684851,1.3401307],[103.8685405,1.339998],[103.8683863,1.3399337],[103.8683309,1.3400663],[103.8684851,1.3401307]]]}},{"type":"Feature","id":"way/1208705316-0","properties":{"building":"shed","clearanceGeometry":{"type":"Polygon","coordinates":[[[103.8650436,1.33866],[103.8649735,1.3385952],[103.86495305697038,1.338615879662587],[103.8649650075566,1.3386275643375691],[103.8647877943569,1.3388087194169571],[103.8648432,1.3388621],[103.8650436,1.33866]]]},"clearanceHeight":1.7,"clearancePrepared":true},"geometry":{"type":"Polygon","coordinates":[[[103.8648432,1.3388621],[103.8650436,1.33866],[103.8649735,1.3385952],[103.8647748,1.3387962],[103.8648432,1.3388621]]]}},{"type":"Feature","id":"way/1208705317-0","properties":{"building":"industrial","clearanceGeometry":{"type":"Polygon","coordinates":[[[103.8646905,1.3385938],[103.86462719829035,1.3386571017096465],[103.8647283543358,1.3387538517936826],[103.86478908569951,1.3386917695388951],[103.8646905,1.3385938]]]},"clearanceHeight":1.7,"clearancePrepared":true},"geometry":{"type":"Polygon","coordinates":[[[103.8647334,1.3387775],[103.8648025,1.3387051],[103.8646905,1.3385938],[103.8646174,1.3386669],[103.8647334,1.3387775]]]}},{"type":"Feature","id":"way/1208705319-0","properties":{"building":"yes","layer":"1","office":"security","clearanceGeometry":{"type":"MultiPolygon","coordinates":[[[[103.8647608,1.3384063],[103.86475692247225,1.3384025815058362],[103.86470453112328,1.3384575494785405],[103.86465769241497,1.3385036768513328],[103.8646606,1.3385064],[103.8647608,1.3384063]]],[[[103.8646267,1.3382777],[103.8645266,1.3383809],[103.86459862784821,1.3384483589175384],[103.86464686887673,1.3384008505214595],[103.86469856223584,1.3383466148659915],[103.8646267,1.3382777]]]]},"clearanceHeight":1.7,"clearancePrepared":true},"geometry":{"type":"Polygon","coordinates":[[[103.8646606,1.3385064],[103.8647608,1.3384063],[103.8646267,1.3382777],[103.8645266,1.3383809],[103.8646606,1.3385064]]]}},{"type":"Feature","id":"way/1208705328-0","properties":{"building":"industrial","clearanceGeometry":{"type":"Polygon","coordinates":[[[103.8683378,1.3398348],[103.8684431,1.3397416],[103.8683933,1.3396837],[103.8683157,1.3397513],[103.8682874,1.3397778],[103.8683378,1.3398348]]]},"clearanceHeight":1.7,"clearancePrepared":true},"geometry":{"type":"Polygon","coordinates":[[[103.8682874,1.3397778],[103.8683378,1.3398348],[103.8684431,1.3397416],[103.8683933,1.3396837],[103.8683157,1.3397513],[103.8682874,1.3397778]]]}},{"type":"Feature","id":"way/1222166294-0","properties":{"building":"industrial","clearanceGeometry":{"type":"Polygon","coordinates":[[[103.86513894245171,1.339263661760988],[103.86479185672785,1.3389270132059847],[103.8644766,1.3392552],[103.8649641,1.3397244],[103.8652808,1.3394047],[103.86513894245171,1.339263661760988]]]},"clearanceHeight":1.7,"clearancePrepared":true},"geometry":{"type":"Polygon","coordinates":[[[103.8652808,1.3394047],[103.864796,1.3389227],[103.8644766,1.3392552],[103.8649641,1.3397244],[103.8652808,1.3394047]]]}},{"type":"Feature","id":"way/1222166298-0","properties":{"building":"industrial","clearanceGeometry":{"type":"Polygon","coordinates":[[[103.8674324,1.3389044],[103.8669199,1.3383567],[103.8663357,1.3389097],[103.8668522,1.3394366],[103.8674324,1.3389044]]]},"clearanceHeight":1.7,"clearancePrepared":true},"geometry":{"type":"Polygon","coordinates":[[[103.8668522,1.3394366],[103.8674324,1.3389044],[103.8669199,1.3383567],[103.8663357,1.3389097],[103.8668522,1.3394366]]]}},{"type":"Feature","id":"way/1222166299-0","properties":{"building":"industrial","clearanceGeometry":{"type":"Polygon","coordinates":[[[103.8684252,1.338991],[103.8678147,1.3382958],[103.8674024,1.3386726],[103.8680235,1.3393572],[103.8684252,1.338991]]]},"clearanceHeight":1.7,"clearancePrepared":true},"geometry":{"type":"Polygon","coordinates":[[[103.8680235,1.3393572],[103.8684252,1.338991],[103.8678147,1.3382958],[103.8674024,1.3386726],[103.8680235,1.3393572]]]}},{"type":"Feature","id":"way/1222166309-0","properties":{"building":"industrial","clearanceGeometry":{"type":"Polygon","coordinates":[[[103.8649041,1.3379771],[103.86469370949189,1.3381893867722707],[103.86477248529522,1.3382686337739875],[103.86498028575679,1.3380479562485712],[103.8649041,1.3379771]]]},"clearanceHeight":1.7,"clearancePrepared":true},"geometry":{"type":"Polygon","coordinates":[[[103.864772,1.3382848],[103.8649913,1.3380582],[103.8649041,1.3379771],[103.8646822,1.338201],[103.864772,1.3382848]]]}},{"type":"Feature","id":"node/8204275064","properties":{"highway":"crossing"},"geometry":{"type":"Point","coordinates":[103.8682691,1.3380087]}},{"type":"Feature","id":"node/8204275065","properties":{"highway":"crossing"},"geometry":{"type":"Point","coordinates":[103.8683505,1.3379748]}},{"type":"Feature","id":"node/8204275066","properties":{"highway":"crossing"},"geometry":{"type":"Point","coordinates":[103.8684932,1.3379136]}},{"type":"Feature","id":"way/79157315-0-0-0","properties":{"highway":"residential","lanes":"2","lanes:backward":"1","lanes:forward":"1","maxspeed":"50","name":"Woodleigh Park","surface":"asphalt","startNodeId":"924799034","endNodeId":"924799035"},"geometry":{"type":"LineString","coordinates":[[103.8656289,1.3420754],[103.8655338,1.3418302]]}},{"type":"Feature","id":"way/79157315-0-1-0","properties":{"highway":"residential","lanes":"2","lanes:backward":"1","lanes:forward":"1","maxspeed":"50","name":"Woodleigh Park","surface":"asphalt","startNodeId":"924799035","endNodeId":"924799036"},"geometry":{"type":"LineString","coordinates":[[103.8655338,1.3418302],[103.865448,1.3415942]]}},{"type":"Feature","id":"way/79157315-0-2-0","properties":{"highway":"residential","lanes":"2","lanes:backward":"1","lanes:forward":"1","maxspeed":"50","name":"Woodleigh Park","surface":"asphalt","startNodeId":"924799036","endNodeId":"924799037"},"geometry":{"type":"LineString","coordinates":[[103.865448,1.3415942],[103.8652871,1.341251]]}},{"type":"Feature","id":"way/79157315-0-3-0","properties":{"highway":"residential","lanes":"2","lanes:backward":"1","lanes:forward":"1","maxspeed":"50","name":"Woodleigh Park","surface":"asphalt","startNodeId":"924799037","endNodeId":"924799038"},"geometry":{"type":"LineString","coordinates":[[103.8652871,1.341251],[103.8652763,1.3410257]]}},{"type":"Feature","id":"way/79157315-0-4-0","properties":{"highway":"residential","lanes":"2","lanes:backward":"1","lanes:forward":"1","maxspeed":"50","name":"Woodleigh Park","surface":"asphalt","startNodeId":"924799038","endNodeId":"924799039"},"geometry":{"type":"LineString","coordinates":[[103.8652763,1.3410257],[103.8652442,1.3406718]]}},{"type":"Feature","id":"way/79157315-0-5-0","properties":{"highway":"residential","lanes":"2","lanes:backward":"1","lanes:forward":"1","maxspeed":"50","name":"Woodleigh Park","surface":"asphalt","startNodeId":"924799039","endNodeId":"924799040"},"geometry":{"type":"LineString","coordinates":[[103.8652442,1.3406718],[103.8653085,1.3404465]]}},{"type":"Feature","id":"way/79157315-0-6-0","properties":{"highway":"residential","lanes":"2","lanes:backward":"1","lanes:forward":"1","maxspeed":"50","name":"Woodleigh Park","surface":"asphalt","startNodeId":"924799040","endNodeId":"924799041"},"geometry":{"type":"LineString","coordinates":[[103.8653085,1.3404465],[103.8656519,1.340232]]}},{"type":"Feature","id":"way/79157315-0-7-0","properties":{"highway":"residential","lanes":"2","lanes:backward":"1","lanes:forward":"1","maxspeed":"50","name":"Woodleigh Park","surface":"asphalt","startNodeId":"924799041","endNodeId":"924799042"},"geometry":{"type":"LineString","coordinates":[[103.8656519,1.340232],[103.8660917,1.3401355]]}},{"type":"Feature","id":"way/79157315-0-8-0","properties":{"highway":"residential","lanes":"2","lanes:backward":"1","lanes:forward":"1","maxspeed":"50","name":"Woodleigh Park","surface":"asphalt","startNodeId":"924799042","endNodeId":"924799043"},"geometry":{"type":"LineString","coordinates":[[103.8660917,1.3401355],[103.8665853,1.3400497]]}},{"type":"Feature","id":"way/79157315-0-9-0","properties":{"highway":"residential","lanes":"2","lanes:backward":"1","lanes:forward":"1","maxspeed":"50","name":"Woodleigh Park","surface":"asphalt","startNodeId":"924799043","endNodeId":"5701032545"},"geometry":{"type":"LineString","coordinates":[[103.8665853,1.3400497],[103.8667792,1.3400328]]}},{"type":"Feature","id":"way/79157316-0-0-0","properties":{"highway":"residential","lanes":"2","lanes:backward":"1","lanes:forward":"1","maxspeed":"50","name":"Woodleigh Park","surface":"asphalt","startNodeId":"924799034","endNodeId":"924799055"},"geometry":{"type":"LineString","coordinates":[[103.8656289,1.3420754],[103.8657591,1.3416049]]}},{"type":"Feature","id":"way/79157316-0-1-0","properties":{"highway":"residential","lanes":"2","lanes:backward":"1","lanes:forward":"1","maxspeed":"50","name":"Woodleigh Park","surface":"asphalt","startNodeId":"924799055","endNodeId":"924799056"},"geometry":{"type":"LineString","coordinates":[[103.8657591,1.3416049],[103.8658879,1.3413582]]}},{"type":"Feature","id":"way/79157316-0-2-0","properties":{"highway":"residential","lanes":"2","lanes:backward":"1","lanes:forward":"1","maxspeed":"50","name":"Woodleigh Park","surface":"asphalt","startNodeId":"924799056","endNodeId":"924799057"},"geometry":{"type":"LineString","coordinates":[[103.8658879,1.3413582],[103.8661025,1.3412081]]}},{"type":"Feature","id":"way/79157316-0-3-0","properties":{"highway":"residential","lanes":"2","lanes:backward":"1","lanes:forward":"1","maxspeed":"50","name":"Woodleigh Park","surface":"asphalt","startNodeId":"924799057","endNodeId":"7283821247"},"geometry":{"type":"LineString","coordinates":[[103.8661025,1.3412081],[103.8662566,1.3411687]]}},{"type":"Feature","id":"way/79157316-0-4-0","properties":{"highway":"residential","lanes":"2","lanes:backward":"1","lanes:forward":"1","maxspeed":"50","name":"Woodleigh Park","surface":"asphalt","startNodeId":"7283821247","endNodeId":"924799058"},"geometry":{"type":"LineString","coordinates":[[103.8662566,1.3411687],[103.8665638,1.3410901]]}},{"type":"Feature","id":"way/79157316-0-5-0","properties":{"highway":"residential","lanes":"2","lanes:backward":"1","lanes:forward":"1","maxspeed":"50","name":"Woodleigh Park","surface":"asphalt","startNodeId":"924799058","endNodeId":"924799059"},"geometry":{"type":"LineString","coordinates":[[103.8665638,1.3410901],[103.86695,1.341133]]}},{"type":"Feature","id":"way/79157316-0-6-0","properties":{"highway":"residential","lanes":"2","lanes:backward":"1","lanes:forward":"1","maxspeed":"50","name":"Woodleigh Park","surface":"asphalt","startNodeId":"924799059","endNodeId":"924799060"},"geometry":{"type":"LineString","coordinates":[[103.86695,1.341133],[103.8672612,1.3412724]]}},{"type":"Feature","id":"way/79157316-0-7-0","properties":{"highway":"residential","lanes":"2","lanes:backward":"1","lanes:forward":"1","maxspeed":"50","name":"Woodleigh Park","surface":"asphalt","startNodeId":"924799060","endNodeId":"924799061"},"geometry":{"type":"LineString","coordinates":[[103.8672612,1.3412724],[103.8674436,1.341444]]}},{"type":"Feature","id":"way/79157316-0-8-0","properties":{"highway":"residential","lanes":"2","lanes:backward":"1","lanes:forward":"1","maxspeed":"50","name":"Woodleigh Park","surface":"asphalt","startNodeId":"924799061","endNodeId":"924799062"},"geometry":{"type":"LineString","coordinates":[[103.8674436,1.341444],[103.8677359,1.3417001]]}},{"type":"Feature","id":"way/79157316-0-9-0","properties":{"highway":"residential","lanes":"2","lanes:backward":"1","lanes:forward":"1","maxspeed":"50","name":"Woodleigh Park","surface":"asphalt","startNodeId":"924799062","endNodeId":"5239995621"},"geometry":{"type":"LineString","coordinates":[[103.8677359,1.3417001],[103.867832,1.3417369]]}},{"type":"Feature","id":"way/79157316-0-10-0","properties":{"highway":"residential","lanes":"2","lanes:backward":"1","lanes:forward":"1","maxspeed":"50","name":"Woodleigh Park","surface":"asphalt","startNodeId":"5239995621","endNodeId":"924799050"},"geometry":{"type":"LineString","coordinates":[[103.867832,1.3417369],[103.867937,1.3417506]]}},{"type":"Feature","id":"way/91557234-0-0-0","properties":{"highway":"service","lanes":"2","oneway":"yes","service":"driveway","turn:lanes":"through|right","startNodeId":"5166532118","endNodeId":"5166532119"},"geometry":{"type":"LineString","coordinates":[[103.8680635,1.3419925],[103.8676329,1.3421739]]}},{"type":"Feature","id":"way/91557234-0-1-0","properties":{"highway":"service","lanes":"2","oneway":"yes","service":"driveway","turn:lanes":"through|right","startNodeId":"5166532119","endNodeId":"5166532120"},"geometry":{"type":"LineString","coordinates":[[103.8676329,1.3421739],[103.8676068,1.34218]]}},{"type":"Feature","id":"way/91557234-0-2-0","properties":{"highway":"service","lanes":"2","oneway":"yes","service":"driveway","turn:lanes":"through|right","startNodeId":"5166532120","endNodeId":"5166532721"},"geometry":{"type":"LineString","coordinates":[[103.8676068,1.34218],[103.8675493,1.342187]]}},{"type":"Feature","id":"way/532428223-0-0-0","properties":{"highway":"service","service":"driveway","startNodeId":"5166532723","endNodeId":"5166532722"},"geometry":{"type":"LineString","coordinates":[[103.8672323,1.3422871],[103.8672306,1.3422027]]}},{"type":"Feature","id":"way/532428224-0-0-0","properties":{"highway":"service","lanes":"2","lanes:backward":"1","lanes:forward":"1","service":"driveway","turn:lanes:forward":"through","startNodeId":"5166532723","endNodeId":"1063591771"},"geometry":{"type":"LineString","coordinates":[[103.8672323,1.3422871],[103.8672214,1.3423438]]}},{"type":"Feature","id":"way/532428225-0-0-0","properties":{"highway":"service","lanes":"1","oneway":"yes","service":"driveway","startNodeId":"5284431650","endNodeId":"1063591752"},"geometry":{"type":"LineString","coordinates":[[103.8677636,1.3422913],[103.8679911,1.3422962]]}},{"type":"Feature","id":"way/532428225-0-1-0","properties":{"highway":"service","lanes":"1","oneway":"yes","service":"driveway","startNodeId":"1063591752","endNodeId":"6927966800"},"geometry":{"type":"LineString","coordinates":[[103.8679911,1.3422962],[103.8680056,1.3422861]]}},{"type":"Feature","id":"way/532428226-0-0-0","properties":{"highway":"service","lanes":"2","lanes:backward":"1","lanes:forward":"1","service":"parking_aisle","turn:lanes:backward":"through","turn:lanes:forward":"through","startNodeId":"5166532722","endNodeId":"5166532117"},"geometry":{"type":"LineString","coordinates":[[103.8672306,1.3422027],[103.8669145,1.3422331]]}},{"type":"Feature","id":"way/533210431-0-0-0","properties":{"highway":"service","lanes":"2","lanes:backward":"1","lanes:forward":"1","service":"parking_aisle","startNodeId":"5173361221","endNodeId":"5173361220"},"geometry":{"type":"LineString","coordinates":[[103.8674135,1.3384441],[103.8677921,1.338099]]}},{"type":"Feature","id":"way/533210433-0-0-0","properties":{"highway":"service","lanes":"2","lanes:backward":"1","lanes:forward":"1","service":"parking_aisle","startNodeId":"5173361225","endNodeId":"5173361224"},"geometry":{"type":"LineString","coordinates":[[103.8685449,1.3387671],[103.8685426,1.3387825]]}},{"type":"Feature","id":"way/533210433-0-1-0","properties":{"highway":"service","lanes":"2","lanes:backward":"1","lanes:forward":"1","service":"parking_aisle","startNodeId":"5173361224","endNodeId":"5173361223"},"geometry":{"type":"LineString","coordinates":[[103.8685426,1.3387825],[103.868538,1.3387894]]}},{"type":"Feature","id":"way/533210433-0-2-0","properties":{"highway":"service","lanes":"2","lanes:backward":"1","lanes:forward":"1","service":"parking_aisle","startNodeId":"5173361223","endNodeId":"5173361222"},"geometry":{"type":"LineString","coordinates":[[103.868538,1.3387894],[103.8684711,1.3388473]]}},{"type":"Feature","id":"way/541948372-0-0-0","properties":{"highway":"service","lanes":"2","lanes:backward":"1","lanes:forward":"1","service":"parking_aisle","turn:lanes:backward":"through","turn:lanes:forward":"through","startNodeId":"1063580070","endNodeId":"12048715173"},"geometry":{"type":"LineString","coordinates":[[103.8689514,1.3420913],[103.8689636,1.3421893]]}},{"type":"Feature","id":"way/541948373-0-0-0","properties":{"highway":"service","lanes":"2","lanes:backward":"1","lanes:forward":"1","service":"parking_aisle","startNodeId":"6927951814","endNodeId":"7424485385"},"geometry":{"type":"LineString","coordinates":[[103.8688274,1.3417383],[103.8688257,1.3419226]]}},{"type":"Feature","id":"way/541948373-0-1-0","properties":{"highway":"service","lanes":"2","lanes:backward":"1","lanes:forward":"1","service":"parking_aisle","startNodeId":"7424485385","endNodeId":"5239995628"},"geometry":{"type":"LineString","coordinates":[[103.8688257,1.3419226],[103.8688298,1.3419923]]}},{"type":"Feature","id":"way/541948375-0-0-0","properties":{"highway":"service","lanes":"2","lanes:backward":"1","lanes:forward":"1","service":"driveway","turn:lanes:backward":"left;through","turn:lanes:forward":"through","startNodeId":"1063580070","endNodeId":"5239995631"},"geometry":{"type":"LineString","coordinates":[[103.8689514,1.3420913],[103.8689714,1.3417208]]}},{"type":"Feature","id":"way/541963591-0-0-0","properties":{"highway":"service","service":"driveway","startNodeId":"5166532721","endNodeId":"5240121512"},"geometry":{"type":"LineString","coordinates":[[103.8675493,1.342187],[103.8675544,1.342291]]}},{"type":"Feature","id":"way/546878794-0-0-0","properties":{"covered":"yes","highway":"service","oneway":"yes","service":"driveway","startNodeId":"5284431651","endNodeId":"11007043483"},"geometry":{"type":"LineString","coordinates":[[103.8676784,1.34229],[103.8677289,1.3422908]]}},{"type":"Feature","id":"way/546878794-0-1-0","properties":{"covered":"yes","highway":"service","oneway":"yes","service":"driveway","startNodeId":"11007043483","endNodeId":"5284431650"},"geometry":{"type":"LineString","coordinates":[[103.8677289,1.3422908],[103.8677636,1.3422913]]}},{"type":"Feature","id":"way/546878796-0-0-0","properties":{"highway":"service","lanes":"1","oneway":"yes","service":"parking_aisle","turn:lanes":"through","startNodeId":"5166532723","endNodeId":"5240121512"},"geometry":{"type":"LineString","coordinates":[[103.8672323,1.3422871],[103.8675544,1.342291]]}},{"type":"Feature","id":"way/644048288-0-0-0","properties":{"highway":"service","lanes":"2","lanes:backward":"1","lanes:forward":"1","startNodeId":"6059099661","endNodeId":"7122313687"},"geometry":{"type":"LineString","coordinates":[[103.8651944,1.3378898],[103.8658059,1.3385082]]}},{"type":"Feature","id":"way/644048596-0-0-0","properties":{"highway":"service","lanes":"2","lanes:backward":"1","lanes:forward":"1","startNodeId":"6059102610","endNodeId":"6059102609"},"geometry":{"type":"LineString","coordinates":[[103.8672352,1.3380485],[103.8674037,1.3382361]]}},{"type":"Feature","id":"way/644048597-0-0-0","properties":{"highway":"service","lanes":"2","lanes:backward":"1","lanes:forward":"1","startNodeId":"6059102612","endNodeId":"6059102609"},"geometry":{"type":"LineString","coordinates":[[103.8676819,1.3379775],[103.8674037,1.3382361]]}},{"type":"Feature","id":"way/644048597-0-1-0","properties":{"highway":"service","lanes":"2","lanes:backward":"1","lanes:forward":"1","startNodeId":"6059102609","endNodeId":"6059102611"},"geometry":{"type":"LineString","coordinates":[[103.8674037,1.3382361],[103.8672218,1.3384052]]}},{"type":"Feature","id":"way/644918395-0-6-0","properties":{"highway":"residential","lanes":"2","lanes:backward":"1","lanes:forward":"1","maxspeed":"50","name":"Woodleigh Park","surface":"asphalt","startNodeId":"924799032","endNodeId":"924799033"},"geometry":{"type":"LineString","coordinates":[[103.865212,1.3424737],[103.8655224,1.3423002]]}},{"type":"Feature","id":"way/644918395-0-7-0","properties":{"highway":"residential","lanes":"2","lanes:backward":"1","lanes:forward":"1","maxspeed":"50","name":"Woodleigh Park","surface":"asphalt","startNodeId":"924799033","endNodeId":"924799034"},"geometry":{"type":"LineString","coordinates":[[103.8655224,1.3423002],[103.8656289,1.3420754]]}},{"type":"Feature","id":"way/646236081-0-0-0","properties":{"highway":"service","lanes":"1","oneway":"yes","service":"driveway","turn:lanes":"through","startNodeId":"5240121512","endNodeId":"5284431651"},"geometry":{"type":"LineString","coordinates":[[103.8675544,1.342291],[103.8676784,1.34229]]}},{"type":"Feature","id":"way/646258610-0-0-0","properties":{"highway":"residential","lanes":"2","lanes:backward":"1","lanes:forward":"1","maxspeed":"50","name":"Woodleigh Park","surface":"asphalt","turn:lanes:backward":"through;right","startNodeId":"5166532118","endNodeId":"1063591737"},"geometry":{"type":"LineString","coordinates":[[103.8680635,1.3419925],[103.8681576,1.3421547]]}},{"type":"Feature","id":"way/646258611-0-0-0","properties":{"highway":"residential","lanes":"2","lanes:backward":"1","lanes:forward":"1","maxspeed":"50","name":"Woodleigh Park","surface":"asphalt","turn:lanes:forward":"left;through","startNodeId":"924799050","endNodeId":"924799051"},"geometry":{"type":"LineString","coordinates":[[103.867937,1.3417506],[103.8679975,1.3418691]]}},{"type":"Feature","id":"way/646258611-0-1-0","properties":{"highway":"residential","lanes":"2","lanes:backward":"1","lanes:forward":"1","maxspeed":"50","name":"Woodleigh Park","surface":"asphalt","turn:lanes:forward":"left;through","startNodeId":"924799051","endNodeId":"5166532118"},"geometry":{"type":"LineString","coordinates":[[103.8679975,1.3418691],[103.8680635,1.3419925]]}},{"type":"Feature","id":"way/646258612-0-0-0","properties":{"check_date:surface":"2026-02-04","highway":"residential","lanes":"2","lanes:backward":"1","lanes:forward":"1","maxspeed":"50","name":"Woodleigh Park","surface":"asphalt","startNodeId":"1063591737","endNodeId":"1063580125"},"geometry":{"type":"LineString","coordinates":[[103.8681576,1.3421547],[103.868392,1.3425546]]}},{"type":"Feature","id":"way/646481841-0-0-0","properties":{"highway":"service","lanes":"2","lanes:backward":"1","lanes:forward":"1","service":"driveway","turn:lanes:backward":"through","turn:lanes:forward":"left;through","startNodeId":"5239995631","endNodeId":"6927946638"},"geometry":{"type":"LineString","coordinates":[[103.8689714,1.3417208],[103.8689686,1.3416107]]}},{"type":"Feature","id":"way/646650688-0-0-0","properties":{"highway":"service","lanes":"2","lanes:backward":"1","lanes:forward":"1","turn:lanes:backward":"through","turn:lanes:forward":"through","startNodeId":"6059102612","endNodeId":"5173361220"},"geometry":{"type":"LineString","coordinates":[[103.8676819,1.3379775],[103.8677921,1.338099]]}},{"type":"Feature","id":"way/646650689-0-0-0","properties":{"highway":"service","lanes":"2","lanes:backward":"1","lanes:forward":"1","turn:lanes:backward":"through","turn:lanes:forward":"through","startNodeId":"5173361220","endNodeId":"5173361230"},"geometry":{"type":"LineString","coordinates":[[103.8677921,1.338099],[103.8680686,1.3384037]]}},{"type":"Feature","id":"way/646650690-0-0-0","properties":{"highway":"service","lanes":"2","lanes:backward":"1","lanes:forward":"1","startNodeId":"5173361222","endNodeId":"1531170698"},"geometry":{"type":"LineString","coordinates":[[103.8684711,1.3388473],[103.8685614,1.3389554]]}},{"type":"Feature","id":"way/646650690-0-1-0","properties":{"highway":"service","lanes":"2","lanes:backward":"1","lanes:forward":"1","startNodeId":"1531170698","endNodeId":"11199291005"},"geometry":{"type":"LineString","coordinates":[[103.8685614,1.3389554],[103.8685803,1.3390009]]}},{"type":"Feature","id":"way/646650690-0-2-0","properties":{"highway":"service","lanes":"2","lanes:backward":"1","lanes:forward":"1","startNodeId":"11199291005","endNodeId":"1531170732"},"geometry":{"type":"LineString","coordinates":[[103.8685803,1.3390009],[103.8687659,1.3392256]]}},{"type":"Feature","id":"way/646650896-0-0-0","properties":{"highway":"service","lanes":"2","lanes:backward":"1","lanes:forward":"1","turn:lanes:backward":"through","turn:lanes:forward":"through","startNodeId":"5173361230","endNodeId":"5173361222"},"geometry":{"type":"LineString","coordinates":[[103.8680686,1.3384037],[103.8684711,1.3388473]]}},{"type":"Feature","id":"way/646939628-0-0-0","properties":{"highway":"residential","lanes":"2","lanes:backward":"1","lanes:forward":"1","maxspeed":"50","name":"Woodleigh Park","surface":"asphalt","startNodeId":"5701032545","endNodeId":"924799044"},"geometry":{"type":"LineString","coordinates":[[103.8667792,1.3400328],[103.8670037,1.3400711]]}},{"type":"Feature","id":"way/646939628-0-1-0","properties":{"highway":"residential","lanes":"2","lanes:backward":"1","lanes:forward":"1","maxspeed":"50","name":"Woodleigh Park","surface":"asphalt","startNodeId":"924799044","endNodeId":"924799045"},"geometry":{"type":"LineString","coordinates":[[103.8670037,1.3400711],[103.8674007,1.3402535]]}},{"type":"Feature","id":"way/646939628-0-2-0","properties":{"highway":"residential","lanes":"2","lanes:backward":"1","lanes:forward":"1","maxspeed":"50","name":"Woodleigh Park","surface":"asphalt","startNodeId":"924799045","endNodeId":"924799046"},"geometry":{"type":"LineString","coordinates":[[103.8674007,1.3402535],[103.8676152,1.3405109]]}},{"type":"Feature","id":"way/646939628-0-3-0","properties":{"highway":"residential","lanes":"2","lanes:backward":"1","lanes:forward":"1","maxspeed":"50","name":"Woodleigh Park","surface":"asphalt","startNodeId":"924799046","endNodeId":"924799047"},"geometry":{"type":"LineString","coordinates":[[103.8676152,1.3405109],[103.8677547,1.3408112]]}},{"type":"Feature","id":"way/646939628-0-4-0","properties":{"highway":"residential","lanes":"2","lanes:backward":"1","lanes:forward":"1","maxspeed":"50","name":"Woodleigh Park","surface":"asphalt","startNodeId":"924799047","endNodeId":"924799048"},"geometry":{"type":"LineString","coordinates":[[103.8677547,1.3408112],[103.8678084,1.3412617]]}},{"type":"Feature","id":"way/646939628-0-5-0","properties":{"highway":"residential","lanes":"2","lanes:backward":"1","lanes:forward":"1","maxspeed":"50","name":"Woodleigh Park","surface":"asphalt","startNodeId":"924799048","endNodeId":"924799049"},"geometry":{"type":"LineString","coordinates":[[103.8678084,1.3412617],[103.8678526,1.3415218]]}},{"type":"Feature","id":"way/646939628-0-6-0","properties":{"highway":"residential","lanes":"2","lanes:backward":"1","lanes:forward":"1","maxspeed":"50","name":"Woodleigh Park","surface":"asphalt","startNodeId":"924799049","endNodeId":"924799050"},"geometry":{"type":"LineString","coordinates":[[103.8678526,1.3415218],[103.867937,1.3417506]]}},{"type":"Feature","id":"way/646939629-0-0-0","properties":{"highway":"service","lanes":"2","lanes:backward":"1","lanes:forward":"1","startNodeId":"6059099661","endNodeId":"1531170722"},"geometry":{"type":"LineString","coordinates":[[103.8651944,1.3378898],[103.8650225,1.3380621]]}},{"type":"Feature","id":"way/646939629-0-1-0","properties":{"highway":"service","lanes":"2","lanes:backward":"1","lanes:forward":"1","startNodeId":"1531170722","endNodeId":"11199290992"},"geometry":{"type":"LineString","coordinates":[[103.8650225,1.3380621],[103.8647756,1.3383243]]}},{"type":"Feature","id":"way/646939629-0-2-0","properties":{"highway":"service","lanes":"2","lanes:backward":"1","lanes:forward":"1","startNodeId":"11199290992","endNodeId":"11199290993"},"geometry":{"type":"LineString","coordinates":[[103.8647756,1.3383243],[103.8647733,1.3383268]]}},{"type":"Feature","id":"way/646939629-0-3-0","properties":{"highway":"service","lanes":"2","lanes:backward":"1","lanes:forward":"1","startNodeId":"11199290993","endNodeId":"11199291035"},"geometry":{"type":"LineString","coordinates":[[103.8647733,1.3383268],[103.8646757,1.3384292]]}},{"type":"Feature","id":"way/646939629-0-4-0","properties":{"highway":"service","lanes":"2","lanes:backward":"1","lanes:forward":"1","startNodeId":"11199291035","endNodeId":"6518161411"},"geometry":{"type":"LineString","coordinates":[[103.8646757,1.3384292],[103.8645045,1.3385978]]}},{"type":"Feature","id":"way/668866126-0-0-0","properties":{"highway":"service","lanes":"1","oneway":"yes","service":"parking_aisle","turn:lanes":"through;right","startNodeId":"5166532721","endNodeId":"5166532722"},"geometry":{"type":"LineString","coordinates":[[103.8675493,1.342187],[103.8672306,1.3422027]]}},{"type":"Feature","id":"way/690144488-0-0-0","properties":{"highway":"residential","lanes":"2","lanes:backward":"1","lanes:forward":"1","maxspeed":"40","name":"Woodleigh Lane","oneway":"yes","surface":"asphalt","turn:lanes:forward":"left;through","startNodeId":"6474753007","endNodeId":"6038122815"},"geometry":{"type":"LineString","coordinates":[[103.8686746,1.3379454],[103.8686019,1.3379733]]}},{"type":"Feature","id":"way/697778666-0-3-0","properties":{"highway":"service","lanes":"2","lanes:backward":"1","lanes:forward":"1","name":"Woodleigh Park","surface":"asphalt","turn:lanes:forward":"through","startNodeId":"1063591767","endNodeId":"1063591771"},"geometry":{"type":"LineString","coordinates":[[103.8671491,1.3424035],[103.8672214,1.3423438]]}},{"type":"Feature","id":"way/697784994-0-0-0","properties":{"highway":"service","lanes":"2","lanes:backward":"1","lanes:forward":"1","service":"parking_aisle","turn:lanes:forward":"through","startNodeId":"5173361227","endNodeId":"5173361226"},"geometry":{"type":"LineString","coordinates":[[103.8681725,1.3383426],[103.8685383,1.3387481]]}},{"type":"Feature","id":"way/697784994-0-1-0","properties":{"highway":"service","lanes":"2","lanes:backward":"1","lanes:forward":"1","service":"parking_aisle","turn:lanes:forward":"through","startNodeId":"5173361226","endNodeId":"5173361225"},"geometry":{"type":"LineString","coordinates":[[103.8685383,1.3387481],[103.8685449,1.3387671]]}},{"type":"Feature","id":"way/697784995-0-0-0","properties":{"highway":"service","lanes":"2","lanes:backward":"1","lanes:forward":"1","service":"parking_aisle","turn:lanes:backward":"left;right","turn:lanes:forward":"left","startNodeId":"5173361230","endNodeId":"5173361229"},"geometry":{"type":"LineString","coordinates":[[103.8680686,1.3384037],[103.868144,1.3383437]]}},{"type":"Feature","id":"way/697784995-0-1-0","properties":{"highway":"service","lanes":"2","lanes:backward":"1","lanes:forward":"1","service":"parking_aisle","turn:lanes:backward":"left;right","turn:lanes:forward":"left","startNodeId":"5173361229","endNodeId":"5173361228"},"geometry":{"type":"LineString","coordinates":[[103.868144,1.3383437],[103.8681592,1.3383396]]}},{"type":"Feature","id":"way/697784995-0-2-0","properties":{"highway":"service","lanes":"2","lanes:backward":"1","lanes:forward":"1","service":"parking_aisle","turn:lanes:backward":"left;right","turn:lanes:forward":"left","startNodeId":"5173361228","endNodeId":"5173361227"},"geometry":{"type":"LineString","coordinates":[[103.8681592,1.3383396],[103.8681725,1.3383426]]}},{"type":"Feature","id":"way/697786825-0-0-0","properties":{"highway":"service","lanes":"2","lanes:backward":"1","lanes:forward":"1","startNodeId":"6518161411","endNodeId":"11335232276"},"geometry":{"type":"LineString","coordinates":[[103.8645045,1.3385978],[103.8645617,1.3386504]]}},{"type":"Feature","id":"way/697786825-0-1-0","properties":{"highway":"service","lanes":"2","lanes:backward":"1","lanes:forward":"1","startNodeId":"11335232276","endNodeId":"11335232270"},"geometry":{"type":"LineString","coordinates":[[103.8645617,1.3386504],[103.8647293,1.3388107]]}},{"type":"Feature","id":"way/697786825-0-2-0","properties":{"highway":"service","lanes":"2","lanes:backward":"1","lanes:forward":"1","startNodeId":"11335232270","endNodeId":"11335232251"},"geometry":{"type":"LineString","coordinates":[[103.8647293,1.3388107],[103.8647797,1.3388589]]}},{"type":"Feature","id":"way/697786825-0-3-0","properties":{"highway":"service","lanes":"2","lanes:backward":"1","lanes:forward":"1","startNodeId":"11335232251","endNodeId":"6553108068"},"geometry":{"type":"LineString","coordinates":[[103.8647797,1.3388589],[103.8653018,1.3393653]]}},{"type":"Feature","id":"way/739889829-0-0-0","properties":{"highway":"service","lanes":"2","lanes:backward":"1","lanes:forward":"1","service":"driveway","turn:lanes:backward":"through","turn:lanes:forward":"through","startNodeId":"6927933905","endNodeId":"1063580070"},"geometry":{"type":"LineString","coordinates":[[103.8688475,1.3421108],[103.8689514,1.3420913]]}},{"type":"Feature","id":"way/739889830-0-0-0","properties":{"highway":"service","lanes":"2","lanes:backward":"1","lanes:forward":"1","service":"driveway","turn:lanes:forward":"through;right","startNodeId":"6927933906","endNodeId":"6927933905"},"geometry":{"type":"LineString","coordinates":[[103.8687765,1.3421967],[103.8688475,1.3421108]]}},{"type":"Feature","id":"way/739892075-0-0-0","properties":{"highway":"service","lanes":"2","lanes:backward":"1","lanes:forward":"1","service":"driveway","startNodeId":"6927946638","endNodeId":"5239995630"},"geometry":{"type":"LineString","coordinates":[[103.8689686,1.3416107],[103.8689648,1.3414567]]}},{"type":"Feature","id":"way/739895135-0-0-0","properties":{"highway":"service","lanes":"2","lanes:backward":"1","lanes:forward":"1","service":"parking_aisle","turn:lanes:backward":"through","turn:lanes:forward":"through","startNodeId":"6927951813","endNodeId":"6927951814"},"geometry":{"type":"LineString","coordinates":[[103.8688278,1.3416705],[103.8688274,1.3417383]]}},{"type":"Feature","id":"way/739895136-0-0-0","properties":{"highway":"service","lanes":"2","lanes:backward":"1","lanes:forward":"1","service":"parking_aisle","startNodeId":"5239995629","endNodeId":"6927951813"},"geometry":{"type":"LineString","coordinates":[[103.8688291,1.3414111],[103.8688278,1.3416705]]}},{"type":"Feature","id":"way/739896212-0-0-0","properties":{"highway":"service","lanes":"1","oneway":"yes","service":"driveway","turn:lanes":"through","startNodeId":"6927966800","endNodeId":"1063591781"},"geometry":{"type":"LineString","coordinates":[[103.8680056,1.3422861],[103.8680863,1.3422297]]}},{"type":"Feature","id":"way/739896213-0-0-0","properties":{"highway":"service","lanes":"1","oneway":"yes","service":"driveway","turn:lanes":"left;right","startNodeId":"1063591781","endNodeId":"1063591737"},"geometry":{"type":"LineString","coordinates":[[103.8680863,1.3422297],[103.8681576,1.3421547]]}},{"type":"Feature","id":"way/753188048-0-0-0","properties":{"highway":"residential","lanes":"2","maxspeed":"40","name":"Woodleigh Lane","oneway":"yes","surface":"asphalt","startNodeId":"6474403189","endNodeId":"9778865525"},"geometry":{"type":"LineString","coordinates":[[103.868485,1.3380178],[103.8684218,1.3380714]]}},{"type":"Feature","id":"way/753188048-0-1-0","properties":{"highway":"residential","lanes":"2","maxspeed":"40","name":"Woodleigh Lane","oneway":"yes","surface":"asphalt","startNodeId":"9778865525","endNodeId":"9778865535"},"geometry":{"type":"LineString","coordinates":[[103.8684218,1.3380714],[103.8684212,1.3381305]]}},{"type":"Feature","id":"way/753188048-0-2-0","properties":{"highway":"residential","lanes":"2","maxspeed":"40","name":"Woodleigh Lane","oneway":"yes","surface":"asphalt","startNodeId":"9778865535","endNodeId":"9778865526"},"geometry":{"type":"LineString","coordinates":[[103.8684212,1.3381305],[103.8684548,1.3381574]]}},{"type":"Feature","id":"way/753188048-0-3-0","properties":{"highway":"residential","lanes":"2","maxspeed":"40","name":"Woodleigh Lane","oneway":"yes","surface":"asphalt","startNodeId":"9778865526","endNodeId":"9778865527"},"geometry":{"type":"LineString","coordinates":[[103.8684548,1.3381574],[103.8684992,1.3381685]]}},{"type":"Feature","id":"way/753188048-0-4-0","properties":{"highway":"residential","lanes":"2","maxspeed":"40","name":"Woodleigh Lane","oneway":"yes","surface":"asphalt","startNodeId":"9778865527","endNodeId":"9778865528"},"geometry":{"type":"LineString","coordinates":[[103.8684992,1.3381685],[103.8686504,1.3381274]]}},{"type":"Feature","id":"way/753188048-0-5-0","properties":{"highway":"residential","lanes":"2","maxspeed":"40","name":"Woodleigh Lane","oneway":"yes","surface":"asphalt","startNodeId":"9778865528","endNodeId":"9778865529"},"geometry":{"type":"LineString","coordinates":[[103.8686504,1.3381274],[103.8689107,1.3380445]]}},{"type":"Feature","id":"way/753188048-0-6-0","properties":{"highway":"residential","lanes":"2","maxspeed":"40","name":"Woodleigh Lane","oneway":"yes","surface":"asphalt","startNodeId":"9778865529","endNodeId":"9778865530"},"geometry":{"type":"LineString","coordinates":[[103.8689107,1.3380445],[103.8690273,1.3380065]]}},{"type":"Feature","id":"way/753188049-0-0-0","properties":{"highway":"residential","lanes":"2","maxspeed":"40","name":"Woodleigh Lane","oneway":"yes","surface":"asphalt","startNodeId":"6038122815","endNodeId":"6474403189"},"geometry":{"type":"LineString","coordinates":[[103.8686019,1.3379733],[103.868485,1.3380178]]}},{"type":"Feature","id":"way/793720138-0-0-0","properties":{"highway":"service","lanes":"2","lanes:backward":"1","lanes:forward":"1","service":"parking_aisle","turn:lanes:backward":"left;through","turn:lanes:forward":"left","startNodeId":"5239995628","endNodeId":"6927933905"},"geometry":{"type":"LineString","coordinates":[[103.8688298,1.3419923],[103.8688475,1.3421108]]}},{"type":"Feature","id":"way/793720139-0-0-0","properties":{"highway":"service","lanes":"2","lanes:backward":"1","lanes:forward":"1","service":"driveway","turn:lanes:backward":"through","turn:lanes:forward":"through","startNodeId":"7424485386","endNodeId":"6927933906"},"geometry":{"type":"LineString","coordinates":[[103.8686842,1.3422933],[103.8687765,1.3421967]]}},{"type":"Feature","id":"way/975604329-0-0-0","properties":{"highway":"residential","maxspeed":"50","startNodeId":"924799045","endNodeId":"7283821255"},"geometry":{"type":"LineString","coordinates":[[103.8674007,1.3402535],[103.8672445,1.3403332]]}},{"type":"Feature","id":"way/975604329-0-1-0","properties":{"highway":"residential","maxspeed":"50","startNodeId":"7283821255","endNodeId":"7283821254"},"geometry":{"type":"LineString","coordinates":[[103.8672445,1.3403332],[103.8670742,1.3403895]]}},{"type":"Feature","id":"way/1126654267-0-1-0","properties":{"highway":"residential","lanes":"3","lanes:backward":"1","lanes:forward":"2","maxspeed":"40","name":"Woodleigh Lane","oneway":"yes","surface":"asphalt","turn:lanes:backward":"through;right","turn:lanes:forward":"left|through","startNodeId":"4604560646","endNodeId":"6474753007"},"geometry":{"type":"LineString","coordinates":[[103.8688224,1.3378946],[103.8686746,1.3379454]]}},{"type":"Feature","id":"way/1208705320-0-0-0","properties":{"highway":"service","service":"parking_aisle","startNodeId":"11199290993","endNodeId":"11199290994"},"geometry":{"type":"LineString","coordinates":[[103.8647733,1.3383268],[103.8645894,1.3381418]]}},{"type":"Feature","id":"way/1208705321-0-0-0","properties":{"highway":"service","service":"parking_aisle","startNodeId":"11199290994","endNodeId":"11199290995"},"geometry":{"type":"LineString","coordinates":[[103.8645894,1.3381418],[103.8644326,1.3382979]]}},{"type":"Feature","id":"way/1208705322-0-0-0","properties":{"highway":"service","service":"parking_aisle","startNodeId":"11199290994","endNodeId":"11199290996"},"geometry":{"type":"LineString","coordinates":[[103.8645894,1.3381418],[103.8647051,1.3380236]]}},{"type":"Feature","id":"way/1208705325-0-0-0","properties":{"highway":"service","startNodeId":"11199291005","endNodeId":"11199291007"},"geometry":{"type":"LineString","coordinates":[[103.8685803,1.3390009],[103.8685592,1.3390337]]}},{"type":"Feature","id":"way/1208705325-0-1-0","properties":{"highway":"service","startNodeId":"11199291007","endNodeId":"11335232215"},"geometry":{"type":"LineString","coordinates":[[103.8685592,1.3390337],[103.8685425,1.3390558]]}},{"type":"Feature","id":"way/1208705325-0-2-0","properties":{"highway":"service","startNodeId":"11335232215","endNodeId":"11335232214"},"geometry":{"type":"LineString","coordinates":[[103.8685425,1.3390558],[103.8685364,1.3390921]]}},{"type":"Feature","id":"way/1208705325-0-3-0","properties":{"highway":"service","startNodeId":"11335232214","endNodeId":"11335232209"},"geometry":{"type":"LineString","coordinates":[[103.8685364,1.3390921],[103.868433,1.3391865]]}},{"type":"Feature","id":"way/1208705325-0-4-0","properties":{"highway":"service","startNodeId":"11335232209","endNodeId":"11335232207"},"geometry":{"type":"LineString","coordinates":[[103.868433,1.3391865],[103.8684194,1.3392214]]}},{"type":"Feature","id":"way/1208705325-0-5-0","properties":{"highway":"service","startNodeId":"11335232207","endNodeId":"11335232216"},"geometry":{"type":"LineString","coordinates":[[103.8684194,1.3392214],[103.8684364,1.3392778]]}},{"type":"Feature","id":"way/1208705325-0-6-0","properties":{"highway":"service","startNodeId":"11335232216","endNodeId":"11335232208"},"geometry":{"type":"LineString","coordinates":[[103.8684364,1.3392778],[103.8684565,1.3393073]]}},{"type":"Feature","id":"way/1208705325-0-7-0","properties":{"highway":"service","startNodeId":"11335232208","endNodeId":"11199291006"},"geometry":{"type":"LineString","coordinates":[[103.8684565,1.3393073],[103.8685675,1.3394746]]}},{"type":"Feature","id":"way/1208705326-0-0-0","properties":{"highway":"service","startNodeId":"11335232214","endNodeId":"11335232212"},"geometry":{"type":"LineString","coordinates":[[103.8685364,1.3390921],[103.8685508,1.3391222]]}},{"type":"Feature","id":"way/1208705326-0-1-0","properties":{"highway":"service","startNodeId":"11335232212","endNodeId":"11335232213"},"geometry":{"type":"LineString","coordinates":[[103.8685508,1.3391222],[103.8685736,1.3391764]]}},{"type":"Feature","id":"way/1208705326-0-2-0","properties":{"highway":"service","startNodeId":"11335232213","endNodeId":"11335232210"},"geometry":{"type":"LineString","coordinates":[[103.8685736,1.3391764],[103.8685964,1.3392306]]}},{"type":"Feature","id":"way/1208705326-0-3-0","properties":{"highway":"service","startNodeId":"11335232210","endNodeId":"11335232211"},"geometry":{"type":"LineString","coordinates":[[103.8685964,1.3392306],[103.8686302,1.339337]]}},{"type":"Feature","id":"way/1208705326-0-4-0","properties":{"highway":"service","startNodeId":"11335232211","endNodeId":"11335232219"},"geometry":{"type":"LineString","coordinates":[[103.8686302,1.339337],[103.8686379,1.3393848]]}},{"type":"Feature","id":"way/1208705326-0-5-0","properties":{"highway":"service","startNodeId":"11335232219","endNodeId":"11199291009"},"geometry":{"type":"LineString","coordinates":[[103.8686379,1.3393848],[103.8686255,1.3394249]]}},{"type":"Feature","id":"way/1208705326-0-6-0","properties":{"highway":"service","startNodeId":"11199291009","endNodeId":"11199291006"},"geometry":{"type":"LineString","coordinates":[[103.8686255,1.3394249],[103.8685675,1.3394746]]}},{"type":"Feature","id":"way/1208705326-0-7-0","properties":{"highway":"service","startNodeId":"11199291006","endNodeId":"11335232217"},"geometry":{"type":"LineString","coordinates":[[103.8685675,1.3394746],[103.8685811,1.3395346]]}},{"type":"Feature","id":"way/1208705326-0-8-0","properties":{"highway":"service","startNodeId":"11335232217","endNodeId":"11335232218"},"geometry":{"type":"LineString","coordinates":[[103.8685811,1.3395346],[103.8685783,1.3396176]]}},{"type":"Feature","id":"way/1208705326-0-9-0","properties":{"highway":"service","startNodeId":"11335232218","endNodeId":"11199291008"},"geometry":{"type":"LineString","coordinates":[[103.8685783,1.3396176],[103.8685078,1.3398648]]}},{"type":"Feature","id":"way/1222166302-0-0-0","properties":{"highway":"service","startNodeId":"11335232251","endNodeId":"11335232250"},"geometry":{"type":"LineString","coordinates":[[103.8647797,1.3388589],[103.8645994,1.3390441]]}},{"type":"Feature","id":"way/1222166305-0-0-0","properties":{"highway":"service","startNodeId":"11335232270","endNodeId":"11335232271"},"geometry":{"type":"LineString","coordinates":[[103.8647293,1.3388107],[103.8649361,1.3385993]]}},{"type":"Feature","id":"way/1222166307-0-0-0","properties":{"highway":"service","service":"parking_aisle","startNodeId":"11335232276","endNodeId":"11335232277"},"geometry":{"type":"LineString","coordinates":[[103.8645617,1.3386504],[103.8646191,1.3385894]]}}]}