{"type":"FeatureCollection","features":[{"type":"Feature","id":"way/299581935-0","properties":{"addr:city":"Singapore","addr:country":"SG","addr:housenumber":"110","addr:postcode":"797562","addr:street":"Seletar Aerospace View","building":"industrial","building:levels":"3","source":"Kaart Ground Survey 2017"},"geometry":{"type":"Polygon","coordinates":[[[103.8680924,1.4103166],[103.8681596,1.4104222],[103.8680027,1.410522],[103.8679487,1.4104371],[103.8675178,1.4107109],[103.8677238,1.4110348],[103.8677907,1.4109923],[103.8678947,1.4111559],[103.8682711,1.4109167],[103.8682378,1.4108643],[103.8683695,1.4107805],[103.8684066,1.4108389],[103.8686582,1.410679],[103.8683312,1.4101648],[103.8680924,1.4103166]]]}},{"type":"Feature","id":"way/453372735-0","properties":{"addr:city":"Singapore","addr:country":"SG","addr:housenumber":"2","addr:postcode":"799633","addr:street":"Hamilton Place","building":"yes","source":"Kaart Ground Survey 2017"},"geometry":{"type":"Polygon","coordinates":[[[103.8668745,1.410268],[103.866929,1.4102605],[103.8669048,1.4100862],[103.8668504,1.4100937],[103.8668745,1.410268]]]}},{"type":"Feature","id":"way/453372795-0","properties":{"addr:city":"Singapore","addr:country":"SG","addr:housenumber":"1","addr:postcode":"799632","addr:street":"Hamilton Place","building":"yes","source":"Kaart Ground Survey 2017"},"geometry":{"type":"Polygon","coordinates":[[[103.867187,1.4104839],[103.8672647,1.4105152],[103.8672975,1.410434],[103.8673222,1.4104439],[103.8673565,1.4103589],[103.867254,1.4103176],[103.867187,1.4104839]]]}},{"type":"Feature","id":"way/453372801-0","properties":{"addr:city":"Singapore","addr:country":"SG","addr:housenumber":"3","addr:postcode":"799634","addr:street":"Hamilton Place","building":"yes","source":"Kaart Ground Survey 2017"},"geometry":{"type":"Polygon","coordinates":[[[103.8672795,1.4101661],[103.8673473,1.4101558],[103.8673316,1.4100526],[103.8673574,1.4100487],[103.867345,1.4099669],[103.8672513,1.4099811],[103.8672795,1.4101661]]]}},{"type":"Feature","id":"way/453372821-0","properties":{"addr:city":"Singapore","addr:country":"SG","addr:housenumber":"1","addr:postcode":"798385","addr:street":"Park Lane","building":"yes"},"geometry":{"type":"Polygon","coordinates":[[[103.8677248,1.4102792],[103.8678403,1.4101535],[103.8678738,1.4101842],[103.8679728,1.4100765],[103.8679393,1.4100457],[103.8680504,1.4099248],[103.8679565,1.4098386],[103.8676309,1.4101929],[103.8677248,1.4102792]]]}},{"type":"Feature","id":"way/479760418-0","properties":{"addr:city":"Singapore","addr:country":"SG","addr:housenumber":"100","addr:postcode":"797507","addr:street":"Seletar Aerospace View","building":"industrial","building:levels":"3","name":"StandardAero","source":"Kaart Ground Survey 2017"},"geometry":{"type":"Polygon","coordinates":[[[103.8688326,1.4116054],[103.868984,1.4115066],[103.8689197,1.4114082],[103.8691555,1.4112544],[103.8691887,1.4113053],[103.8692073,1.4112932],[103.8692312,1.4113297],[103.8693675,1.4112406],[103.8690409,1.4107411],[103.8685827,1.4110405],[103.868589,1.4110502],[103.8685359,1.4110849],[103.8685462,1.4111007],[103.868516,1.4111204],[103.8688326,1.4116054]]]}},{"type":"Feature","id":"way/550102276-0","properties":{"addr:city":"Singapore","addr:country":"SG","addr:housenumber":"80","addr:postcode":"797563","addr:street":"Seletar Aerospace View","building":"commercial","building:levels":"5","name":"General Aviation Centre"},"geometry":{"type":"Polygon","coordinates":[[[103.8681793,1.4122895],[103.8684113,1.4126374],[103.8689982,1.4122463],[103.8687662,1.4118983],[103.8681793,1.4122895]]]}},{"type":"Feature","id":"way/130057930-0-0-0","properties":{"highway":"residential","lanes":"1","maxspeed":"40","name":"Hamilton Place","oneway":"yes","surface":"asphalt","turn:lanes":"through"},"geometry":{"type":"LineString","coordinates":[[103.8670522,1.4099842],[103.8670755,1.410032]]}},{"type":"Feature","id":"way/130057930-0-1-0","properties":{"highway":"residential","lanes":"1","maxspeed":"40","name":"Hamilton Place","oneway":"yes","surface":"asphalt","turn:lanes":"through"},"geometry":{"type":"LineString","coordinates":[[103.8670755,1.410032],[103.8670913,1.4100823]]}},{"type":"Feature","id":"way/130057930-0-2-0","properties":{"highway":"residential","lanes":"1","maxspeed":"40","name":"Hamilton Place","oneway":"yes","surface":"asphalt","turn:lanes":"through"},"geometry":{"type":"LineString","coordinates":[[103.8670913,1.4100823],[103.8671028,1.4101349]]}},{"type":"Feature","id":"way/130057930-0-3-0","properties":{"highway":"residential","lanes":"1","maxspeed":"40","name":"Hamilton Place","oneway":"yes","surface":"asphalt","turn:lanes":"through"},"geometry":{"type":"LineString","coordinates":[[103.8671028,1.4101349],[103.8671073,1.410199]]}},{"type":"Feature","id":"way/130057930-0-4-0","properties":{"highway":"residential","lanes":"1","maxspeed":"40","name":"Hamilton Place","oneway":"yes","surface":"asphalt","turn:lanes":"through"},"geometry":{"type":"LineString","coordinates":[[103.8671073,1.410199],[103.8671058,1.4102454]]}},{"type":"Feature","id":"way/130057930-0-5-0","properties":{"highway":"residential","lanes":"1","maxspeed":"40","name":"Hamilton Place","oneway":"yes","surface":"asphalt","turn:lanes":"through"},"geometry":{"type":"LineString","coordinates":[[103.8671058,1.4102454],[103.8670981,1.4102955]]}},{"type":"Feature","id":"way/130057930-0-6-0","properties":{"highway":"residential","lanes":"1","maxspeed":"40","name":"Hamilton Place","oneway":"yes","surface":"asphalt","turn:lanes":"through"},"geometry":{"type":"LineString","coordinates":[[103.8670981,1.4102955],[103.8670703,1.410385]]}},{"type":"Feature","id":"way/130057930-0-7-0","properties":{"highway":"residential","lanes":"1","maxspeed":"40","name":"Hamilton Place","oneway":"yes","surface":"asphalt","turn:lanes":"through"},"geometry":{"type":"LineString","coordinates":[[103.8670703,1.410385],[103.867058,1.4104301]]}},{"type":"Feature","id":"way/130057930-0-8-0","properties":{"highway":"residential","lanes":"1","maxspeed":"40","name":"Hamilton Place","oneway":"yes","surface":"asphalt","turn:lanes":"through"},"geometry":{"type":"LineString","coordinates":[[103.867058,1.4104301],[103.8670528,1.4104745]]}},{"type":"Feature","id":"way/130057930-0-9-0","properties":{"highway":"residential","lanes":"1","maxspeed":"40","name":"Hamilton Place","oneway":"yes","surface":"asphalt","turn:lanes":"through"},"geometry":{"type":"LineString","coordinates":[[103.8670528,1.4104745],[103.8670572,1.4105278]]}},{"type":"Feature","id":"way/130057930-0-10-0","properties":{"highway":"residential","lanes":"1","maxspeed":"40","name":"Hamilton Place","oneway":"yes","surface":"asphalt","turn:lanes":"through"},"geometry":{"type":"LineString","coordinates":[[103.8670572,1.4105278],[103.8670708,1.4105681]]}},{"type":"Feature","id":"way/130057930-0-11-0","properties":{"highway":"residential","lanes":"1","maxspeed":"40","name":"Hamilton Place","oneway":"yes","surface":"asphalt","turn:lanes":"through"},"geometry":{"type":"LineString","coordinates":[[103.8670708,1.4105681],[103.8670977,1.4106147]]}},{"type":"Feature","id":"way/130057930-0-12-0","properties":{"highway":"residential","lanes":"1","maxspeed":"40","name":"Hamilton Place","oneway":"yes","surface":"asphalt","turn:lanes":"through"},"geometry":{"type":"LineString","coordinates":[[103.8670977,1.4106147],[103.867158,1.410659]]}},{"type":"Feature","id":"way/539329164-0-0-0","properties":{"highway":"service","oneway":"yes","service":"parking_aisle"},"geometry":{"type":"LineString","coordinates":[[103.8688933,1.4105073],[103.8686284,1.4101006]]}},{"type":"Feature","id":"way/539329164-0-1-0","properties":{"highway":"service","oneway":"yes","service":"parking_aisle"},"geometry":{"type":"LineString","coordinates":[[103.8686284,1.4101006],[103.8686049,1.4100694]]}},{"type":"Feature","id":"way/539329164-0-2-0","properties":{"highway":"service","oneway":"yes","service":"parking_aisle"},"geometry":{"type":"LineString","coordinates":[[103.8686049,1.4100694],[103.8685874,1.4100585]]}},{"type":"Feature","id":"way/539329165-0-0-0","properties":{"highway":"service","oneway":"yes","service":"parking_aisle"},"geometry":{"type":"LineString","coordinates":[[103.8683809,1.4101207],[103.8683708,1.4101387]]}},{"type":"Feature","id":"way/539329165-0-1-0","properties":{"highway":"service","oneway":"yes","service":"parking_aisle"},"geometry":{"type":"LineString","coordinates":[[103.8683708,1.4101387],[103.8683649,1.4101699]]}},{"type":"Feature","id":"way/539329165-0-2-0","properties":{"highway":"service","oneway":"yes","service":"parking_aisle"},"geometry":{"type":"LineString","coordinates":[[103.8683649,1.4101699],[103.8684269,1.4102635]]}},{"type":"Feature","id":"way/539329165-0-3-0","properties":{"highway":"service","oneway":"yes","service":"parking_aisle"},"geometry":{"type":"LineString","coordinates":[[103.8684269,1.4102635],[103.868447,1.4102754]]}},{"type":"Feature","id":"way/539329165-0-4-0","properties":{"highway":"service","oneway":"yes","service":"parking_aisle"},"geometry":{"type":"LineString","coordinates":[[103.868447,1.4102754],[103.8684621,1.4102859]]}},{"type":"Feature","id":"way/539329165-0-5-0","properties":{"highway":"service","oneway":"yes","service":"parking_aisle"},"geometry":{"type":"LineString","coordinates":[[103.8684621,1.4102859],[103.8684733,1.4102965]]}},{"type":"Feature","id":"way/539329166-0-0-0","properties":{"highway":"service","service":"parking_aisle"},"geometry":{"type":"LineString","coordinates":[[103.8687015,1.4106389],[103.8687195,1.410667]]}},{"type":"Feature","id":"way/539329166-0-1-0","properties":{"highway":"service","service":"parking_aisle"},"geometry":{"type":"LineString","coordinates":[[103.8687195,1.410667],[103.8687229,1.4106827]]}},{"type":"Feature","id":"way/539329166-0-2-0","properties":{"highway":"service","service":"parking_aisle"},"geometry":{"type":"LineString","coordinates":[[103.8687229,1.4106827],[103.8687173,1.4106966]]}},{"type":"Feature","id":"way/539329166-0-3-0","properties":{"highway":"service","service":"parking_aisle"},"geometry":{"type":"LineString","coordinates":[[103.8687173,1.4106966],[103.8686967,1.410713]]}},{"type":"Feature","id":"way/539329166-0-4-0","properties":{"highway":"service","service":"parking_aisle"},"geometry":{"type":"LineString","coordinates":[[103.8686967,1.410713],[103.867938,1.4112117]]}},{"type":"Feature","id":"way/539329168-0-0-0","properties":{"highway":"service","service":"parking_aisle"},"geometry":{"type":"LineString","coordinates":[[103.8684795,1.4101092],[103.8685584,1.4102364]]}},{"type":"Feature","id":"way/539329169-0-0-0","properties":{"highway":"service","oneway":"yes","service":"parking_aisle"},"geometry":{"type":"LineString","coordinates":[[103.8685874,1.4100585],[103.868563,1.4100573]]}},{"type":"Feature","id":"way/539329169-0-1-0","properties":{"highway":"service","oneway":"yes","service":"parking_aisle"},"geometry":{"type":"LineString","coordinates":[[103.868563,1.4100573],[103.8685246,1.4100772]]}},{"type":"Feature","id":"way/539329169-0-2-0","properties":{"highway":"service","oneway":"yes","service":"parking_aisle"},"geometry":{"type":"LineString","coordinates":[[103.8685246,1.4100772],[103.8684795,1.4101092]]}},{"type":"Feature","id":"way/539329169-0-3-0","properties":{"highway":"service","oneway":"yes","service":"parking_aisle"},"geometry":{"type":"LineString","coordinates":[[103.8684795,1.4101092],[103.86845,1.4100985]]}},{"type":"Feature","id":"way/539329169-0-4-0","properties":{"highway":"service","oneway":"yes","service":"parking_aisle"},"geometry":{"type":"LineString","coordinates":[[103.86845,1.4100985],[103.868418,1.4100995]]}},{"type":"Feature","id":"way/539329169-0-5-0","properties":{"highway":"service","oneway":"yes","service":"parking_aisle"},"geometry":{"type":"LineString","coordinates":[[103.868418,1.4100995],[103.8683983,1.41011]]}},{"type":"Feature","id":"way/539329169-0-6-0","properties":{"highway":"service","oneway":"yes","service":"parking_aisle"},"geometry":{"type":"LineString","coordinates":[[103.8683983,1.41011],[103.8683809,1.4101207]]}},{"type":"Feature","id":"way/539329170-0-1-0","properties":{"highway":"service","service":"parking_aisle"},"geometry":{"type":"LineString","coordinates":[[103.8689779,1.410452],[103.8688933,1.4105073]]}},{"type":"Feature","id":"way/539329173-0-0-0","properties":{"highway":"unclassified","lanes":"2","lanes:backward":"1","lanes:forward":"1","maxspeed":"40","name":"Park Lane","surface":"asphalt","turn:lanes:backward":"through","turn:lanes:forward":"through"},"geometry":{"type":"LineString","coordinates":[[103.8689478,1.4102509],[103.8689159,1.4102365]]}},{"type":"Feature","id":"way/539329173-0-1-0","properties":{"highway":"unclassified","lanes":"2","lanes:backward":"1","lanes:forward":"1","maxspeed":"40","name":"Park Lane","surface":"asphalt","turn:lanes:backward":"through","turn:lanes:forward":"through"},"geometry":{"type":"LineString","coordinates":[[103.8689159,1.4102365],[103.8688899,1.4102132]]}},{"type":"Feature","id":"way/539329173-0-2-0","properties":{"highway":"unclassified","lanes":"2","lanes:backward":"1","lanes:forward":"1","maxspeed":"40","name":"Park Lane","surface":"asphalt","turn:lanes:backward":"through","turn:lanes:forward":"through"},"geometry":{"type":"LineString","coordinates":[[103.8688899,1.4102132],[103.8687024,1.4099576]]}},{"type":"Feature","id":"way/539330567-0-0-0","properties":{"highway":"service","service":"parking_aisle"},"geometry":{"type":"LineString","coordinates":[[103.8685584,1.4102364],[103.8685233,1.4102628]]}},{"type":"Feature","id":"way/539330567-0-1-0","properties":{"highway":"service","service":"parking_aisle"},"geometry":{"type":"LineString","coordinates":[[103.8685233,1.4102628],[103.8684733,1.4102965]]}},{"type":"Feature","id":"way/539463511-0-0-0","properties":{"highway":"service","lanes":"2","lanes:backward":"1","lanes:forward":"1","service":"parking_aisle","turn:lanes:backward":"through","turn:lanes:forward":"through"},"geometry":{"type":"LineString","coordinates":[[103.8684763,1.4110425],[103.8690429,1.4106807]]}},{"type":"Feature","id":"way/628477258-0-0-0","properties":{"highway":"service","lanes":"2","service":"driveway","surface":"asphalt"},"geometry":{"type":"LineString","coordinates":[[103.868769,1.411781],[103.8687523,1.411811]]}},{"type":"Feature","id":"way/628477258-0-1-0","properties":{"highway":"service","lanes":"2","service":"driveway","surface":"asphalt"},"geometry":{"type":"LineString","coordinates":[[103.8687523,1.411811],[103.8687393,1.4118457]]}},{"type":"Feature","id":"way/628477258-0-2-0","properties":{"highway":"service","lanes":"2","service":"driveway","surface":"asphalt"},"geometry":{"type":"LineString","coordinates":[[103.8687393,1.4118457],[103.868714,1.4118763]]}},{"type":"Feature","id":"way/628477258-0-3-0","properties":{"highway":"service","lanes":"2","service":"driveway","surface":"asphalt"},"geometry":{"type":"LineString","coordinates":[[103.868714,1.4118763],[103.8681596,1.4122355]]}},{"type":"Feature","id":"way/628477258-0-4-0","properties":{"highway":"service","lanes":"2","service":"driveway","surface":"asphalt"},"geometry":{"type":"LineString","coordinates":[[103.8681596,1.4122355],[103.8681368,1.4122663]]}},{"type":"Feature","id":"way/628477258-0-5-0","properties":{"highway":"service","lanes":"2","service":"driveway","surface":"asphalt"},"geometry":{"type":"LineString","coordinates":[[103.8681368,1.4122663],[103.8681377,1.412312]]}},{"type":"Feature","id":"way/628477258-0-6-0","properties":{"highway":"service","lanes":"2","service":"driveway","surface":"asphalt"},"geometry":{"type":"LineString","coordinates":[[103.8681377,1.412312],[103.8683416,1.4126225]]}},{"type":"Feature","id":"way/646234357-0-0-0","properties":{"highway":"service","service":"parking_aisle"},"geometry":{"type":"LineString","coordinates":[[103.8687831,1.4105834],[103.8687015,1.4106389]]}},{"type":"Feature","id":"way/646234358-0-0-0","properties":{"highway":"service","service":"parking_aisle"},"geometry":{"type":"LineString","coordinates":[[103.8688933,1.4105073],[103.8687831,1.4105834]]}},{"type":"Feature","id":"way/646234359-0-0-0","properties":{"highway":"service","service":"parking_aisle"},"geometry":{"type":"LineString","coordinates":[[103.8685584,1.4102364],[103.8687831,1.4105834]]}},{"type":"Feature","id":"way/646467567-0-1-0","properties":{"highway":"service"},"geometry":{"type":"LineString","coordinates":[[103.8683318,1.4097471],[103.8682871,1.4097935]]}},{"type":"Feature","id":"way/680646983-0-0-0","properties":{"highway":"service","oneway":"yes","service":"parking_aisle"},"geometry":{"type":"LineString","coordinates":[[103.8684733,1.4102965],[103.8684937,1.4103279]]}},{"type":"Feature","id":"way/680646983-0-1-0","properties":{"highway":"service","oneway":"yes","service":"parking_aisle"},"geometry":{"type":"LineString","coordinates":[[103.8684937,1.4103279],[103.8687015,1.4106389]]}},{"type":"Feature","id":"way/703408242-0-0-0","properties":{"highway":"residential","lanes":"1","maxspeed":"40","name":"Hamilton Place","oneway":"yes","surface":"asphalt","turn:lanes":"through"},"geometry":{"type":"LineString","coordinates":[[103.867158,1.410659],[103.8672285,1.4106817]]}},{"type":"Feature","id":"way/703408242-0-1-0","properties":{"highway":"residential","lanes":"1","maxspeed":"40","name":"Hamilton Place","oneway":"yes","surface":"asphalt","turn:lanes":"through"},"geometry":{"type":"LineString","coordinates":[[103.8672285,1.4106817],[103.867291,1.4106851]]}},{"type":"Feature","id":"way/703408242-0-2-0","properties":{"highway":"residential","lanes":"1","maxspeed":"40","name":"Hamilton Place","oneway":"yes","surface":"asphalt","turn:lanes":"through"},"geometry":{"type":"LineString","coordinates":[[103.867291,1.4106851],[103.8673531,1.4106605]]}},{"type":"Feature","id":"way/703408242-0-3-0","properties":{"highway":"residential","lanes":"1","maxspeed":"40","name":"Hamilton Place","oneway":"yes","surface":"asphalt","turn:lanes":"through"},"geometry":{"type":"LineString","coordinates":[[103.8673531,1.4106605],[103.8676704,1.4104574]]}},{"type":"Feature","id":"way/703408243-0-0-0","properties":{"highway":"residential","lanes":"1","maxspeed":"40","name":"Hamilton Place","oneway":"yes","surface":"asphalt","turn:lanes":"through"},"geometry":{"type":"LineString","coordinates":[[103.8669339,1.4097482],[103.8669605,1.4098155]]}},{"type":"Feature","id":"way/703408243-0-1-0","properties":{"highway":"residential","lanes":"1","maxspeed":"40","name":"Hamilton Place","oneway":"yes","surface":"asphalt","turn:lanes":"through"},"geometry":{"type":"LineString","coordinates":[[103.8669605,1.4098155],[103.8670069,1.4099013]]}},{"type":"Feature","id":"way/703408243-0-2-0","properties":{"highway":"residential","lanes":"1","maxspeed":"40","name":"Hamilton Place","oneway":"yes","surface":"asphalt","turn:lanes":"through"},"geometry":{"type":"LineString","coordinates":[[103.8670069,1.4099013],[103.8670353,1.4099497]]}},{"type":"Feature","id":"way/703408243-0-3-0","properties":{"highway":"residential","lanes":"1","maxspeed":"40","name":"Hamilton Place","oneway":"yes","surface":"asphalt","turn:lanes":"through"},"geometry":{"type":"LineString","coordinates":[[103.8670353,1.4099497],[103.8670522,1.4099842]]}},{"type":"Feature","id":"way/703408244-0-0-0","properties":{"highway":"residential","lanes":"1","maxspeed":"40","name":"Hamilton Place","oneway":"yes","surface":"asphalt","turn:lanes":"through"},"geometry":{"type":"LineString","coordinates":[[103.8676704,1.4104574],[103.8683344,1.4100215]]}},{"type":"Feature","id":"way/703408245-0-0-0","properties":{"highway":"residential","lanes":"1","maxspeed":"40","name":"Hamilton Place","oneway":"yes","surface":"asphalt","turn:lanes":"through"},"geometry":{"type":"LineString","coordinates":[[103.8683344,1.4100215],[103.8686069,1.4098242]]}},{"type":"Feature","id":"way/703408246-0-0-0","properties":{"highway":"unclassified","lanes":"2","lanes:backward":"1","lanes:forward":"1","maxspeed":"40","name":"Park Lane","surface":"asphalt","turn:lanes:backward":"through","turn:lanes:forward":"through"},"geometry":{"type":"LineString","coordinates":[[103.8687024,1.4099576],[103.8686069,1.4098242]]}}]}