{"type":"FeatureCollection","features":[{"type":"Feature","id":"way/453504318-0","properties":{"addr:city":"Singapore","addr:country":"SG","addr:housenumber":"720","addr:postcode":"797520","addr:street":"West Camp Road","building":"industrial","building:levels":"3","clearanceGeometry":{"type":"Polygon","coordinates":[[[103.8656227,1.4221351],[103.8657426,1.4220574],[103.86602354680223,1.4224906673576503],[103.86602608446145,1.4224928761994333],[103.8661206,1.4225132],[103.8661279,1.4225246],[103.8661503,1.4225101],[103.8664855,1.4230272],[103.8668682,1.4227793],[103.8661413,1.421658],[103.8655583,1.4220357],[103.8656227,1.4221351]]]},"clearanceHeight":1.7,"clearancePrepared":true},"geometry":{"type":"Polygon","coordinates":[[[103.8655583,1.4220357],[103.8656227,1.4221351],[103.8657426,1.4220574],[103.8660248,1.4224926],[103.8661206,1.4225132],[103.8661279,1.4225246],[103.8661503,1.4225101],[103.8664855,1.4230272],[103.8668682,1.4227793],[103.8661413,1.421658],[103.8655583,1.4220357]]]}},{"type":"Feature","id":"way/453504319-0","properties":{"building":"yes","clearanceGeometry":{"type":"Polygon","coordinates":[[[103.8647461,1.4201015],[103.8649829,1.4199543],[103.8647844,1.4196352],[103.8645476,1.4197824],[103.8647461,1.4201015]]]},"clearanceHeight":1.7,"clearancePrepared":true},"geometry":{"type":"Polygon","coordinates":[[[103.8645476,1.4197824],[103.8647461,1.4201015],[103.8649829,1.4199543],[103.8647844,1.4196352],[103.8645476,1.4197824]]]}},{"type":"Feature","id":"way/453504321-0","properties":{"building":"hangar","height":"10","roof:colour":"#96879c","roof:height":"2","roof:shape":"round","clearanceGeometry":{"type":"Polygon","coordinates":[[[103.8653898,1.4211139],[103.8655094,1.4212941],[103.8657923,1.4211097],[103.865423,1.4205462],[103.8651418,1.4207346],[103.8653898,1.4211139]]]},"clearanceHeight":1.7,"clearancePrepared":true},"geometry":{"type":"Polygon","coordinates":[[[103.8651418,1.4207346],[103.8653898,1.4211139],[103.8655094,1.4212941],[103.8657923,1.4211097],[103.865423,1.4205462],[103.8651418,1.4207346]]]}},{"type":"Feature","id":"way/680646953-0","properties":{"addr:city":"Singapore","addr:country":"SG","addr:housenumber":"1071","addr:postcode":"797799","addr:street":"West Camp Road","building":"industrial","clearanceGeometry":{"type":"Polygon","coordinates":[[[103.8653898,1.4211139],[103.8651418,1.4207346],[103.8643868,1.4212277],[103.8646347,1.421607],[103.8646779,1.4216711],[103.8646986,1.4216575],[103.8647362,1.4217146],[103.8651711,1.4214282],[103.8653719,1.4217329],[103.8652435,1.4218174],[103.8653031,1.4219079],[103.865512,1.4217704],[103.8652932,1.4214361],[103.8655094,1.4212941],[103.8653898,1.4211139]]]},"clearanceHeight":1.7,"clearancePrepared":true},"geometry":{"type":"Polygon","coordinates":[[[103.8655094,1.4212941],[103.8653898,1.4211139],[103.8651418,1.4207346],[103.8643868,1.4212277],[103.8646347,1.421607],[103.8646779,1.4216711],[103.8646986,1.4216575],[103.8647362,1.4217146],[103.8651711,1.4214282],[103.8653719,1.4217329],[103.8652435,1.4218174],[103.8653031,1.4219079],[103.865512,1.4217704],[103.8652932,1.4214361],[103.8655094,1.4212941]]]}},{"type":"Feature","id":"way/680647020-0","properties":{"building":"yes","clearanceGeometry":{"type":"Polygon","coordinates":[[[103.8647705,1.4194713],[103.86472496934819,1.41950415122979],[103.8647398,1.4195286],[103.8647605,1.4195574],[103.864808,1.4195233],[103.8647872,1.4194944],[103.8647705,1.4194713]]]},"clearanceHeight":1.7,"clearancePrepared":true},"geometry":{"type":"Polygon","coordinates":[[[103.8647872,1.4194944],[103.8647705,1.4194713],[103.8647231,1.4195055],[103.8647398,1.4195286],[103.8647605,1.4195574],[103.864808,1.4195233],[103.8647872,1.4194944]]]}},{"type":"Feature","id":"way/1493470638-0","properties":{"aeroway":"hangar","building":"hangar","roof:colour":"#96879c","clearanceGeometry":{"type":"Polygon","coordinates":[[[103.8655956,1.4218981],[103.8660947,1.4215717],[103.8657923,1.4211097],[103.8652932,1.4214361],[103.865512,1.4217704],[103.8655956,1.4218981]]]},"clearanceHeight":1.7,"clearancePrepared":true},"geometry":{"type":"Polygon","coordinates":[[[103.865512,1.4217704],[103.8655956,1.4218981],[103.8660947,1.4215717],[103.8657923,1.4211097],[103.8652932,1.4214361],[103.865512,1.4217704]]]}},{"type":"Feature","id":"way/1498597503-0","properties":{"building":"yes","clearanceGeometry":{"type":"Polygon","coordinates":[[[103.8645871,1.4229151],[103.8645175,1.4229888],[103.8645575,1.4230266],[103.8646272,1.4229529],[103.8645871,1.4229151]]]},"clearanceHeight":1.7,"clearancePrepared":true},"geometry":{"type":"Polygon","coordinates":[[[103.8646272,1.4229529],[103.8645871,1.4229151],[103.8645175,1.4229888],[103.8645575,1.4230266],[103.8646272,1.4229529]]]}},{"type":"Feature","id":"way/1557394762-0","properties":{"building:levels":"2","building:part":"yes","roof:colour":"#96879c","clearanceGeometry":{"type":"Polygon","coordinates":[[[103.8653719,1.4217329],[103.8652435,1.4218174],[103.8653031,1.4219079],[103.865512,1.4217704],[103.8652932,1.4214361],[103.8655094,1.4212941],[103.8653898,1.4211139],[103.8646347,1.421607],[103.8646779,1.4216711],[103.8646986,1.4216575],[103.8647362,1.4217146],[103.8651711,1.4214282],[103.8653719,1.4217329]]]},"clearanceHeight":1.7,"clearancePrepared":true},"geometry":{"type":"Polygon","coordinates":[[[103.8651711,1.4214282],[103.8653719,1.4217329],[103.8652435,1.4218174],[103.8653031,1.4219079],[103.865512,1.4217704],[103.8652932,1.4214361],[103.8655094,1.4212941],[103.8653898,1.4211139],[103.8646347,1.421607],[103.8646779,1.4216711],[103.8646986,1.4216575],[103.8647362,1.4217146],[103.8651711,1.4214282]]]}},{"type":"Feature","id":"way/1557394763-0","properties":{"aeroway":"hangar","building:part":"hangar","height":"15","roof:colour":"#96879c","roof:height":"7","roof:orientation":"across","roof:shape":"round","clearanceGeometry":{"type":"Polygon","coordinates":[[[103.8651418,1.4207346],[103.8643868,1.4212277],[103.8646347,1.421607],[103.8653898,1.4211139],[103.8651418,1.4207346]]]},"clearanceHeight":1.7,"clearancePrepared":true},"geometry":{"type":"Polygon","coordinates":[[[103.8653898,1.4211139],[103.8651418,1.4207346],[103.8643868,1.4212277],[103.8646347,1.421607],[103.8653898,1.4211139]]]}},{"type":"Feature","id":"node/7822175732","properties":{"crossing":"unmarked","crossing:markings":"no","highway":"crossing"},"geometry":{"type":"Point","coordinates":[103.8651711,1.4219805]}},{"type":"Feature","id":"node/7822175736","properties":{"highway":"crossing"},"geometry":{"type":"Point","coordinates":[103.8660737,1.4227097]}},{"type":"Feature","id":"node/7822221171","properties":{"highway":"crossing"},"geometry":{"type":"Point","coordinates":[103.8651365,1.4227949]}},{"type":"Feature","id":"node/8156657350","properties":{"highway":"crossing"},"geometry":{"type":"Point","coordinates":[103.8652309,1.4228776]}},{"type":"Feature","id":"node/8156657352","properties":{"highway":"crossing"},"geometry":{"type":"Point","coordinates":[103.8652476,1.4229944]}},{"type":"Feature","id":"node/8156657353","properties":{"highway":"crossing"},"geometry":{"type":"Point","coordinates":[103.8651693,1.4230833]}},{"type":"Feature","id":"node/8156657356","properties":{"highway":"crossing"},"geometry":{"type":"Point","coordinates":[103.8645501,1.4226475]}},{"type":"Feature","id":"way/349477741-0-0-0","properties":{"highway":"secondary","maxspeed":"50","name":"Seletar West Link","name:en":"Seletar West Link","name:zh":"\u5b9e\u91cc\u8fbe\u897f\u8fde\u8def","oneway":"yes","surface":"asphalt","startNodeId":"3865151272","endNodeId":"5219008043"},"geometry":{"type":"LineString","coordinates":[[103.8650126,1.4229537],[103.8651017,1.4230322]]}},{"type":"Feature","id":"way/383281867-0-0-0","properties":{"highway":"secondary","lanes":"3","maxspeed":"50","name":"Seletar West Link","name:en":"Seletar West Link","name:zh":"\u5b9e\u91cc\u8fbe\u897f\u8fde\u8def","oneway":"yes","surface":"asphalt","turn:lanes":"through|through|right","startNodeId":"2391354973","endNodeId":"3865151272"},"geometry":{"type":"LineString","coordinates":[[103.8646384,1.4226221],[103.8650126,1.4229537]]}},{"type":"Feature","id":"way/383281868-0-0-0","properties":{"highway":"secondary","lanes":"3","maxspeed":"50","name":"Seletar West Link","name:en":"Seletar West Link","name:zh":"\u5b9e\u91cc\u8fbe\u897f\u8fde\u8def","oneway":"yes","surface":"asphalt","turn:lanes":"through|right|right","startNodeId":"5219990419","endNodeId":"5147978822"},"geometry":{"type":"LineString","coordinates":[[103.8647358,1.4225566],[103.8646385,1.4224422]]}},{"type":"Feature","id":"way/383281869-0-1-0","properties":{"highway":"secondary","lanes":"3","maxspeed":"50","name":"Seletar West Link","name:en":"Seletar West Link","name:zh":"\u5b9e\u91cc\u8fbe\u897f\u8fde\u8def","oneway":"yes","surface":"asphalt","turn:lanes":"through|through|right","startNodeId":"3553405972","endNodeId":"5148064641"},"geometry":{"type":"LineString","coordinates":[[103.8645409,1.4225187],[103.8645916,1.4225763]]}},{"type":"Feature","id":"way/383281869-0-2-0","properties":{"highway":"secondary","lanes":"3","maxspeed":"50","name":"Seletar West Link","name:en":"Seletar West Link","name:zh":"\u5b9e\u91cc\u8fbe\u897f\u8fde\u8def","oneway":"yes","surface":"asphalt","turn:lanes":"through|through|right","startNodeId":"5148064641","endNodeId":"2391354973"},"geometry":{"type":"LineString","coordinates":[[103.8645916,1.4225763],[103.8646384,1.4226221]]}},{"type":"Feature","id":"way/383281872-0-0-0","properties":{"highway":"unclassified","lanes":"4","lanes:backward":"2","lanes:forward":"2","maxspeed":"50","name":"West Camp Road","surface":"asphalt","turn:lanes:backward":"through|through;right","startNodeId":"5220000368","endNodeId":"1748006714"},"geometry":{"type":"LineString","coordinates":[[103.8659992,1.4228025],[103.8660522,1.4228492]]}},{"type":"Feature","id":"way/383281872-0-1-0","properties":{"highway":"unclassified","lanes":"4","lanes:backward":"2","lanes:forward":"2","maxspeed":"50","name":"West Camp Road","surface":"asphalt","turn:lanes:backward":"through|through;right","startNodeId":"1748006714","endNodeId":"1748006715"},"geometry":{"type":"LineString","coordinates":[[103.8660522,1.4228492],[103.8661182,1.422947]]}},{"type":"Feature","id":"way/383281879-0-0-0","properties":{"highway":"unclassified","lanes":"2","maxspeed":"50","name":"West Camp Road","oneway":"yes","surface":"asphalt","startNodeId":"3865151271","endNodeId":"5219008566"},"geometry":{"type":"LineString","coordinates":[[103.8655045,1.4223717],[103.8652323,1.4226891]]}},{"type":"Feature","id":"way/539330565-0-0-0","properties":{"highway":"unclassified","lanes":"4","lanes:backward":"2","lanes:forward":"2","maxspeed":"50","name":"West Camp Road","surface":"asphalt","turn:lanes:backward":"through|through;right","startNodeId":"3865151271","endNodeId":"5219008042"},"geometry":{"type":"LineString","coordinates":[[103.8655045,1.4223717],[103.8656009,1.42246]]}},{"type":"Feature","id":"way/539330566-0-0-0","properties":{"highway":"unclassified","maxspeed":"50","name":"West Camp Road","oneway":"yes","surface":"asphalt","startNodeId":"5219008043","endNodeId":"5219990416"},"geometry":{"type":"LineString","coordinates":[[103.8651017,1.4230322],[103.8651809,1.4229375]]}},{"type":"Feature","id":"way/539330817-0-0-0","properties":{"highway":"unclassified","lanes":"2","maxspeed":"50","name":"West Camp Road","oneway":"yes","surface":"asphalt","turn:lanes":"left|right","startNodeId":"5219008569","endNodeId":"5219008042"},"geometry":{"type":"LineString","coordinates":[[103.8653227,1.4227743],[103.8656009,1.42246]]}},{"type":"Feature","id":"way/539330818-0-0-0","properties":{"bridge":"yes","highway":"unclassified","lanes":"2","layer":"1","maxspeed":"50","name":"West Camp Road","oneway":"yes","surface":"asphalt","startNodeId":"5219008568","endNodeId":"5219008569"},"geometry":{"type":"LineString","coordinates":[[103.8652498,1.4228556],[103.8653227,1.4227743]]}},{"type":"Feature","id":"way/539330819-0-0-0","properties":{"highway":"unclassified","lanes":"3","maxspeed":"50","name":"West Camp Road","oneway":"yes","surface":"asphalt","turn:lanes":"left|right|right","startNodeId":"5219008567","endNodeId":"7822221171"},"geometry":{"type":"LineString","coordinates":[[103.8651582,1.4227709],[103.8651365,1.4227949]]}},{"type":"Feature","id":"way/539330819-0-1-0","properties":{"highway":"unclassified","lanes":"3","maxspeed":"50","name":"West Camp Road","oneway":"yes","surface":"asphalt","turn:lanes":"left|right|right","startNodeId":"7822221171","endNodeId":"5219990415"},"geometry":{"type":"LineString","coordinates":[[103.8651365,1.4227949],[103.8650881,1.422858]]}},{"type":"Feature","id":"way/539330820-0-0-0","properties":{"bridge":"yes","highway":"unclassified","lanes":"3","layer":"1","maxspeed":"50","name":"West Camp Road","oneway":"yes","surface":"asphalt","startNodeId":"5219008566","endNodeId":"5219008567"},"geometry":{"type":"LineString","coordinates":[[103.8652323,1.4226891],[103.8651582,1.4227709]]}},{"type":"Feature","id":"way/539458369-0-0-0","properties":{"highway":"unclassified","lanes":"2","maxspeed":"50","name":"West Camp Road","oneway":"yes","surface":"asphalt","startNodeId":"5219990416","endNodeId":"8156657350"},"geometry":{"type":"LineString","coordinates":[[103.8651809,1.4229375],[103.8652309,1.4228776]]}},{"type":"Feature","id":"way/539458369-0-1-0","properties":{"highway":"unclassified","lanes":"2","maxspeed":"50","name":"West Camp Road","oneway":"yes","surface":"asphalt","startNodeId":"8156657350","endNodeId":"5219008568"},"geometry":{"type":"LineString","coordinates":[[103.8652309,1.4228776],[103.8652498,1.4228556]]}},{"type":"Feature","id":"way/539458370-0-0-0","properties":{"highway":"unclassified","maxspeed":"50","name":"West Camp Road","oneway":"yes","surface":"asphalt","startNodeId":"5219990415","endNodeId":"3865151272"},"geometry":{"type":"LineString","coordinates":[[103.8650881,1.422858],[103.8650126,1.4229537]]}},{"type":"Feature","id":"way/539458371-0-0-0","properties":{"highway":"secondary","lanes":"3","maxspeed":"50","name":"Seletar West Link","name:en":"Seletar West Link","name:zh":"\u5b9e\u91cc\u8fbe\u897f\u8fde\u8def","oneway":"yes","surface":"asphalt","startNodeId":"5219990415","endNodeId":"5219990419"},"geometry":{"type":"LineString","coordinates":[[103.8650881,1.422858],[103.8647358,1.4225566]]}},{"type":"Feature","id":"way/539458372-0-0-0","properties":{"highway":"secondary","maxspeed":"50","name":"Seletar West Link","name:en":"Seletar West Link","name:zh":"\u5b9e\u91cc\u8fbe\u897f\u8fde\u8def","oneway":"yes","surface":"asphalt","startNodeId":"5219990416","endNodeId":"5219990415"},"geometry":{"type":"LineString","coordinates":[[103.8651809,1.4229375],[103.8650881,1.422858]]}},{"type":"Feature","id":"way/539459561-0-0-0","properties":{"highway":"service","lanes":"2","service":"driveway","startNodeId":"5220000347","endNodeId":"5220000349"},"geometry":{"type":"LineString","coordinates":[[103.864842,1.4217828],[103.8648784,1.4217975]]}},{"type":"Feature","id":"way/539459561-0-1-0","properties":{"highway":"service","lanes":"2","service":"driveway","startNodeId":"5220000349","endNodeId":"5220000336"},"geometry":{"type":"LineString","coordinates":[[103.8648784,1.4217975],[103.8649916,1.4218435]]}},{"type":"Feature","id":"way/539459562-0-0-0","properties":{"highway":"service","lanes":"1","oneway":"yes","service":"parking_aisle","startNodeId":"5220000336","endNodeId":"5220000337"},"geometry":{"type":"LineString","coordinates":[[103.8649916,1.4218435],[103.8651822,1.4217246]]}},{"type":"Feature","id":"way/539459562-0-1-0","properties":{"highway":"service","lanes":"1","oneway":"yes","service":"parking_aisle","startNodeId":"5220000337","endNodeId":"5220000338"},"geometry":{"type":"LineString","coordinates":[[103.8651822,1.4217246],[103.8651892,1.4217188]]}},{"type":"Feature","id":"way/539459562-0-2-0","properties":{"highway":"service","lanes":"1","oneway":"yes","service":"parking_aisle","startNodeId":"5220000338","endNodeId":"5220000339"},"geometry":{"type":"LineString","coordinates":[[103.8651892,1.4217188],[103.8651921,1.42171]]}},{"type":"Feature","id":"way/539459563-0-0-0","properties":{"highway":"service","lanes":"1","oneway":"yes","service":"parking_aisle","startNodeId":"5220000339","endNodeId":"5220000340"},"geometry":{"type":"LineString","coordinates":[[103.8651921,1.42171],[103.8651933,1.4216995]]}},{"type":"Feature","id":"way/539459563-0-1-0","properties":{"highway":"service","lanes":"1","oneway":"yes","service":"parking_aisle","startNodeId":"5220000340","endNodeId":"5220000341"},"geometry":{"type":"LineString","coordinates":[[103.8651933,1.4216995],[103.8651898,1.4216896]]}},{"type":"Feature","id":"way/539459563-0-2-0","properties":{"highway":"service","lanes":"1","oneway":"yes","service":"parking_aisle","startNodeId":"5220000341","endNodeId":"5220000342"},"geometry":{"type":"LineString","coordinates":[[103.8651898,1.4216896],[103.8651454,1.4216114]]}},{"type":"Feature","id":"way/539459563-0-3-0","properties":{"highway":"service","lanes":"1","oneway":"yes","service":"parking_aisle","startNodeId":"5220000342","endNodeId":"5220000343"},"geometry":{"type":"LineString","coordinates":[[103.8651454,1.4216114],[103.8651384,1.4216061]]}},{"type":"Feature","id":"way/539459564-0-0-0","properties":{"highway":"service","service":"driveway","startNodeId":"5220000372","endNodeId":"13685162286"},"geometry":{"type":"LineString","coordinates":[[103.8656,1.4221756],[103.8654911,1.422036]]}},{"type":"Feature","id":"way/539459564-0-1-0","properties":{"highway":"service","service":"driveway","startNodeId":"13685162286","endNodeId":"13685162285"},"geometry":{"type":"LineString","coordinates":[[103.8654911,1.422036],[103.8654685,1.4220185]]}},{"type":"Feature","id":"way/539459564-0-2-0","properties":{"highway":"service","service":"driveway","startNodeId":"13685162285","endNodeId":"13685162284"},"geometry":{"type":"LineString","coordinates":[[103.8654685,1.4220185],[103.8654213,1.4220082]]}},{"type":"Feature","id":"way/539459564-0-3-0","properties":{"highway":"service","service":"driveway","startNodeId":"13685162284","endNodeId":"5220000350"},"geometry":{"type":"LineString","coordinates":[[103.8654213,1.4220082],[103.8653805,1.4220017]]}},{"type":"Feature","id":"way/539459564-0-4-0","properties":{"highway":"service","service":"driveway","startNodeId":"5220000350","endNodeId":"5220000334"},"geometry":{"type":"LineString","coordinates":[[103.8653805,1.4220017],[103.86519,1.4219241]]}},{"type":"Feature","id":"way/539459565-0-0-0","properties":{"highway":"service","service":"parking_aisle","startNodeId":"5220000335","endNodeId":"7822175732"},"geometry":{"type":"LineString","coordinates":[[103.8651242,1.42212],[103.8651711,1.4219805]]}},{"type":"Feature","id":"way/539459565-0-1-0","properties":{"highway":"service","service":"parking_aisle","startNodeId":"7822175732","endNodeId":"5220000334"},"geometry":{"type":"LineString","coordinates":[[103.8651711,1.4219805],[103.86519,1.4219241]]}},{"type":"Feature","id":"way/539459566-0-0-0","properties":{"highway":"service","lanes":"1","oneway":"yes","service":"parking_aisle","startNodeId":"5220000343","endNodeId":"5220000344"},"geometry":{"type":"LineString","coordinates":[[103.8651384,1.4216061],[103.8651296,1.4216044]]}},{"type":"Feature","id":"way/539459566-0-1-0","properties":{"highway":"service","lanes":"1","oneway":"yes","service":"parking_aisle","startNodeId":"5220000344","endNodeId":"5220000345"},"geometry":{"type":"LineString","coordinates":[[103.8651296,1.4216044],[103.8651156,1.4216067]]}},{"type":"Feature","id":"way/539459566-0-2-0","properties":{"highway":"service","lanes":"1","oneway":"yes","service":"parking_aisle","startNodeId":"5220000345","endNodeId":"5220000346"},"geometry":{"type":"LineString","coordinates":[[103.8651156,1.4216067],[103.8648682,1.4217629]]}},{"type":"Feature","id":"way/539459566-0-3-0","properties":{"highway":"service","lanes":"1","oneway":"yes","service":"parking_aisle","startNodeId":"5220000346","endNodeId":"5220000347"},"geometry":{"type":"LineString","coordinates":[[103.8648682,1.4217629],[103.864842,1.4217828]]}},{"type":"Feature","id":"way/539459568-0-0-0","properties":{"highway":"service","service":"driveway","startNodeId":"5220000368","endNodeId":"7822175736"},"geometry":{"type":"LineString","coordinates":[[103.8659992,1.4228025],[103.8660737,1.4227097]]}},{"type":"Feature","id":"way/539459568-0-1-0","properties":{"highway":"service","service":"driveway","startNodeId":"7822175736","endNodeId":"5220000371"},"geometry":{"type":"LineString","coordinates":[[103.8660737,1.4227097],[103.8661302,1.422635]]}},{"type":"Feature","id":"way/539459569-0-0-0","properties":{"highway":"service","service":"parking_aisle","startNodeId":"5220000371","endNodeId":"5220000366"},"geometry":{"type":"LineString","coordinates":[[103.8661302,1.422635],[103.8661905,1.4226805]]}},{"type":"Feature","id":"way/539459569-0-1-0","properties":{"highway":"service","service":"parking_aisle","startNodeId":"5220000366","endNodeId":"5220000370"},"geometry":{"type":"LineString","coordinates":[[103.8661905,1.4226805],[103.8662084,1.4226968]]}},{"type":"Feature","id":"way/539459569-0-2-0","properties":{"highway":"service","service":"parking_aisle","startNodeId":"5220000370","endNodeId":"5220000369"},"geometry":{"type":"LineString","coordinates":[[103.8662084,1.4226968],[103.8664573,1.4230884]]}},{"type":"Feature","id":"way/628705256-0-4-0","properties":{"highway":"unclassified","lanes":"4","lanes:backward":"2","lanes:forward":"2","maxspeed":"50","name":"West Camp Road","surface":"asphalt","turn:lanes:backward":"left;through|through","turn:lanes:forward":"left;through|through","startNodeId":"1748006707","endNodeId":"1748006708"},"geometry":{"type":"LineString","coordinates":[[103.8645085,1.4218514],[103.8646108,1.4219333]]}},{"type":"Feature","id":"way/628705256-0-5-0","properties":{"highway":"unclassified","lanes":"4","lanes:backward":"2","lanes:forward":"2","maxspeed":"50","name":"West Camp Road","surface":"asphalt","turn:lanes:backward":"left;through|through","turn:lanes:forward":"left;through|through","startNodeId":"1748006708","endNodeId":"1748006709"},"geometry":{"type":"LineString","coordinates":[[103.8646108,1.4219333],[103.8647381,1.4219992]]}},{"type":"Feature","id":"way/628705256-0-6-0","properties":{"highway":"unclassified","lanes":"4","lanes:backward":"2","lanes:forward":"2","maxspeed":"50","name":"West Camp Road","surface":"asphalt","turn:lanes:backward":"left;through|through","turn:lanes:forward":"left;through|through","startNodeId":"1748006709","endNodeId":"5220000335"},"geometry":{"type":"LineString","coordinates":[[103.8647381,1.4219992],[103.8651242,1.42212]]}},{"type":"Feature","id":"way/628728434-0-0-0","properties":{"highway":"unclassified","lanes":"4","lanes:backward":"2","lanes:forward":"2","maxspeed":"50","name":"West Camp Road","surface":"asphalt","turn:lanes:forward":"left;through|through","startNodeId":"5220000335","endNodeId":"1748006710"},"geometry":{"type":"LineString","coordinates":[[103.8651242,1.42212],[103.8651814,1.4221378]]}},{"type":"Feature","id":"way/628728434-0-1-0","properties":{"highway":"unclassified","lanes":"4","lanes:backward":"2","lanes:forward":"2","maxspeed":"50","name":"West Camp Road","surface":"asphalt","turn:lanes:forward":"left;through|through","startNodeId":"1748006710","endNodeId":"1748006711"},"geometry":{"type":"LineString","coordinates":[[103.8651814,1.4221378],[103.865286,1.4221856]]}},{"type":"Feature","id":"way/628728434-0-2-0","properties":{"highway":"unclassified","lanes":"4","lanes:backward":"2","lanes:forward":"2","maxspeed":"50","name":"West Camp Road","surface":"asphalt","turn:lanes:forward":"left;through|through","startNodeId":"1748006711","endNodeId":"1748006712"},"geometry":{"type":"LineString","coordinates":[[103.865286,1.4221856],[103.8653611,1.4222447]]}},{"type":"Feature","id":"way/628728434-0-3-0","properties":{"highway":"unclassified","lanes":"4","lanes:backward":"2","lanes:forward":"2","maxspeed":"50","name":"West Camp Road","surface":"asphalt","turn:lanes:forward":"left;through|through","startNodeId":"1748006712","endNodeId":"3865151271"},"geometry":{"type":"LineString","coordinates":[[103.8653611,1.4222447],[103.8655045,1.4223717]]}},{"type":"Feature","id":"way/646237900-0-0-0","properties":{"highway":"unclassified","lanes":"4","lanes:backward":"2","lanes:forward":"2","maxspeed":"50","name":"West Camp Road","surface":"asphalt","startNodeId":"5219008042","endNodeId":"1748006713"},"geometry":{"type":"LineString","coordinates":[[103.8656009,1.42246],[103.8659749,1.4227811]]}},{"type":"Feature","id":"way/646237900-0-1-0","properties":{"highway":"unclassified","lanes":"4","lanes:backward":"2","lanes:forward":"2","maxspeed":"50","name":"West Camp Road","surface":"asphalt","startNodeId":"1748006713","endNodeId":"5220000368"},"geometry":{"type":"LineString","coordinates":[[103.8659749,1.4227811],[103.8659992,1.4228025]]}},{"type":"Feature","id":"way/646261991-0-0-0","properties":{"highway":"service","service":"driveway","startNodeId":"5220000334","endNodeId":"5220000336"},"geometry":{"type":"LineString","coordinates":[[103.86519,1.4219241],[103.8649916,1.4218435]]}},{"type":"Feature","id":"way/646263934-0-0-0","properties":{"highway":"service","service":"driveway","startNodeId":"5220000372","endNodeId":"5220000367"},"geometry":{"type":"LineString","coordinates":[[103.8656,1.4221756],[103.8660754,1.4225894]]}},{"type":"Feature","id":"way/646263934-0-1-0","properties":{"highway":"service","service":"driveway","startNodeId":"5220000367","endNodeId":"5220000371"},"geometry":{"type":"LineString","coordinates":[[103.8660754,1.4225894],[103.8661302,1.422635]]}},{"type":"Feature","id":"way/646662762-0-0-0","properties":{"highway":"unclassified","maxspeed":"50","name":"West Camp Road","surface":"asphalt","startNodeId":"6373375209","endNodeId":"5184257368"},"geometry":{"type":"LineString","coordinates":[[103.8647398,1.4195286],[103.8644444,1.4197077]]}},{"type":"Feature","id":"way/655786195-0-1-0","properties":{"highway":"secondary","lanes":"3","maxspeed":"50","name":"Seletar West Link","name:en":"Seletar West Link","name:zh":"\u5b9e\u91cc\u8fbe\u897f\u8fde\u8def","oneway":"yes","surface":"asphalt","turn:lanes":"left|through|through","startNodeId":"8156657352","endNodeId":"5219990416"},"geometry":{"type":"LineString","coordinates":[[103.8652476,1.4229944],[103.8651809,1.4229375]]}},{"type":"Feature","id":"way/711227696-0-0-0","properties":{"highway":"secondary","lanes":"2","maxspeed":"50","name":"Seletar West Link","name:en":"Seletar West Link","name:zh":"\u5b9e\u91cc\u8fbe\u897f\u8fde\u8def","oneway":"yes","surface":"asphalt","startNodeId":"5219008043","endNodeId":"8156657353"},"geometry":{"type":"LineString","coordinates":[[103.8651017,1.4230322],[103.8651693,1.4230833]]}},{"type":"Feature","id":"way/1232598620-0-0-0","properties":{"highway":"service","service":"driveway","surface":"asphalt","startNodeId":"5148064641","endNodeId":"8156657356"},"geometry":{"type":"LineString","coordinates":[[103.8645916,1.4225763],[103.8645501,1.4226475]]}},{"type":"Feature","id":"way/1232598620-0-1-0","properties":{"highway":"service","service":"driveway","surface":"asphalt","startNodeId":"8156657356","endNodeId":"2391354979"},"geometry":{"type":"LineString","coordinates":[[103.8645501,1.4226475],[103.8645323,1.4226805]]}},{"type":"Feature","id":"way/1232598620-0-2-0","properties":{"highway":"service","service":"driveway","surface":"asphalt","startNodeId":"2391354979","endNodeId":"13723745250"},"geometry":{"type":"LineString","coordinates":[[103.8645323,1.4226805],[103.8645253,1.422704]]}},{"type":"Feature","id":"way/1232598620-0-3-0","properties":{"highway":"service","service":"driveway","surface":"asphalt","startNodeId":"13723745250","endNodeId":"5148064640"},"geometry":{"type":"LineString","coordinates":[[103.8645253,1.422704],[103.864531,1.4227245]]}},{"type":"Feature","id":"way/1232598620-0-4-0","properties":{"highway":"service","service":"driveway","surface":"asphalt","startNodeId":"5148064640","endNodeId":"13723745249"},"geometry":{"type":"LineString","coordinates":[[103.864531,1.4227245],[103.8645426,1.4227468]]}},{"type":"Feature","id":"way/1232598620-0-5-0","properties":{"highway":"service","service":"driveway","surface":"asphalt","startNodeId":"13723745249","endNodeId":"13723745248"},"geometry":{"type":"LineString","coordinates":[[103.8645426,1.4227468],[103.8645807,1.4227937]]}},{"type":"Feature","id":"way/1232598620-0-6-0","properties":{"highway":"service","service":"driveway","surface":"asphalt","startNodeId":"13723745248","endNodeId":"5148064639"},"geometry":{"type":"LineString","coordinates":[[103.8645807,1.4227937],[103.8646422,1.422854]]}}]}