{"type":"FeatureCollection","features":[{"type":"Feature","id":"way/1456293096-0-1-0","properties":{"highway":"service","maxspeed":"30","startNodeId":"13355852468","endNodeId":"way/1456293096-0:1:1"},"geometry":{"type":"LineString","coordinates":[[104.0323391,1.3160317],[104.0323752,1.3145466]]}},{"type":"Feature","id":"way/1456293096-0-1-1","properties":{"highway":"service","maxspeed":"30","startNodeId":"way/1456293096-0:1:1","endNodeId":"way/1456293096-0:1:2"},"geometry":{"type":"LineString","coordinates":[[104.0323752,1.3145466],[104.0324113,1.3130616]]}},{"type":"Feature","id":"way/1456293096-0-1-2","properties":{"highway":"service","maxspeed":"30","startNodeId":"way/1456293096-0:1:2","endNodeId":"13355852469"},"geometry":{"type":"LineString","coordinates":[[104.0324113,1.3130616],[104.0324474,1.3115765]]}}]}