{"type":"FeatureCollection","features":[{"type":"Feature","id":"way/1245555286-0","properties":{"amenity":"shelter","bench":"yes","bin":"no","building":"yes","lit":"yes","name":"912"},"geometry":{"type":"Polygon","coordinates":[[[104.0421407,1.3932013],[104.0421495,1.393074],[104.0419713,1.3930617],[104.0419626,1.393189],[104.0421407,1.3932013]]]}},{"type":"Feature","id":"way/1245555287-0","properties":{"amenity":"shelter","bench":"yes","bin":"no","building":"yes","lit":"yes"},"geometry":{"type":"Polygon","coordinates":[[[104.0418584,1.3935536],[104.0418941,1.3934303],[104.0416846,1.3933697],[104.0416489,1.3934929],[104.0418584,1.3935536]]]}},{"type":"Feature","id":"way/1245555288-0","properties":{"building":"shed","building:levels":"1"},"geometry":{"type":"Polygon","coordinates":[[[104.0415387,1.3932717],[104.0414645,1.3932544],[104.041447,1.3933291],[104.0415212,1.3933465],[104.0415387,1.3932717]]]}},{"type":"Feature","id":"way/1245555289-0","properties":{"building":"shed","building:levels":"1"},"geometry":{"type":"Polygon","coordinates":[[[104.0413923,1.3933819],[104.0413171,1.3933692],[104.0413024,1.3934566],[104.0413776,1.3934693],[104.0413923,1.3933819]]]}}]}