{"type":"FeatureCollection","features":[{"type":"Feature","id":"way/97903811-0","properties":{"building":"yes","clearanceGeometry":{"type":"Polygon","coordinates":[[[104.050808,1.4006674],[104.0503574,1.4005387],[104.0503144,1.4006674],[104.0504754,1.4007103],[104.0504003,1.4010106],[104.05069,1.4010857],[104.050808,1.4006674]]]},"clearanceHeight":1.7,"clearancePrepared":true},"geometry":{"type":"Polygon","coordinates":[[[104.05069,1.4010857],[104.050808,1.4006674],[104.0503574,1.4005387],[104.0503144,1.4006674],[104.0504754,1.4007103],[104.0504003,1.4010106],[104.05069,1.4010857]]]}},{"type":"Feature","id":"way/97903814-0","properties":{"building":"yes","clearanceGeometry":{"type":"Polygon","coordinates":[[[104.0492738,1.4014182],[104.0491128,1.4013645],[104.0490806,1.4014825],[104.0492416,1.4015147],[104.0492738,1.4014182]]]},"clearanceHeight":1.7,"clearancePrepared":true},"geometry":{"type":"Polygon","coordinates":[[[104.0492416,1.4015147],[104.0492738,1.4014182],[104.0491128,1.4013645],[104.0490806,1.4014825],[104.0492416,1.4015147]]]}},{"type":"Feature","id":"way/97903816-0","properties":{"building":"yes","clearanceGeometry":{"type":"Polygon","coordinates":[[[104.0491128,1.4009999],[104.0490484,1.4009677],[104.0489948,1.4010535],[104.0490592,1.4010857],[104.0491128,1.4009999]]]},"clearanceHeight":1.7,"clearancePrepared":true},"geometry":{"type":"Polygon","coordinates":[[[104.0490592,1.4010857],[104.0491128,1.4009999],[104.0490484,1.4009677],[104.0489948,1.4010535],[104.0490592,1.4010857]]]}},{"type":"Feature","id":"way/97903850-0","properties":{"building":"yes","clearanceGeometry":{"type":"Polygon","coordinates":[[[104.0494669,1.4010642],[104.0493596,1.4010213],[104.0493059,1.4011071],[104.0494347,1.4011608],[104.0494669,1.4010642]]]},"clearanceHeight":1.7,"clearancePrepared":true},"geometry":{"type":"Polygon","coordinates":[[[104.0494347,1.4011608],[104.0494669,1.4010642],[104.0493596,1.4010213],[104.0493059,1.4011071],[104.0494347,1.4011608]]]}},{"type":"Feature","id":"way/97903866-0","properties":{"building":"yes","clearanceGeometry":{"type":"Polygon","coordinates":[[[104.0498424,1.4012573],[104.0497351,1.4012144],[104.04966,1.4013002],[104.0497887,1.4013431],[104.0498424,1.4012573]]]},"clearanceHeight":1.7,"clearancePrepared":true},"geometry":{"type":"Polygon","coordinates":[[[104.0497887,1.4013431],[104.0498424,1.4012573],[104.0497351,1.4012144],[104.04966,1.4013002],[104.0497887,1.4013431]]]}},{"type":"Feature","id":"way/97903867-0","properties":{"building":"yes","clearanceGeometry":{"type":"Polygon","coordinates":[[[104.0496814,1.40248],[104.0495742,1.4024907],[104.0495634,1.4026945],[104.0496922,1.4026945],[104.0496814,1.40248]]]},"clearanceHeight":1.7,"clearancePrepared":true},"geometry":{"type":"Polygon","coordinates":[[[104.0496922,1.4026945],[104.0496814,1.40248],[104.0495742,1.4024907],[104.0495634,1.4026945],[104.0496922,1.4026945]]]}},{"type":"Feature","id":"way/97904817-0","properties":{"building":"yes","clearanceGeometry":{"type":"Polygon","coordinates":[[[104.0509153,1.4010321],[104.0508402,1.4010213],[104.050808,1.4011071],[104.0508938,1.4011393],[104.0509153,1.4010321]]]},"clearanceHeight":1.7,"clearancePrepared":true},"geometry":{"type":"Polygon","coordinates":[[[104.0508938,1.4011393],[104.0509153,1.4010321],[104.0508402,1.4010213],[104.050808,1.4011071],[104.0508938,1.4011393]]]}},{"type":"Feature","id":"way/97904819-0","properties":{"building":"yes","clearanceGeometry":{"type":"Polygon","coordinates":[[[104.0510333,1.4010642],[104.0509582,1.4010428],[104.050926,1.4011608],[104.0510118,1.4011822],[104.0510333,1.4010642]]]},"clearanceHeight":1.7,"clearancePrepared":true},"geometry":{"type":"Polygon","coordinates":[[[104.0510118,1.4011822],[104.0510333,1.4010642],[104.0509582,1.4010428],[104.050926,1.4011608],[104.0510118,1.4011822]]]}},{"type":"Feature","id":"way/97904909-0","properties":{"building":"yes","clearanceGeometry":{"type":"Polygon","coordinates":[[[104.0517199,1.4007317],[104.05161234352853,1.400702440993781],[104.05154629281513,1.4009709960261651],[104.0516234,1.4009999],[104.051559,1.4012144],[104.0512371,1.4011071],[104.0511942,1.4012787],[104.051677,1.4014289],[104.0519345,1.4003778],[104.0514839,1.4002598],[104.0514535939877,1.400401165312035],[104.05158724897487,1.4004316447512228],[104.05159977328627,1.4004494678097588],[104.0517736,1.4004958],[104.0517199,1.4007317]]]},"clearanceHeight":1.7,"clearancePrepared":true},"geometry":{"type":"Polygon","coordinates":[[[104.0517736,1.4004958],[104.0517199,1.4007317],[104.0516019,1.4006996],[104.0515375,1.4009677],[104.0516234,1.4009999],[104.051559,1.4012144],[104.0512371,1.4011071],[104.0511942,1.4012787],[104.051677,1.4014289],[104.0519345,1.4003778],[104.0514839,1.4002598],[104.0514517,1.40041],[104.0517736,1.4004958]]]}},{"type":"Feature","id":"way/97904938-0","properties":{"building":"yes","clearanceGeometry":{"type":"Polygon","coordinates":[[[104.0514732,1.4008497],[104.0510547,1.4007317],[104.0510333,1.4008497],[104.0514302,1.4009784],[104.0514732,1.4008497]]]},"clearanceHeight":1.7,"clearancePrepared":true},"geometry":{"type":"Polygon","coordinates":[[[104.0514302,1.4009784],[104.0514732,1.4008497],[104.0510547,1.4007317],[104.0510333,1.4008497],[104.0514302,1.4009784]]]}},{"type":"Feature","id":"way/97904941-0","properties":{"building":"yes","clearanceGeometry":{"type":"Polygon","coordinates":[[[104.0520418,1.4011929],[104.0519238,1.4011393],[104.0518916,1.4012251],[104.0520203,1.401268],[104.0520418,1.4011929]]]},"clearanceHeight":1.7,"clearancePrepared":true},"geometry":{"type":"Polygon","coordinates":[[[104.0520203,1.401268],[104.0520418,1.4011929],[104.0519238,1.4011393],[104.0518916,1.4012251],[104.0520203,1.401268]]]}},{"type":"Feature","id":"way/97904942-0","properties":{"building":"yes","clearanceGeometry":{"type":"Polygon","coordinates":[[[104.0520954,1.4009033],[104.0519989,1.4008712],[104.051956,1.4009462],[104.0520847,1.4009999],[104.0520954,1.4009033]]]},"clearanceHeight":1.7,"clearancePrepared":true},"geometry":{"type":"Polygon","coordinates":[[[104.0520847,1.4009999],[104.0520954,1.4009033],[104.0519989,1.4008712],[104.051956,1.4009462],[104.0520847,1.4009999]]]}},{"type":"Feature","id":"way/1413340439-0","properties":{"building":"yes","clearanceGeometry":{"type":"Polygon","coordinates":[[[104.0503006,1.404727],[104.0502195,1.4047118],[104.0501994,1.4048191],[104.0502804,1.4048343],[104.0503006,1.404727]]]},"clearanceHeight":1.7,"clearancePrepared":true},"geometry":{"type":"Polygon","coordinates":[[[104.0502804,1.4048343],[104.0503006,1.404727],[104.0502195,1.4047118],[104.0501994,1.4048191],[104.0502804,1.4048343]]]}},{"type":"Feature","id":"way/97901094-0-0-0","properties":{"highway":"service","startNodeId":"1133070684","endNodeId":"1133071307"},"geometry":{"type":"LineString","coordinates":[[104.0495724,1.4045932],[104.0495465,1.4048685]]}},{"type":"Feature","id":"way/97901094-0-1-0","properties":{"highway":"service","startNodeId":"1133071307","endNodeId":"1133071308"},"geometry":{"type":"LineString","coordinates":[[104.0495465,1.4048685],[104.0494431,1.4051103]]}},{"type":"Feature","id":"way/97901094-0-2-0","properties":{"highway":"service","startNodeId":"1133071308","endNodeId":"1133071309"},"geometry":{"type":"LineString","coordinates":[[104.0494431,1.4051103],[104.0492822,1.4052678]]}},{"type":"Feature","id":"way/97904784-0-7-0","properties":{"highway":"service","startNodeId":"5233945382","endNodeId":"5233945381"},"geometry":{"type":"LineString","coordinates":[[104.0515003,1.4009887],[104.0514694,1.4010209]]}},{"type":"Feature","id":"way/97904784-0-8-0","properties":{"highway":"service","startNodeId":"5233945381","endNodeId":"5233945380"},"geometry":{"type":"LineString","coordinates":[[104.0514694,1.4010209],[104.0514278,1.4010262]]}},{"type":"Feature","id":"way/97904784-0-9-0","properties":{"highway":"service","startNodeId":"5233945380","endNodeId":"5233945379"},"geometry":{"type":"LineString","coordinates":[[104.0514278,1.4010262],[104.0509772,1.4009203]]}},{"type":"Feature","id":"way/97904784-0-10-0","properties":{"highway":"service","startNodeId":"5233945379","endNodeId":"1133125207"},"geometry":{"type":"LineString","coordinates":[[104.0509772,1.4009203],[104.0509233,1.4008698]]}},{"type":"Feature","id":"way/97904816-0-2-0","properties":{"highway":"service","startNodeId":"1133125206","endNodeId":"1133125207"},"geometry":{"type":"LineString","coordinates":[[104.0509045,1.4008068],[104.0509233,1.4008698]]}},{"type":"Feature","id":"way/541221255-0-1-0","properties":{"highway":"service","startNodeId":"5233945374","endNodeId":"5233945373"},"geometry":{"type":"LineString","coordinates":[[104.0520877,1.4015397],[104.0520662,1.4015746]]}},{"type":"Feature","id":"way/541221255-0-2-0","properties":{"highway":"service","startNodeId":"5233945373","endNodeId":"5233945372"},"geometry":{"type":"LineString","coordinates":[[104.0520662,1.4015746],[104.0520421,1.401596]]}},{"type":"Feature","id":"way/541221255-0-3-0","properties":{"highway":"service","startNodeId":"5233945372","endNodeId":"5233945371"},"geometry":{"type":"LineString","coordinates":[[104.0520421,1.401596],[104.0520018,1.4016068]]}},{"type":"Feature","id":"way/541221255-0-4-0","properties":{"highway":"service","startNodeId":"5233945371","endNodeId":"5233945370"},"geometry":{"type":"LineString","coordinates":[[104.0520018,1.4016068],[104.0504622,1.4011938]]}},{"type":"Feature","id":"way/541221255-0-5-0","properties":{"highway":"service","startNodeId":"5233945370","endNodeId":"5233945369"},"geometry":{"type":"LineString","coordinates":[[104.0504622,1.4011938],[104.0501511,1.401159]]}},{"type":"Feature","id":"way/541221255-0-6-0","properties":{"highway":"service","startNodeId":"5233945369","endNodeId":"5233945368"},"geometry":{"type":"LineString","coordinates":[[104.0501511,1.401159],[104.0496844,1.4010363]]}},{"type":"Feature","id":"way/541221255-0-7-0","properties":{"highway":"service","startNodeId":"5233945368","endNodeId":"5233945367"},"geometry":{"type":"LineString","coordinates":[[104.0496844,1.4010363],[104.0496469,1.4010376]]}}]}