{"type":"FeatureCollection","features":[{"type":"Feature","id":"way/1366474720-0","properties":{"building":"yes","disused":"yes","name":"Kg. Pasir Malay School"},"geometry":{"type":"Polygon","coordinates":[[[104.0783656,1.4121652],[104.0783833,1.41206],[104.0780178,1.4119985],[104.0780001,1.4121036],[104.0783656,1.4121652]]]}},{"type":"Feature","id":"way/1366474721-0","properties":{"building":"yes","disused":"yes"},"geometry":{"type":"Polygon","coordinates":[[[104.0784752,1.412358],[104.0784936,1.4122546],[104.0783462,1.4122284],[104.0783278,1.4123318],[104.0784752,1.412358]]]}},{"type":"Feature","id":"way/1366474722-0","properties":{"building":"yes","disused":"yes"},"geometry":{"type":"Polygon","coordinates":[[[104.078292,1.4123807],[104.0783031,1.4123116],[104.0781828,1.4122924],[104.0781718,1.4123615],[104.078292,1.4123807]]]}}]}