{"type":"FeatureCollection","features":[{"type":"Feature","id":"way/97938116-0","properties":{"building":"yes","clearanceGeometry":{"type":"Polygon","coordinates":[[[104.0816924,1.4169712],[104.0817675,1.4168639],[104.0816817,1.4168103],[104.0816066,1.4169068],[104.0816924,1.4169712]]]},"clearanceHeight":1.7,"clearancePrepared":true},"geometry":{"type":"Polygon","coordinates":[[[104.0816066,1.4169068],[104.0816924,1.4169712],[104.0817675,1.4168639],[104.0816817,1.4168103],[104.0816066,1.4169068]]]}},{"type":"Feature","id":"way/97938118-0","properties":{"building":"yes","clearanceGeometry":{"type":"Polygon","coordinates":[[[104.08151,1.4171964],[104.0815637,1.4172393],[104.081628,1.4170892],[104.0815637,1.4170463],[104.08151,1.4171964]]]},"clearanceHeight":1.7,"clearancePrepared":true},"geometry":{"type":"Polygon","coordinates":[[[104.0815637,1.4170463],[104.08151,1.4171964],[104.0815637,1.4172393],[104.081628,1.4170892],[104.0815637,1.4170463]]]}},{"type":"Feature","id":"way/97938126-0","properties":{"building":"yes","clearanceGeometry":{"type":"Polygon","coordinates":[[[104.0804693,1.4180223],[104.0805766,1.417797],[104.0804693,1.4177541],[104.0803728,1.4179794],[104.0804693,1.4180223]]]},"clearanceHeight":1.7,"clearancePrepared":true},"geometry":{"type":"Polygon","coordinates":[[[104.0803728,1.4179794],[104.0804693,1.4180223],[104.0805766,1.417797],[104.0804693,1.4177541],[104.0803728,1.4179794]]]}}]}