{"type":"FeatureCollection","features":[{"type":"Feature","id":"relation/7787282-0","properties":{"building":"school","type":"multipolygon"},"geometry":{"type":"Polygon","coordinates":[[[103.8802356,1.3979154],[103.8802397,1.3979656],[103.8803034,1.3979604],[103.8802983,1.3978986],[103.8805901,1.3978747],[103.8805933,1.3979132],[103.8806595,1.3979077],[103.8806641,1.3979628],[103.880727,1.3979576],[103.8807247,1.3979308],[103.8807021,1.3979327],[103.8806935,1.3978302],[103.8806696,1.3978322],[103.880662,1.397742],[103.8806198,1.3977455],[103.8806191,1.3977374],[103.8802787,1.3977674],[103.88028,1.397782],[103.8802436,1.3977853],[103.8802392,1.3977358],[103.8803122,1.3977292],[103.880305,1.3976494],[103.8802295,1.3976563],[103.8802263,1.3976207],[103.8804271,1.3976024],[103.8804289,1.3976223],[103.880606,1.3976061],[103.8806041,1.397585],[103.8806452,1.3975812],[103.8806334,1.3974542],[103.880226,1.3974919],[103.8802123,1.3974802],[103.8802106,1.3974622],[103.8802874,1.3974549],[103.8802794,1.3973707],[103.8801994,1.3973783],[103.8801976,1.3973595],[103.8802091,1.3973473],[103.8806036,1.3973113],[103.8806198,1.3972918],[103.8806102,1.3971871],[103.8805701,1.3971908],[103.8805692,1.3971814],[103.8802245,1.397213],[103.8802256,1.3972249],[103.8801815,1.3972289],[103.8801852,1.3972684],[103.8801263,1.3972738],[103.8798912,1.3972953],[103.8798936,1.3973219],[103.879909,1.3974906],[103.8799173,1.3974967],[103.8799157,1.3975249],[103.8799711,1.3975681],[103.879909,1.3976477],[103.8797486,1.3976619],[103.8796882,1.3977353],[103.8797209,1.3980555],[103.8797949,1.398048],[103.8797982,1.3980802],[103.8798184,1.3980781],[103.8798192,1.398087],[103.880155,1.3980549],[103.8801541,1.3980448],[103.8801711,1.3980432],[103.8801682,1.3980112],[103.8801766,1.3980104],[103.8801619,1.3978381],[103.8802062,1.3978343],[103.8802116,1.3978981],[103.8802356,1.3979154]],[[103.8799884,1.3975938],[103.8800112,1.3975933],[103.8800268,1.3975803],[103.8801828,1.3975678],[103.8801914,1.3976754],[103.8799893,1.3976916],[103.8799413,1.3976545],[103.8799884,1.3975938]],[[103.8802032,1.3978044],[103.8801449,1.3978096],[103.8801371,1.3977225],[103.8801954,1.3977173],[103.8802032,1.3978044]]]}},{"type":"Feature","id":"way/349940307-0","properties":{"building":"yes","source":"Bing"},"geometry":{"type":"Polygon","coordinates":[[[103.8817289,1.4007889],[103.8820611,1.4008159],[103.8820804,1.4005777],[103.8817482,1.4005508],[103.8817289,1.4007889]]]}},{"type":"Feature","id":"way/452270755-0","properties":{"building":"yes"},"geometry":{"type":"Polygon","coordinates":[[[103.882089,1.4006079],[103.8820823,1.4007474],[103.8822496,1.4007554],[103.8822563,1.400616],[103.882089,1.4006079]]]}},{"type":"Feature","id":"way/452270757-0","properties":{"building":"yes"},"geometry":{"type":"Polygon","coordinates":[[[103.8823866,1.40071],[103.8823947,1.4005826],[103.8823073,1.4005771],[103.8822992,1.4007045],[103.8823866,1.40071]]]}},{"type":"Feature","id":"way/452270759-0","properties":{"building":"yes"},"geometry":{"type":"Polygon","coordinates":[[[103.8817775,1.4004578],[103.8817666,1.4005288],[103.8818712,1.4005449],[103.8818821,1.4004739],[103.8817775,1.4004578]]]}},{"type":"Feature","id":"way/452270761-0","properties":{"building":"yes"},"geometry":{"type":"Polygon","coordinates":[[[103.881929,1.4005497],[103.882035,1.400555],[103.8820377,1.4005007],[103.8819318,1.4004953],[103.881929,1.4005497]]]}},{"type":"Feature","id":"way/507688112-0","properties":{"building":"train_station","building:levels":"2","building:min_level":"2"},"geometry":{"type":"Polygon","coordinates":[[[103.8814043,1.3982285],[103.8814195,1.3982158],[103.8814287,1.3981982],[103.8814305,1.3981784],[103.8814245,1.3981594],[103.8814118,1.3981442],[103.8813942,1.398135],[103.8813744,1.3981332],[103.8813059,1.398142],[103.8811135,1.3981614],[103.8810946,1.3981673],[103.8810793,1.3981801],[103.8810701,1.3981977],[103.8810684,1.3982175],[103.8810743,1.3982364],[103.8810871,1.3982517],[103.8811047,1.3982609],[103.8811245,1.3982626],[103.8813139,1.3982417],[103.8813853,1.3982345],[103.8814043,1.3982285]]]}},{"type":"Feature","id":"way/507688113-0","properties":{"addr:city":"Singapore","addr:country":"SG","addr:housenumber":"467","addr:street":"Sengkang West Way","building":"roof","building:levels":"1","layer":"1"},"geometry":{"type":"Polygon","coordinates":[[[103.8787974,1.3976855],[103.8788144,1.3976743],[103.8788245,1.3976513],[103.8788314,1.3975938],[103.8788146,1.3975285],[103.878788,1.3974876],[103.8787661,1.3974757],[103.8787491,1.3974806],[103.8787263,1.3975066],[103.8787191,1.3975626],[103.8787325,1.3976292],[103.8787564,1.3976669],[103.8787767,1.3976831],[103.8787974,1.3976855]]]}},{"type":"Feature","id":"way/507688132-0","properties":{"addr:city":"Singapore","addr:country":"SG","addr:housenumber":"468","addr:street":"Fernvale Lane","amenity":"parking","building":"yes","building:levels":"6","parking":"multi-storey"},"geometry":{"type":"Polygon","coordinates":[[[103.8783089,1.3969198],[103.8783442,1.3972582],[103.8788398,1.3972065],[103.8788084,1.3969068],[103.8784148,1.3969479],[103.8783477,1.3963064],[103.8780294,1.3963397],[103.8780924,1.3969424],[103.8783089,1.3969198]]]}},{"type":"Feature","id":"way/507688136-0","properties":{"addr:city":"Singapore","addr:country":"SG","addr:housenumber":"467A","addr:street":"Fernvale Lane","building":"residential","building:levels":"26","residential":"HDB"},"geometry":{"type":"Polygon","coordinates":[[[103.8786191,1.3981799],[103.8786178,1.3981069],[103.8785702,1.3981089],[103.8785675,1.3980083],[103.8786835,1.3979922],[103.8786956,1.3980794],[103.8786594,1.3981578],[103.8787191,1.398198],[103.8788351,1.3980217],[103.878764,1.3979775],[103.8787231,1.3980358],[103.8787144,1.3979768],[103.8788304,1.397954],[103.8788223,1.3978756],[103.878587,1.3979057],[103.8785984,1.3979869],[103.8785829,1.3979895],[103.8785474,1.3979098],[103.8784113,1.3979922],[103.8784455,1.3980613],[103.8785085,1.3980291],[103.8785132,1.3981149],[103.8784689,1.3981142],[103.878475,1.3981806],[103.8786191,1.3981799]]]}},{"type":"Feature","id":"way/507688142-0","properties":{"addr:city":"Singapore","addr:country":"SG","addr:housenumber":"467B","addr:postcode":"792467","addr:street":"Fernvale Lane","building":"residential","building:levels":"26","residential":"HDB"},"geometry":{"type":"Polygon","coordinates":[[[103.8780545,1.3982858],[103.8780703,1.3981855],[103.8779811,1.3981754],[103.8779871,1.398109],[103.8781045,1.3980742],[103.8781427,1.39817],[103.8781092,1.3981855],[103.8781346,1.3982451],[103.8782667,1.3981895],[103.8782386,1.3981298],[103.878189,1.3981513],[103.8781588,1.3980728],[103.8782352,1.3980775],[103.8782439,1.3980004],[103.8780776,1.3979844],[103.8780817,1.3980635],[103.8780716,1.3980668],[103.8780495,1.3979844],[103.8778262,1.3980621],[103.877849,1.3981365],[103.8779657,1.3981023],[103.8779576,1.3981727],[103.8778611,1.3981647],[103.877852,1.3982445],[103.8778508,1.3982553],[103.8780545,1.3982858]]]}},{"type":"Feature","id":"way/507688147-0","properties":{"addr:city":"Singapore","addr:country":"SG","addr:housenumber":"468A","addr:street":"Fernvale Lane","building":"residential","building:levels":"26","residential":"HDB"},"geometry":{"type":"Polygon","coordinates":[[[103.8786939,1.3976187],[103.8786805,1.3975406],[103.8785995,1.3975545],[103.8785881,1.3974881],[103.8786519,1.3974771],[103.8786373,1.397392],[103.8783966,1.3974334],[103.8784102,1.3975125],[103.8785056,1.3974961],[103.8785182,1.3975699],[103.8784088,1.3975887],[103.878422,1.3976654],[103.8786939,1.3976187]]]}},{"type":"Feature","id":"way/507688151-0","properties":{"addr:city":"Singapore","addr:country":"SG","addr:housenumber":"468B","addr:street":"Fernvale Lane","building":"residential","building:levels":"26","residential":"HDB"},"geometry":{"type":"Polygon","coordinates":[[[103.8780532,1.3976691],[103.8780438,1.3975867],[103.8779479,1.3975853],[103.8779479,1.3975257],[103.8780324,1.3975055],[103.8780914,1.397582],[103.878068,1.3976007],[103.8781048,1.397655],[103.8782752,1.3975263],[103.8782255,1.397466],[103.8781659,1.3975035],[103.8781437,1.3974667],[103.8780646,1.3975203],[103.8780398,1.3974861],[103.8780908,1.3974593],[103.8780653,1.3973802],[103.8778292,1.3974861],[103.8778567,1.3975464],[103.8779325,1.397531],[103.8779338,1.3975873],[103.8778433,1.397586],[103.877838,1.3976644],[103.8780532,1.3976691]]]}},{"type":"Feature","id":"way/507688163-0","properties":{"addr:city":"Singapore","addr:country":"SG","addr:housenumber":"470B","addr:postcode":"792470","addr:street":"Fernvale Link","building":"residential","building:levels":"26","residential":"HDB"},"geometry":{"type":"Polygon","coordinates":[[[103.8801859,1.3968565],[103.8801707,1.3968755],[103.8801531,1.3968615],[103.880138,1.3968804],[103.8801196,1.3968657],[103.8801014,1.3968898],[103.8800949,1.3968156],[103.8801208,1.3968373],[103.8801357,1.3968183],[103.8801593,1.3968368],[103.8801689,1.3968247],[103.8801833,1.396836],[103.8802102,1.3968019],[103.8800404,1.3966684],[103.8800181,1.3966968],[103.8800324,1.396708],[103.8800196,1.3967243],[103.880039,1.3967395],[103.8800238,1.3967588],[103.8800573,1.3967851],[103.8800288,1.3968214],[103.879965,1.396827],[103.8799608,1.3967786],[103.8797914,1.3967935],[103.8797968,1.396855],[103.8798194,1.396853],[103.8798248,1.3969135],[103.8797892,1.3969167],[103.8797939,1.3969704],[103.8798543,1.3969651],[103.8798532,1.3969534],[103.8799275,1.3969468],[103.8799289,1.3969625],[103.879985,1.3969575],[103.8799797,1.396897],[103.8799523,1.3968994],[103.8799502,1.3968758],[103.8799981,1.3968716],[103.8800006,1.3969004],[103.8800478,1.3968962],[103.8800452,1.3968668],[103.8800828,1.3968635],[103.8800843,1.3968806],[103.8800559,1.3969162],[103.8800696,1.3969271],[103.8800393,1.3969649],[103.880056,1.3969783],[103.8800403,1.3969979],[103.8800526,1.3970078],[103.880037,1.3970273],[103.8800748,1.3970575],[103.8802162,1.3968807],[103.8801859,1.3968565]]]}},{"type":"Feature","id":"way/507688164-0","properties":{"addr:city":"Singapore","addr:country":"SG","addr:housenumber":"470","addr:postcode":"790470","addr:street":"Fernvale Link","amenity":"parking","building":"yes","building:levels":"6","parking":"multi-storey"},"geometry":{"type":"Polygon","coordinates":[[[103.8797591,1.3971112],[103.8797284,1.3967831],[103.8796854,1.3967907],[103.8795498,1.3967998],[103.8795472,1.3967713],[103.8792581,1.3967984],[103.8792606,1.3968247],[103.8791679,1.3968334],[103.8791988,1.3971637],[103.8797591,1.3971112]]]}},{"type":"Feature","id":"way/507688165-0","properties":{"addr:city":"Singapore","addr:country":"SG","addr:housenumber":"470A","addr:postcode":"791470","addr:street":"Fernvale Link","building":"residential","building:levels":"26","residential":"HDB"},"geometry":{"type":"Polygon","coordinates":[[[103.8793414,1.3966547],[103.8793256,1.3966426],[103.8793373,1.3966274],[103.8793159,1.396611],[103.8793328,1.396589],[103.8793054,1.3965679],[103.8793132,1.3965577],[103.8792993,1.396547],[103.879311,1.3965316],[103.8793467,1.3965292],[103.8793489,1.3965618],[103.8794006,1.3965583],[103.8793982,1.3965236],[103.8794442,1.3965204],[103.8794455,1.3965391],[103.8794169,1.396541],[103.879421,1.3966014],[103.8794812,1.3965973],[103.8794801,1.3965809],[103.8795575,1.3965756],[103.8795585,1.3965899],[103.879607,1.3965866],[103.879603,1.3965278],[103.8795744,1.3965297],[103.8795699,1.396464],[103.8795922,1.3964625],[103.8795911,1.3964465],[103.8796065,1.3964454],[103.8796041,1.3964091],[103.8793849,1.396424],[103.8793878,1.3964655],[103.8794152,1.3964636],[103.8794164,1.3964802],[103.8794402,1.3964786],[103.879442,1.3965052],[103.879399,1.3965081],[103.8793967,1.3964729],[103.8793355,1.3964771],[103.879318,1.3964637],[103.8793357,1.3964407],[103.8793184,1.3964274],[103.8793328,1.3964086],[103.8792977,1.3963817],[103.8791615,1.3965594],[103.8791888,1.3965803],[103.879198,1.3965683],[103.879214,1.3965805],[103.8792289,1.3965611],[103.8792486,1.3965762],[103.8792651,1.3965548],[103.8792714,1.3965597],[103.8792279,1.3966164],[103.879318,1.3966854],[103.8793414,1.3966547]]]}},{"type":"Feature","id":"way/507688167-0","properties":{"addr:city":"Singapore","addr:country":"SG","addr:housenumber":"471B","addr:postcode":"792471","addr:street":"Sengkang West Way","building":"residential","building:levels":"26","residential":"HDB"},"geometry":{"type":"Polygon","coordinates":[[[103.8805529,1.396596],[103.8805497,1.3965558],[103.8805303,1.3965574],[103.8805291,1.3965436],[103.8805053,1.3965455],[103.8805034,1.396522],[103.8805756,1.3965161],[103.8805781,1.3965472],[103.8806323,1.3965428],[103.8806298,1.3965122],[103.8806447,1.3965109],[103.8806704,1.3965316],[103.8806456,1.3965624],[103.8806597,1.3965737],[103.8806433,1.3965941],[103.8806549,1.3966035],[103.8806428,1.3966186],[103.8806775,1.3966464],[103.8808393,1.3964504],[103.8807857,1.3964048],[103.8807522,1.3964437],[103.880644,1.3963456],[103.8806174,1.3963787],[103.8806358,1.3963935],[103.8806258,1.3964059],[103.8806484,1.3964241],[103.8806144,1.3964664],[103.8805784,1.3964694],[103.8805806,1.3964962],[103.8805189,1.3965012],[103.880517,1.3964773],[103.8805453,1.396475],[103.8805437,1.3964553],[103.880566,1.3964535],[103.8805629,1.3964153],[103.8804485,1.3964246],[103.8804501,1.3964436],[103.8804314,1.3964451],[103.8804297,1.3964244],[103.8803179,1.3964335],[103.8803215,1.3964767],[103.8803424,1.396475],[103.8803443,1.3964972],[103.8803746,1.3964947],[103.8803792,1.3965513],[103.8803549,1.3965533],[103.8803562,1.3965692],[103.8803362,1.3965708],[103.8803397,1.3966134],[103.8805529,1.396596]]]}},{"type":"Feature","id":"way/507688169-0","properties":{"addr:city":"Singapore","addr:country":"SG","addr:housenumber":"472C","addr:postcode":"793472","addr:street":"Sengkang West Way","building":"residential","building:levels":"24","residential":"HDB"},"geometry":{"type":"Polygon","coordinates":[[[103.881136,1.3962994],[103.8811242,1.3962893],[103.8811495,1.3962597],[103.8811321,1.3962448],[103.8811491,1.3962249],[103.8811423,1.3962191],[103.8811566,1.3962024],[103.8811201,1.3961712],[103.8810477,1.3962561],[103.8810992,1.3963],[103.8810843,1.3963174],[103.8810576,1.3962946],[103.8810434,1.3963112],[103.8810182,1.3962897],[103.881005,1.3963053],[103.8809905,1.3962929],[103.8809633,1.3963247],[103.8811503,1.3964842],[103.8811786,1.396451],[103.8811605,1.3964355],[103.8811715,1.3964225],[103.8811488,1.3964031],[103.8811702,1.396378],[103.8811259,1.3963402],[103.8811135,1.3963296],[103.8811773,1.3963252],[103.8811796,1.3963597],[103.8812327,1.3963561],[103.881244,1.3965226],[103.8812659,1.3965211],[103.8812677,1.3965477],[103.8812941,1.3965459],[103.881296,1.3965747],[103.881328,1.3965725],[103.8813185,1.3964327],[103.881342,1.3964311],[103.8813345,1.3963207],[103.8812825,1.3963242],[103.8812801,1.3962889],[103.8813211,1.3962861],[103.8813132,1.3961702],[103.8812701,1.3961731],[103.8812688,1.3961536],[103.8813245,1.3961498],[103.8813196,1.3960788],[103.8811858,1.3960879],[103.8811917,1.3961743],[103.8812122,1.3961729],[103.881219,1.3962731],[103.8811774,1.3962759],[103.8811792,1.3963032],[103.8811298,1.3963066],[103.881136,1.3962994]]]}},{"type":"Feature","id":"way/507688170-0","properties":{"addr:city":"Singapore","addr:country":"SG","addr:housenumber":"472B","addr:postcode":"792472","addr:street":"Fernvale Street","building":"residential","building:levels":"24","residential":"HDB"},"geometry":{"type":"Polygon","coordinates":[[[103.881269,1.3969107],[103.8813187,1.3969066],[103.8813234,1.3969635],[103.8813077,1.3969648],[103.8813147,1.3970503],[103.881346,1.3970478],[103.8813471,1.3970613],[103.8814004,1.3970569],[103.8813939,1.3969785],[103.8814158,1.3969768],[103.8814089,1.3968929],[103.8813623,1.3968967],[103.8813578,1.3968422],[103.8814019,1.3968386],[103.8813934,1.396736],[103.8813476,1.3967398],[103.8813454,1.3967133],[103.8813727,1.396711],[103.8813683,1.3966571],[103.8813114,1.3966618],[103.8813129,1.3966801],[103.8812801,1.3966828],[103.8812864,1.3967592],[103.8813124,1.3967571],[103.8813181,1.3968264],[103.8812671,1.3968306],[103.8812693,1.3968573],[103.8811897,1.3968638],[103.8812077,1.396842],[103.8811962,1.3968325],[103.8812213,1.3968023],[103.881204,1.396788],[103.8812208,1.3967676],[103.8812142,1.3967622],[103.8812286,1.3967449],[103.8811912,1.3967139],[103.8811198,1.3967998],[103.8811712,1.3968424],[103.8811565,1.3968602],[103.8811292,1.3968375],[103.8811155,1.396854],[103.8810898,1.3968327],[103.881077,1.3968481],[103.881062,1.3968357],[103.8810343,1.3968691],[103.8812074,1.3970126],[103.8812343,1.3969801],[103.8812162,1.3969651],[103.8812274,1.3969517],[103.8812046,1.3969328],[103.8812231,1.3969106],[103.8811945,1.3968869],[103.8812666,1.396881],[103.881269,1.3969107]]]}},{"type":"Feature","id":"way/507688171-0","properties":{"addr:city":"Singapore","addr:housenumber":"472A","addr:postcode":"791472","addr:street":"Fernvale Street","building":"residential","building:levels":"24","residential":"HDB"},"geometry":{"type":"Polygon","coordinates":[[[103.8812881,1.3974422],[103.881291,1.3974729],[103.8813388,1.3974684],[103.8813477,1.397562],[103.8813303,1.3975637],[103.8813379,1.3976436],[103.881459,1.3976322],[103.8814408,1.3974398],[103.8814104,1.3974426],[103.8814063,1.3973995],[103.881423,1.3973979],[103.8814002,1.397157],[103.8813527,1.3971615],[103.8813548,1.3971842],[103.8813429,1.3971854],[103.8813456,1.3972133],[103.8813179,1.397216],[103.8813336,1.3973819],[103.8812856,1.3973865],[103.881289,1.3974223],[103.8812252,1.3974283],[103.8812172,1.3974218],[103.8812569,1.3973733],[103.8812372,1.3973572],[103.8812516,1.3973395],[103.8812367,1.3973274],[103.881252,1.3973087],[103.8812219,1.3972842],[103.8811486,1.3973737],[103.8811646,1.3973868],[103.8811566,1.3973966],[103.8811366,1.3973803],[103.8810614,1.3974722],[103.881096,1.3975005],[103.8811129,1.3974798],[103.8811253,1.3974899],[103.8811422,1.3974693],[103.8811712,1.397493],[103.8811623,1.3975039],[103.8812637,1.3975869],[103.8812891,1.3975559],[103.881272,1.3975419],[103.8812815,1.3975302],[103.8812586,1.3975115],[103.8812757,1.3974907],[103.8812309,1.3974541],[103.8812366,1.3974471],[103.8812881,1.3974422]]]}},{"type":"Feature","id":"way/507688173-0","properties":{"addr:city":"Singapore","addr:country":"SG","addr:housenumber":"473A","addr:postcode":"791473","addr:street":"Fernvale Street","building":"residential","building:levels":"26","residential":"HDB"},"geometry":{"type":"Polygon","coordinates":[[[103.8811275,1.3978662],[103.8811713,1.3978624],[103.881174,1.3978937],[103.881233,1.3978886],[103.8812182,1.3977185],[103.8811523,1.3977242],[103.8811541,1.3977444],[103.8811172,1.3977476],[103.8811227,1.3978106],[103.8809963,1.3978246],[103.8809909,1.3977784],[103.8809668,1.3977807],[103.8809631,1.397762],[103.8809681,1.3977489],[103.8809862,1.397761],[103.8809963,1.3977507],[103.8810345,1.3977838],[103.8810805,1.3977306],[103.881027,1.3976843],[103.8809999,1.3977156],[103.8809696,1.3976894],[103.8809845,1.3976723],[103.8809385,1.3976325],[103.8809031,1.3976735],[103.8809157,1.3976845],[103.8808877,1.3977169],[103.8808754,1.3977063],[103.8808288,1.3977602],[103.8808844,1.3978082],[103.8809194,1.3977677],[103.8809404,1.3977658],[103.8809447,1.3978138],[103.8808927,1.3978185],[103.8808947,1.39784],[103.8808773,1.3978415],[103.8808787,1.397857],[103.8808517,1.3978594],[103.8808535,1.3978789],[103.8808642,1.3978779],[103.8808669,1.3979246],[103.8809754,1.3979157],[103.8809723,1.3978651],[103.8809966,1.3978621],[103.8810006,1.3979066],[103.8811068,1.3978958],[103.8811016,1.3978387],[103.881125,1.3978371],[103.8811275,1.3978662]]]}},{"type":"Feature","id":"way/507688174-0","properties":{"building":"yes"},"geometry":{"type":"Polygon","coordinates":[[[103.881567,1.3977402],[103.8814965,1.3977462],[103.8812302,1.3977642],[103.881241,1.3979153],[103.8814332,1.3979016],[103.881426,1.3978014],[103.8814988,1.3977979],[103.8815706,1.3977911],[103.881567,1.3977402]]]}},{"type":"Feature","id":"way/507688175-0","properties":{"addr:city":"Singapore","addr:country":"SG","addr:housenumber":"473","addr:postcode":"790473","addr:street":"Fernvale Street","building":"yes","building:levels":"1"},"geometry":{"type":"Polygon","coordinates":[[[103.881567,1.3977402],[103.8815706,1.3977911],[103.8815804,1.3979288],[103.8817798,1.3979146],[103.8817766,1.3978702],[103.8819382,1.3978587],[103.8819252,1.3976764],[103.8815642,1.3977022],[103.881567,1.3977402]]]}},{"type":"Feature","id":"way/507688176-0","properties":{"addr:city":"Singapore","addr:country":"SG","addr:housenumber":"472","addr:postcode":"790472","addr:street":"Fernvale Street","amenity":"parking","building":"yes","building:levels":"5","parking":"multi-storey"},"geometry":{"type":"Polygon","coordinates":[[[103.8818559,1.3962573],[103.8815414,1.3962878],[103.8815585,1.3964638],[103.8816621,1.397532],[103.8819766,1.3975015],[103.8818559,1.3962573]]]}},{"type":"Feature","id":"way/1442313903-0","properties":{"building":"roof","building:levels":"1","layer":"1"},"geometry":{"type":"Polygon","coordinates":[[[103.8800501,1.3990583],[103.8801889,1.3990477],[103.8801821,1.398958],[103.8800432,1.3989686],[103.8800501,1.3990583]]]}},{"type":"Feature","id":"way/1442313904-0","properties":{"building":"roof","building:levels":"1","layer":"1"},"geometry":{"type":"Polygon","coordinates":[[[103.8796298,1.3998945],[103.8797687,1.3998839],[103.8797618,1.3997941],[103.879623,1.3998047],[103.8796298,1.3998945]]]}},{"type":"Feature","id":"way/1442313925-0","properties":{"addr:city":"Singapore","addr:housenumber":"480","addr:postcode":"790480","addr:street":"Fernvale Drive","amenity":"parking","building":"yes","building:levels":"7","parking":"multi-storey","roof:levels":"1","roof:material":"grass","roof:shape":"flat"},"geometry":{"type":"Polygon","coordinates":[[[103.8804957,1.4003002],[103.8806737,1.4002867],[103.8806477,1.3999463],[103.8803775,1.3999669],[103.8803767,1.3999552],[103.8803748,1.3999312],[103.8802854,1.399938],[103.8802872,1.399962],[103.8802881,1.3999737],[103.8798201,1.4000093],[103.8798461,1.4003497],[103.8804957,1.4003002]]]}},{"type":"Feature","id":"way/1442313926-0","properties":{"addr:city":"Singapore","addr:country":"SG","addr:housenumber":"481A","addr:postcode":"791481","addr:street":"Fernvale Drive","building":"residential","building:levels":"23","residential":"HDB"},"geometry":{"type":"Polygon","coordinates":[[[103.8797009,1.4003971],[103.8797006,1.4003938],[103.8797246,1.400392],[103.8797235,1.400377],[103.8797434,1.4003755],[103.8797373,1.4002944],[103.8797173,1.4002959],[103.8797162,1.4002818],[103.8796922,1.4002836],[103.879692,1.4002805],[103.8796735,1.4002819],[103.8796719,1.4002608],[103.8796904,1.4002594],[103.8796901,1.4002562],[103.8797141,1.4002544],[103.879713,1.4002397],[103.879733,1.4002382],[103.8797267,1.4001567],[103.8797068,1.4001582],[103.8797057,1.4001444],[103.8796817,1.4001462],[103.8796815,1.4001433],[103.8796631,1.4001447],[103.8796614,1.4001232],[103.8796799,1.4001218],[103.8796796,1.4001184],[103.8797036,1.4001166],[103.8797025,1.4001023],[103.8797225,1.4001007],[103.8797192,1.4000581],[103.8796894,1.4000603],[103.879688,1.4000427],[103.8797157,1.4000406],[103.8797131,1.4000058],[103.8797109,1.3999781],[103.8796603,1.3999819],[103.8796605,1.3999849],[103.8796244,1.3999877],[103.8796242,1.3999847],[103.8795727,1.3999886],[103.8795748,1.4000163],[103.8795775,1.4000511],[103.8796053,1.400049],[103.8796066,1.4000667],[103.8795689,1.4000695],[103.8795708,1.4000953],[103.879628,1.4000909],[103.879629,1.4001039],[103.8796038,1.4001058],[103.8796102,1.4001898],[103.8796433,1.4001873],[103.8796534,1.40032],[103.8796353,1.4003214],[103.87964,1.4003834],[103.879681,1.4003803],[103.8796824,1.4003985],[103.8797009,1.4003971]]]}},{"type":"Feature","id":"way/1442313927-0","properties":{"addr:city":"Singapore","addr:country":"SG","addr:housenumber":"481B","addr:postcode":"792481","addr:street":"Fernvale Drive","building":"residential","residential":"HDB"},"geometry":{"type":"Polygon","coordinates":[[[103.8799181,1.3996243],[103.8799155,1.3995902],[103.8798575,1.3995946],[103.8798593,1.3996179],[103.8798118,1.3996215],[103.87981,1.3995982],[103.879807,1.3995985],[103.879804,1.3995591],[103.8796837,1.3995683],[103.8796867,1.3996076],[103.8796835,1.3996079],[103.8796853,1.3996312],[103.8796337,1.3996351],[103.8796273,1.3995519],[103.8795299,1.3995593],[103.8795317,1.399583],[103.8794722,1.3995875],[103.8794752,1.3996272],[103.8794726,1.3996274],[103.8794755,1.3996651],[103.8794607,1.3996663],[103.8794621,1.3996839],[103.8794644,1.3996837],[103.8794675,1.3997241],[103.8795871,1.399715],[103.8795853,1.3996916],[103.879584,1.3996746],[103.8795882,1.3996743],[103.8795869,1.3996567],[103.879635,1.399653],[103.8796364,1.3996706],[103.8796402,1.3996703],[103.8796433,1.3997107],[103.8797027,1.3997062],[103.8797053,1.3997408],[103.8796186,1.3997474],[103.879622,1.3997918],[103.879779,1.3997798],[103.8797812,1.399809],[103.8799864,1.3997933],[103.879975,1.3996448],[103.8799402,1.3996474],[103.8799388,1.3996298],[103.8799187,1.3996314],[103.8799181,1.3996243]]]}},{"type":"Feature","id":"way/1442313928-0","properties":{"building:levels":"1","building:part":"yes"},"geometry":{"type":"Polygon","coordinates":[[[103.8799365,1.3996477],[103.8799395,1.3996882],[103.8798176,1.3996975],[103.8798145,1.399657],[103.8798115,1.3996572],[103.8798102,1.3996396],[103.8797625,1.3996433],[103.8797639,1.3996609],[103.8797603,1.3996611],[103.8797634,1.3997016],[103.8797027,1.3997062],[103.8797053,1.3997408],[103.8796186,1.3997474],[103.879622,1.3997918],[103.879779,1.3997798],[103.8797812,1.399809],[103.8799864,1.3997933],[103.879975,1.3996448],[103.8799402,1.3996474],[103.8799365,1.3996477]]]}},{"type":"Feature","id":"way/1442313929-0","properties":{"building:levels":"26","building:part":"yes"},"geometry":{"type":"Polygon","coordinates":[[[103.8797603,1.3996611],[103.8797639,1.3996609],[103.8797625,1.3996433],[103.8798102,1.3996396],[103.8798115,1.3996572],[103.8798145,1.399657],[103.8798176,1.3996975],[103.8799395,1.3996882],[103.8799365,1.3996477],[103.8799402,1.3996474],[103.8799388,1.3996298],[103.8799187,1.3996314],[103.8799181,1.3996243],[103.8799155,1.3995902],[103.8798575,1.3995946],[103.8798593,1.3996179],[103.8798118,1.3996215],[103.87981,1.3995982],[103.879807,1.3995985],[103.879804,1.3995591],[103.8796837,1.3995683],[103.8796867,1.3996076],[103.8796835,1.3996079],[103.8796853,1.3996312],[103.8796337,1.3996351],[103.8796273,1.3995519],[103.8795299,1.3995593],[103.8795317,1.399583],[103.8794722,1.3995875],[103.8794752,1.3996272],[103.8794726,1.3996274],[103.8794755,1.3996651],[103.8794607,1.3996663],[103.8794621,1.3996839],[103.8794644,1.3996837],[103.8794675,1.3997241],[103.8795871,1.399715],[103.8795853,1.3996916],[103.879584,1.3996746],[103.8795882,1.3996743],[103.8795869,1.3996567],[103.879635,1.399653],[103.8796364,1.3996706],[103.8796402,1.3996703],[103.8796433,1.3997107],[103.8797027,1.3997062],[103.8797634,1.3997016],[103.8797603,1.3996611]]]}},{"type":"Feature","id":"way/1442313930-0","properties":{"addr:city":"Singapore","addr:country":"SG","addr:housenumber":"480A","addr:postcode":"791480","addr:street":"Fernvale Drive","building":"residential","building:levels":"26","residential":"HDB"},"geometry":{"type":"Polygon","coordinates":[[[103.8807892,1.4001252],[103.8808012,1.4001243],[103.8808031,1.4001489],[103.8808282,1.400147],[103.8808293,1.4001617],[103.8808743,1.4001582],[103.8808678,1.4000732],[103.8808583,1.4000739],[103.88085,1.3999642],[103.8808595,1.3999635],[103.880853,1.3998783],[103.880808,1.3998817],[103.8808091,1.399896],[103.8807839,1.3998979],[103.8807858,1.3999229],[103.8807739,1.3999238],[103.8807659,1.3998196],[103.8807779,1.3998187],[103.8807797,1.3998425],[103.8808049,1.3998406],[103.880806,1.399855],[103.8808509,1.3998516],[103.8808445,1.3997666],[103.880835,1.3997673],[103.8808283,1.3996801],[103.8808378,1.3996794],[103.8808313,1.3995938],[103.8808067,1.3995956],[103.8807863,1.3995972],[103.8807874,1.3996122],[103.8807623,1.3996141],[103.8807641,1.399638],[103.8807522,1.3996389],[103.8807553,1.3996803],[103.8807341,1.399682],[103.8807357,1.3997033],[103.8806754,1.3997079],[103.8806746,1.3996981],[103.880699,1.3996962],[103.880697,1.3996692],[103.8807086,1.3996683],[103.8807053,1.3996243],[103.8806224,1.3996306],[103.880623,1.3996388],[103.880567,1.399643],[103.8805674,1.3996485],[103.8805353,1.399651],[103.8805349,1.3996455],[103.8805083,1.3996475],[103.8805077,1.3996394],[103.8804712,1.3996421],[103.8804719,1.3996503],[103.8804195,1.3996543],[103.8804188,1.3996461],[103.8803333,1.3996527],[103.8803366,1.3996966],[103.8803515,1.3996955],[103.8803536,1.3997226],[103.8803776,1.3997207],[103.8803784,1.3997305],[103.8802489,1.3997404],[103.8802482,1.3997306],[103.88027,1.3997289],[103.880268,1.3997019],[103.8802838,1.3997007],[103.8802804,1.3996567],[103.8801951,1.3996632],[103.8801957,1.3996713],[103.8801087,1.399678],[103.8801081,1.3996698],[103.8800225,1.3996763],[103.8800258,1.3997203],[103.8800413,1.3997192],[103.8800433,1.3997462],[103.8800674,1.3997444],[103.8800682,1.3997542],[103.8801297,1.3997495],[103.8801309,1.3997644],[103.8800731,1.3997688],[103.8800741,1.3997814],[103.8800508,1.3997832],[103.8800528,1.3998098],[103.8800384,1.3998109],[103.8800418,1.3998559],[103.8801267,1.3998494],[103.880126,1.3998404],[103.8801819,1.3998362],[103.8801811,1.3998259],[103.8802043,1.3998241],[103.8801998,1.3997656],[103.8802804,1.3997594],[103.8802801,1.3997551],[103.8802909,1.3997543],[103.8802917,1.3997648],[103.880268,1.3997667],[103.88027,1.3997932],[103.8802553,1.3997944],[103.8802587,1.3998394],[103.8803437,1.3998329],[103.8803427,1.3998209],[103.8804087,1.3998158],[103.8804096,1.3998279],[103.8804937,1.3998215],[103.8804903,1.3997764],[103.8804749,1.3997776],[103.8804729,1.399751],[103.8804496,1.3997528],[103.8804488,1.3997422],[103.8805083,1.3997377],[103.8805086,1.399742],[103.880542,1.3997395],[103.8805465,1.399798],[103.8805701,1.3997962],[103.8805711,1.3998084],[103.8806039,1.3998059],[103.8806045,1.399813],[103.8806887,1.3998066],[103.8806853,1.3997616],[103.8806709,1.3997627],[103.8806689,1.3997361],[103.8806448,1.3997379],[103.880644,1.3997274],[103.880737,1.3997203],[103.8807467,1.3998479],[103.8807224,1.3998498],[103.8807261,1.3998971],[103.8807379,1.3999073],[103.8807389,1.3999193],[103.8807521,1.3999183],[103.8807527,1.3999265],[103.880763,1.4000613],[103.8807843,1.4000597],[103.8807892,1.4001252]]]}},{"type":"Feature","id":"way/1442313931-0","properties":{"addr:city":"Singapore","addr:country":"SG","addr:housenumber":"482A","addr:postcode":"791482","addr:street":"Fernvale Drive","building":"residential","building:levels":"26","residential":"HDB"},"geometry":{"type":"Polygon","coordinates":[[[103.8806503,1.3992504],[103.8806067,1.3992743],[103.8806128,1.3992855],[103.8805747,1.3993063],[103.8805808,1.3993174],[103.8805594,1.3993291],[103.8805719,1.3993522],[103.8805601,1.3993587],[103.8805817,1.3993981],[103.8806563,1.3993573],[103.880651,1.3993477],[103.8807277,1.3993058],[103.880733,1.3993154],[103.8808093,1.3992737],[103.8807877,1.3992343],[103.8807733,1.3992422],[103.8807607,1.3992192],[103.8807394,1.3992308],[103.8807333,1.3992197],[103.8806758,1.3992511],[103.8806668,1.3992347],[103.8806649,1.3992095],[103.8807057,1.3992064],[103.8807039,1.3991827],[103.8807706,1.3991776],[103.8807698,1.3991678],[103.8807952,1.3991659],[103.8807931,1.3991388],[103.880807,1.3991378],[103.8808057,1.3991208],[103.8808036,1.3990938],[103.8807183,1.3991003],[103.880719,1.3991085],[103.8806636,1.3991127],[103.8806648,1.3991288],[103.8806412,1.3991306],[103.8806447,1.3991774],[103.8806249,1.3991789],[103.8806256,1.3991887],[103.8805804,1.3991921],[103.8805797,1.3991823],[103.8806046,1.3991804],[103.8806026,1.3991534],[103.8806157,1.3991524],[103.8806123,1.3991084],[103.8805276,1.3991148],[103.8805282,1.399123],[103.8804637,1.3991279],[103.8804631,1.3991198],[103.880378,1.3991262],[103.8803813,1.3991702],[103.8803957,1.3991691],[103.8803978,1.3991962],[103.8804203,1.3991945],[103.880421,1.3992043],[103.8802931,1.399214],[103.8802924,1.3992042],[103.8803143,1.3992026],[103.8803122,1.3991755],[103.880328,1.3991743],[103.8803247,1.3991303],[103.8802393,1.3991368],[103.88024,1.399145],[103.8801529,1.3991516],[103.8801523,1.3991434],[103.8800667,1.39915],[103.8800701,1.399194],[103.8800855,1.3991928],[103.8800876,1.3992198],[103.8801116,1.399218],[103.8801124,1.3992278],[103.8800773,1.3992305],[103.8800791,1.3992541],[103.8800901,1.3992533],[103.8800911,1.3992661],[103.8800926,1.3992855],[103.8800815,1.3992863],[103.8800842,1.3993217],[103.8801193,1.399319],[103.88012,1.3993278],[103.8800959,1.3993297],[103.8800979,1.3993555],[103.8800825,1.3993567],[103.8800858,1.3994005],[103.8801714,1.399394],[103.8801706,1.3993837],[103.8802577,1.3993771],[103.8802584,1.3993873],[103.8803438,1.3993808],[103.8803404,1.399337],[103.8803246,1.3993382],[103.8803226,1.3993124],[103.8803008,1.3993141],[103.8802998,1.399302],[103.8802537,1.3993055],[103.8802527,1.3992925],[103.880205,1.3992961],[103.8802011,1.3992448],[103.8803429,1.399234],[103.8803475,1.3992934],[103.8803997,1.3992894],[103.8803994,1.3992849],[103.8804369,1.3992821],[103.8804372,1.3992865],[103.8804887,1.3992826],[103.8804842,1.3992233],[103.8806473,1.3992108],[103.8806503,1.3992504]]]}},{"type":"Feature","id":"way/1442313932-0","properties":{"addr:city":"Singapore","addr:country":"SG","addr:housenumber":"482B","addr:postcode":"792482","addr:street":"Fernvale Drive","building":"residential","building:levels":"26","residential":"HDB"},"geometry":{"type":"Polygon","coordinates":[[[103.8806227,1.3986897],[103.8806635,1.3986866],[103.8806617,1.398663],[103.8807283,1.3986579],[103.8807276,1.3986481],[103.8807529,1.3986462],[103.8807509,1.3986191],[103.8807647,1.398618],[103.8807631,1.3985966],[103.8807614,1.398574],[103.8806761,1.3985805],[103.8806767,1.3985887],[103.8806213,1.3985929],[103.8806225,1.398609],[103.8805989,1.3986108],[103.8806025,1.3986576],[103.8805826,1.3986591],[103.8805834,1.3986689],[103.8805382,1.3986724],[103.8805374,1.3986626],[103.8805624,1.3986607],[103.8805603,1.3986336],[103.8805735,1.3986326],[103.8805701,1.3985886],[103.8804853,1.3985951],[103.880486,1.3986032],[103.8804215,1.3986082],[103.8804208,1.3986],[103.8803357,1.3986065],[103.8803391,1.3986505],[103.8803535,1.3986494],[103.8803556,1.3986764],[103.880378,1.3986747],[103.8803788,1.3986845],[103.8802509,1.3986943],[103.8802501,1.3986845],[103.880272,1.3986828],[103.8802699,1.3986557],[103.8802858,1.3986545],[103.8802824,1.3986105],[103.8801971,1.398617],[103.8801977,1.3986252],[103.8801107,1.3986318],[103.88011,1.3986237],[103.8800245,1.3986302],[103.8800278,1.3986742],[103.8800433,1.398673],[103.8800453,1.3987001],[103.8800694,1.3986982],[103.8800701,1.398708],[103.880035,1.3987107],[103.8800368,1.3987344],[103.8800479,1.3987335],[103.880049,1.3987483],[103.8800503,1.3987657],[103.8800393,1.3987666],[103.880042,1.398802],[103.8800771,1.3987993],[103.8800778,1.3988081],[103.8800537,1.3988099],[103.8800557,1.3988358],[103.8800402,1.3988369],[103.8800436,1.3988807],[103.8801291,1.3988742],[103.8801284,1.398864],[103.8802154,1.3988573],[103.8802162,1.3988676],[103.8803015,1.3988611],[103.8802982,1.3988173],[103.8802824,1.3988185],[103.8802804,1.3987926],[103.8802585,1.3987943],[103.8802576,1.3987822],[103.8802115,1.3987858],[103.8802105,1.3987727],[103.8801628,1.3987764],[103.8801589,1.3987251],[103.8803007,1.3987143],[103.8803052,1.3987736],[103.8803575,1.3987696],[103.8803566,1.3987586],[103.880373,1.3987574],[103.8803742,1.3987734],[103.8804337,1.3987688],[103.8804288,1.3987045],[103.880605,1.3986911],[103.8806081,1.3987307],[103.8805644,1.3987545],[103.8805706,1.3987658],[103.8805325,1.3987866],[103.8805386,1.3987977],[103.8805171,1.3988094],[103.8805297,1.3988324],[103.8805179,1.3988389],[103.8805394,1.3988783],[103.8806141,1.3988375],[103.8806088,1.3988279],[103.8806855,1.398786],[103.8806908,1.3987956],[103.880767,1.398754],[103.880752,1.3987265],[103.8807455,1.3987145],[103.880731,1.3987224],[103.8807184,1.3986994],[103.8806971,1.398711],[103.8806911,1.3986999],[103.8806335,1.3987314],[103.8806246,1.398715],[103.8806227,1.3986897]]]}},{"type":"Feature","id":"way/32897010-0-0-0","properties":{"highway":"tertiary","maxspeed":"50","name":"Fernvale Street","oneway":"yes","surface":"asphalt"},"geometry":{"type":"LineString","coordinates":[[103.8791631,1.3983217],[103.8790771,1.3983318]]}},{"type":"Feature","id":"way/479325838-0-0-0","properties":{"highway":"tertiary","lanes":"3","maxspeed":"50","name":"Fernvale Street","oneway":"yes","surface":"asphalt","turn:lanes":"through|through|right"},"geometry":{"type":"LineString","coordinates":[[103.8787325,1.3985089],[103.8790237,1.3984817]]}},{"type":"Feature","id":"way/479325838-0-1-0","properties":{"highway":"tertiary","lanes":"3","maxspeed":"50","name":"Fernvale Street","oneway":"yes","surface":"asphalt","turn:lanes":"through|through|right"},"geometry":{"type":"LineString","coordinates":[[103.8790237,1.3984817],[103.8790895,1.3984751]]}},{"type":"Feature","id":"way/479325839-0-0-0","properties":{"highway":"tertiary","lanes":"2","maxspeed":"50","name":"Fernvale Street","oneway":"yes","sidewalk":"left","surface":"asphalt"},"geometry":{"type":"LineString","coordinates":[[103.8791762,1.3984665],[103.8792318,1.3984606]]}},{"type":"Feature","id":"way/479325839-0-1-0","properties":{"highway":"tertiary","lanes":"2","maxspeed":"50","name":"Fernvale Street","oneway":"yes","sidewalk":"left","surface":"asphalt"},"geometry":{"type":"LineString","coordinates":[[103.8792318,1.3984606],[103.879612,1.3984291]]}},{"type":"Feature","id":"way/479325839-0-2-0","properties":{"highway":"tertiary","lanes":"2","maxspeed":"50","name":"Fernvale Street","oneway":"yes","sidewalk":"left","surface":"asphalt"},"geometry":{"type":"LineString","coordinates":[[103.879612,1.3984291],[103.8800889,1.3983909]]}},{"type":"Feature","id":"way/479325839-0-3-0","properties":{"highway":"tertiary","lanes":"2","maxspeed":"50","name":"Fernvale Street","oneway":"yes","sidewalk":"left","surface":"asphalt"},"geometry":{"type":"LineString","coordinates":[[103.8800889,1.3983909],[103.8803482,1.3983601]]}},{"type":"Feature","id":"way/479325839-0-4-0","properties":{"highway":"tertiary","lanes":"2","maxspeed":"50","name":"Fernvale Street","oneway":"yes","sidewalk":"left","surface":"asphalt"},"geometry":{"type":"LineString","coordinates":[[103.8803482,1.3983601],[103.8811926,1.3982599]]}},{"type":"Feature","id":"way/479325839-0-4-1","properties":{"highway":"tertiary","lanes":"2","maxspeed":"50","name":"Fernvale Street","oneway":"yes","sidewalk":"left","surface":"asphalt"},"geometry":{"type":"LineString","coordinates":[[103.8811926,1.3982599],[103.882037,1.3981598]]}},{"type":"Feature","id":"way/479325839-0-5-0","properties":{"highway":"tertiary","lanes":"2","maxspeed":"50","name":"Fernvale Street","oneway":"yes","sidewalk":"left","surface":"asphalt"},"geometry":{"type":"LineString","coordinates":[[103.882037,1.3981598],[103.8822828,1.3981256]]}},{"type":"Feature","id":"way/479325839-0-6-0","properties":{"highway":"tertiary","lanes":"2","maxspeed":"50","name":"Fernvale Street","oneway":"yes","sidewalk":"left","surface":"asphalt"},"geometry":{"type":"LineString","coordinates":[[103.8822828,1.3981256],[103.882353,1.3981191]]}},{"type":"Feature","id":"way/479325839-0-7-0","properties":{"highway":"tertiary","lanes":"2","maxspeed":"50","name":"Fernvale Street","oneway":"yes","sidewalk":"left","surface":"asphalt"},"geometry":{"type":"LineString","coordinates":[[103.882353,1.3981191],[103.8825017,1.3981054]]}},{"type":"Feature","id":"way/507688114-0-0-0","properties":{"highway":"service","lanes":"2","lanes:backward":"1","lanes:forward":"1","service":"parking_aisle","turn:lanes:backward":"left","turn:lanes:forward":"through"},"geometry":{"type":"LineString","coordinates":[[103.878858,1.3972736],[103.8788895,1.3975784]]}},{"type":"Feature","id":"way/507688114-0-1-0","properties":{"highway":"service","lanes":"2","lanes:backward":"1","lanes:forward":"1","service":"parking_aisle","turn:lanes:backward":"left","turn:lanes:forward":"through"},"geometry":{"type":"LineString","coordinates":[[103.8788895,1.3975784],[103.8788972,1.3978294]]}},{"type":"Feature","id":"way/507688114-0-2-0","properties":{"highway":"service","lanes":"2","lanes:backward":"1","lanes:forward":"1","service":"parking_aisle","turn:lanes:backward":"left","turn:lanes:forward":"through"},"geometry":{"type":"LineString","coordinates":[[103.8788972,1.3978294],[103.8789036,1.3980338]]}},{"type":"Feature","id":"way/507688114-0-3-0","properties":{"highway":"service","lanes":"2","lanes:backward":"1","lanes:forward":"1","service":"parking_aisle","turn:lanes:backward":"left","turn:lanes:forward":"through"},"geometry":{"type":"LineString","coordinates":[[103.8789036,1.3980338],[103.8788933,1.3981245]]}},{"type":"Feature","id":"way/507688114-0-4-0","properties":{"highway":"service","lanes":"2","lanes:backward":"1","lanes:forward":"1","service":"parking_aisle","turn:lanes:backward":"left","turn:lanes:forward":"through"},"geometry":{"type":"LineString","coordinates":[[103.8788933,1.3981245],[103.8788394,1.3981833]]}},{"type":"Feature","id":"way/507688115-0-0-0","properties":{"highway":"service","lanes":"2","lanes:backward":"1","lanes:forward":"1","service":"parking_aisle","turn:lanes:backward":"left","turn:lanes:forward":"through"},"geometry":{"type":"LineString","coordinates":[[103.8789852,1.3972701],[103.8789088,1.3972775]]}},{"type":"Feature","id":"way/507688115-0-1-0","properties":{"highway":"service","lanes":"2","lanes:backward":"1","lanes:forward":"1","service":"parking_aisle","turn:lanes:backward":"left","turn:lanes:forward":"through"},"geometry":{"type":"LineString","coordinates":[[103.8789088,1.3972775],[103.878858,1.3972736]]}},{"type":"Feature","id":"way/507688156-0-0-0","properties":{"highway":"service","service":"driveway"},"geometry":{"type":"LineString","coordinates":[[103.8796854,1.3967907],[103.8796888,1.396707]]}},{"type":"Feature","id":"way/507688159-0-0-0","properties":{"highway":"service","service":"driveway"},"geometry":{"type":"LineString","coordinates":[[103.8814911,1.3964692],[103.8815585,1.3964638]]}},{"type":"Feature","id":"way/507688160-0-0-0","properties":{"highway":"service","service":"driveway"},"geometry":{"type":"LineString","coordinates":[[103.8809869,1.3979869],[103.8815198,1.3979363]]}},{"type":"Feature","id":"way/507688161-0-4-0","properties":{"highway":"service","lanes":"2","lanes:backward":"1","lanes:forward":"1","service":"driveway","turn:lanes:backward":"through","turn:lanes:forward":"through"},"geometry":{"type":"LineString","coordinates":[[103.8814664,1.3962636],[103.8814796,1.3963734]]}},{"type":"Feature","id":"way/507688161-0-5-0","properties":{"highway":"service","lanes":"2","lanes:backward":"1","lanes:forward":"1","service":"driveway","turn:lanes:backward":"through","turn:lanes:forward":"through"},"geometry":{"type":"LineString","coordinates":[[103.8814796,1.3963734],[103.8814911,1.3964692]]}},{"type":"Feature","id":"way/507913548-0-0-0","properties":{"highway":"tertiary_link","lanes":"1","maxspeed":"50","oneway":"yes","surface":"asphalt"},"geometry":{"type":"LineString","coordinates":[[103.8794957,1.3982935],[103.8793734,1.3982618]]}},{"type":"Feature","id":"way/507913548-0-1-0","properties":{"highway":"tertiary_link","lanes":"1","maxspeed":"50","oneway":"yes","surface":"asphalt"},"geometry":{"type":"LineString","coordinates":[[103.8793734,1.3982618],[103.8793088,1.3982415]]}},{"type":"Feature","id":"way/507913548-0-2-0","properties":{"highway":"tertiary_link","lanes":"1","maxspeed":"50","oneway":"yes","surface":"asphalt"},"geometry":{"type":"LineString","coordinates":[[103.8793088,1.3982415],[103.8792569,1.398208]]}},{"type":"Feature","id":"way/507913548-0-3-0","properties":{"highway":"tertiary_link","lanes":"1","maxspeed":"50","oneway":"yes","surface":"asphalt"},"geometry":{"type":"LineString","coordinates":[[103.8792569,1.398208],[103.8792062,1.3981658]]}},{"type":"Feature","id":"way/507913548-0-4-0","properties":{"highway":"tertiary_link","lanes":"1","maxspeed":"50","oneway":"yes","surface":"asphalt"},"geometry":{"type":"LineString","coordinates":[[103.8792062,1.3981658],[103.879137,1.3980345]]}},{"type":"Feature","id":"way/507913549-0-0-0","properties":{"highway":"tertiary_link","lanes":"1","maxspeed":"50","oneway":"yes","surface":"asphalt"},"geometry":{"type":"LineString","coordinates":[[103.8790468,1.3980335],[103.8789563,1.3982386]]}},{"type":"Feature","id":"way/507913549-0-1-0","properties":{"highway":"tertiary_link","lanes":"1","maxspeed":"50","oneway":"yes","surface":"asphalt"},"geometry":{"type":"LineString","coordinates":[[103.8789563,1.3982386],[103.8789101,1.3982853]]}},{"type":"Feature","id":"way/507913549-0-2-0","properties":{"highway":"tertiary_link","lanes":"1","maxspeed":"50","oneway":"yes","surface":"asphalt"},"geometry":{"type":"LineString","coordinates":[[103.8789101,1.3982853],[103.8788118,1.398358]]}},{"type":"Feature","id":"way/512918126-0-0-0","properties":{"highway":"residential","lanes":"2","maxspeed":"40","name":"Fernvale Link","oneway":"yes","surface":"asphalt","turn:lanes":"right|right"},"geometry":{"type":"LineString","coordinates":[[103.8790468,1.3980335],[103.8790722,1.3982755]]}},{"type":"Feature","id":"way/512918126-0-1-0","properties":{"highway":"residential","lanes":"2","maxspeed":"40","name":"Fernvale Link","oneway":"yes","surface":"asphalt","turn:lanes":"right|right"},"geometry":{"type":"LineString","coordinates":[[103.8790722,1.3982755],[103.8790771,1.3983318]]}},{"type":"Feature","id":"way/512918130-0-0-0","properties":{"highway":"residential","lanes":"2","maxspeed":"40","name":"Fernvale Link","oneway":"yes","surface":"asphalt","turn:lanes":"left;through|through"},"geometry":{"type":"LineString","coordinates":[[103.879137,1.3980345],[103.879086,1.3976579]]}},{"type":"Feature","id":"way/512918130-0-1-0","properties":{"highway":"residential","lanes":"2","maxspeed":"40","name":"Fernvale Link","oneway":"yes","surface":"asphalt","turn:lanes":"left;through|through"},"geometry":{"type":"LineString","coordinates":[[103.879086,1.3976579],[103.8790575,1.3973465]]}},{"type":"Feature","id":"way/512918133-0-0-0","properties":{"highway":"residential","maxspeed":"40","name":"Fernvale Link","oneway":"yes","surface":"asphalt"},"geometry":{"type":"LineString","coordinates":[[103.8791762,1.3984665],[103.8791631,1.3983217]]}},{"type":"Feature","id":"way/512918134-0-0-0","properties":{"highway":"tertiary","lanes":"2","maxspeed":"50","name":"Fernvale Street","oneway":"yes","surface":"asphalt"},"geometry":{"type":"LineString","coordinates":[[103.8788118,1.398358],[103.877811,1.3984621]]}},{"type":"Feature","id":"way/512918135-0-0-0","properties":{"highway":"tertiary","lanes":"2","maxspeed":"50","name":"Fernvale Street","oneway":"yes","sidewalk":"left","surface":"asphalt","turn:lanes":"left;through|through"},"geometry":{"type":"LineString","coordinates":[[103.882338,1.398015],[103.8822665,1.3980252]]}},{"type":"Feature","id":"way/512918135-0-1-0","properties":{"highway":"tertiary","lanes":"2","maxspeed":"50","name":"Fernvale Street","oneway":"yes","sidewalk":"left","surface":"asphalt","turn:lanes":"left;through|through"},"geometry":{"type":"LineString","coordinates":[[103.8822665,1.3980252],[103.8820125,1.3980609]]}},{"type":"Feature","id":"way/512918135-0-2-0","properties":{"highway":"tertiary","lanes":"2","maxspeed":"50","name":"Fernvale Street","oneway":"yes","sidewalk":"left","surface":"asphalt","turn:lanes":"left;through|through"},"geometry":{"type":"LineString","coordinates":[[103.8820125,1.3980609],[103.8815382,1.398113]]}},{"type":"Feature","id":"way/512918136-0-0-0","properties":{"highway":"tertiary","maxspeed":"50","name":"Fernvale Street","oneway":"yes","surface":"asphalt"},"geometry":{"type":"LineString","coordinates":[[103.8790895,1.3984751],[103.8791762,1.3984665]]}},{"type":"Feature","id":"way/533670240-0-0-0","properties":{"highway":"service","service":"parking_aisle"},"geometry":{"type":"LineString","coordinates":[[103.8788394,1.3981833],[103.8787434,1.3982548]]}},{"type":"Feature","id":"way/533670240-0-1-0","properties":{"highway":"service","service":"parking_aisle"},"geometry":{"type":"LineString","coordinates":[[103.8787434,1.3982548],[103.8786176,1.3982643]]}},{"type":"Feature","id":"way/533670240-0-2-0","properties":{"highway":"service","service":"parking_aisle"},"geometry":{"type":"LineString","coordinates":[[103.8786176,1.3982643],[103.8784556,1.3982744]]}},{"type":"Feature","id":"way/536039223-0-0-0","properties":{"highway":"tertiary","lanes":"2","maxspeed":"50","name":"Fernvale Street","oneway":"yes","surface":"asphalt"},"geometry":{"type":"LineString","coordinates":[[103.8790771,1.3983318],[103.8790105,1.3983374]]}},{"type":"Feature","id":"way/536039223-0-1-0","properties":{"highway":"tertiary","lanes":"2","maxspeed":"50","name":"Fernvale Street","oneway":"yes","surface":"asphalt"},"geometry":{"type":"LineString","coordinates":[[103.8790105,1.3983374],[103.8788118,1.398358]]}},{"type":"Feature","id":"way/536039224-0-0-0","properties":{"highway":"tertiary","lanes":"2","maxspeed":"50","name":"Fernvale Street","oneway":"yes","surface":"asphalt","turn:lanes":"through|through"},"geometry":{"type":"LineString","coordinates":[[103.8794957,1.3982935],[103.8792195,1.3983148]]}},{"type":"Feature","id":"way/536039224-0-1-0","properties":{"highway":"tertiary","lanes":"2","maxspeed":"50","name":"Fernvale Street","oneway":"yes","surface":"asphalt","turn:lanes":"through|through"},"geometry":{"type":"LineString","coordinates":[[103.8792195,1.3983148],[103.8791631,1.3983217]]}},{"type":"Feature","id":"way/536039225-0-0-0","properties":{"highway":"residential","lanes":"2","maxspeed":"40","name":"Fernvale Link","oneway":"yes","surface":"asphalt"},"geometry":{"type":"LineString","coordinates":[[103.8791631,1.3983217],[103.8791582,1.3982676]]}},{"type":"Feature","id":"way/536039225-0-1-0","properties":{"highway":"residential","lanes":"2","maxspeed":"40","name":"Fernvale Link","oneway":"yes","surface":"asphalt"},"geometry":{"type":"LineString","coordinates":[[103.8791582,1.3982676],[103.879137,1.3980345]]}},{"type":"Feature","id":"way/536039226-0-0-0","properties":{"highway":"residential","lit":"yes","maxspeed":"40","name":"Fernvale Link","oneway":"yes","surface":"asphalt"},"geometry":{"type":"LineString","coordinates":[[103.8790771,1.3983318],[103.8790895,1.3984751]]}},{"type":"Feature","id":"way/546170918-0-2-0","properties":{"highway":"tertiary","lanes":"2","maxspeed":"50","name":"Fernvale Street","oneway":"yes","sidewalk":"no","surface":"asphalt"},"geometry":{"type":"LineString","coordinates":[[103.8824911,1.3979943],[103.882338,1.398015]]}},{"type":"Feature","id":"way/546436580-0-0-0","properties":{"highway":"service","lanes":"2","lanes:backward":"1","lanes:forward":"1","service":"driveway","turn:lanes:backward":"through","turn:lanes:forward":"through"},"geometry":{"type":"LineString","coordinates":[[103.8814988,1.3977979],[103.8815198,1.3979363]]}},{"type":"Feature","id":"way/546436581-0-0-0","properties":{"highway":"service","service":"driveway","tunnel":"building_passage"},"geometry":{"type":"LineString","coordinates":[[103.8814965,1.3977462],[103.8814988,1.3977979]]}},{"type":"Feature","id":"way/546736353-0-0-0","properties":{"highway":"residential","lanes":"2","maxspeed":"40","name":"Fernvale Link","oneway":"yes","surface":"asphalt","turn:lanes":"right|right"},"geometry":{"type":"LineString","coordinates":[[103.8789852,1.3972701],[103.8790253,1.3978578]]}},{"type":"Feature","id":"way/546736354-0-0-0","properties":{"highway":"residential","lanes":"4","maxspeed":"40","name":"Fernvale Link","oneway":"yes","surface":"asphalt","turn:lanes":"left|through|through|right"},"geometry":{"type":"LineString","coordinates":[[103.8789914,1.3965753],[103.8789929,1.3963313]]}},{"type":"Feature","id":"way/546736355-0-3-0","properties":{"highway":"service","lanes":"2","lanes:backward":"1","lanes:forward":"1","service":"driveway"},"geometry":{"type":"LineString","coordinates":[[103.8807535,1.3962922],[103.8803297,1.3963324]]}},{"type":"Feature","id":"way/546736355-0-4-0","properties":{"highway":"service","lanes":"2","lanes:backward":"1","lanes:forward":"1","service":"driveway"},"geometry":{"type":"LineString","coordinates":[[103.8803297,1.3963324],[103.8801527,1.3963995]]}},{"type":"Feature","id":"way/546736355-0-5-0","properties":{"highway":"service","lanes":"2","lanes:backward":"1","lanes:forward":"1","service":"driveway"},"geometry":{"type":"LineString","coordinates":[[103.8801527,1.3963995],[103.8800588,1.3964692]]}},{"type":"Feature","id":"way/546736355-0-6-0","properties":{"highway":"service","lanes":"2","lanes:backward":"1","lanes:forward":"1","service":"driveway"},"geometry":{"type":"LineString","coordinates":[[103.8800588,1.3964692],[103.8799784,1.3966086]]}},{"type":"Feature","id":"way/546736355-0-7-0","properties":{"highway":"service","lanes":"2","lanes:backward":"1","lanes:forward":"1","service":"driveway"},"geometry":{"type":"LineString","coordinates":[[103.8799784,1.3966086],[103.8799234,1.3966703]]}},{"type":"Feature","id":"way/546736355-0-8-0","properties":{"highway":"service","lanes":"2","lanes:backward":"1","lanes:forward":"1","service":"driveway"},"geometry":{"type":"LineString","coordinates":[[103.8799234,1.3966703],[103.8798993,1.3966864]]}},{"type":"Feature","id":"way/546736355-0-9-0","properties":{"highway":"service","lanes":"2","lanes:backward":"1","lanes:forward":"1","service":"driveway"},"geometry":{"type":"LineString","coordinates":[[103.8798993,1.3966864],[103.8798778,1.3966944]]}},{"type":"Feature","id":"way/546736355-0-10-0","properties":{"highway":"service","lanes":"2","lanes:backward":"1","lanes:forward":"1","service":"driveway"},"geometry":{"type":"LineString","coordinates":[[103.8798778,1.3966944],[103.8796888,1.396707]]}},{"type":"Feature","id":"way/627330447-0-0-0","properties":{"highway":"service","lanes":"2","lanes:backward":"1","lanes:forward":"1","service":"parking_aisle","turn:lanes:backward":"through","turn:lanes:forward":"through"},"geometry":{"type":"LineString","coordinates":[[103.8779958,1.3966816],[103.8779784,1.3964751]]}},{"type":"Feature","id":"way/627330447-0-1-0","properties":{"highway":"service","lanes":"2","lanes:backward":"1","lanes:forward":"1","service":"parking_aisle","turn:lanes:backward":"through","turn:lanes:forward":"through"},"geometry":{"type":"LineString","coordinates":[[103.8779784,1.3964751],[103.8779719,1.3963941]]}},{"type":"Feature","id":"way/627330447-0-2-0","properties":{"highway":"service","lanes":"2","lanes:backward":"1","lanes:forward":"1","service":"parking_aisle","turn:lanes:backward":"through","turn:lanes:forward":"through"},"geometry":{"type":"LineString","coordinates":[[103.8779719,1.3963941],[103.8779651,1.3963273]]}},{"type":"Feature","id":"way/627330448-0-0-0","properties":{"highway":"service","lanes":"2","lanes:backward":"1","lanes:forward":"1","service":"parking_aisle","turn:lanes:backward":"through","turn:lanes:forward":"left;through"},"geometry":{"type":"LineString","coordinates":[[103.8782041,1.3973373],[103.8781793,1.3973284]]}},{"type":"Feature","id":"way/627330448-0-1-0","properties":{"highway":"service","lanes":"2","lanes:backward":"1","lanes:forward":"1","service":"parking_aisle","turn:lanes:backward":"through","turn:lanes:forward":"left;through"},"geometry":{"type":"LineString","coordinates":[[103.8781793,1.3973284],[103.878167,1.3973133]]}},{"type":"Feature","id":"way/627330448-0-2-0","properties":{"highway":"service","lanes":"2","lanes:backward":"1","lanes:forward":"1","service":"parking_aisle","turn:lanes:backward":"through","turn:lanes:forward":"left;through"},"geometry":{"type":"LineString","coordinates":[[103.878167,1.3973133],[103.87816,1.3971708]]}},{"type":"Feature","id":"way/627330448-0-3-0","properties":{"highway":"service","lanes":"2","lanes:backward":"1","lanes:forward":"1","service":"parking_aisle","turn:lanes:backward":"through","turn:lanes:forward":"left;through"},"geometry":{"type":"LineString","coordinates":[[103.87816,1.3971708],[103.878145,1.3971113]]}},{"type":"Feature","id":"way/627330448-0-4-0","properties":{"highway":"service","lanes":"2","lanes:backward":"1","lanes:forward":"1","service":"parking_aisle","turn:lanes:backward":"through","turn:lanes:forward":"left;through"},"geometry":{"type":"LineString","coordinates":[[103.878145,1.3971113],[103.8781317,1.3970939]]}},{"type":"Feature","id":"way/627330448-0-5-0","properties":{"highway":"service","lanes":"2","lanes:backward":"1","lanes:forward":"1","service":"parking_aisle","turn:lanes:backward":"through","turn:lanes:forward":"left;through"},"geometry":{"type":"LineString","coordinates":[[103.8781317,1.3970939],[103.8780713,1.3970336]]}},{"type":"Feature","id":"way/627330448-0-6-0","properties":{"highway":"service","lanes":"2","lanes:backward":"1","lanes:forward":"1","service":"parking_aisle","turn:lanes:backward":"through","turn:lanes:forward":"left;through"},"geometry":{"type":"LineString","coordinates":[[103.8780713,1.3970336],[103.8780586,1.3970168]]}},{"type":"Feature","id":"way/627330448-0-7-0","properties":{"highway":"service","lanes":"2","lanes:backward":"1","lanes:forward":"1","service":"parking_aisle","turn:lanes:backward":"through","turn:lanes:forward":"left;through"},"geometry":{"type":"LineString","coordinates":[[103.8780586,1.3970168],[103.8780504,1.3969979]]}},{"type":"Feature","id":"way/627330448-0-8-0","properties":{"highway":"service","lanes":"2","lanes:backward":"1","lanes:forward":"1","service":"parking_aisle","turn:lanes:backward":"through","turn:lanes:forward":"left;through"},"geometry":{"type":"LineString","coordinates":[[103.8780504,1.3969979],[103.8780054,1.3967373]]}},{"type":"Feature","id":"way/627330448-0-9-0","properties":{"highway":"service","lanes":"2","lanes:backward":"1","lanes:forward":"1","service":"parking_aisle","turn:lanes:backward":"through","turn:lanes:forward":"left;through"},"geometry":{"type":"LineString","coordinates":[[103.8780054,1.3967373],[103.8779958,1.3966816]]}},{"type":"Feature","id":"way/627330449-0-0-0","properties":{"highway":"service","lanes":"2","lanes:backward":"1","lanes:forward":"1","service":"parking_aisle","turn:lanes:backward":"left;through","turn:lanes:forward":"through"},"geometry":{"type":"LineString","coordinates":[[103.878858,1.3972736],[103.8785838,1.3972951]]}},{"type":"Feature","id":"way/627330450-0-0-0","properties":{"highway":"service","lanes":"2","lanes:backward":"1","lanes:forward":"1","service":"parking_aisle","turn:lanes:backward":"through","turn:lanes:forward":"left;through;right"},"geometry":{"type":"LineString","coordinates":[[103.8785838,1.3972951],[103.8782041,1.3973373]]}},{"type":"Feature","id":"way/627663852-0-0-0","properties":{"highway":"residential","lanes":"2","maxspeed":"40","name":"Fernvale Link","oneway":"yes","surface":"asphalt","turn:lanes":"through|through"},"geometry":{"type":"LineString","coordinates":[[103.8790069,1.3967562],[103.8789914,1.3965753]]}},{"type":"Feature","id":"way/627936279-0-0-0","properties":{"highway":"service","lanes":"2","lanes:backward":"1","lanes:forward":"1","service":"driveway"},"geometry":{"type":"LineString","coordinates":[[103.8814911,1.3964692],[103.8815729,1.3976168]]}},{"type":"Feature","id":"way/627936279-0-1-0","properties":{"highway":"service","lanes":"2","lanes:backward":"1","lanes:forward":"1","service":"driveway"},"geometry":{"type":"LineString","coordinates":[[103.8815729,1.3976168],[103.8815126,1.3976852]]}},{"type":"Feature","id":"way/627936279-0-2-0","properties":{"highway":"service","lanes":"2","lanes:backward":"1","lanes:forward":"1","service":"driveway"},"geometry":{"type":"LineString","coordinates":[[103.8815126,1.3976852],[103.8814965,1.3977462]]}},{"type":"Feature","id":"way/627954974-0-1-0","properties":{"highway":"tertiary","lanes":"2","maxspeed":"50","name":"Fernvale Street","oneway":"yes","surface":"asphalt"},"geometry":{"type":"LineString","coordinates":[[103.8774675,1.3986208],[103.8787325,1.3985089]]}},{"type":"Feature","id":"way/627970192-0-0-0","properties":{"access":"destination","highway":"service","lanes":"1","oneway":"yes","service":"driveway","turn:lanes":"left"},"geometry":{"type":"LineString","coordinates":[[103.8799343,1.3980908],[103.8799404,1.3981677]]}},{"type":"Feature","id":"way/627970192-0-1-0","properties":{"access":"destination","highway":"service","lanes":"1","oneway":"yes","service":"driveway","turn:lanes":"left"},"geometry":{"type":"LineString","coordinates":[[103.8799404,1.3981677],[103.8799395,1.3982641]]}},{"type":"Feature","id":"way/627970193-0-0-0","properties":{"access":"destination","highway":"service","lanes":"2","lanes:backward":"1","lanes:forward":"1","service":"driveway","turn:lanes:backward":"through;right","turn:lanes:forward":"through"},"geometry":{"type":"LineString","coordinates":[[103.8792301,1.3973306],[103.8798136,1.3972747]]}},{"type":"Feature","id":"way/627970194-0-0-0","properties":{"access":"destination","highway":"service","lanes":"2","lanes:backward":"1","lanes:forward":"1","service":"driveway"},"geometry":{"type":"LineString","coordinates":[[103.8802534,1.3980142],[103.8802251,1.3980511]]}},{"type":"Feature","id":"way/627970194-0-1-0","properties":{"access":"destination","highway":"service","lanes":"2","lanes:backward":"1","lanes:forward":"1","service":"driveway"},"geometry":{"type":"LineString","coordinates":[[103.8802251,1.3980511],[103.8801835,1.3980675]]}},{"type":"Feature","id":"way/627970194-0-2-0","properties":{"access":"destination","highway":"service","lanes":"2","lanes:backward":"1","lanes:forward":"1","service":"driveway"},"geometry":{"type":"LineString","coordinates":[[103.8801835,1.3980675],[103.8799343,1.3980908]]}},{"type":"Feature","id":"way/627970194-0-3-0","properties":{"access":"destination","highway":"service","lanes":"2","lanes:backward":"1","lanes:forward":"1","service":"driveway"},"geometry":{"type":"LineString","coordinates":[[103.8799343,1.3980908],[103.8798231,1.3981003]]}},{"type":"Feature","id":"way/627970194-0-4-0","properties":{"access":"destination","highway":"service","lanes":"2","lanes:backward":"1","lanes:forward":"1","service":"driveway"},"geometry":{"type":"LineString","coordinates":[[103.8798231,1.3981003],[103.87971,1.3980868]]}},{"type":"Feature","id":"way/627970194-0-5-0","properties":{"access":"destination","highway":"service","lanes":"2","lanes:backward":"1","lanes:forward":"1","service":"driveway"},"geometry":{"type":"LineString","coordinates":[[103.87971,1.3980868],[103.8794253,1.3981146]]}},{"type":"Feature","id":"way/627970194-0-6-0","properties":{"access":"destination","highway":"service","lanes":"2","lanes:backward":"1","lanes:forward":"1","service":"driveway"},"geometry":{"type":"LineString","coordinates":[[103.8794253,1.3981146],[103.8793625,1.3981071]]}},{"type":"Feature","id":"way/627970194-0-7-0","properties":{"access":"destination","highway":"service","lanes":"2","lanes:backward":"1","lanes:forward":"1","service":"driveway"},"geometry":{"type":"LineString","coordinates":[[103.8793625,1.3981071],[103.8793208,1.398075]]}},{"type":"Feature","id":"way/627970196-0-0-0","properties":{"highway":"tertiary","lanes":"3","maxspeed":"50","name":"Fernvale Street","oneway":"yes","surface":"asphalt","turn:lanes":"left|through|through"},"geometry":{"type":"LineString","coordinates":[[103.8797821,1.3982664],[103.8794957,1.3982935]]}},{"type":"Feature","id":"way/627970197-0-0-0","properties":{"highway":"tertiary","lanes":"2","maxspeed":"50","name":"Fernvale Street","oneway":"yes","surface":"asphalt","turn:lanes":"through|through"},"geometry":{"type":"LineString","coordinates":[[103.880104,1.3982566],[103.8799395,1.3982641]]}},{"type":"Feature","id":"way/627970197-0-1-0","properties":{"highway":"tertiary","lanes":"2","maxspeed":"50","name":"Fernvale Street","oneway":"yes","surface":"asphalt","turn:lanes":"through|through"},"geometry":{"type":"LineString","coordinates":[[103.8799395,1.3982641],[103.8797821,1.3982664]]}},{"type":"Feature","id":"way/627977101-0-0-0","properties":{"access":"destination","highway":"service","lanes":"2","lanes:backward":"1","lanes:forward":"1","service":"driveway","turn:lanes:backward":"left;through","turn:lanes:forward":"left"},"geometry":{"type":"LineString","coordinates":[[103.8792301,1.3973306],[103.879137,1.3973392]]}},{"type":"Feature","id":"way/627977101-0-1-0","properties":{"access":"destination","highway":"service","lanes":"2","lanes:backward":"1","lanes:forward":"1","service":"driveway","turn:lanes:backward":"left;through","turn:lanes:forward":"left"},"geometry":{"type":"LineString","coordinates":[[103.879137,1.3973392],[103.8790575,1.3973465]]}},{"type":"Feature","id":"way/627979976-0-0-0","properties":{"highway":"service","lanes":"2","lanes:backward":"1","lanes:forward":"1","service":"driveway","turn:lanes:backward":"through","turn:lanes:forward":"left"},"geometry":{"type":"LineString","coordinates":[[103.8815198,1.3979363],[103.8815303,1.3980369]]}},{"type":"Feature","id":"way/627979976-0-1-0","properties":{"highway":"service","lanes":"2","lanes:backward":"1","lanes:forward":"1","service":"driveway","turn:lanes:backward":"through","turn:lanes:forward":"left"},"geometry":{"type":"LineString","coordinates":[[103.8815303,1.3980369],[103.8815382,1.398113]]}},{"type":"Feature","id":"way/627979977-0-0-0","properties":{"highway":"tertiary","lanes":"2","maxspeed":"50","name":"Fernvale Street","oneway":"yes","surface":"asphalt"},"geometry":{"type":"LineString","coordinates":[[103.8815382,1.398113],[103.880104,1.3982566]]}},{"type":"Feature","id":"way/627998874-0-0-0","properties":{"highway":"residential","lanes":"2","maxspeed":"40","name":"Fernvale Link","oneway":"yes","surface":"asphalt","turn:lanes":"left;through|through"},"geometry":{"type":"LineString","coordinates":[[103.8789416,1.3967633],[103.8789639,1.3970393]]}},{"type":"Feature","id":"way/627998874-0-1-0","properties":{"highway":"residential","lanes":"2","maxspeed":"40","name":"Fernvale Link","oneway":"yes","surface":"asphalt","turn:lanes":"left;through|through"},"geometry":{"type":"LineString","coordinates":[[103.8789639,1.3970393],[103.8789852,1.3972701]]}},{"type":"Feature","id":"way/627998878-0-0-0","properties":{"highway":"residential","lanes":"3","maxspeed":"40","name":"Fernvale Link","oneway":"yes","surface":"asphalt","turn:lanes":"left|right|right"},"geometry":{"type":"LineString","coordinates":[[103.8790253,1.3978578],[103.8790468,1.3980335]]}},{"type":"Feature","id":"way/627998881-0-0-0","properties":{"highway":"residential","lanes":"2","maxspeed":"40","name":"Fernvale Link","oneway":"yes","surface":"asphalt","turn:lanes":"through|through"},"geometry":{"type":"LineString","coordinates":[[103.8790575,1.3973465],[103.8790313,1.3970321]]}},{"type":"Feature","id":"way/628001798-0-0-0","properties":{"highway":"service","lanes":"2","lanes:backward":"1","lanes:forward":"1","service":"driveway","turn:lanes:backward":"left;through"},"geometry":{"type":"LineString","coordinates":[[103.8796888,1.396707],[103.8793508,1.3967293]]}},{"type":"Feature","id":"way/628001798-0-1-0","properties":{"highway":"service","lanes":"2","lanes:backward":"1","lanes:forward":"1","service":"driveway","turn:lanes:backward":"left;through"},"geometry":{"type":"LineString","coordinates":[[103.8793508,1.3967293],[103.8792501,1.396736]]}},{"type":"Feature","id":"way/628001799-0-0-0","properties":{"highway":"service","lanes":"2","lanes:backward":"1","lanes:forward":"1","service":"driveway","turn:lanes:backward":"through","turn:lanes:forward":"left"},"geometry":{"type":"LineString","coordinates":[[103.8792501,1.396736],[103.8790807,1.3967507]]}},{"type":"Feature","id":"way/628001799-0-1-0","properties":{"highway":"service","lanes":"2","lanes:backward":"1","lanes:forward":"1","service":"driveway","turn:lanes:backward":"through","turn:lanes:forward":"left"},"geometry":{"type":"LineString","coordinates":[[103.8790807,1.3967507],[103.8790069,1.3967562]]}},{"type":"Feature","id":"way/628001800-0-0-0","properties":{"highway":"residential","lanes":"2","maxspeed":"40","name":"Fernvale Link","oneway":"yes","surface":"asphalt","turn:lanes":"left;through|through"},"geometry":{"type":"LineString","coordinates":[[103.8790313,1.3970321],[103.8790069,1.3967562]]}},{"type":"Feature","id":"way/628001801-0-1-0","properties":{"highway":"residential","lanes":"2","maxspeed":"40","name":"Fernvale Link","oneway":"yes","surface":"asphalt","turn:lanes":"through|through"},"geometry":{"type":"LineString","coordinates":[[103.878916,1.3962316],[103.8789113,1.3964587]]}},{"type":"Feature","id":"way/628001801-0-2-0","properties":{"highway":"residential","lanes":"2","maxspeed":"40","name":"Fernvale Link","oneway":"yes","surface":"asphalt","turn:lanes":"through|through"},"geometry":{"type":"LineString","coordinates":[[103.8789113,1.3964587],[103.8789416,1.3967633]]}},{"type":"Feature","id":"way/649550323-0-0-0","properties":{"highway":"service","lanes":"2","lanes:backward":"1","lanes:forward":"1","service":"parking_aisle","turn:lanes:backward":"through;right","turn:lanes:forward":"through"},"geometry":{"type":"LineString","coordinates":[[103.8779651,1.3963273],[103.8779651,1.396301]]}},{"type":"Feature","id":"way/649550323-0-1-0","properties":{"highway":"service","lanes":"2","lanes:backward":"1","lanes:forward":"1","service":"parking_aisle","turn:lanes:backward":"through;right","turn:lanes:forward":"through"},"geometry":{"type":"LineString","coordinates":[[103.8779651,1.396301],[103.8779813,1.3962774]]}},{"type":"Feature","id":"way/842906552-0-0-0","properties":{"access":"destination","highway":"service","lanes":"2","lanes:backward":"1","lanes:forward":"1","service":"driveway","turn:lanes:backward":"right","turn:lanes:forward":"through"},"geometry":{"type":"LineString","coordinates":[[103.8793208,1.398075],[103.879292,1.3980159]]}},{"type":"Feature","id":"way/842906552-0-1-0","properties":{"access":"destination","highway":"service","lanes":"2","lanes:backward":"1","lanes:forward":"1","service":"driveway","turn:lanes:backward":"right","turn:lanes:forward":"through"},"geometry":{"type":"LineString","coordinates":[[103.879292,1.3980159],[103.8792725,1.3977736]]}},{"type":"Feature","id":"way/842906553-0-0-0","properties":{"access":"destination","highway":"service","lanes":"2","lanes:backward":"1","lanes:forward":"1","service":"driveway","turn:lanes:backward":"through","turn:lanes:forward":"through"},"geometry":{"type":"LineString","coordinates":[[103.8792725,1.3977736],[103.8792462,1.3974875]]}},{"type":"Feature","id":"way/842906554-0-0-0","properties":{"access":"destination","highway":"service","lanes":"2","lanes:backward":"1","lanes:forward":"1","service":"driveway","turn:lanes:backward":"through","turn:lanes:forward":"left;right"},"geometry":{"type":"LineString","coordinates":[[103.8792462,1.3974875],[103.8792301,1.3973306]]}},{"type":"Feature","id":"way/883718298-0-0-0","properties":{"highway":"service","oneway":"yes","service":"driveway"},"geometry":{"type":"LineString","coordinates":[[103.87816,1.3971708],[103.8781033,1.3971836]]}},{"type":"Feature","id":"way/883718298-0-1-0","properties":{"highway":"service","oneway":"yes","service":"driveway"},"geometry":{"type":"LineString","coordinates":[[103.8781033,1.3971836],[103.8780721,1.3972075]]}},{"type":"Feature","id":"way/883718298-0-2-0","properties":{"highway":"service","oneway":"yes","service":"driveway"},"geometry":{"type":"LineString","coordinates":[[103.8780721,1.3972075],[103.8780599,1.3972444]]}},{"type":"Feature","id":"way/883718298-0-3-0","properties":{"highway":"service","oneway":"yes","service":"driveway"},"geometry":{"type":"LineString","coordinates":[[103.8780599,1.3972444],[103.8780744,1.3972838]]}},{"type":"Feature","id":"way/883718298-0-4-0","properties":{"highway":"service","oneway":"yes","service":"driveway"},"geometry":{"type":"LineString","coordinates":[[103.8780744,1.3972838],[103.8780993,1.3973027]]}},{"type":"Feature","id":"way/883718298-0-5-0","properties":{"highway":"service","oneway":"yes","service":"driveway"},"geometry":{"type":"LineString","coordinates":[[103.8780993,1.3973027],[103.8781199,1.3973078]]}},{"type":"Feature","id":"way/883718298-0-6-0","properties":{"highway":"service","oneway":"yes","service":"driveway"},"geometry":{"type":"LineString","coordinates":[[103.8781199,1.3973078],[103.8781403,1.3973109]]}},{"type":"Feature","id":"way/883718298-0-7-0","properties":{"highway":"service","oneway":"yes","service":"driveway"},"geometry":{"type":"LineString","coordinates":[[103.8781403,1.3973109],[103.878167,1.3973133]]}},{"type":"Feature","id":"way/947210814-0-0-0","properties":{"access":"yes","highway":"secondary","name":"Sengkang West Drive","name:zh":"\u76db\u6e2f\u897f\u901a\u9053","oneway":"yes","sidewalk":"no"},"geometry":{"type":"LineString","coordinates":[[103.882338,1.398015],[103.882353,1.3981191]]}},{"type":"Feature","id":"way/947210814-0-1-0","properties":{"access":"yes","highway":"secondary","name":"Sengkang West Drive","name:zh":"\u76db\u6e2f\u897f\u901a\u9053","oneway":"yes","sidewalk":"no"},"geometry":{"type":"LineString","coordinates":[[103.882353,1.3981191],[103.8823689,1.3982141]]}},{"type":"Feature","id":"way/947210814-0-2-0","properties":{"access":"yes","highway":"secondary","name":"Sengkang West Drive","name:zh":"\u76db\u6e2f\u897f\u901a\u9053","oneway":"yes","sidewalk":"no"},"geometry":{"type":"LineString","coordinates":[[103.8823689,1.3982141],[103.8823994,1.3984102]]}},{"type":"Feature","id":"way/1238157022-0-4-0","properties":{"access":"yes","highway":"secondary","name":"Sengkang West Drive","name:zh":"\u76db\u6e2f\u897f\u901a\u9053","oneway":"yes","sidewalk":"left"},"geometry":{"type":"LineString","coordinates":[[103.8821679,1.3966405],[103.8822905,1.3977093]]}},{"type":"Feature","id":"way/1238157022-0-5-0","properties":{"access":"yes","highway":"secondary","name":"Sengkang West Drive","name:zh":"\u76db\u6e2f\u897f\u901a\u9053","oneway":"yes","sidewalk":"left"},"geometry":{"type":"LineString","coordinates":[[103.8822905,1.3977093],[103.8823299,1.3979505]]}},{"type":"Feature","id":"way/1238157022-0-6-0","properties":{"access":"yes","highway":"secondary","name":"Sengkang West Drive","name:zh":"\u76db\u6e2f\u897f\u901a\u9053","oneway":"yes","sidewalk":"left"},"geometry":{"type":"LineString","coordinates":[[103.8823299,1.3979505],[103.882338,1.398015]]}},{"type":"Feature","id":"way/1238157023-0-2-0","properties":{"access":"yes","highway":"secondary","name":"Sengkang West Drive","name:zh":"\u76db\u6e2f\u897f\u901a\u9053","oneway":"yes","sidewalk":"left"},"geometry":{"type":"LineString","coordinates":[[103.8824442,1.3977016],[103.8823351,1.3966082]]}},{"type":"Feature","id":"way/1304032693-0-0-0","properties":{"highway":"secondary_link","oneway":"yes","sidewalk":"both"},"geometry":{"type":"LineString","coordinates":[[103.882037,1.3981598],[103.8821488,1.398218]]}},{"type":"Feature","id":"way/1304032693-0-1-0","properties":{"highway":"secondary_link","oneway":"yes","sidewalk":"both"},"geometry":{"type":"LineString","coordinates":[[103.8821488,1.398218],[103.8822337,1.3982796]]}},{"type":"Feature","id":"way/1304032693-0-2-0","properties":{"highway":"secondary_link","oneway":"yes","sidewalk":"both"},"geometry":{"type":"LineString","coordinates":[[103.8822337,1.3982796],[103.882315,1.3983304]]}},{"type":"Feature","id":"way/1304032693-0-3-0","properties":{"highway":"secondary_link","oneway":"yes","sidewalk":"both"},"geometry":{"type":"LineString","coordinates":[[103.882315,1.3983304],[103.8823994,1.3984102]]}},{"type":"Feature","id":"way/1304032695-0-0-0","properties":{"highway":"secondary_link","oneway":"yes","sidewalk":"both"},"geometry":{"type":"LineString","coordinates":[[103.8822905,1.3977093],[103.8822451,1.3978193]]}},{"type":"Feature","id":"way/1304032695-0-1-0","properties":{"highway":"secondary_link","oneway":"yes","sidewalk":"both"},"geometry":{"type":"LineString","coordinates":[[103.8822451,1.3978193],[103.8821912,1.397909]]}},{"type":"Feature","id":"way/1304032695-0-2-0","properties":{"highway":"secondary_link","oneway":"yes","sidewalk":"both"},"geometry":{"type":"LineString","coordinates":[[103.8821912,1.397909],[103.8821085,1.3979764]]}},{"type":"Feature","id":"way/1304032695-0-3-0","properties":{"highway":"secondary_link","oneway":"yes","sidewalk":"both"},"geometry":{"type":"LineString","coordinates":[[103.8821085,1.3979764],[103.8820125,1.3980609]]}},{"type":"Feature","id":"way/1449609496-0-0-0","properties":{"access":"destination","highway":"service","oneway":"yes","service":"driveway"},"geometry":{"type":"LineString","coordinates":[[103.8801263,1.3972738],[103.8801022,1.3972367]]}},{"type":"Feature","id":"way/1449609496-0-1-0","properties":{"access":"destination","highway":"service","oneway":"yes","service":"driveway"},"geometry":{"type":"LineString","coordinates":[[103.8801022,1.3972367],[103.8800658,1.3972228]]}},{"type":"Feature","id":"way/1449609496-0-2-0","properties":{"access":"destination","highway":"service","oneway":"yes","service":"driveway"},"geometry":{"type":"LineString","coordinates":[[103.8800658,1.3972228],[103.8798706,1.3972423]]}},{"type":"Feature","id":"way/1449609496-0-3-0","properties":{"access":"destination","highway":"service","oneway":"yes","service":"driveway"},"geometry":{"type":"LineString","coordinates":[[103.8798706,1.3972423],[103.8798136,1.3972747]]}},{"type":"Feature","id":"way/1449609497-0-0-0","properties":{"access":"destination","highway":"service","oneway":"yes","service":"driveway","tunnel":"building_passage"},"geometry":{"type":"LineString","coordinates":[[103.8798936,1.3973219],[103.8799543,1.3973619]]}},{"type":"Feature","id":"way/1449609497-0-1-0","properties":{"access":"destination","highway":"service","oneway":"yes","service":"driveway","tunnel":"building_passage"},"geometry":{"type":"LineString","coordinates":[[103.8799543,1.3973619],[103.8800211,1.397364]]}},{"type":"Feature","id":"way/1449609497-0-2-0","properties":{"access":"destination","highway":"service","oneway":"yes","service":"driveway","tunnel":"building_passage"},"geometry":{"type":"LineString","coordinates":[[103.8800211,1.397364],[103.8800868,1.3973486]]}},{"type":"Feature","id":"way/1449609497-0-3-0","properties":{"access":"destination","highway":"service","oneway":"yes","service":"driveway","tunnel":"building_passage"},"geometry":{"type":"LineString","coordinates":[[103.8800868,1.3973486],[103.8801248,1.3973193]]}},{"type":"Feature","id":"way/1449609497-0-4-0","properties":{"access":"destination","highway":"service","oneway":"yes","service":"driveway","tunnel":"building_passage"},"geometry":{"type":"LineString","coordinates":[[103.8801248,1.3973193],[103.8801315,1.3972993]]}},{"type":"Feature","id":"way/1449609497-0-5-0","properties":{"access":"destination","highway":"service","oneway":"yes","service":"driveway","tunnel":"building_passage"},"geometry":{"type":"LineString","coordinates":[[103.8801315,1.3972993],[103.8801263,1.3972738]]}},{"type":"Feature","id":"way/1449609498-0-0-0","properties":{"access":"destination","highway":"service","oneway":"yes","service":"driveway"},"geometry":{"type":"LineString","coordinates":[[103.8798136,1.3972747],[103.8798506,1.397289]]}},{"type":"Feature","id":"way/1449609498-0-1-0","properties":{"access":"destination","highway":"service","oneway":"yes","service":"driveway"},"geometry":{"type":"LineString","coordinates":[[103.8798506,1.397289],[103.8798936,1.3973219]]}}]}