{"type":"FeatureCollection","features":[{"type":"Feature","id":"way/630157533-0-0-0","properties":{"highway":"secondary","lanes":"3","maxspeed":"60","name":"Seletar Link","name:en":"Seletar Link","name:zh":"\u5b9e\u91cc\u8fbe\u8fde\u8def","oneway":"yes","surface":"asphalt"},"geometry":{"type":"LineString","coordinates":[[103.8927806,1.4139047],[103.8923877,1.4126611]]}},{"type":"Feature","id":"way/630157533-0-1-0","properties":{"highway":"secondary","lanes":"3","maxspeed":"60","name":"Seletar Link","name:en":"Seletar Link","name:zh":"\u5b9e\u91cc\u8fbe\u8fde\u8def","oneway":"yes","surface":"asphalt"},"geometry":{"type":"LineString","coordinates":[[103.8923877,1.4126611],[103.8922055,1.4122967]]}},{"type":"Feature","id":"way/630157533-0-2-0","properties":{"highway":"secondary","lanes":"3","maxspeed":"60","name":"Seletar Link","name:en":"Seletar Link","name:zh":"\u5b9e\u91cc\u8fbe\u8fde\u8def","oneway":"yes","surface":"asphalt"},"geometry":{"type":"LineString","coordinates":[[103.8922055,1.4122967],[103.8920924,1.4121167]]}},{"type":"Feature","id":"way/630157533-0-3-0","properties":{"highway":"secondary","lanes":"3","maxspeed":"60","name":"Seletar Link","name:en":"Seletar Link","name:zh":"\u5b9e\u91cc\u8fbe\u8fde\u8def","oneway":"yes","surface":"asphalt"},"geometry":{"type":"LineString","coordinates":[[103.8920924,1.4121167],[103.8919628,1.4119337]]}},{"type":"Feature","id":"way/630157533-0-4-0","properties":{"highway":"secondary","lanes":"3","maxspeed":"60","name":"Seletar Link","name:en":"Seletar Link","name:zh":"\u5b9e\u91cc\u8fbe\u8fde\u8def","oneway":"yes","surface":"asphalt"},"geometry":{"type":"LineString","coordinates":[[103.8919628,1.4119337],[103.8918026,1.4117848]]}},{"type":"Feature","id":"way/630157533-0-5-0","properties":{"highway":"secondary","lanes":"3","maxspeed":"60","name":"Seletar Link","name:en":"Seletar Link","name:zh":"\u5b9e\u91cc\u8fbe\u8fde\u8def","oneway":"yes","surface":"asphalt"},"geometry":{"type":"LineString","coordinates":[[103.8918026,1.4117848],[103.8916001,1.4115969]]}},{"type":"Feature","id":"way/630157536-0-2-0","properties":{"highway":"secondary","lanes":"3","maxspeed":"60","name":"Seletar Link","name:en":"Seletar Link","name:zh":"\u5b9e\u91cc\u8fbe\u8fde\u8def","oneway":"yes","surface":"asphalt"},"geometry":{"type":"LineString","coordinates":[[103.8914048,1.4116491],[103.8915919,1.4117835]]}},{"type":"Feature","id":"way/630157536-0-3-0","properties":{"highway":"secondary","lanes":"3","maxspeed":"60","name":"Seletar Link","name:en":"Seletar Link","name:zh":"\u5b9e\u91cc\u8fbe\u8fde\u8def","oneway":"yes","surface":"asphalt"},"geometry":{"type":"LineString","coordinates":[[103.8915919,1.4117835],[103.8917906,1.4119471]]}},{"type":"Feature","id":"way/630157536-0-4-0","properties":{"highway":"secondary","lanes":"3","maxspeed":"60","name":"Seletar Link","name:en":"Seletar Link","name:zh":"\u5b9e\u91cc\u8fbe\u8fde\u8def","oneway":"yes","surface":"asphalt"},"geometry":{"type":"LineString","coordinates":[[103.8917906,1.4119471],[103.8919836,1.4121692]]}},{"type":"Feature","id":"way/630157536-0-5-0","properties":{"highway":"secondary","lanes":"3","maxspeed":"60","name":"Seletar Link","name:en":"Seletar Link","name:zh":"\u5b9e\u91cc\u8fbe\u8fde\u8def","oneway":"yes","surface":"asphalt"},"geometry":{"type":"LineString","coordinates":[[103.8919836,1.4121692],[103.8920888,1.4123504]]}},{"type":"Feature","id":"way/630157536-0-6-0","properties":{"highway":"secondary","lanes":"3","maxspeed":"60","name":"Seletar Link","name:en":"Seletar Link","name:zh":"\u5b9e\u91cc\u8fbe\u8fde\u8def","oneway":"yes","surface":"asphalt"},"geometry":{"type":"LineString","coordinates":[[103.8920888,1.4123504],[103.8922636,1.4127031]]}},{"type":"Feature","id":"way/630157536-0-7-0","properties":{"highway":"secondary","lanes":"3","maxspeed":"60","name":"Seletar Link","name:en":"Seletar Link","name:zh":"\u5b9e\u91cc\u8fbe\u8fde\u8def","oneway":"yes","surface":"asphalt"},"geometry":{"type":"LineString","coordinates":[[103.8922636,1.4127031],[103.8924547,1.4132913]]}},{"type":"Feature","id":"way/630157536-0-8-0","properties":{"highway":"secondary","lanes":"3","maxspeed":"60","name":"Seletar Link","name:en":"Seletar Link","name:zh":"\u5b9e\u91cc\u8fbe\u8fde\u8def","oneway":"yes","surface":"asphalt"},"geometry":{"type":"LineString","coordinates":[[103.8924547,1.4132913],[103.8925636,1.4136389]]}},{"type":"Feature","id":"way/630157536-0-9-0","properties":{"highway":"secondary","lanes":"3","maxspeed":"60","name":"Seletar Link","name:en":"Seletar Link","name:zh":"\u5b9e\u91cc\u8fbe\u8fde\u8def","oneway":"yes","surface":"asphalt"},"geometry":{"type":"LineString","coordinates":[[103.8925636,1.4136389],[103.8926516,1.4139236]]}}]}