{"type":"FeatureCollection","features":[{"type":"Feature","id":"way/142074910-0","properties":{"alt_name":"LT34","building":"yes","building:levels":"4","full_name":"Lecture Theatre 34","name":"LT 34"},"geometry":{"type":"Polygon","coordinates":[[[103.7808928,1.2976818],[103.7808012,1.2976758],[103.7808053,1.2976136],[103.7807431,1.2976095],[103.7807367,1.2977088],[103.7808294,1.2977515],[103.7807969,1.2978222],[103.7808828,1.2978277],[103.7808928,1.2976818]]]}},{"type":"Feature","id":"way/142074912-0","properties":{"addr:housenumber":"10","addr:street":"Lower Kent Ridge Road","building":"yes","building:colour":"blue","building:levels":"8","building:use":"education","name":"S17"},"geometry":{"type":"Polygon","coordinates":[[[103.7807528,1.297918],[103.7807969,1.2978222],[103.7808294,1.2977515],[103.7807367,1.2977088],[103.7803913,1.2975499],[103.78035,1.2975309],[103.7803299,1.2975745],[103.7802995,1.2975605],[103.7802662,1.2976327],[103.7802983,1.2976475],[103.780275,1.2976981],[103.7807528,1.297918]]]}},{"type":"Feature","id":"way/142074913-0","properties":{"alt_name":"LT33","building":"yes","building:levels":"4","full_name":"Lecture Theatre 33","name":"LT 33"},"geometry":{"type":"Polygon","coordinates":[[[103.781029,1.297772],[103.781,1.2977701],[103.7810053,1.2976891],[103.7808928,1.2976818],[103.7808828,1.2978277],[103.7810248,1.297837],[103.781029,1.297772]]]}},{"type":"Feature","id":"way/172495542-0","properties":{"building":"yes"},"geometry":{"type":"Polygon","coordinates":[[[103.780962,1.3016467],[103.7810566,1.3013932],[103.7810598,1.3013846],[103.7809371,1.3013388],[103.7809027,1.3014307],[103.7808674,1.3014175],[103.7808428,1.3014833],[103.7809363,1.3015182],[103.7808992,1.3016174],[103.7807677,1.3015683],[103.7807239,1.3016856],[103.7808883,1.3017469],[103.7809201,1.3017588],[103.780962,1.3016467]]]}},{"type":"Feature","id":"way/172495544-0","properties":{"building":"yes"},"geometry":{"type":"Polygon","coordinates":[[[103.7814436,1.3012564],[103.7812871,1.301326],[103.7813063,1.3013678],[103.7812917,1.3013745],[103.7812928,1.3013716],[103.7811562,1.3013226],[103.7810855,1.3015195],[103.7812158,1.3015663],[103.7812296,1.3015964],[103.781215,1.3016031],[103.7812161,1.3016001],[103.7810795,1.3015511],[103.7810088,1.3017481],[103.7811344,1.3017931],[103.7811499,1.3018269],[103.7811353,1.3018336],[103.7811364,1.3018306],[103.7809998,1.3017816],[103.7809291,1.3019786],[103.7810657,1.3020276],[103.7812115,1.3019608],[103.7812116,1.301961],[103.7813532,1.3018959],[103.7812918,1.3017619],[103.7812916,1.301762],[103.7812795,1.3017356],[103.7812912,1.3017303],[103.7812913,1.3017305],[103.7814329,1.3016654],[103.7813715,1.3015314],[103.7813713,1.3015315],[103.7813595,1.3015056],[103.7813679,1.3015017],[103.781368,1.3015019],[103.7815203,1.3014262],[103.7814436,1.3012564]]]}},{"type":"Feature","id":"way/172495545-0","properties":{"building":"yes","name":"Recreation Centre","name:zh":"\u5a31\u4e50\u4e2d\u5fc3"},"geometry":{"type":"Polygon","coordinates":[[[103.7812871,1.301326],[103.7814436,1.3012564],[103.7814758,1.3012395],[103.7815066,1.3013065],[103.781634,1.3012479],[103.7816033,1.3011812],[103.7817222,1.3011267],[103.7816953,1.301068],[103.7817503,1.3010298],[103.7817623,1.3009727],[103.7817413,1.3009155],[103.7816977,1.3008569],[103.7816555,1.3008253],[103.7815963,1.300852],[103.7815869,1.3008316],[103.7815844,1.3008328],[103.7815277,1.3007095],[103.7815107,1.3007173],[103.7814889,1.3006698],[103.7813863,1.300717],[103.7814131,1.3007752],[103.7813923,1.3007847],[103.7814036,1.3008093],[103.7813292,1.3008433],[103.781344,1.3008758],[103.7812179,1.3009336],[103.7812292,1.3009583],[103.7811848,1.3009787],[103.7811988,1.3010094],[103.7811518,1.3010309],[103.7811601,1.301049],[103.7811261,1.3010644],[103.7811231,1.3011305],[103.7811261,1.3011802],[103.7811492,1.3012275],[103.7811547,1.3012388],[103.7812194,1.3012824],[103.7812589,1.3012646],[103.7812871,1.301326]]]}},{"type":"Feature","id":"way/305407348-0","properties":{"addr:city":"Singapore","addr:country":"SG","addr:housenumber":"10","addr:street":"Dover Drive","building":"university"},"geometry":{"type":"Polygon","coordinates":[[[103.7801616,1.3007422],[103.780089,1.3006674],[103.7800192,1.3007264],[103.7799978,1.300705],[103.7800595,1.3006245],[103.7798778,1.3004829],[103.7797629,1.3005637],[103.7798181,1.3007827],[103.7799016,1.3007477],[103.7799286,1.3007898],[103.7798689,1.300828],[103.77994,1.3009388],[103.7798468,1.3009868],[103.7797465,1.3010088],[103.7796439,1.3010043],[103.7795274,1.3009647],[103.7794433,1.3009057],[103.7793772,1.3008271],[103.7793254,1.3007409],[103.7791716,1.3008179],[103.7792706,1.3009854],[103.7794299,1.3011161],[103.7796241,1.3011852],[103.7798303,1.3011846],[103.7800241,1.3011143],[103.7800589,1.3011632],[103.7802829,1.3012229],[103.7802992,1.3011617],[103.7803077,1.3011009],[103.7803163,1.3010387],[103.780328,1.3009947],[103.7802698,1.3009066],[103.7805138,1.3007504],[103.7804069,1.3005851],[103.7801616,1.3007422]]]}},{"type":"Feature","id":"way/867325599-0","properties":{"addr:city":"Singapore","addr:country":"SG","addr:housenumber":"20","addr:street":"Dover Drive","building":"university","building:levels":"4"},"geometry":{"type":"Polygon","coordinates":[[[103.7810102,1.3004315],[103.7810427,1.3004869],[103.781074,1.3004822],[103.7810982,1.3004486],[103.7810653,1.3003991],[103.7813676,1.3002038],[103.7813158,1.3001228],[103.7814921,1.3000099],[103.7813631,1.2998085],[103.7812144,1.2995763],[103.7811214,1.2995171],[103.7809712,1.2994957],[103.7808277,1.2995399],[103.7808935,1.2996716],[103.7808183,1.2997122],[103.7806654,1.2994849],[103.7800907,1.2998389],[103.7800646,1.299855],[103.7802907,1.3002079],[103.7803083,1.3002352],[103.780221,1.3002979],[103.7804069,1.3005851],[103.7805138,1.3007504],[103.7810102,1.3004315]]]}},{"type":"Feature","id":"way/867325600-0","properties":{"building":"roof"},"geometry":{"type":"Polygon","coordinates":[[[103.7803516,1.301175],[103.7803946,1.3011871],[103.7804263,1.301068],[103.7803758,1.3010546],[103.7803163,1.3010387],[103.7803077,1.3011009],[103.7802992,1.3011617],[103.7803516,1.301175]]]}},{"type":"Feature","id":"way/867325601-0","properties":{"building":"yes"},"geometry":{"type":"Polygon","coordinates":[[[103.7798459,1.3004035],[103.77964,1.3000706],[103.7795598,1.2999409],[103.7791832,1.3001737],[103.7794693,1.3006363],[103.7798459,1.3004035]]]}},{"type":"Feature","id":"way/1151101074-0","properties":{"building":"roof","layer":"1","shelter_type":"public_transport"},"geometry":{"type":"Polygon","coordinates":[[[103.7807249,1.2975522],[103.7807288,1.2975231],[103.7806339,1.2975103],[103.78063,1.2975395],[103.7807249,1.2975522]]]}},{"type":"Feature","id":"way/1167289482-0","properties":{"building":"yes"},"geometry":{"type":"Polygon","coordinates":[[[103.7800066,1.299906],[103.7799275,1.2997759],[103.7796738,1.2999301],[103.7797101,1.2999898],[103.7797853,1.299944],[103.7798281,1.3000145],[103.7800066,1.299906]]]}},{"type":"Feature","id":"way/1167289491-0","properties":{"building":"yes"},"geometry":{"type":"Polygon","coordinates":[[[103.780389,1.3015432],[103.7804049,1.301522],[103.7804252,1.3015372],[103.780453,1.3015003],[103.7804271,1.3014809],[103.7804444,1.3014579],[103.7804769,1.3014824],[103.7804889,1.3014665],[103.780454,1.3014403],[103.7805219,1.30135],[103.7804771,1.3013164],[103.7803363,1.3015036],[103.780389,1.3015432]]]}},{"type":"Feature","id":"way/75044389-0-0-0","properties":{"highway":"motorway","lanes":"4","maxheight":"4.5","maxspeed":"90","name":"Ayer Rajah Expressway","name:ms":"Lebuhraya Ayer Rajah","name:ta":"\u0b86\u0baf\u0bb0\u0bcd \u0bb0\u0bbe\u0b9c\u0bbe \u0bb5\u0bbf\u0bb0\u0bb5\u0bc1\u0b9a\u0bcd\u0b9a\u0bbe\u0bb2\u0bc8","name:zh":"\u4e9a\u9038\u62c9\u60f9\u9ad8\u901f\u516c\u8def","oneway":"yes","ref":"AYE","surface":"asphalt","wikidata":"Q2657325","wikipedia":"en:Ayer Rajah Expressway"},"geometry":{"type":"LineString","coordinates":[[103.7828113,1.2974824],[103.7823044,1.2977727]]}},{"type":"Feature","id":"way/121762757-0-0-0","properties":{"highway":"service","lanes":"2","lanes:backward":"1","lanes:forward":"1","oneway":"yes","service":"parking_aisle","surface":"asphalt","turn:lanes:backward":"left","turn:lanes:forward":"left;through;right"},"geometry":{"type":"LineString","coordinates":[[103.781594,1.2975547],[103.7815707,1.2974889]]}},{"type":"Feature","id":"way/142075027-0-0-0","properties":{"highway":"service","lanes":"2","lanes:backward":"1","lanes:forward":"1","service":"parking_aisle","surface":"asphalt"},"geometry":{"type":"LineString","coordinates":[[103.7810349,1.297615],[103.7811605,1.2976275]]}},{"type":"Feature","id":"way/172342475-0-0-0","properties":{"highway":"service","lanes":"2","lanes:backward":"1","lanes:forward":"1","maxspeed":"50","name":"Dover Drive","name:en":"Dover Drive","name:zh":"\u675c\u4f5b\u901a\u9053","sidewalk":"right"},"geometry":{"type":"LineString","coordinates":[[103.7816848,1.3002426],[103.7815872,1.3003112]]}},{"type":"Feature","id":"way/172342475-0-1-0","properties":{"highway":"service","lanes":"2","lanes:backward":"1","lanes:forward":"1","maxspeed":"50","name":"Dover Drive","name:en":"Dover Drive","name:zh":"\u675c\u4f5b\u901a\u9053","sidewalk":"right"},"geometry":{"type":"LineString","coordinates":[[103.7815872,1.3003112],[103.7813773,1.3005761]]}},{"type":"Feature","id":"way/173896144-0-0-0","properties":{"highway":"tertiary","lanes":"2","maxspeed":"40","name":"Dover Road","name:en":"Dover Road","name:zh":"\u675c\u4f5b\u8def","oneway":"yes","sidewalk:left":"separate","sidewalk:right":"no","surface":"asphalt"},"geometry":{"type":"LineString","coordinates":[[103.7832936,1.3017679],[103.7832578,1.3018157]]}},{"type":"Feature","id":"way/173896144-0-1-0","properties":{"highway":"tertiary","lanes":"2","maxspeed":"40","name":"Dover Road","name:en":"Dover Road","name:zh":"\u675c\u4f5b\u8def","oneway":"yes","sidewalk:left":"separate","sidewalk:right":"no","surface":"asphalt"},"geometry":{"type":"LineString","coordinates":[[103.7832578,1.3018157],[103.7831933,1.3019037]]}},{"type":"Feature","id":"way/464985743-0-4-0","properties":{"highway":"service","lanes":"1","oneway":"yes","service":"parking_aisle"},"geometry":{"type":"LineString","coordinates":[[103.7791173,1.3012681],[103.779136,1.3012544]]}},{"type":"Feature","id":"way/464985744-0-0-0","properties":{"highway":"service","lanes":"2","lanes:backward":"1","lanes:forward":"1","service":"parking_aisle","sidewalk":"left","turn:lanes:backward":"through"},"geometry":{"type":"LineString","coordinates":[[103.7812293,1.3004686],[103.7813168,1.3004155]]}},{"type":"Feature","id":"way/464985745-0-0-0","properties":{"highway":"service","lanes":"2","lanes:backward":"1","lanes:forward":"1","service":"parking_aisle","sidewalk":"both","turn:lanes:backward":"left;right"},"geometry":{"type":"LineString","coordinates":[[103.7809807,1.3010987],[103.7809528,1.3010849]]}},{"type":"Feature","id":"way/464985745-0-1-0","properties":{"highway":"service","lanes":"2","lanes:backward":"1","lanes:forward":"1","service":"parking_aisle","sidewalk":"both","turn:lanes:backward":"left;right"},"geometry":{"type":"LineString","coordinates":[[103.7809528,1.3010849],[103.7808647,1.3010411]]}},{"type":"Feature","id":"way/464985766-0-0-0","properties":{"highway":"service","lanes":"2","lanes:backward":"1","lanes:forward":"1","service":"parking_aisle","surface":"asphalt","turn:lanes:backward":"right","turn:lanes:forward":"through"},"geometry":{"type":"LineString","coordinates":[[103.7811605,1.2976275],[103.7811552,1.2977443]]}},{"type":"Feature","id":"way/464985768-0-0-0","properties":{"highway":"service","lanes":"2","lanes:backward":"1","lanes:forward":"1","service":"parking_aisle","surface":"asphalt"},"geometry":{"type":"LineString","coordinates":[[103.780347,1.2977907],[103.7803144,1.2980253]]}},{"type":"Feature","id":"way/464985769-0-0-0","properties":{"highway":"service","lanes":"1","oneway":"yes","service":"parking_aisle","surface":"asphalt","turn:lanes":"through;right"},"geometry":{"type":"LineString","coordinates":[[103.7808598,1.2979977],[103.7806751,1.2979265]]}},{"type":"Feature","id":"way/464985769-0-1-0","properties":{"highway":"service","lanes":"1","oneway":"yes","service":"parking_aisle","surface":"asphalt","turn:lanes":"through;right"},"geometry":{"type":"LineString","coordinates":[[103.7806751,1.2979265],[103.780516,1.2978608]]}},{"type":"Feature","id":"way/464985769-0-2-0","properties":{"highway":"service","lanes":"1","oneway":"yes","service":"parking_aisle","surface":"asphalt","turn:lanes":"through;right"},"geometry":{"type":"LineString","coordinates":[[103.780516,1.2978608],[103.780347,1.2977907]]}},{"type":"Feature","id":"way/464985770-0-0-0","properties":{"highway":"service","lanes":"2","lanes:backward":"1","lanes:forward":"1","service":"parking_aisle","surface":"asphalt"},"geometry":{"type":"LineString","coordinates":[[103.7810009,1.2978752],[103.7809035,1.2978663]]}},{"type":"Feature","id":"way/464985770-0-1-0","properties":{"highway":"service","lanes":"2","lanes:backward":"1","lanes:forward":"1","service":"parking_aisle","surface":"asphalt"},"geometry":{"type":"LineString","coordinates":[[103.7809035,1.2978663],[103.7808923,1.2978683]]}},{"type":"Feature","id":"way/464985770-0-2-0","properties":{"highway":"service","lanes":"2","lanes:backward":"1","lanes:forward":"1","service":"parking_aisle","surface":"asphalt"},"geometry":{"type":"LineString","coordinates":[[103.7808923,1.2978683],[103.7808816,1.2978738]]}},{"type":"Feature","id":"way/464985770-0-3-0","properties":{"highway":"service","lanes":"2","lanes:backward":"1","lanes:forward":"1","service":"parking_aisle","surface":"asphalt"},"geometry":{"type":"LineString","coordinates":[[103.7808816,1.2978738],[103.7808751,1.2978849]]}},{"type":"Feature","id":"way/464985770-0-4-0","properties":{"highway":"service","lanes":"2","lanes:backward":"1","lanes:forward":"1","service":"parking_aisle","surface":"asphalt"},"geometry":{"type":"LineString","coordinates":[[103.7808751,1.2978849],[103.7808723,1.2978998]]}},{"type":"Feature","id":"way/464985770-0-5-0","properties":{"highway":"service","lanes":"2","lanes:backward":"1","lanes:forward":"1","service":"parking_aisle","surface":"asphalt"},"geometry":{"type":"LineString","coordinates":[[103.7808723,1.2978998],[103.7808598,1.2979977]]}},{"type":"Feature","id":"way/464985771-0-2-0","properties":{"highway":"service","lanes":"1","oneway":"yes","service":"parking_aisle","surface":"asphalt"},"geometry":{"type":"LineString","coordinates":[[103.7817125,1.297503],[103.781594,1.2975547]]}},{"type":"Feature","id":"way/479166725-0-0-0","properties":{"highway":"motorway","lanes":"4","maxspeed":"90","name":"Ayer Rajah Expressway","name:ms":"Lebuhraya Ayer Rajah","name:ta":"\u0b86\u0baf\u0bb0\u0bcd \u0bb0\u0bbe\u0b9c\u0bbe \u0bb5\u0bbf\u0bb0\u0bb5\u0bc1\u0b9a\u0bcd\u0b9a\u0bbe\u0bb2\u0bc8","name:zh":"\u4e9a\u9038\u62c9\u60f9\u9ad8\u901f\u516c\u8def","oneway":"yes","ref":"AYE","surface":"asphalt","wikidata":"Q2657325","wikipedia":"en:Ayer Rajah Expressway"},"geometry":{"type":"LineString","coordinates":[[103.778895,1.2999762],[103.7793839,1.2996721]]}},{"type":"Feature","id":"way/479166725-0-1-0","properties":{"highway":"motorway","lanes":"4","maxspeed":"90","name":"Ayer Rajah Expressway","name:ms":"Lebuhraya Ayer Rajah","name:ta":"\u0b86\u0baf\u0bb0\u0bcd \u0bb0\u0bbe\u0b9c\u0bbe \u0bb5\u0bbf\u0bb0\u0bb5\u0bc1\u0b9a\u0bcd\u0b9a\u0bbe\u0bb2\u0bc8","name:zh":"\u4e9a\u9038\u62c9\u60f9\u9ad8\u901f\u516c\u8def","oneway":"yes","ref":"AYE","surface":"asphalt","wikidata":"Q2657325","wikipedia":"en:Ayer Rajah Expressway"},"geometry":{"type":"LineString","coordinates":[[103.7793839,1.2996721],[103.7795213,1.2995891]]}},{"type":"Feature","id":"way/479166725-0-2-0","properties":{"highway":"motorway","lanes":"4","maxspeed":"90","name":"Ayer Rajah Expressway","name:ms":"Lebuhraya Ayer Rajah","name:ta":"\u0b86\u0baf\u0bb0\u0bcd \u0bb0\u0bbe\u0b9c\u0bbe \u0bb5\u0bbf\u0bb0\u0bb5\u0bc1\u0b9a\u0bcd\u0b9a\u0bbe\u0bb2\u0bc8","name:zh":"\u4e9a\u9038\u62c9\u60f9\u9ad8\u901f\u516c\u8def","oneway":"yes","ref":"AYE","surface":"asphalt","wikidata":"Q2657325","wikipedia":"en:Ayer Rajah Expressway"},"geometry":{"type":"LineString","coordinates":[[103.7795213,1.2995891],[103.7805883,1.2989448]]}},{"type":"Feature","id":"way/479166725-0-3-0","properties":{"highway":"motorway","lanes":"4","maxspeed":"90","name":"Ayer Rajah Expressway","name:ms":"Lebuhraya Ayer Rajah","name:ta":"\u0b86\u0baf\u0bb0\u0bcd \u0bb0\u0bbe\u0b9c\u0bbe \u0bb5\u0bbf\u0bb0\u0bb5\u0bc1\u0b9a\u0bcd\u0b9a\u0bbe\u0bb2\u0bc8","name:zh":"\u4e9a\u9038\u62c9\u60f9\u9ad8\u901f\u516c\u8def","oneway":"yes","ref":"AYE","surface":"asphalt","wikidata":"Q2657325","wikipedia":"en:Ayer Rajah Expressway"},"geometry":{"type":"LineString","coordinates":[[103.7805883,1.2989448],[103.7810213,1.2987048]]}},{"type":"Feature","id":"way/479166725-0-4-0","properties":{"highway":"motorway","lanes":"4","maxspeed":"90","name":"Ayer Rajah Expressway","name:ms":"Lebuhraya Ayer Rajah","name:ta":"\u0b86\u0baf\u0bb0\u0bcd \u0bb0\u0bbe\u0b9c\u0bbe \u0bb5\u0bbf\u0bb0\u0bb5\u0bc1\u0b9a\u0bcd\u0b9a\u0bbe\u0bb2\u0bc8","name:zh":"\u4e9a\u9038\u62c9\u60f9\u9ad8\u901f\u516c\u8def","oneway":"yes","ref":"AYE","surface":"asphalt","wikidata":"Q2657325","wikipedia":"en:Ayer Rajah Expressway"},"geometry":{"type":"LineString","coordinates":[[103.7810213,1.2987048],[103.7812262,1.2985917]]}},{"type":"Feature","id":"way/479166845-0-0-0","properties":{"highway":"motorway","lanes":"4","maxheight":"4.5","maxspeed":"90","name":"Ayer Rajah Expressway","name:ms":"Lebuhraya Ayer Rajah","name:ta":"\u0b86\u0baf\u0bb0\u0bcd \u0bb0\u0bbe\u0b9c\u0bbe \u0bb5\u0bbf\u0bb0\u0bb5\u0bc1\u0b9a\u0bcd\u0b9a\u0bbe\u0bb2\u0bc8","name:zh":"\u4e9a\u9038\u62c9\u60f9\u9ad8\u901f\u516c\u8def","oneway":"yes","ref":"AYE","surface":"asphalt","wikidata":"Q2657325","wikipedia":"en:Ayer Rajah Expressway"},"geometry":{"type":"LineString","coordinates":[[103.7823947,1.2979385],[103.783111,1.2975197]]}},{"type":"Feature","id":"way/479166846-0-0-0","properties":{"highway":"motorway","lanes":"4","maxspeed":"90","name":"Ayer Rajah Expressway","name:ms":"Lebuhraya Ayer Rajah","name:ta":"\u0b86\u0baf\u0bb0\u0bcd \u0bb0\u0bbe\u0b9c\u0bbe \u0bb5\u0bbf\u0bb0\u0bb5\u0bc1\u0b9a\u0bcd\u0b9a\u0bbe\u0bb2\u0bc8","name:zh":"\u4e9a\u9038\u62c9\u60f9\u9ad8\u901f\u516c\u8def","oneway":"yes","ref":"AYE","surface":"asphalt","wikidata":"Q2657325","wikipedia":"en:Ayer Rajah Expressway"},"geometry":{"type":"LineString","coordinates":[[103.7811524,1.2984307],[103.780483,1.298811]]}},{"type":"Feature","id":"way/479166846-0-1-0","properties":{"highway":"motorway","lanes":"4","maxspeed":"90","name":"Ayer Rajah Expressway","name:ms":"Lebuhraya Ayer Rajah","name:ta":"\u0b86\u0baf\u0bb0\u0bcd \u0bb0\u0bbe\u0b9c\u0bbe \u0bb5\u0bbf\u0bb0\u0bb5\u0bc1\u0b9a\u0bcd\u0b9a\u0bbe\u0bb2\u0bc8","name:zh":"\u4e9a\u9038\u62c9\u60f9\u9ad8\u901f\u516c\u8def","oneway":"yes","ref":"AYE","surface":"asphalt","wikidata":"Q2657325","wikipedia":"en:Ayer Rajah Expressway"},"geometry":{"type":"LineString","coordinates":[[103.780483,1.298811],[103.780076,1.2990377]]}},{"type":"Feature","id":"way/479166846-0-2-0","properties":{"highway":"motorway","lanes":"4","maxspeed":"90","name":"Ayer Rajah Expressway","name:ms":"Lebuhraya Ayer Rajah","name:ta":"\u0b86\u0baf\u0bb0\u0bcd \u0bb0\u0bbe\u0b9c\u0bbe \u0bb5\u0bbf\u0bb0\u0bb5\u0bc1\u0b9a\u0bcd\u0b9a\u0bbe\u0bb2\u0bc8","name:zh":"\u4e9a\u9038\u62c9\u60f9\u9ad8\u901f\u516c\u8def","oneway":"yes","ref":"AYE","surface":"asphalt","wikidata":"Q2657325","wikipedia":"en:Ayer Rajah Expressway"},"geometry":{"type":"LineString","coordinates":[[103.780076,1.2990377],[103.7800263,1.2990654]]}},{"type":"Feature","id":"way/526887919-0-0-0","properties":{"highway":"service","lanes":"1","oneway":"yes","service":"parking_aisle","surface":"asphalt","turn:lanes":"through"},"geometry":{"type":"LineString","coordinates":[[103.7806751,1.2979265],[103.7806745,1.2980325]]}},{"type":"Feature","id":"way/526887920-0-0-0","properties":{"highway":"service","lanes":"1","oneway":"yes","service":"parking_aisle","surface":"asphalt","turn:lanes":"through"},"geometry":{"type":"LineString","coordinates":[[103.780516,1.2978608],[103.7805103,1.2979868]]}},{"type":"Feature","id":"way/526889762-0-0-0","properties":{"highway":"service","lanes":"2","lanes:backward":"1","lanes:forward":"1","service":"parking_aisle","surface":"asphalt","turn:lanes:backward":"through;right","turn:lanes:forward":"left;right"},"geometry":{"type":"LineString","coordinates":[[103.7811487,1.2978887],[103.7811794,1.2979994]]}},{"type":"Feature","id":"way/528461160-0-0-0","properties":{"highway":"motorway","lanes":"4","maxspeed":"90","name":"Ayer Rajah Expressway","name:ms":"Lebuhraya Ayer Rajah","name:ta":"\u0b86\u0baf\u0bb0\u0bcd \u0bb0\u0bbe\u0b9c\u0bbe \u0bb5\u0bbf\u0bb0\u0bb5\u0bc1\u0b9a\u0bcd\u0b9a\u0bbe\u0bb2\u0bc8","name:zh":"\u4e9a\u9038\u62c9\u60f9\u9ad8\u901f\u516c\u8def","oneway":"yes","ref":"AYE","surface":"asphalt","wikidata":"Q2657325","wikipedia":"en:Ayer Rajah Expressway"},"geometry":{"type":"LineString","coordinates":[[103.7800263,1.2990654],[103.7788591,1.2997843]]}},{"type":"Feature","id":"way/538766097-0-0-0","properties":{"highway":"residential","maxspeed":"50","name":"Dover Rise","surface":"asphalt"},"geometry":{"type":"LineString","coordinates":[[103.7832936,1.3017679],[103.7833505,1.3018297]]}},{"type":"Feature","id":"way/538766099-0-0-0","properties":{"highway":"tertiary","lanes":"2","maxspeed":"40","name":"Dover Road","name:en":"Dover Road","name:zh":"\u675c\u4f5b\u8def","oneway":"yes","surface":"asphalt"},"geometry":{"type":"LineString","coordinates":[[103.7833505,1.3018297],[103.7833894,1.3017761]]}},{"type":"Feature","id":"way/538766099-0-1-0","properties":{"highway":"tertiary","lanes":"2","maxspeed":"40","name":"Dover Road","name:en":"Dover Road","name:zh":"\u675c\u4f5b\u8def","oneway":"yes","surface":"asphalt"},"geometry":{"type":"LineString","coordinates":[[103.7833894,1.3017761],[103.7835445,1.3015888]]}},{"type":"Feature","id":"way/541917264-0-0-0","properties":{"highway":"service","lanes":"2","lanes:backward":"1","lanes:forward":"1","service":"parking_aisle","surface":"asphalt","turn:lanes:backward":"through;right","turn:lanes:forward":"left;right"},"geometry":{"type":"LineString","coordinates":[[103.7808598,1.2979977],[103.7808595,1.2981321]]}},{"type":"Feature","id":"way/541921346-0-0-0","properties":{"highway":"service","lanes":"2","lanes:backward":"1","lanes:forward":"1","service":"parking_aisle"},"geometry":{"type":"LineString","coordinates":[[103.7810317,1.3015869],[103.7810558,1.3015198]]}},{"type":"Feature","id":"way/541921346-0-1-0","properties":{"highway":"service","lanes":"2","lanes:backward":"1","lanes:forward":"1","service":"parking_aisle"},"geometry":{"type":"LineString","coordinates":[[103.7810558,1.3015198],[103.7810826,1.3014474]]}},{"type":"Feature","id":"way/541921346-0-2-0","properties":{"highway":"service","lanes":"2","lanes:backward":"1","lanes:forward":"1","service":"parking_aisle"},"geometry":{"type":"LineString","coordinates":[[103.7810826,1.3014474],[103.7810931,1.3014043]]}},{"type":"Feature","id":"way/541921346-0-3-0","properties":{"highway":"service","lanes":"2","lanes:backward":"1","lanes:forward":"1","service":"parking_aisle"},"geometry":{"type":"LineString","coordinates":[[103.7810931,1.3014043],[103.7810987,1.3013814]]}},{"type":"Feature","id":"way/541921349-0-0-0","properties":{"highway":"service","lanes":"2","lanes:backward":"1","lanes:forward":"1","service":"parking_aisle"},"geometry":{"type":"LineString","coordinates":[[103.7805268,1.3011773],[103.7805524,1.3011237]]}},{"type":"Feature","id":"way/541921349-0-1-0","properties":{"highway":"service","lanes":"2","lanes:backward":"1","lanes:forward":"1","service":"parking_aisle"},"geometry":{"type":"LineString","coordinates":[[103.7805524,1.3011237],[103.7805656,1.3010983]]}},{"type":"Feature","id":"way/541921349-0-2-0","properties":{"highway":"service","lanes":"2","lanes:backward":"1","lanes:forward":"1","service":"parking_aisle"},"geometry":{"type":"LineString","coordinates":[[103.7805656,1.3010983],[103.7805741,1.3010698]]}},{"type":"Feature","id":"way/541921350-0-0-0","properties":{"highway":"service","lanes":"1","oneway":"yes","service":"parking_aisle","sidewalk":"left"},"geometry":{"type":"LineString","coordinates":[[103.7805527,1.3008928],[103.7804452,1.3009449]]}},{"type":"Feature","id":"way/541921350-0-1-0","properties":{"highway":"service","lanes":"1","oneway":"yes","service":"parking_aisle","sidewalk":"left"},"geometry":{"type":"LineString","coordinates":[[103.7804452,1.3009449],[103.7804109,1.3009723]]}},{"type":"Feature","id":"way/541921351-0-0-0","properties":{"highway":"service","lanes":"2","lanes:backward":"1","lanes:forward":"1","service":"parking_aisle"},"geometry":{"type":"LineString","coordinates":[[103.7798626,1.301473],[103.7800237,1.3014915]]}},{"type":"Feature","id":"way/541921351-0-1-0","properties":{"highway":"service","lanes":"2","lanes:backward":"1","lanes:forward":"1","service":"parking_aisle"},"geometry":{"type":"LineString","coordinates":[[103.7800237,1.3014915],[103.7801483,1.3014826]]}},{"type":"Feature","id":"way/543186640-0-0-0","properties":{"highway":"service","lanes":"2","oneway":"yes","service":"parking_aisle","turn:lanes":"left|right"},"geometry":{"type":"LineString","coordinates":[[103.7803516,1.301175],[103.7803463,1.3012001]]}},{"type":"Feature","id":"way/543186640-0-1-0","properties":{"highway":"service","lanes":"2","oneway":"yes","service":"parking_aisle","turn:lanes":"left|right"},"geometry":{"type":"LineString","coordinates":[[103.7803463,1.3012001],[103.7803323,1.3012909]]}},{"type":"Feature","id":"way/543186640-0-2-0","properties":{"highway":"service","lanes":"2","oneway":"yes","service":"parking_aisle","turn:lanes":"left|right"},"geometry":{"type":"LineString","coordinates":[[103.7803323,1.3012909],[103.7803176,1.3013454]]}},{"type":"Feature","id":"way/543186640-0-3-0","properties":{"highway":"service","lanes":"2","oneway":"yes","service":"parking_aisle","turn:lanes":"left|right"},"geometry":{"type":"LineString","coordinates":[[103.7803176,1.3013454],[103.7802893,1.3013885]]}},{"type":"Feature","id":"way/543186641-0-0-0","properties":{"covered":"yes","highway":"service","lanes":"1","oneway":"yes","service":"parking_aisle"},"geometry":{"type":"LineString","coordinates":[[103.7803758,1.3010546],[103.7803516,1.301175]]}},{"type":"Feature","id":"way/573704882-0-0-0","properties":{"highway":"service","lanes":"2","lanes:backward":"1","lanes:forward":"1","maxspeed":"50","name":"Dover Drive","name:en":"Dover Drive","name:zh":"\u675c\u4f5b\u901a\u9053","sidewalk":"right","surface":"asphalt"},"geometry":{"type":"LineString","coordinates":[[103.7833598,1.3010156],[103.7823208,1.3003634]]}},{"type":"Feature","id":"way/573704882-0-1-0","properties":{"highway":"service","lanes":"2","lanes:backward":"1","lanes:forward":"1","maxspeed":"50","name":"Dover Drive","name:en":"Dover Drive","name:zh":"\u675c\u4f5b\u901a\u9053","sidewalk":"right","surface":"asphalt"},"geometry":{"type":"LineString","coordinates":[[103.7823208,1.3003634],[103.7822136,1.3003137]]}},{"type":"Feature","id":"way/573704882-0-2-0","properties":{"highway":"service","lanes":"2","lanes:backward":"1","lanes:forward":"1","maxspeed":"50","name":"Dover Drive","name:en":"Dover Drive","name:zh":"\u675c\u4f5b\u901a\u9053","sidewalk":"right","surface":"asphalt"},"geometry":{"type":"LineString","coordinates":[[103.7822136,1.3003137],[103.7821,1.3002758]]}},{"type":"Feature","id":"way/573704882-0-3-0","properties":{"highway":"service","lanes":"2","lanes:backward":"1","lanes:forward":"1","maxspeed":"50","name":"Dover Drive","name:en":"Dover Drive","name:zh":"\u675c\u4f5b\u901a\u9053","sidewalk":"right","surface":"asphalt"},"geometry":{"type":"LineString","coordinates":[[103.7821,1.3002758],[103.7818774,1.3002295]]}},{"type":"Feature","id":"way/573704882-0-4-0","properties":{"highway":"service","lanes":"2","lanes:backward":"1","lanes:forward":"1","maxspeed":"50","name":"Dover Drive","name:en":"Dover Drive","name:zh":"\u675c\u4f5b\u901a\u9053","sidewalk":"right","surface":"asphalt"},"geometry":{"type":"LineString","coordinates":[[103.7818774,1.3002295],[103.7817712,1.3002176]]}},{"type":"Feature","id":"way/573704882-0-5-0","properties":{"highway":"service","lanes":"2","lanes:backward":"1","lanes:forward":"1","maxspeed":"50","name":"Dover Drive","name:en":"Dover Drive","name:zh":"\u675c\u4f5b\u901a\u9053","sidewalk":"right","surface":"asphalt"},"geometry":{"type":"LineString","coordinates":[[103.7817712,1.3002176],[103.7816848,1.3002426]]}},{"type":"Feature","id":"way/573704883-0-0-0","properties":{"highway":"tertiary","lanes":"3","lit":"yes","maxspeed":"40","name":"Dover Road","name:en":"Dover Road","name:zh":"\u675c\u4f5b\u8def","oneway":"yes","sidewalk:left":"separate","sidewalk:right":"no","surface":"asphalt","turn:lanes":"through|through|right"},"geometry":{"type":"LineString","coordinates":[[103.7837236,1.3012425],[103.7832936,1.3017679]]}},{"type":"Feature","id":"way/630799897-0-0-0","properties":{"highway":"motorway","lanes":"4","maxspeed":"90","name":"Ayer Rajah Expressway","name:ms":"Lebuhraya Ayer Rajah","name:ta":"\u0b86\u0baf\u0bb0\u0bcd \u0bb0\u0bbe\u0b9c\u0bbe \u0bb5\u0bbf\u0bb0\u0bb5\u0bc1\u0b9a\u0bcd\u0b9a\u0bbe\u0bb2\u0bc8","name:zh":"\u4e9a\u9038\u62c9\u60f9\u9ad8\u901f\u516c\u8def","oneway":"yes","ref":"AYE","surface":"asphalt","wikidata":"Q2657325","wikipedia":"en:Ayer Rajah Expressway"},"geometry":{"type":"LineString","coordinates":[[103.7818516,1.2982483],[103.7823947,1.2979385]]}},{"type":"Feature","id":"way/630799898-0-0-0","properties":{"highway":"motorway","lanes":"4","maxspeed":"90","name":"Ayer Rajah Expressway","name:ms":"Lebuhraya Ayer Rajah","name:ta":"\u0b86\u0baf\u0bb0\u0bcd \u0bb0\u0bbe\u0b9c\u0bbe \u0bb5\u0bbf\u0bb0\u0bb5\u0bc1\u0b9a\u0bcd\u0b9a\u0bbe\u0bb2\u0bc8","name:zh":"\u4e9a\u9038\u62c9\u60f9\u9ad8\u901f\u516c\u8def","oneway":"yes","ref":"AYE","surface":"asphalt","wikidata":"Q2657325","wikipedia":"en:Ayer Rajah Expressway"},"geometry":{"type":"LineString","coordinates":[[103.7823044,1.2977727],[103.7817746,1.2980856]]}},{"type":"Feature","id":"way/633617699-0-0-0","properties":{"highway":"residential","lanes":"3","lanes:backward":"2","lanes:forward":"1","maxspeed":"50","name":"Dover Rise","surface":"asphalt","turn:lanes:backward":"left|right"},"geometry":{"type":"LineString","coordinates":[[103.7833505,1.3018297],[103.7833949,1.301868]]}},{"type":"Feature","id":"way/633617699-0-1-0","properties":{"highway":"residential","lanes":"3","lanes:backward":"2","lanes:forward":"1","maxspeed":"50","name":"Dover Rise","surface":"asphalt","turn:lanes:backward":"left|right"},"geometry":{"type":"LineString","coordinates":[[103.7833949,1.301868],[103.7834871,1.3019477]]}},{"type":"Feature","id":"way/641237393-0-0-0","properties":{"highway":"motorway","lanes":"4","maxspeed":"90","name":"Ayer Rajah Expressway","name:ms":"Lebuhraya Ayer Rajah","name:ta":"\u0b86\u0baf\u0bb0\u0bcd \u0bb0\u0bbe\u0b9c\u0bbe \u0bb5\u0bbf\u0bb0\u0bb5\u0bc1\u0b9a\u0bcd\u0b9a\u0bbe\u0bb2\u0bc8","name:zh":"\u4e9a\u9038\u62c9\u60f9\u9ad8\u901f\u516c\u8def","oneway":"yes","ref":"AYE","surface":"asphalt","wikidata":"Q2657325","wikipedia":"en:Ayer Rajah Expressway"},"geometry":{"type":"LineString","coordinates":[[103.7817746,1.2980856],[103.7811524,1.2984307]]}},{"type":"Feature","id":"way/641238477-0-0-0","properties":{"highway":"motorway","lanes":"4","maxspeed":"90","name":"Ayer Rajah Expressway","name:ms":"Lebuhraya Ayer Rajah","name:ta":"\u0b86\u0baf\u0bb0\u0bcd \u0bb0\u0bbe\u0b9c\u0bbe \u0bb5\u0bbf\u0bb0\u0bb5\u0bc1\u0b9a\u0bcd\u0b9a\u0bbe\u0bb2\u0bc8","name:zh":"\u4e9a\u9038\u62c9\u60f9\u9ad8\u901f\u516c\u8def","oneway":"yes","ref":"AYE","surface":"asphalt","wikidata":"Q2657325","wikipedia":"en:Ayer Rajah Expressway"},"geometry":{"type":"LineString","coordinates":[[103.7812262,1.2985917],[103.7818516,1.2982483]]}},{"type":"Feature","id":"way/643422782-0-0-0","properties":{"highway":"service","lanes":"2","lanes:backward":"1","lanes:forward":"1","service":"parking_aisle","surface":"asphalt","turn:lanes:backward":"through","turn:lanes:forward":"through"},"geometry":{"type":"LineString","coordinates":[[103.780496,1.2983049],[103.7806735,1.2982204]]}},{"type":"Feature","id":"way/643422783-0-0-0","properties":{"highway":"service","lanes":"2","lanes:backward":"1","lanes:forward":"1","service":"parking_aisle","surface":"asphalt"},"geometry":{"type":"LineString","coordinates":[[103.7806735,1.2982204],[103.7807595,1.2981807]]}},{"type":"Feature","id":"way/643422784-0-0-0","properties":{"highway":"service","lanes":"2","lanes:backward":"1","lanes:forward":"1","service":"parking_aisle","surface":"asphalt"},"geometry":{"type":"LineString","coordinates":[[103.7802822,1.2984061],[103.780496,1.2983049]]}},{"type":"Feature","id":"way/643424860-0-0-0","properties":{"highway":"service","lanes":"2","lanes:backward":"1","lanes:forward":"1","service":"parking_aisle","surface":"asphalt"},"geometry":{"type":"LineString","coordinates":[[103.7811794,1.2979994],[103.7813242,1.2979053]]}},{"type":"Feature","id":"way/643424861-0-0-0","properties":{"highway":"service","lanes":"2","lanes:backward":"1","lanes:forward":"1","service":"parking_aisle","surface":"asphalt"},"geometry":{"type":"LineString","coordinates":[[103.7808595,1.2981321],[103.7811794,1.2979994]]}},{"type":"Feature","id":"way/643424862-0-0-0","properties":{"highway":"service","lanes":"2","lanes:backward":"1","lanes:forward":"1","service":"parking_aisle","surface":"asphalt"},"geometry":{"type":"LineString","coordinates":[[103.7807595,1.2981807],[103.7808595,1.2981321]]}},{"type":"Feature","id":"way/643425147-0-1-0","properties":{"highway":"service","lanes":"1","oneway":"yes","service":"parking_aisle","surface":"asphalt"},"geometry":{"type":"LineString","coordinates":[[103.7815498,1.2974591],[103.7815426,1.2975039]]}},{"type":"Feature","id":"way/643425147-0-2-0","properties":{"highway":"service","lanes":"1","oneway":"yes","service":"parking_aisle","surface":"asphalt"},"geometry":{"type":"LineString","coordinates":[[103.7815426,1.2975039],[103.7815278,1.2975556]]}},{"type":"Feature","id":"way/643425147-0-3-0","properties":{"highway":"service","lanes":"1","oneway":"yes","service":"parking_aisle","surface":"asphalt"},"geometry":{"type":"LineString","coordinates":[[103.7815278,1.2975556],[103.781453,1.2976179]]}},{"type":"Feature","id":"way/643425147-0-4-0","properties":{"highway":"service","lanes":"1","oneway":"yes","service":"parking_aisle","surface":"asphalt"},"geometry":{"type":"LineString","coordinates":[[103.781453,1.2976179],[103.7813244,1.2976285]]}},{"type":"Feature","id":"way/644915789-0-0-0","properties":{"highway":"service","lanes":"2","lanes:backward":"1","lanes:forward":"1","service":"parking_aisle"},"geometry":{"type":"LineString","coordinates":[[103.7801483,1.3014826],[103.7802408,1.3014185]]}},{"type":"Feature","id":"way/644915789-0-1-0","properties":{"highway":"service","lanes":"2","lanes:backward":"1","lanes:forward":"1","service":"parking_aisle"},"geometry":{"type":"LineString","coordinates":[[103.7802408,1.3014185],[103.7802893,1.3013885]]}},{"type":"Feature","id":"way/644918160-0-0-0","properties":{"highway":"service","lanes":"2","lanes:backward":"1","lanes:forward":"1","service":"parking_aisle"},"geometry":{"type":"LineString","coordinates":[[103.7806179,1.3009225],[103.7805527,1.3008928]]}},{"type":"Feature","id":"way/644918936-0-0-0","properties":{"highway":"service","lanes":"2","lanes:backward":"1","lanes:forward":"1","maxspeed":"50","name":"Dover Drive","name:en":"Dover Drive","name:zh":"\u675c\u4f5b\u901a\u9053","turn:lanes:forward":"through;right"},"geometry":{"type":"LineString","coordinates":[[103.7809807,1.3010987],[103.7808847,1.3012198]]}},{"type":"Feature","id":"way/646982802-0-0-0","properties":{"highway":"service","lanes":"2","lanes:backward":"1","lanes:forward":"1","service":"parking_aisle","surface":"asphalt"},"geometry":{"type":"LineString","coordinates":[[103.781594,1.2975547],[103.7816497,1.2976939]]}},{"type":"Feature","id":"way/647087598-0-3-0","properties":{"highway":"residential","lanes":"1","maxheight":"7","maxspeed":"25","name":"Lower Kent Ridge Road","name:ta":"\u0b95\u0bc0\u0bb4\u0bcd \u0b95\u0bc6\u0ba3\u0bcd\u0b9f\u0bcd \u0bb0\u0bbf\u0b9c\u0bcd \u0bb0\u0bcb\u0b9f\u0bc1","name:zh":"\u80af\u7279\u5c97\u8def\u4e0b\u6bb5","note:ta":"check name","oneway":"yes","surface":"asphalt","turn:lanes":"through"},"geometry":{"type":"LineString","coordinates":[[103.7806839,1.2974916],[103.7810074,1.2975076]]}},{"type":"Feature","id":"way/655602240-0-1-0","properties":{"highway":"tertiary","lanes":"2","maxspeed":"40","name":"Dover Road","name:en":"Dover Road","name:zh":"\u675c\u4f5b\u8def","oneway":"yes","surface":"asphalt","turn:lanes":"left;through|through"},"geometry":{"type":"LineString","coordinates":[[103.7833214,1.3018644],[103.7833505,1.3018297]]}},{"type":"Feature","id":"way/671410973-0-0-0","properties":{"highway":"service","lanes":"2","lanes:backward":"1","lanes:forward":"1","service":"parking_aisle","sidewalk":"both","turn:lanes:backward":"through","turn:lanes:forward":"through;right"},"geometry":{"type":"LineString","coordinates":[[103.780746,1.3009822],[103.7806179,1.3009225]]}},{"type":"Feature","id":"way/673051954-0-0-0","properties":{"highway":"service","lanes":"2","lanes:backward":"1","lanes:forward":"1","service":"driveway","turn:lanes:backward":"through","turn:lanes:forward":"through"},"geometry":{"type":"LineString","coordinates":[[103.7808847,1.3012198],[103.7809056,1.3012395]]}},{"type":"Feature","id":"way/673051954-0-1-0","properties":{"highway":"service","lanes":"2","lanes:backward":"1","lanes:forward":"1","service":"driveway","turn:lanes:backward":"through","turn:lanes:forward":"through"},"geometry":{"type":"LineString","coordinates":[[103.7809056,1.3012395],[103.7809305,1.3012585]]}},{"type":"Feature","id":"way/673051954-0-2-0","properties":{"highway":"service","lanes":"2","lanes:backward":"1","lanes:forward":"1","service":"driveway","turn:lanes:backward":"through","turn:lanes:forward":"through"},"geometry":{"type":"LineString","coordinates":[[103.7809305,1.3012585],[103.781025,1.3013522]]}},{"type":"Feature","id":"way/673051955-0-0-0","properties":{"highway":"service","lanes":"2","lanes:backward":"1","lanes:forward":"1","maxspeed":"50","name":"Dover Drive","name:en":"Dover Drive","name:zh":"\u675c\u4f5b\u901a\u9053","turn:lanes:forward":"through;right"},"geometry":{"type":"LineString","coordinates":[[103.7810963,1.3009442],[103.7809807,1.3010987]]}},{"type":"Feature","id":"way/673051956-0-0-0","properties":{"highway":"service","lanes":"2","lanes:backward":"1","lanes:forward":"1","service":"driveway","turn:lanes:backward":"left;right","turn:lanes:forward":"through"},"geometry":{"type":"LineString","coordinates":[[103.7810963,1.3009442],[103.7810733,1.3009279]]}},{"type":"Feature","id":"way/673051956-0-1-0","properties":{"highway":"service","lanes":"2","lanes:backward":"1","lanes:forward":"1","service":"driveway","turn:lanes:backward":"left;right","turn:lanes:forward":"through"},"geometry":{"type":"LineString","coordinates":[[103.7810733,1.3009279],[103.7810176,1.3008886]]}},{"type":"Feature","id":"way/673051956-0-2-0","properties":{"highway":"service","lanes":"2","lanes:backward":"1","lanes:forward":"1","service":"driveway","turn:lanes:backward":"left;right","turn:lanes:forward":"through"},"geometry":{"type":"LineString","coordinates":[[103.7810176,1.3008886],[103.7809692,1.300854]]}},{"type":"Feature","id":"way/674873611-0-0-0","properties":{"highway":"service","lanes":"2","lanes:backward":"1","lanes:forward":"1","maxspeed":"50","name":"Dover Drive","name:en":"Dover Drive","name:zh":"\u675c\u4f5b\u901a\u9053","turn:lanes:forward":"left;through"},"geometry":{"type":"LineString","coordinates":[[103.7813773,1.3005761],[103.7813138,1.3006592]]}},{"type":"Feature","id":"way/676467856-0-1-0","properties":{"highway":"service","lanes":"2","lanes:backward":"1","lanes:forward":"1","maxspeed":"50","name":"Dover Drive","name:en":"Dover Drive","name:zh":"\u675c\u4f5b\u901a\u9053","sidewalk":"right","surface":"asphalt","turn:lanes:backward":"left;right","turn:lanes:forward":"through"},"geometry":{"type":"LineString","coordinates":[[103.7836617,1.3012027],[103.7835442,1.3011271]]}},{"type":"Feature","id":"way/676467856-0-2-0","properties":{"highway":"service","lanes":"2","lanes:backward":"1","lanes:forward":"1","maxspeed":"50","name":"Dover Drive","name:en":"Dover Drive","name:zh":"\u675c\u4f5b\u901a\u9053","sidewalk":"right","surface":"asphalt","turn:lanes:backward":"left;right","turn:lanes:forward":"through"},"geometry":{"type":"LineString","coordinates":[[103.7835442,1.3011271],[103.783465,1.301076]]}},{"type":"Feature","id":"way/676467856-0-3-0","properties":{"highway":"service","lanes":"2","lanes:backward":"1","lanes:forward":"1","maxspeed":"50","name":"Dover Drive","name:en":"Dover Drive","name:zh":"\u675c\u4f5b\u901a\u9053","sidewalk":"right","surface":"asphalt","turn:lanes:backward":"left;right","turn:lanes:forward":"through"},"geometry":{"type":"LineString","coordinates":[[103.783465,1.301076],[103.7833598,1.3010156]]}},{"type":"Feature","id":"way/676697576-0-0-0","properties":{"highway":"service","lanes":"2","lanes:backward":"1","lanes:forward":"1","maxspeed":"50","name":"Dover Drive","name:en":"Dover Drive","name:zh":"\u675c\u4f5b\u901a\u9053","turn:lanes:forward":"through;right"},"geometry":{"type":"LineString","coordinates":[[103.7806052,1.3015641],[103.7804904,1.301675]]}},{"type":"Feature","id":"way/676697577-0-0-0","properties":{"highway":"service","lanes":"2","lanes:backward":"1","lanes:forward":"1","maxspeed":"50","name":"Dover Drive","name:en":"Dover Drive","name:zh":"\u675c\u4f5b\u901a\u9053","turn:lanes:backward":"left;through"},"geometry":{"type":"LineString","coordinates":[[103.7808847,1.3012198],[103.7807906,1.3013356]]}},{"type":"Feature","id":"way/744657450-0-0-0","properties":{"highway":"residential","lanes":"2","maxspeed":"25","name":"Lower Kent Ridge Road","name:ta":"\u0b95\u0bc0\u0bb4\u0bcd \u0b95\u0bc6\u0ba3\u0bcd\u0b9f\u0bcd \u0bb0\u0bbf\u0b9c\u0bcd \u0bb0\u0bcb\u0b9f\u0bc1","name:zh":"\u80af\u7279\u5c97\u8def\u4e0b\u6bb5","note:ta":"check name","oneway":"yes","surface":"asphalt","turn:lanes":"left;through|through;right"},"geometry":{"type":"LineString","coordinates":[[103.7813253,1.2974913],[103.7814245,1.2974753]]}},{"type":"Feature","id":"way/744666012-0-0-0","properties":{"highway":"residential","lanes":"1","maxspeed":"25","name":"Lower Kent Ridge Road","name:ta":"\u0b95\u0bc0\u0bb4\u0bcd \u0b95\u0bc6\u0ba3\u0bcd\u0b9f\u0bcd \u0bb0\u0bbf\u0b9c\u0bcd \u0bb0\u0bcb\u0b9f\u0bc1","name:zh":"\u80af\u7279\u5c97\u8def\u4e0b\u6bb5","note:ta":"check name","oneway":"yes","surface":"asphalt","turn:lanes":"left;through;right"},"geometry":{"type":"LineString","coordinates":[[103.7810074,1.2975076],[103.7812075,1.2974973]]}},{"type":"Feature","id":"way/744666012-0-1-0","properties":{"highway":"residential","lanes":"1","maxspeed":"25","name":"Lower Kent Ridge Road","name:ta":"\u0b95\u0bc0\u0bb4\u0bcd \u0b95\u0bc6\u0ba3\u0bcd\u0b9f\u0bcd \u0bb0\u0bbf\u0b9c\u0bcd \u0bb0\u0bcb\u0b9f\u0bc1","name:zh":"\u80af\u7279\u5c97\u8def\u4e0b\u6bb5","note:ta":"check name","oneway":"yes","surface":"asphalt","turn:lanes":"left;through;right"},"geometry":{"type":"LineString","coordinates":[[103.7812075,1.2974973],[103.7813253,1.2974913]]}},{"type":"Feature","id":"way/744684050-0-0-0","properties":{"highway":"service","lanes":"2","lanes:backward":"1","lanes:forward":"1","service":"parking_aisle","surface":"asphalt"},"geometry":{"type":"LineString","coordinates":[[103.7814024,1.2978545],[103.7816497,1.2976939]]}},{"type":"Feature","id":"way/744684051-0-0-0","properties":{"highway":"service","lanes":"2","lanes:backward":"1","lanes:forward":"1","service":"parking_aisle","surface":"asphalt","turn:lanes:backward":"through","turn:lanes:forward":"through"},"geometry":{"type":"LineString","coordinates":[[103.7813242,1.2979053],[103.7814024,1.2978545]]}},{"type":"Feature","id":"way/744684052-0-0-0","properties":{"highway":"service","lanes":"2","lanes:backward":"1","lanes:forward":"1","service":"parking_aisle","surface":"asphalt","turn:lanes:backward":"through","turn:lanes:forward":"through"},"geometry":{"type":"LineString","coordinates":[[103.7818574,1.297556],[103.7819302,1.2975076]]}},{"type":"Feature","id":"way/744684053-0-0-0","properties":{"highway":"service","lanes":"2","lanes:backward":"1","lanes:forward":"1","service":"parking_aisle","surface":"asphalt"},"geometry":{"type":"LineString","coordinates":[[103.7816833,1.2976716],[103.7818574,1.297556]]}},{"type":"Feature","id":"way/744684056-0-0-0","properties":{"highway":"service","lanes":"2","lanes:backward":"1","lanes:forward":"1","service":"parking_aisle","surface":"asphalt","turn:lanes:backward":"left;right","turn:lanes:forward":"through"},"geometry":{"type":"LineString","coordinates":[[103.7811487,1.2978887],[103.7810009,1.2978752]]}},{"type":"Feature","id":"way/744684057-0-0-0","properties":{"highway":"service","lanes":"1","oneway":"yes","service":"parking_aisle","surface":"asphalt","turn:lanes":"through;right"},"geometry":{"type":"LineString","coordinates":[[103.7813244,1.2976285],[103.7811605,1.2976275]]}},{"type":"Feature","id":"way/744684058-0-0-0","properties":{"highway":"service","lanes":"2","lanes:backward":"1","lanes:forward":"1","service":"parking_aisle","surface":"asphalt"},"geometry":{"type":"LineString","coordinates":[[103.7811552,1.2977443],[103.7811487,1.2978887]]}},{"type":"Feature","id":"way/744684059-0-0-0","properties":{"highway":"service","lanes":"1","oneway":"yes","service":"parking_aisle","surface":"asphalt","turn:lanes":"left;right"},"geometry":{"type":"LineString","coordinates":[[103.780674,1.2981157],[103.7806735,1.2982204]]}},{"type":"Feature","id":"way/744684060-0-0-0","properties":{"highway":"service","lanes":"1","oneway":"yes","service":"parking_aisle","surface":"asphalt","turn:lanes":"left;right"},"geometry":{"type":"LineString","coordinates":[[103.7805009,1.2981961],[103.780496,1.2983049]]}},{"type":"Feature","id":"way/744684061-0-0-0","properties":{"highway":"service","lanes":"1","oneway":"yes","service":"parking_aisle","surface":"asphalt"},"geometry":{"type":"LineString","coordinates":[[103.7806745,1.2980325],[103.780674,1.2981157]]}},{"type":"Feature","id":"way/744684062-0-0-0","properties":{"highway":"service","lanes":"1","oneway":"yes","service":"parking_aisle","surface":"asphalt"},"geometry":{"type":"LineString","coordinates":[[103.7805103,1.2979868],[103.7805009,1.2981961]]}},{"type":"Feature","id":"way/745386166-0-0-0","properties":{"highway":"service","lanes":"2","lanes:backward":"1","lanes:forward":"1","maxspeed":"50","name":"Dover Drive","name:en":"Dover Drive","name:zh":"\u675c\u4f5b\u901a\u9053"},"geometry":{"type":"LineString","coordinates":[[103.7807906,1.3013356],[103.7806052,1.3015641]]}},{"type":"Feature","id":"way/745386167-0-0-0","properties":{"highway":"service","lanes":"2","lanes:backward":"1","lanes:forward":"1","maxspeed":"50","name":"Dover Drive","name:en":"Dover Drive","name:zh":"\u675c\u4f5b\u901a\u9053","turn:lanes:forward":"left;through"},"geometry":{"type":"LineString","coordinates":[[103.7811901,1.3008214],[103.7810963,1.3009442]]}},{"type":"Feature","id":"way/745386168-0-0-0","properties":{"highway":"service","lanes":"2","lanes:backward":"1","lanes:forward":"1","maxspeed":"50","name":"Dover Drive","name:en":"Dover Drive","name:zh":"\u675c\u4f5b\u901a\u9053"},"geometry":{"type":"LineString","coordinates":[[103.7813138,1.3006592],[103.7811901,1.3008214]]}},{"type":"Feature","id":"way/745388564-0-0-0","properties":{"highway":"service","lanes":"2","lanes:backward":"1","lanes:forward":"1","service":"parking_aisle","turn:lanes:backward":"through","turn:lanes:forward":"through"},"geometry":{"type":"LineString","coordinates":[[103.7810104,1.3016566],[103.7810317,1.3015869]]}},{"type":"Feature","id":"way/745388565-0-0-0","properties":{"highway":"service","lanes":"2","lanes:backward":"1","lanes:forward":"1","service":"parking_aisle"},"geometry":{"type":"LineString","coordinates":[[103.7809193,1.3018891],[103.780978,1.3017451]]}},{"type":"Feature","id":"way/745388565-0-1-0","properties":{"highway":"service","lanes":"2","lanes:backward":"1","lanes:forward":"1","service":"parking_aisle"},"geometry":{"type":"LineString","coordinates":[[103.780978,1.3017451],[103.7810104,1.3016566]]}},{"type":"Feature","id":"way/745388566-0-0-0","properties":{"highway":"service","lanes":"2","lanes:backward":"1","lanes:forward":"1","service":"driveway","turn:lanes:backward":"through","turn:lanes:forward":"through"},"geometry":{"type":"LineString","coordinates":[[103.7808901,1.3019657],[103.7809193,1.3018891]]}},{"type":"Feature","id":"way/745388569-0-0-0","properties":{"highway":"service","lanes":"2","lanes:backward":"1","lanes:forward":"1","service":"driveway"},"geometry":{"type":"LineString","coordinates":[[103.78109,1.3012802],[103.7811074,1.3013288]]}},{"type":"Feature","id":"way/745388569-0-1-0","properties":{"highway":"service","lanes":"2","lanes:backward":"1","lanes:forward":"1","service":"driveway"},"geometry":{"type":"LineString","coordinates":[[103.7811074,1.3013288],[103.7811048,1.3013542]]}},{"type":"Feature","id":"way/745388569-0-2-0","properties":{"highway":"service","lanes":"2","lanes:backward":"1","lanes:forward":"1","service":"driveway"},"geometry":{"type":"LineString","coordinates":[[103.7811048,1.3013542],[103.7810987,1.3013814]]}},{"type":"Feature","id":"way/745388570-0-0-0","properties":{"highway":"service","lanes":"1","oneway":"yes","service":"driveway"},"geometry":{"type":"LineString","coordinates":[[103.7810592,1.3012788],[103.78109,1.3012802]]}},{"type":"Feature","id":"way/745388570-0-1-0","properties":{"highway":"service","lanes":"1","oneway":"yes","service":"driveway"},"geometry":{"type":"LineString","coordinates":[[103.78109,1.3012802],[103.7811167,1.3012648]]}},{"type":"Feature","id":"way/745388570-0-2-0","properties":{"highway":"service","lanes":"1","oneway":"yes","service":"driveway"},"geometry":{"type":"LineString","coordinates":[[103.7811167,1.3012648],[103.7811308,1.3012375]]}},{"type":"Feature","id":"way/745388570-0-3-0","properties":{"highway":"service","lanes":"1","oneway":"yes","service":"driveway"},"geometry":{"type":"LineString","coordinates":[[103.7811308,1.3012375],[103.7811278,1.3012068]]}},{"type":"Feature","id":"way/745388570-0-4-0","properties":{"highway":"service","lanes":"1","oneway":"yes","service":"driveway"},"geometry":{"type":"LineString","coordinates":[[103.7811278,1.3012068],[103.7811088,1.3011826]]}},{"type":"Feature","id":"way/745388570-0-5-0","properties":{"highway":"service","lanes":"1","oneway":"yes","service":"driveway"},"geometry":{"type":"LineString","coordinates":[[103.7811088,1.3011826],[103.7810797,1.3011725]]}},{"type":"Feature","id":"way/745388570-0-6-0","properties":{"highway":"service","lanes":"1","oneway":"yes","service":"driveway"},"geometry":{"type":"LineString","coordinates":[[103.7810797,1.3011725],[103.7810497,1.3011798]]}},{"type":"Feature","id":"way/745388570-0-7-0","properties":{"highway":"service","lanes":"1","oneway":"yes","service":"driveway"},"geometry":{"type":"LineString","coordinates":[[103.7810497,1.3011798],[103.7810285,1.3012021]]}},{"type":"Feature","id":"way/745388570-0-8-0","properties":{"highway":"service","lanes":"1","oneway":"yes","service":"driveway"},"geometry":{"type":"LineString","coordinates":[[103.7810285,1.3012021],[103.7810227,1.3012323]]}},{"type":"Feature","id":"way/745388570-0-9-0","properties":{"highway":"service","lanes":"1","oneway":"yes","service":"driveway"},"geometry":{"type":"LineString","coordinates":[[103.7810227,1.3012323],[103.7810341,1.3012609]]}},{"type":"Feature","id":"way/745388570-0-10-0","properties":{"highway":"service","lanes":"1","oneway":"yes","service":"driveway"},"geometry":{"type":"LineString","coordinates":[[103.7810341,1.3012609],[103.7810592,1.3012788]]}},{"type":"Feature","id":"way/745388571-0-0-0","properties":{"highway":"service","lanes":"2","lanes:backward":"1","lanes:forward":"1","service":"driveway"},"geometry":{"type":"LineString","coordinates":[[103.781025,1.3013522],[103.7810987,1.3013814]]}},{"type":"Feature","id":"way/745396475-0-0-0","properties":{"highway":"service","lanes":"2","lanes:backward":"1","lanes:forward":"1","service":"driveway","turn:lanes:backward":"through","turn:lanes:forward":"left;right"},"geometry":{"type":"LineString","coordinates":[[103.7808938,1.3007895],[103.7808198,1.3007261]]}},{"type":"Feature","id":"way/745396476-0-0-0","properties":{"highway":"service","lanes":"2","lanes:backward":"1","lanes:forward":"1","service":"driveway"},"geometry":{"type":"LineString","coordinates":[[103.7809692,1.300854],[103.7808938,1.3007895]]}},{"type":"Feature","id":"way/745396768-0-0-0","properties":{"highway":"service","lanes":"2","lanes:backward":"1","lanes:forward":"1","service":"parking_aisle","sidewalk":"both"},"geometry":{"type":"LineString","coordinates":[[103.7808647,1.3010411],[103.780746,1.3009822]]}},{"type":"Feature","id":"way/745397841-0-0-0","properties":{"highway":"service","lanes":"2","lanes:backward":"1","lanes:forward":"1","service":"parking_aisle","turn:lanes:forward":"through;right"},"geometry":{"type":"LineString","coordinates":[[103.780807,1.2993437],[103.7806746,1.299425]]}},{"type":"Feature","id":"way/745397842-0-0-0","properties":{"highway":"service","lanes":"2","lanes:backward":"1","lanes:forward":"1","service":"parking_aisle","turn:lanes:backward":"left;through"},"geometry":{"type":"LineString","coordinates":[[103.7806746,1.299425],[103.7805558,1.2994979]]}},{"type":"Feature","id":"way/745397843-0-0-0","properties":{"highway":"service","lanes":"2","lanes:backward":"1","lanes:forward":"1"},"geometry":{"type":"LineString","coordinates":[[103.7807593,1.2995528],[103.7808359,1.2996737]]}},{"type":"Feature","id":"way/745397844-0-0-0","properties":{"highway":"service","lanes":"2","lanes:backward":"1","lanes:forward":"1","turn:lanes:backward":"left;right","turn:lanes:forward":"through"},"geometry":{"type":"LineString","coordinates":[[103.7806746,1.299425],[103.7807593,1.2995528]]}},{"type":"Feature","id":"way/745397845-0-0-0","properties":{"highway":"service","lanes":"2","lanes:backward":"1","lanes:forward":"1","service":"parking_aisle"},"geometry":{"type":"LineString","coordinates":[[103.7805558,1.2994979],[103.7801797,1.2997286]]}},{"type":"Feature","id":"way/745397846-0-0-0","properties":{"highway":"service","lanes":"2","lanes:backward":"1","lanes:forward":"1","service":"parking_aisle","sidewalk":"left"},"geometry":{"type":"LineString","coordinates":[[103.7805527,1.3008928],[103.7806134,1.3008503]]}},{"type":"Feature","id":"way/745397846-0-1-0","properties":{"highway":"service","lanes":"2","lanes:backward":"1","lanes:forward":"1","service":"parking_aisle","sidewalk":"left"},"geometry":{"type":"LineString","coordinates":[[103.7806134,1.3008503],[103.7806817,1.3008088]]}},{"type":"Feature","id":"way/745397846-0-2-0","properties":{"highway":"service","lanes":"2","lanes:backward":"1","lanes:forward":"1","service":"parking_aisle","sidewalk":"left"},"geometry":{"type":"LineString","coordinates":[[103.7806817,1.3008088],[103.7807032,1.3007959]]}},{"type":"Feature","id":"way/745399887-0-0-0","properties":{"highway":"service","lanes":"2","lanes:backward":"1","lanes:forward":"1","service":"parking_aisle"},"geometry":{"type":"LineString","coordinates":[[103.7809772,1.3006272],[103.781067,1.3005707]]}},{"type":"Feature","id":"way/745399887-0-1-0","properties":{"highway":"service","lanes":"2","lanes:backward":"1","lanes:forward":"1","service":"parking_aisle"},"geometry":{"type":"LineString","coordinates":[[103.781067,1.3005707],[103.7811689,1.3005066]]}},{"type":"Feature","id":"way/745399887-0-2-0","properties":{"highway":"service","lanes":"2","lanes:backward":"1","lanes:forward":"1","service":"parking_aisle"},"geometry":{"type":"LineString","coordinates":[[103.7811689,1.3005066],[103.7812293,1.3004686]]}},{"type":"Feature","id":"way/745399888-0-0-0","properties":{"highway":"service","lanes":"2","lanes:backward":"1","lanes:forward":"1","service":"parking_aisle","sidewalk":"right","turn:lanes:forward":"through"},"geometry":{"type":"LineString","coordinates":[[103.7813168,1.3004155],[103.7813984,1.3003419]]}},{"type":"Feature","id":"way/745399889-0-0-0","properties":{"highway":"service","lanes":"2","lanes:backward":"1","lanes:forward":"1","service":"parking_aisle","sidewalk":"right"},"geometry":{"type":"LineString","coordinates":[[103.7813984,1.3003419],[103.7814988,1.3002413]]}},{"type":"Feature","id":"way/745399889-0-1-0","properties":{"highway":"service","lanes":"2","lanes:backward":"1","lanes:forward":"1","service":"parking_aisle","sidewalk":"right"},"geometry":{"type":"LineString","coordinates":[[103.7814988,1.3002413],[103.7815069,1.3002184]]}},{"type":"Feature","id":"way/745399890-0-0-0","properties":{"highway":"service","lanes":"2","lanes:backward":"1","lanes:forward":"1","service":"parking_aisle","sidewalk":"left","turn:lanes:backward":"through;right","turn:lanes:forward":"through"},"geometry":{"type":"LineString","coordinates":[[103.7808198,1.3007261],[103.7809772,1.3006272]]}},{"type":"Feature","id":"way/745399891-0-0-0","properties":{"highway":"service","lanes":"2","lanes:backward":"1","lanes:forward":"1","service":"parking_aisle","sidewalk":"right"},"geometry":{"type":"LineString","coordinates":[[103.7815364,1.3001348],[103.781544,1.3000665]]}},{"type":"Feature","id":"way/745399891-0-1-0","properties":{"highway":"service","lanes":"2","lanes:backward":"1","lanes:forward":"1","service":"parking_aisle","sidewalk":"right"},"geometry":{"type":"LineString","coordinates":[[103.781544,1.3000665],[103.7815271,1.2999943]]}},{"type":"Feature","id":"way/745399891-0-2-0","properties":{"highway":"service","lanes":"2","lanes:backward":"1","lanes:forward":"1","service":"parking_aisle","sidewalk":"right"},"geometry":{"type":"LineString","coordinates":[[103.7815271,1.2999943],[103.7814945,1.2999401]]}},{"type":"Feature","id":"way/745399892-0-0-0","properties":{"highway":"service","lanes":"2","lanes:backward":"1","lanes:forward":"1","service":"parking_aisle","sidewalk":"right","turn:lanes:backward":"through","turn:lanes:forward":"through"},"geometry":{"type":"LineString","coordinates":[[103.7815069,1.3002184],[103.7815364,1.3001348]]}},{"type":"Feature","id":"way/745399893-0-0-0","properties":{"highway":"service","lanes":"2","lanes:backward":"1","lanes:forward":"1","service":"parking_aisle","sidewalk":"right","turn:lanes:forward":"through"},"geometry":{"type":"LineString","coordinates":[[103.7814945,1.2999401],[103.7814565,1.299875]]}},{"type":"Feature","id":"way/745399894-0-0-0","properties":{"highway":"service","lanes":"2","lanes:backward":"1","lanes:forward":"1","service":"parking_aisle","sidewalk":"right"},"geometry":{"type":"LineString","coordinates":[[103.7814565,1.299875],[103.7813991,1.2997861]]}},{"type":"Feature","id":"way/745399894-0-1-0","properties":{"highway":"service","lanes":"2","lanes:backward":"1","lanes:forward":"1","service":"parking_aisle","sidewalk":"right"},"geometry":{"type":"LineString","coordinates":[[103.7813991,1.2997861],[103.7813455,1.2997031]]}},{"type":"Feature","id":"way/745399895-0-0-0","properties":{"highway":"service","lanes":"2","lanes:backward":"1","lanes:forward":"1","service":"parking_aisle","sidewalk":"right"},"geometry":{"type":"LineString","coordinates":[[103.781314,1.2996535],[103.7811708,1.2994133]]}},{"type":"Feature","id":"way/745399896-0-0-0","properties":{"highway":"service","lanes":"2","lanes:backward":"1","lanes:forward":"1","service":"parking_aisle","sidewalk":"right","turn:lanes:backward":"through"},"geometry":{"type":"LineString","coordinates":[[103.7813455,1.2997031],[103.781314,1.2996535]]}},{"type":"Feature","id":"way/745399897-0-0-0","properties":{"highway":"service","lanes":"2","lanes:backward":"1","lanes:forward":"1","service":"parking_aisle","sidewalk":"right"},"geometry":{"type":"LineString","coordinates":[[103.7811339,1.2993574],[103.7811049,1.2993133]]}},{"type":"Feature","id":"way/745399897-0-1-0","properties":{"highway":"service","lanes":"2","lanes:backward":"1","lanes:forward":"1","service":"parking_aisle","sidewalk":"right"},"geometry":{"type":"LineString","coordinates":[[103.7811049,1.2993133],[103.7810001,1.2992729]]}},{"type":"Feature","id":"way/745399897-0-2-0","properties":{"highway":"service","lanes":"2","lanes:backward":"1","lanes:forward":"1","service":"parking_aisle","sidewalk":"right"},"geometry":{"type":"LineString","coordinates":[[103.7810001,1.2992729],[103.7809164,1.2992907]]}},{"type":"Feature","id":"way/745399897-0-3-0","properties":{"highway":"service","lanes":"2","lanes:backward":"1","lanes:forward":"1","service":"parking_aisle","sidewalk":"right"},"geometry":{"type":"LineString","coordinates":[[103.7809164,1.2992907],[103.780807,1.2993437]]}},{"type":"Feature","id":"way/745399898-0-0-0","properties":{"highway":"service","lanes":"2","lanes:backward":"1","lanes:forward":"1","service":"parking_aisle","sidewalk":"right","turn:lanes:forward":"through"},"geometry":{"type":"LineString","coordinates":[[103.7811708,1.2994133],[103.7811339,1.2993574]]}},{"type":"Feature","id":"way/745400240-0-0-0","properties":{"highway":"service","lanes":"2","lanes:backward":"1","lanes:forward":"1","service":"parking_aisle","sidewalk":"left","turn:lanes:forward":"left;through"},"geometry":{"type":"LineString","coordinates":[[103.7807032,1.3007959],[103.7808198,1.3007261]]}},{"type":"Feature","id":"way/745400968-0-0-0","properties":{"highway":"service","lanes":"2","lanes:backward":"1","lanes:forward":"1","service":"parking_aisle","turn:lanes:backward":"through","turn:lanes:forward":"left;right"},"geometry":{"type":"LineString","coordinates":[[103.7805741,1.3010698],[103.780586,1.3010296]]}},{"type":"Feature","id":"way/745400968-0-1-0","properties":{"highway":"service","lanes":"2","lanes:backward":"1","lanes:forward":"1","service":"parking_aisle","turn:lanes:backward":"through","turn:lanes:forward":"left;right"},"geometry":{"type":"LineString","coordinates":[[103.780586,1.3010296],[103.7806179,1.3009225]]}},{"type":"Feature","id":"way/745400969-0-0-0","properties":{"highway":"service","lanes":"2","lanes:backward":"1","lanes:forward":"1","service":"parking_aisle","turn:lanes":"through|through"},"geometry":{"type":"LineString","coordinates":[[103.7804763,1.3012499],[103.7805268,1.3011773]]}},{"type":"Feature","id":"way/745400970-0-0-0","properties":{"highway":"service","lanes":"2","lanes:backward":"1","lanes:forward":"1","service":"parking_aisle"},"geometry":{"type":"LineString","coordinates":[[103.7802893,1.3013885],[103.7804478,1.3012733]]}},{"type":"Feature","id":"way/745400970-0-1-0","properties":{"highway":"service","lanes":"2","lanes:backward":"1","lanes:forward":"1","service":"parking_aisle"},"geometry":{"type":"LineString","coordinates":[[103.7804478,1.3012733],[103.7804763,1.3012499]]}},{"type":"Feature","id":"way/745401562-0-0-0","properties":{"highway":"service","lanes":"1","oneway":"yes","service":"parking_aisle","turn:lanes":"through"},"geometry":{"type":"LineString","coordinates":[[103.7804109,1.3009723],[103.7803907,1.3010017]]}},{"type":"Feature","id":"way/745401562-0-1-0","properties":{"highway":"service","lanes":"1","oneway":"yes","service":"parking_aisle","turn:lanes":"through"},"geometry":{"type":"LineString","coordinates":[[103.7803907,1.3010017],[103.7803758,1.3010546]]}},{"type":"Feature","id":"way/745402446-0-0-0","properties":{"highway":"service","lanes":"2","lanes:backward":"1","lanes:forward":"1","service":"parking_aisle","turn:lanes:forward":"through"},"geometry":{"type":"LineString","coordinates":[[103.7796574,1.3014113],[103.7797761,1.301447]]}},{"type":"Feature","id":"way/745402447-0-0-0","properties":{"highway":"service","lanes":"2","lanes:backward":"1","lanes:forward":"1","service":"parking_aisle","turn:lanes:backward":"through"},"geometry":{"type":"LineString","coordinates":[[103.7797761,1.301447],[103.7798626,1.301473]]}},{"type":"Feature","id":"way/745402448-0-0-0","properties":{"highway":"service","lanes":"2","lanes:backward":"1","lanes:forward":"1","service":"parking_aisle","turn:lanes:backward":"left"},"geometry":{"type":"LineString","coordinates":[[103.779136,1.3012544],[103.7792693,1.3012946]]}},{"type":"Feature","id":"way/745403476-0-0-0","properties":{"highway":"service","lanes":"2","lanes:backward":"1","lanes:forward":"1","service":"parking_aisle"},"geometry":{"type":"LineString","coordinates":[[103.779185,1.3011235],[103.7793057,1.3010479]]}},{"type":"Feature","id":"way/745403477-0-0-0","properties":{"highway":"service","lanes":"2","lanes:backward":"1","lanes:forward":"1","service":"parking_aisle","turn:lanes:backward":"left"},"geometry":{"type":"LineString","coordinates":[[103.7790905,1.3011827],[103.779185,1.3011235]]}},{"type":"Feature","id":"way/745403479-0-0-0","properties":{"highway":"service","lanes":"2","lanes:backward":"1","lanes:forward":"1","service":"parking_aisle"},"geometry":{"type":"LineString","coordinates":[[103.7792693,1.3012946],[103.7794145,1.3013382]]}},{"type":"Feature","id":"way/745403480-0-0-0","properties":{"highway":"service","lanes":"2","lanes:backward":"1","lanes:forward":"1","service":"parking_aisle"},"geometry":{"type":"LineString","coordinates":[[103.7795068,1.301366],[103.7796574,1.3014113]]}},{"type":"Feature","id":"way/745403481-0-0-0","properties":{"highway":"service","lanes":"2","lanes:backward":"1","lanes:forward":"1","service":"parking_aisle","turn:lanes:forward":"through"},"geometry":{"type":"LineString","coordinates":[[103.7794145,1.3013382],[103.7795068,1.301366]]}},{"type":"Feature","id":"way/745645469-0-0-0","properties":{"highway":"service","lanes":"2","lanes:backward":"1","lanes:forward":"1","service":"parking_aisle"},"geometry":{"type":"LineString","coordinates":[[103.7790462,1.3017049],[103.7792646,1.3020622]]}},{"type":"Feature","id":"way/746714607-0-0-0","properties":{"highway":"tertiary","lanes":"2","maxspeed":"40","name":"Dover Road","name:en":"Dover Road","name:zh":"\u675c\u4f5b\u8def","oneway":"yes","surface":"asphalt"},"geometry":{"type":"LineString","coordinates":[[103.7835445,1.3015888],[103.7835882,1.3015296]]}},{"type":"Feature","id":"way/1167289483-0-0-0","properties":{"highway":"service","oneway":"yes","service":"driveway"},"geometry":{"type":"LineString","coordinates":[[103.7803463,1.3012001],[103.7803647,1.3012352]]}},{"type":"Feature","id":"way/1167289483-0-1-0","properties":{"highway":"service","oneway":"yes","service":"driveway"},"geometry":{"type":"LineString","coordinates":[[103.7803647,1.3012352],[103.7803933,1.3012623]]}},{"type":"Feature","id":"way/1167289483-0-2-0","properties":{"highway":"service","oneway":"yes","service":"driveway"},"geometry":{"type":"LineString","coordinates":[[103.7803933,1.3012623],[103.7804478,1.3012733]]}},{"type":"Feature","id":"way/1197857731-0-0-0","properties":{"highway":"service","horse":"no","oneway":"yes"},"geometry":{"type":"LineString","coordinates":[[103.7809989,1.3004605],[103.781067,1.3005707]]}},{"type":"Feature","id":"way/1197857732-0-0-0","properties":{"highway":"service","horse":"no","oneway":"yes"},"geometry":{"type":"LineString","coordinates":[[103.7811689,1.3005066],[103.7811019,1.3003954]]}},{"type":"Feature","id":"way/1197857733-0-0-0","properties":{"highway":"service","horse":"no","layer":"-1","oneway":"yes"},"geometry":{"type":"LineString","coordinates":[[103.7811019,1.3003954],[103.7809989,1.3004605]]}},{"type":"Feature","id":"way/1317376717-0-0-0","properties":{"highway":"service","lanes":"2","lanes:backward":"1","lanes:forward":"1","service":"parking_aisle","surface":"asphalt"},"geometry":{"type":"LineString","coordinates":[[103.7809659,1.2976073],[103.7810349,1.297615]]}},{"type":"Feature","id":"way/1317376717-0-1-0","properties":{"highway":"service","lanes":"2","lanes:backward":"1","lanes:forward":"1","service":"parking_aisle","surface":"asphalt"},"geometry":{"type":"LineString","coordinates":[[103.7810349,1.297615],[103.7810337,1.2976791]]}}]}