{"type":"FeatureCollection","features":[{"type":"Feature","id":"way/173551012-0","properties":{"addr:city":"Singapore","addr:country":"SG","addr:housenumber":"305","addr:postcode":"120305","addr:street":"Clementi Avenue 4","building":"residential","building:levels":"12","residential":"HDB","source":"Bing"},"geometry":{"type":"Polygon","coordinates":[[[103.7660659,1.3219474],[103.7660661,1.3219687],[103.7660044,1.3219692],[103.7660042,1.3219477],[103.7657104,1.3219493],[103.7657107,1.3219719],[103.7656775,1.3219722],[103.7656773,1.3219495],[103.7654881,1.3219506],[103.7654878,1.3219917],[103.765473,1.3219919],[103.7654734,1.3220322],[103.7654574,1.3220324],[103.7654579,1.322083],[103.7654581,1.3221024],[103.7656427,1.3221004],[103.765643,1.3221304],[103.7656745,1.32213],[103.7656741,1.3220955],[103.7664349,1.3220871],[103.7666853,1.3219608],[103.7666782,1.3219467],[103.7666519,1.3218947],[103.7666326,1.3219045],[103.7666142,1.3218682],[103.7666014,1.3218747],[103.7665891,1.3218503],[103.7664004,1.3219455],[103.7660659,1.3219474]]]}},{"type":"Feature","id":"way/173551013-0","properties":{"addr:city":"Singapore","addr:country":"SG","addr:housenumber":"306","addr:postcode":"120306","addr:street":"Clementi Avenue 4","building":"residential","building:levels":"12","residential":"HDB","source":"Bing"},"geometry":{"type":"Polygon","coordinates":[[[103.7662077,1.3213738],[103.7662071,1.3213123],[103.7661786,1.3213125],[103.7661792,1.3213748],[103.7659932,1.3213765],[103.7659786,1.3213766],[103.7659782,1.321339],[103.7659219,1.3213395],[103.7659222,1.3213788],[103.7659114,1.3213789],[103.765641,1.3213813],[103.7656405,1.3213272],[103.7655899,1.3213277],[103.7655904,1.3213816],[103.7655466,1.3213816],[103.7654296,1.3213804],[103.7653987,1.3213816],[103.7653985,1.321419],[103.7653983,1.3214552],[103.7654079,1.3214551],[103.7654083,1.3214965],[103.7654241,1.3214963],[103.7654243,1.3215234],[103.7656144,1.3215217],[103.7656141,1.3214899],[103.7656604,1.3214895],[103.7656607,1.3215235],[103.7659517,1.3215209],[103.7659514,1.3214826],[103.7660067,1.3214821],[103.7660071,1.3215195],[103.7662281,1.3215175],[103.7662276,1.321462],[103.7662493,1.3214618],[103.7662738,1.3214487],[103.7662967,1.3214915],[103.7664884,1.3213893],[103.7664785,1.3213707],[103.7664905,1.3213643],[103.76647,1.321326],[103.766486,1.3213175],[103.7664568,1.3212626],[103.7664519,1.3212536],[103.7662656,1.321353],[103.766227,1.3213736],[103.7662077,1.3213738]]]}},{"type":"Feature","id":"way/173551014-0","properties":{"addr:city":"Singapore","addr:country":"SG","addr:housenumber":"307","addr:postcode":"120307","addr:street":"Clementi Avenue 4","building":"residential","building:levels":"12","residential":"HDB","source":"Bing"},"geometry":{"type":"Polygon","coordinates":[[[103.7670062,1.3215883],[103.7670207,1.3215799],[103.7670328,1.3216008],[103.7670579,1.3215862],[103.7670432,1.321561],[103.7673242,1.3213972],[103.7673282,1.3214041],[103.7673657,1.3213823],[103.7673622,1.3213763],[103.7675745,1.3212525],[103.7675692,1.3212434],[103.7675414,1.3211956],[103.7675306,1.3212019],[103.7675093,1.3211653],[103.7674965,1.3211727],[103.7674819,1.3211477],[103.7672981,1.3212549],[103.767308,1.3212719],[103.7672805,1.321288],[103.7672686,1.3212676],[103.7669914,1.3214292],[103.7670031,1.3214493],[103.7669715,1.3214678],[103.7669599,1.3214479],[103.7667871,1.3215486],[103.7668011,1.3215726],[103.7667859,1.3215814],[103.7668053,1.3216148],[103.7667915,1.3216228],[103.7668238,1.3216781],[103.766831,1.3216905],[103.7670062,1.3215883]]]}},{"type":"Feature","id":"way/173551015-0","properties":{"addr:city":"Singapore","addr:country":"SG","addr:housenumber":"308","addr:postcode":"120308","addr:street":"Clementi Avenue 4","building":"residential","building:levels":"12","residential":"HDB","source":"Bing"},"geometry":{"type":"Polygon","coordinates":[[[103.7665592,1.3212054],[103.7666228,1.3213214],[103.7668409,1.3212011],[103.7668319,1.3211847],[103.7668636,1.3211673],[103.7668744,1.3211869],[103.7671493,1.3210352],[103.7671382,1.3210151],[103.7671694,1.3209979],[103.767183,1.3210226],[103.7673654,1.320922],[103.7673526,1.3208988],[103.767366,1.3208914],[103.7673449,1.3208532],[103.7673629,1.3208433],[103.7673316,1.3207865],[103.7673235,1.3207719],[103.7671151,1.3208868],[103.7670865,1.3209026],[103.7670549,1.3208455],[103.767027,1.3208609],[103.7670582,1.3209173],[103.766793,1.3210636],[103.7667808,1.3210703],[103.7667584,1.3210298],[103.7667206,1.3210507],[103.766743,1.3210913],[103.7665535,1.3211959],[103.7665592,1.3212054]]]}},{"type":"Feature","id":"way/173551016-0","properties":{"addr:city":"Singapore","addr:country":"SG","addr:housenumber":"309","addr:postcode":"120309","addr:street":"Clementi Avenue 4","building":"residential","building:levels":"12","residential":"HDB","source":"Bing"},"geometry":{"type":"Polygon","coordinates":[[[103.7661928,1.3211477],[103.7662122,1.3211369],[103.7662023,1.3211191],[103.7663984,1.321009],[103.76641,1.3210038],[103.7664172,1.3210168],[103.7664572,1.3209945],[103.7664493,1.3209802],[103.7667351,1.3208215],[103.7667474,1.3208436],[103.7667689,1.3208317],[103.7667542,1.3208053],[103.7669718,1.3206845],[103.7669641,1.3206706],[103.7669381,1.3206237],[103.766933,1.3206265],[103.7669153,1.3205948],[103.7668998,1.3206035],[103.7668846,1.3205763],[103.7667033,1.320677],[103.766714,1.3206963],[103.7666874,1.320711],[103.7666787,1.3206954],[103.7661623,1.3209822],[103.7659553,1.3209899],[103.7659561,1.3210148],[103.7659377,1.3210153],[103.7659387,1.3210517],[103.7659267,1.3210521],[103.7659286,1.3211162],[103.7659291,1.3211336],[103.7661568,1.321127],[103.766181,1.3211263],[103.7661928,1.3211477]]]}},{"type":"Feature","id":"way/173551017-0","properties":{"addr:city":"Singapore","addr:country":"SG","addr:housenumber":"309A","addr:postcode":"121309","addr:street":"Clementi Avenue 4","amenity":"parking","building":"garage","building:levels":"2","parking":"multi-storey","source":"Bing"},"geometry":{"type":"Polygon","coordinates":[[[103.7661607,1.3208154],[103.7665417,1.3205987],[103.7667505,1.32048],[103.7666068,1.3202274],[103.7659541,1.3205987],[103.7660181,1.3207112],[103.7660978,1.3208512],[103.7661607,1.3208154]]]}},{"type":"Feature","id":"way/173551019-0","properties":{"addr:city":"Singapore","addr:country":"SG","addr:housenumber":"310","addr:postcode":"120310","addr:street":"Clementi Avenue 4","building":"residential","building:levels":"12","residential":"HDB","source":"Bing"},"geometry":{"type":"Polygon","coordinates":[[[103.7657712,1.3204865],[103.7660019,1.3203543],[103.7659912,1.3203356],[103.7660391,1.3203084],[103.7660497,1.3203269],[103.7662386,1.3202186],[103.7662282,1.3202006],[103.7662575,1.3201839],[103.7662678,1.3202019],[103.7664923,1.3200732],[103.7664847,1.3200571],[103.7664938,1.3200521],[103.7664803,1.3200252],[103.7664887,1.3200202],[103.7664579,1.319961],[103.7664506,1.3199483],[103.7662029,1.3200888],[103.7661821,1.3200522],[103.7661546,1.3200678],[103.7661754,1.3201043],[103.7660053,1.3201999],[103.7659814,1.3202143],[103.7659582,1.3201734],[103.7659109,1.3202002],[103.7659342,1.3202411],[103.7657178,1.3203638],[103.7656996,1.3203205],[103.7656773,1.3203275],[103.7656841,1.3203702],[103.7654436,1.3203698],[103.7654435,1.320399],[103.7654433,1.3204486],[103.7654514,1.3204479],[103.7654507,1.3204821],[103.7654591,1.3204824],[103.7654583,1.3205152],[103.765705,1.3205168],[103.7657051,1.320496],[103.7657307,1.320496],[103.7657652,1.3204758],[103.7657712,1.3204865]]]}},{"type":"Feature","id":"way/173551060-0","properties":{"addr:city":"Singapore","addr:country":"SG","addr:housenumber":"371","addr:postcode":"120371","addr:street":"Clementi Avenue 4","building":"residential","building:levels":"12","residential":"HDB"},"geometry":{"type":"Polygon","coordinates":[[[103.7685167,1.3200094],[103.7685621,1.319984],[103.7685534,1.3199704],[103.7685178,1.319915],[103.7685051,1.319923],[103.7684689,1.3198654],[103.7683837,1.319913],[103.7683958,1.3199391],[103.7683374,1.3199753],[103.7683334,1.320049],[103.7683026,1.3200497],[103.7682986,1.3202468],[103.7683327,1.3202475],[103.7683321,1.3202629],[103.7683971,1.3202644],[103.7681275,1.3205211],[103.7680852,1.3204481],[103.7679447,1.3205279],[103.767961,1.3205562],[103.7679489,1.3205632],[103.7679664,1.3205935],[103.7679532,1.3206012],[103.7679858,1.3206576],[103.7679924,1.3206689],[103.7681388,1.3205857],[103.7682032,1.3206528],[103.7682144,1.320642],[103.7685239,1.3203459],[103.7684564,1.3202642],[103.7684488,1.3200893],[103.7684648,1.3200839],[103.7684756,1.3200678],[103.7684816,1.3200484],[103.7684736,1.3200336],[103.7685167,1.3200094]]]}},{"type":"Feature","id":"way/175384928-0","properties":{"addr:city":"Singapore","addr:country":"SG","addr:housenumber":"104","addr:postcode":"120104","addr:street":"Clementi Street 14","building":"residential","building:levels":"4","residential":"HDB"},"geometry":{"type":"Polygon","coordinates":[[[103.7690596,1.3231958],[103.7691005,1.3231556],[103.769069,1.323118],[103.7690885,1.3231026],[103.769118,1.3231294],[103.7691582,1.3230892],[103.7691361,1.323059],[103.7691495,1.323049],[103.7691689,1.3230805],[103.7692139,1.323049],[103.7691911,1.3230155],[103.7692172,1.3230027],[103.769236,1.3230362],[103.7693252,1.322986],[103.7693057,1.3229471],[103.7693372,1.3229263],[103.76936,1.3229612],[103.769405,1.3229296],[103.7693721,1.32287],[103.7693842,1.3228492],[103.7694418,1.3228472],[103.7694418,1.3227909],[103.7694055,1.3227911],[103.7694055,1.3227506],[103.7694371,1.3227507],[103.7694371,1.3226964],[103.7693243,1.3226951],[103.7693138,1.322695],[103.7693151,1.3228043],[103.7692926,1.3228448],[103.7690932,1.3229658],[103.7690747,1.3229424],[103.7690559,1.3229591],[103.7690748,1.3229795],[103.7689818,1.3230685],[103.7690133,1.3231683],[103.7690596,1.3231958]]]}},{"type":"Feature","id":"way/175385778-0","properties":{"addr:city":"Singapore","addr:country":"SG","addr:housenumber":"103","addr:postcode":"120103","addr:street":"Clementi Street 14","building":"residential","building:levels":"14","residential":"HDB"},"geometry":{"type":"Polygon","coordinates":[[[103.7691023,1.3226345],[103.7691021,1.3226527],[103.7691362,1.3226529],[103.7691359,1.3226899],[103.7691641,1.3226901],[103.7691644,1.322653],[103.769194,1.3226532],[103.7691941,1.3226326],[103.7692961,1.3226334],[103.7692959,1.3226553],[103.7693244,1.3226555],[103.769338,1.3226556],[103.7693378,1.3226852],[103.7693653,1.3226854],[103.7693655,1.3226547],[103.7693982,1.3226549],[103.7693983,1.3226298],[103.7694498,1.3226302],[103.7694506,1.3225104],[103.7694312,1.3225102],[103.7694311,1.3225283],[103.7694062,1.3225281],[103.7693847,1.3225279],[103.769385,1.3224925],[103.7693095,1.322492],[103.7693093,1.3225269],[103.7692872,1.3225267],[103.7692658,1.3225266],[103.7692659,1.3225094],[103.7692327,1.3225092],[103.7692326,1.3225229],[103.7691832,1.3225226],[103.7691835,1.3224904],[103.7691177,1.32249],[103.7691175,1.3225215],[103.7690737,1.3225212],[103.7690737,1.3225097],[103.7690501,1.3225096],[103.7690498,1.3225502],[103.7690306,1.32255],[103.7690183,1.3225618],[103.768992,1.3225343],[103.7689752,1.3225504],[103.7689869,1.3225626],[103.7689546,1.3225935],[103.7689351,1.3225731],[103.7688629,1.3226422],[103.7688873,1.3226677],[103.7688627,1.3226911],[103.7688499,1.3227034],[103.7688419,1.3226951],[103.7688144,1.3227214],[103.7688257,1.3227332],[103.7687894,1.322768],[103.7687656,1.3227431],[103.7687123,1.322794],[103.768738,1.3228209],[103.7687034,1.3228539],[103.768695,1.3228451],[103.7686763,1.322863],[103.7687558,1.3229459],[103.7687953,1.322908],[103.7688113,1.3229248],[103.7688447,1.3228928],[103.7688704,1.3229197],[103.7688906,1.3229003],[103.7688635,1.3228721],[103.7688882,1.3228484],[103.7688676,1.3228269],[103.7690688,1.3226342],[103.7691023,1.3226345]]]}},{"type":"Feature","id":"way/175386003-0","properties":{"addr:city":"Singapore","addr:country":"SG","addr:housenumber":"101","addr:postcode":"120101","addr:street":"Clementi Street 14","building":"residential","building:levels":"15","residential":"HDB"},"geometry":{"type":"Polygon","coordinates":[[[103.7689767,1.3219615],[103.7689653,1.3219501],[103.7689567,1.3219586],[103.7689428,1.3219725],[103.7689083,1.321938],[103.7688848,1.3219614],[103.768919,1.3219957],[103.768892,1.3220226],[103.7689054,1.3220361],[103.7688371,1.3221042],[103.7688267,1.3220937],[103.7687386,1.3221816],[103.7687547,1.3221978],[103.7686826,1.3222698],[103.7686696,1.3222568],[103.7686469,1.3222794],[103.7686142,1.3222467],[103.7685896,1.3222713],[103.7686238,1.3223056],[103.7685936,1.3223357],[103.7686065,1.3223486],[103.7685626,1.3223923],[103.7685849,1.3224146],[103.7686351,1.322465],[103.7686887,1.3224116],[103.7687099,1.3224329],[103.7687601,1.3223828],[103.7687349,1.3223576],[103.7687691,1.3223235],[103.7687828,1.3223372],[103.768812,1.3223081],[103.7687948,1.3222908],[103.7688238,1.3222618],[103.768849,1.3222871],[103.7689175,1.3222188],[103.7688886,1.3221899],[103.7689219,1.3221567],[103.7689374,1.3221723],[103.7689631,1.3221467],[103.7689471,1.3221307],[103.7689837,1.3220942],[103.7690085,1.322119],[103.7690563,1.3220713],[103.7690273,1.3220423],[103.7690344,1.3220352],[103.7690705,1.3220344],[103.7690709,1.3220557],[103.7690907,1.3220553],[103.7690902,1.3220345],[103.7691019,1.3220343],[103.7691393,1.3220335],[103.7691402,1.322073],[103.7692069,1.3220715],[103.7692061,1.3220329],[103.7692555,1.3220318],[103.769256,1.3220541],[103.7692832,1.3220535],[103.7692825,1.3220233],[103.7692806,1.3219329],[103.7692281,1.321934],[103.7692277,1.321917],[103.769196,1.3219177],[103.7691948,1.3218624],[103.7691654,1.3218631],[103.7691665,1.3219176],[103.7691228,1.3219185],[103.7691231,1.3219318],[103.7690865,1.3219326],[103.7690039,1.3219344],[103.7689767,1.3219615]]]}},{"type":"Feature","id":"way/175386025-0","properties":{"addr:city":"Singapore","addr:country":"SG","addr:housenumber":"102","addr:postcode":"120102","addr:street":"Clementi Street 14","building":"residential","building:levels":"4","residential":"HDB"},"geometry":{"type":"Polygon","coordinates":[[[103.769371,1.3224219],[103.7693708,1.3223685],[103.769345,1.3223686],[103.7693449,1.3223408],[103.7693685,1.3223407],[103.7693683,1.3222824],[103.7693416,1.3222824],[103.7693416,1.3222637],[103.7693675,1.3222636],[103.7693673,1.3222093],[103.7693433,1.3222094],[103.7693432,1.3221765],[103.7693664,1.3221764],[103.7693662,1.3221227],[103.7692484,1.3221231],[103.7692485,1.3221405],[103.7692493,1.3224035],[103.7692494,1.3224223],[103.769371,1.3224219]]]}},{"type":"Feature","id":"way/329872800-0","properties":{"building":"yes","name":"Clementi Arcade"},"geometry":{"type":"Polygon","coordinates":[[[103.7679178,1.3234796],[103.7678105,1.3232515],[103.7675557,1.3233713],[103.7674315,1.323107],[103.7671675,1.323231],[103.767399,1.3237234],[103.7679178,1.3234796]]]}},{"type":"Feature","id":"way/375707882-0","properties":{"addr:city":"Singapore","addr:country":"SG","addr:housenumber":"106","addr:postcode":"120106","addr:street":"Clementi Street 12","building":"commercial","building:levels":"4"},"geometry":{"type":"Polygon","coordinates":[[[103.769959,1.321902],[103.7700287,1.3220282],[103.7700382,1.322023],[103.770141,1.3219666],[103.7701565,1.3219576],[103.7700796,1.3218144],[103.7700153,1.3217018],[103.7698706,1.3217856],[103.7695381,1.321978],[103.769523,1.3219867],[103.7694792,1.3220121],[103.7694792,1.3220203],[103.7694795,1.3222103],[103.7694795,1.3222168],[103.7695152,1.3222166],[103.7695446,1.3222164],[103.7695448,1.3222366],[103.7696212,1.3222364],[103.7696196,1.3220957],[103.769959,1.321902]]]}},{"type":"Feature","id":"way/375709916-0","properties":{"addr:city":"Singapore","addr:country":"SG","addr:housenumber":"105","addr:postcode":"120105","addr:street":"Clementi Street 12","building":"commercial","building:levels":"4","residential":"HDB","roof:colour":"#B5886E"},"geometry":{"type":"Polygon","coordinates":[[[103.770002,1.3227014],[103.7702355,1.3225661],[103.7702308,1.3225578],[103.7701834,1.3224737],[103.7702031,1.3224626],[103.770193,1.3224446],[103.7701733,1.3224557],[103.7701182,1.322358],[103.7701114,1.3223459],[103.7700958,1.322321],[103.7700871,1.3223028],[103.7699981,1.322353],[103.7699912,1.3223569],[103.7700133,1.3223962],[103.7700376,1.3223825],[103.7700691,1.3224384],[103.7700431,1.3224531],[103.7700669,1.3224953],[103.770092,1.3224812],[103.7701162,1.3225242],[103.770072,1.3225491],[103.7700567,1.322522],[103.7700122,1.322547],[103.7699999,1.3225246],[103.7699238,1.3225679],[103.7699021,1.3225803],[103.7698805,1.3225926],[103.7698313,1.3226206],[103.7698452,1.3226465],[103.7697747,1.3226862],[103.7697907,1.3227145],[103.7697466,1.3227393],[103.769729,1.322708],[103.769747,1.3226979],[103.7697356,1.3226777],[103.7697605,1.3226637],[103.76966,1.3224853],[103.7696474,1.3224924],[103.7696366,1.3224741],[103.7696366,1.3224681],[103.7696503,1.322468],[103.7696477,1.3222933],[103.769619,1.3222937],[103.7696187,1.3222685],[103.7695989,1.3222688],[103.7695986,1.3222462],[103.7695449,1.322247],[103.7695151,1.3222474],[103.769506,1.3222475],[103.7695094,1.3224901],[103.7695097,1.3225092],[103.7695224,1.3225318],[103.7694998,1.3225445],[103.7695133,1.3225683],[103.7695359,1.3225557],[103.7696486,1.3227555],[103.7696256,1.3227684],[103.7696373,1.3227892],[103.7696603,1.3227763],[103.7697134,1.3228686],[103.7698581,1.3227847],[103.7698727,1.3228103],[103.7698955,1.3227972],[103.7698807,1.3227717],[103.7699589,1.3227264],[103.769979,1.3227147],[103.770002,1.3227014]]]}},{"type":"Feature","id":"way/376993794-0","properties":{"addr:city":"Singapore","addr:housenumber":"3","addr:postcode":"126786","addr:street":"Albert Winsemius Lane","building":"yes","name":"Van Kleef Aquatic Science Centre","office":"research","phone":"+65 6775 8696","website":"https://www.nus.edu.sg/vkc/"},"geometry":{"type":"Polygon","coordinates":[[[103.7692696,1.3208696],[103.7702621,1.3198516],[103.7701969,1.3197923],[103.7700446,1.3199426],[103.7700321,1.3199308],[103.7694214,1.3205476],[103.7694364,1.3205626],[103.7692004,1.3208044],[103.7692696,1.3208696]]]}},{"type":"Feature","id":"way/445005732-0","properties":{"addr:city":"Singapore","addr:country":"SG","addr:housenumber":"112","addr:postcode":"120112","addr:street":"Clementi Street 13","building":"residential","building:levels":"4","residential":"HDB"},"geometry":{"type":"Polygon","coordinates":[[[103.7701797,1.3233535],[103.770296,1.3232889],[103.7702698,1.3232373],[103.7702343,1.3232567],[103.7702222,1.3232286],[103.7702504,1.3232125],[103.7702209,1.3231575],[103.7701646,1.323183],[103.7701569,1.3231758],[103.7701538,1.3231729],[103.7701528,1.323109],[103.7700995,1.3231088],[103.7700997,1.3231405],[103.7700443,1.3231405],[103.7700445,1.3231087],[103.7699849,1.3231086],[103.7699849,1.3231582],[103.7699634,1.3231642],[103.7699439,1.323132],[103.7698931,1.3231623],[103.7699091,1.3231897],[103.7698824,1.3232057],[103.7698648,1.3231792],[103.7698022,1.3232165],[103.7697506,1.3232472],[103.7697686,1.3232737],[103.7697459,1.3232873],[103.7697279,1.3232608],[103.769637,1.323315],[103.769651,1.3233441],[103.7696268,1.3233586],[103.7696082,1.3233322],[103.7695604,1.3233607],[103.7695772,1.3233948],[103.7695706,1.3233987],[103.7695604,1.3234049],[103.7695436,1.3233707],[103.7694893,1.3233794],[103.7694933,1.3234116],[103.7694605,1.3234156],[103.7694551,1.3233901],[103.7694088,1.3233962],[103.7693961,1.3234458],[103.769463,1.3235271],[103.7696147,1.32349],[103.7698655,1.3233378],[103.7698843,1.323368],[103.7699051,1.3233566],[103.7698883,1.3233264],[103.7700385,1.3232373],[103.77009,1.3232422],[103.7701369,1.3232757],[103.7701797,1.3233535]]]}},{"type":"Feature","id":"way/445015406-0","properties":{"building:levels":"40","building:part":"residential"},"geometry":{"type":"Polygon","coordinates":[[[103.7655883,1.3201747],[103.7656263,1.3201446],[103.7656211,1.3201381],[103.7656319,1.3201296],[103.7656941,1.3201488],[103.7657332,1.320118],[103.7656926,1.3201113],[103.7656786,1.3200938],[103.7656923,1.3200829],[103.7656965,1.3200882],[103.7657334,1.320059],[103.7657293,1.3200538],[103.765751,1.3200366],[103.7657298,1.3200098],[103.7657104,1.3200252],[103.7657006,1.3200128],[103.765681,1.3200283],[103.7656737,1.3200189],[103.7657034,1.3199954],[103.7656969,1.3199872],[103.7657143,1.3199734],[103.7657279,1.3199906],[103.7657311,1.319988],[103.7657622,1.3199634],[103.7657481,1.3199456],[103.7657611,1.3199353],[103.7657675,1.3199433],[103.7657982,1.319919],[103.7658054,1.3199281],[103.7657863,1.3199433],[103.7657969,1.3199567],[103.7657775,1.3199721],[103.7657989,1.3199991],[103.7658235,1.3199796],[103.765827,1.3199841],[103.7658648,1.3199542],[103.7658592,1.3199472],[103.7658703,1.3199385],[103.7658846,1.3199566],[103.7659371,1.319915],[103.7659221,1.3198961],[103.7659289,1.3198907],[103.7659336,1.3198966],[103.765973,1.3198653],[103.7659557,1.3198434],[103.7659801,1.319824],[103.7659609,1.3197997],[103.7659435,1.3198135],[103.7659377,1.3198062],[103.7658998,1.3198363],[103.7659054,1.3198433],[103.7658947,1.3198518],[103.7658737,1.3198252],[103.765879,1.319821],[103.7658832,1.3198263],[103.7659028,1.3198108],[103.7658979,1.3198046],[103.7659261,1.3197823],[103.7659078,1.3197592],[103.765871,1.3197883],[103.7658536,1.3197664],[103.7658148,1.3197971],[103.7658094,1.3197903],[103.7657819,1.3198121],[103.7658253,1.3198669],[103.7658161,1.3198742],[103.7657991,1.3198877],[103.7657886,1.3198744],[103.7657813,1.3198803],[103.7657711,1.3198674],[103.765786,1.3198556],[103.7657523,1.319813],[103.7657331,1.3198282],[103.7657443,1.3198424],[103.7657179,1.3198633],[103.7657047,1.3198737],[103.7657147,1.3198863],[103.7656957,1.3199014],[103.7656842,1.3198869],[103.7656607,1.3199055],[103.7656515,1.319894],[103.7656101,1.3199268],[103.7656476,1.3199741],[103.7656536,1.3199694],[103.7656602,1.3199777],[103.7656376,1.3199956],[103.7656477,1.3200084],[103.7656359,1.3200177],[103.7656246,1.3200026],[103.7656354,1.3199954],[103.7656241,1.3199812],[103.7655993,1.320001],[103.765556,1.3200057],[103.765514,1.320039],[103.7655186,1.3200448],[103.7654969,1.3200619],[103.765528,1.3201011],[103.7655694,1.3200684],[103.7655916,1.3200964],[103.7655817,1.3201042],[103.7655756,1.3200965],[103.7655382,1.3201262],[103.7655446,1.3201342],[103.7655252,1.3201495],[103.7655439,1.3201731],[103.7655705,1.3201521],[103.7655883,1.3201747]]]}},{"type":"Feature","id":"way/445287783-0","properties":{"addr:city":"Singapore","addr:country":"SG","addr:housenumber":"5","addr:postcode":"126787","addr:street":"Albert Winsemius Lane","building":"yes"},"geometry":{"type":"Polygon","coordinates":[[[103.769305,1.3216104],[103.769364,1.3215532],[103.7691773,1.3213609],[103.7692548,1.3212852],[103.7692883,1.3213194],[103.7694251,1.321186],[103.7695726,1.3213388],[103.7696323,1.3212819],[103.7693943,1.3210345],[103.7690604,1.3213586],[103.769305,1.3216104]]]}},{"type":"Feature","id":"way/453269115-0","properties":{"addr:city":"Singapore","addr:country":"SG","addr:housenumber":"44","addr:street":"Sunset Way","building":"yes"},"geometry":{"type":"Polygon","coordinates":[[[103.7681775,1.323844],[103.7681154,1.3237183],[103.7680336,1.3237587],[103.768075,1.3238427],[103.7680513,1.3238544],[103.7680707,1.3238967],[103.7681775,1.323844]]]}},{"type":"Feature","id":"way/453269116-0","properties":{"addr:city":"Singapore","addr:country":"SG","addr:housenumber":"2","addr:street":"Sunset Walk","building":"yes"},"geometry":{"type":"Polygon","coordinates":[[[103.7678766,1.3240777],[103.7679439,1.3242298],[103.7680833,1.3241682],[103.7680161,1.3240161],[103.7678766,1.3240777]]]}},{"type":"Feature","id":"way/453269117-0","properties":{"addr:city":"Singapore","addr:country":"SG","addr:housenumber":"50","addr:street":"Sunset Way","building":"yes"},"geometry":{"type":"Polygon","coordinates":[[[103.7677271,1.3238847],[103.767791,1.3240118],[103.7678803,1.323967],[103.7678165,1.3238399],[103.7677271,1.3238847]]]}},{"type":"Feature","id":"way/453269118-0","properties":{"addr:city":"Singapore","addr:country":"SG","addr:housenumber":"56","addr:street":"Sunset Way","building":"yes"},"geometry":{"type":"Polygon","coordinates":[[[103.7673134,1.3240374],[103.767391,1.3241918],[103.7674788,1.3241478],[103.7674011,1.3239933],[103.7673134,1.3240374]]]}},{"type":"Feature","id":"way/594829809-0","properties":{"building":"yes"},"geometry":{"type":"Polygon","coordinates":[[[103.7696372,1.3236187],[103.7695914,1.3236778],[103.7697123,1.3237715],[103.7697581,1.3237124],[103.7696372,1.3236187]]]}},{"type":"Feature","id":"way/594829814-0","properties":{"addr:city":"Singapore","addr:country":"SG","addr:housename":"Sunset Way Residence","addr:housenumber":"107","addr:postcode":"120107","addr:street":"Clementi Street 12","building":"commercial","building:levels":"1"},"geometry":{"type":"Polygon","coordinates":[[[103.7700646,1.3220726],[103.7697959,1.3222157],[103.7698925,1.3223732],[103.7699816,1.3223239],[103.7700815,1.3222687],[103.7700816,1.3222606],[103.7700842,1.3220622],[103.7700646,1.3220726]]]}},{"type":"Feature","id":"way/736721769-0","properties":{"addr:housenumber":"67","addr:street":"Sunset Way","building":"residential"},"geometry":{"type":"Polygon","coordinates":[[[103.7664963,1.3240964],[103.7664759,1.3240476],[103.7666275,1.3239842],[103.7665642,1.3238329],[103.7664144,1.3238955],[103.7664287,1.3239297],[103.7659915,1.3241125],[103.7660608,1.3242784],[103.7664963,1.3240964]]]}},{"type":"Feature","id":"way/736721770-0","properties":{"addr:housenumber":"61","addr:street":"Sunset Way","building":"residential"},"geometry":{"type":"Polygon","coordinates":[[[103.7670574,1.3236436],[103.7667782,1.3237639],[103.7667638,1.3237305],[103.7666375,1.323785],[103.7667039,1.3239387],[103.7668309,1.323884],[103.7668462,1.3239195],[103.7671246,1.3237995],[103.7670574,1.3236436]]]}},{"type":"Feature","id":"way/736721771-0","properties":{"addr:housenumber":"65","addr:street":"Sunset Way","building":"residential"},"geometry":{"type":"Polygon","coordinates":[[[103.7664927,1.323641],[103.7664232,1.3234907],[103.7659572,1.323706],[103.7660267,1.3238564],[103.7664927,1.323641]]]}},{"type":"Feature","id":"way/736721772-0","properties":{"addr:housenumber":"63","addr:street":"Sunset Way","building":"residential"},"geometry":{"type":"Polygon","coordinates":[[[103.7670023,1.3233985],[103.7669437,1.3232681],[103.7664977,1.3234684],[103.7665564,1.3235989],[103.7670023,1.3233985]]]}},{"type":"Feature","id":"way/839064951-0","properties":{"addr:city":"Singapore","addr:country":"SG","addr:housenumber":"46","addr:street":"Sunset Way","building":"yes"},"geometry":{"type":"Polygon","coordinates":[[[103.7679981,1.3237467],[103.7679255,1.3237825],[103.7679993,1.3239319],[103.7680707,1.3238967],[103.7680513,1.3238544],[103.7679981,1.3237467]]]}},{"type":"Feature","id":"way/839064962-0","properties":{"addr:city":"Singapore","addr:country":"SG","addr:housenumber":"6","addr:street":"Sunset Walk","building":"yes"},"geometry":{"type":"Polygon","coordinates":[[[103.7683528,1.3241609],[103.7681995,1.3242243],[103.7682575,1.3243646],[103.7683347,1.3243327],[103.7683602,1.3243944],[103.7684363,1.3243629],[103.7683528,1.3241609]]]}},{"type":"Feature","id":"way/839064963-0","properties":{"addr:city":"Singapore","addr:country":"SG","addr:housenumber":"48","addr:street":"Sunset Way","building":"yes"},"geometry":{"type":"Polygon","coordinates":[[[103.767915,1.3237897],[103.7678285,1.3238281],[103.7678922,1.3239716],[103.7679787,1.3239332],[103.767915,1.3237897]]]}},{"type":"Feature","id":"way/839064964-0","properties":{"addr:city":"Singapore","addr:country":"SG","addr:housenumber":"4","addr:street":"Sunset Walk","building":"yes"},"geometry":{"type":"Polygon","coordinates":[[[103.7682592,1.3241254],[103.7682323,1.3240707],[103.7682839,1.3240454],[103.768254,1.3239845],[103.7681034,1.3240583],[103.7681334,1.3241193],[103.7681816,1.3240956],[103.7682084,1.3241503],[103.7682592,1.3241254]]]}},{"type":"Feature","id":"way/839064976-0","properties":{"addr:housenumber":"7","addr:street":"Sunset Terrace","building":"yes"},"geometry":{"type":"Polygon","coordinates":[[[103.7674356,1.3244098],[103.7673716,1.3242669],[103.7672816,1.3243072],[103.7673456,1.3244501],[103.7674356,1.3244098]]]}},{"type":"Feature","id":"way/839064977-0","properties":{"addr:housenumber":"9","addr:street":"Sunset Terrace","building":"yes"},"geometry":{"type":"Polygon","coordinates":[[[103.7673456,1.3244501],[103.7672816,1.3243072],[103.7671916,1.3243474],[103.7672556,1.3244903],[103.7673456,1.3244501]]]}},{"type":"Feature","id":"way/839064979-0","properties":{"addr:housenumber":"5","addr:street":"Sunset Terrace","building":"yes"},"geometry":{"type":"Polygon","coordinates":[[[103.7673953,1.3242496],[103.7674566,1.3243864],[103.7675545,1.3243426],[103.7674932,1.3242058],[103.7673953,1.3242496]]]}},{"type":"Feature","id":"way/839064980-0","properties":{"addr:housenumber":"3","addr:street":"Sunset Terrace","building":"yes"},"geometry":{"type":"Polygon","coordinates":[[[103.7674932,1.3242058],[103.7675545,1.3243426],[103.7676524,1.3242988],[103.7675911,1.324162],[103.7674932,1.3242058]]]}},{"type":"Feature","id":"way/839064981-0","properties":{"addr:housenumber":"1","addr:street":"Sunset Terrace","building":"yes"},"geometry":{"type":"Polygon","coordinates":[[[103.7675911,1.324162],[103.7676524,1.3242988],[103.7677503,1.324255],[103.767689,1.3241182],[103.7675911,1.324162]]]}},{"type":"Feature","id":"way/839064982-0","properties":{"addr:city":"Singapore","addr:country":"SG","addr:housenumber":"54","addr:street":"Sunset Way","building":"yes"},"geometry":{"type":"Polygon","coordinates":[[[103.7674912,1.3239975],[103.767428,1.324025],[103.7674763,1.3241362],[103.7675395,1.3241088],[103.7674912,1.3239975]]]}},{"type":"Feature","id":"way/839064983-0","properties":{"addr:city":"Singapore","addr:country":"SG","addr:housenumber":"52","addr:street":"Sunset Way","building":"yes"},"geometry":{"type":"Polygon","coordinates":[[[103.7676533,1.3240868],[103.7675782,1.3239098],[103.7674805,1.3239513],[103.7675556,1.3241283],[103.7676533,1.3240868]]]}},{"type":"Feature","id":"way/839064984-0","properties":{"addr:city":"Singapore","addr:country":"SG","addr:housenumber":"58","addr:street":"Sunset Way","building":"yes"},"geometry":{"type":"Polygon","coordinates":[[[103.7673483,1.3242053],[103.767286,1.3240773],[103.7671963,1.324121],[103.7672585,1.3242489],[103.7673483,1.3242053]]]}},{"type":"Feature","id":"way/839064985-0","properties":{"addr:city":"Singapore","addr:country":"SG","addr:housenumber":"60","addr:street":"Sunset Way","building":"yes"},"geometry":{"type":"Polygon","coordinates":[[[103.76725,1.3242495],[103.7671888,1.3241236],[103.7671155,1.3241592],[103.7671767,1.3242851],[103.76725,1.3242495]]]}},{"type":"Feature","id":"way/839064986-0","properties":{"addr:city":"Singapore","addr:country":"SG","addr:housenumber":"62","addr:street":"Sunset Way","building":"yes"},"geometry":{"type":"Polygon","coordinates":[[[103.7671711,1.3242894],[103.7671083,1.3241604],[103.7670261,1.3242004],[103.7670889,1.3243294],[103.7671711,1.3242894]]]}},{"type":"Feature","id":"way/839064987-0","properties":{"addr:city":"Singapore","addr:country":"SG","addr:housenumber":"64","addr:street":"Sunset Way","building":"yes"},"geometry":{"type":"Polygon","coordinates":[[[103.7670611,1.3243385],[103.766995,1.3242027],[103.7669113,1.3242434],[103.7669774,1.3243792],[103.7670611,1.3243385]]]}},{"type":"Feature","id":"way/839064988-0","properties":{"addr:city":"Singapore","addr:country":"SG","addr:housenumber":"66","addr:street":"Sunset Way","building":"yes"},"geometry":{"type":"Polygon","coordinates":[[[103.7669774,1.3243792],[103.7669113,1.3242434],[103.7668277,1.324284],[103.7668937,1.3244199],[103.7669774,1.3243792]]]}},{"type":"Feature","id":"way/839064989-0","properties":{"addr:city":"Singapore","addr:country":"SG","addr:housenumber":"68","addr:street":"Sunset Way","building":"yes"},"geometry":{"type":"Polygon","coordinates":[[[103.7668899,1.3244452],[103.7667826,1.3242246],[103.7666899,1.3242697],[103.7667972,1.3244903],[103.7668899,1.3244452]]]}},{"type":"Feature","id":"way/1133961340-0","properties":{"amenity":"shelter","building":"roof"},"geometry":{"type":"Polygon","coordinates":[[[103.7679724,1.3217373],[103.7679612,1.3217063],[103.7679289,1.3217179],[103.7679401,1.3217489],[103.7679724,1.3217373]]]}},{"type":"Feature","id":"way/1133961341-0","properties":{"amenity":"shelter","building":"roof"},"geometry":{"type":"Polygon","coordinates":[[[103.7680456,1.3216721],[103.7680207,1.3216505],[103.7679982,1.3216764],[103.7680231,1.321698],[103.7680456,1.3216721]]]}},{"type":"Feature","id":"way/1133961342-0","properties":{"amenity":"shelter","building":"roof"},"geometry":{"type":"Polygon","coordinates":[[[103.768073,1.3215727],[103.76804,1.3215741],[103.7680414,1.3216084],[103.7680744,1.321607],[103.768073,1.3215727]]]}},{"type":"Feature","id":"way/1337676366-0","properties":{"building":"service"},"geometry":{"type":"Polygon","coordinates":[[[103.767709,1.3202691],[103.7676406,1.3201451],[103.7675898,1.3201731],[103.7676582,1.3202971],[103.767709,1.3202691]]]}},{"type":"Feature","id":"way/1337676407-0","properties":{"building":"roof","layer":"1"},"geometry":{"type":"Polygon","coordinates":[[[103.7658624,1.3213174],[103.7658466,1.3212917],[103.765688,1.3210407],[103.7656626,1.3210556],[103.7656297,1.3210658],[103.7655972,1.3210675],[103.7655641,1.3210613],[103.765556,1.3210895],[103.7655251,1.321119],[103.7654889,1.3211344],[103.7654896,1.3213167],[103.7658624,1.3213174]]]}},{"type":"Feature","id":"way/1340040020-0","properties":{"amenity":"shelter","building":"roof","layer":"1"},"geometry":{"type":"Polygon","coordinates":[[[103.7673041,1.3201991],[103.7673615,1.3201646],[103.7673376,1.320125],[103.7672803,1.3201595],[103.7673041,1.3201991]]]}},{"type":"Feature","id":"way/1348211847-0","properties":{"addr:city":"Singapore","addr:country":"SG","addr:housenumber":"311C","addr:postcode":"123311","addr:street":"Clementi Avenue 4","building":"residential","building:levels":"40","residential":"HDB","source":"HDB"},"geometry":{"type":"Polygon","coordinates":[[[103.7656786,1.3200938],[103.7656923,1.3200829],[103.7656965,1.3200882],[103.7657334,1.320059],[103.7657293,1.3200538],[103.765751,1.3200366],[103.7657298,1.3200098],[103.7657104,1.3200252],[103.7657006,1.3200128],[103.765681,1.3200283],[103.7656737,1.3200189],[103.7657034,1.3199954],[103.7656969,1.3199872],[103.7657143,1.3199734],[103.7657279,1.3199906],[103.7657622,1.3199634],[103.7657481,1.3199456],[103.7657611,1.3199353],[103.7657675,1.3199433],[103.7657982,1.319919],[103.7658054,1.3199281],[103.7657863,1.3199433],[103.7657969,1.3199567],[103.7657775,1.3199721],[103.7657989,1.3199991],[103.7658235,1.3199796],[103.765827,1.3199841],[103.7658648,1.3199542],[103.7658592,1.3199472],[103.7658703,1.3199385],[103.7658846,1.3199566],[103.7659371,1.319915],[103.7659221,1.3198961],[103.7659289,1.3198907],[103.7659336,1.3198966],[103.765973,1.3198653],[103.7659557,1.3198434],[103.7659801,1.319824],[103.7659609,1.3197997],[103.7659435,1.3198135],[103.7659377,1.3198062],[103.7658998,1.3198363],[103.7659054,1.3198433],[103.7658947,1.3198518],[103.7658737,1.3198252],[103.765879,1.319821],[103.7658832,1.3198263],[103.7659028,1.3198108],[103.7658979,1.3198046],[103.7659261,1.3197823],[103.7659078,1.3197592],[103.765871,1.3197883],[103.7658536,1.3197664],[103.7658148,1.3197971],[103.7658094,1.3197903],[103.7657819,1.3198121],[103.7658253,1.3198669],[103.7658161,1.3198742],[103.7657991,1.3198877],[103.7657886,1.3198744],[103.7657813,1.3198803],[103.7657711,1.3198674],[103.765786,1.3198556],[103.7657523,1.319813],[103.7657331,1.3198282],[103.7657443,1.3198424],[103.7657047,1.3198737],[103.7657147,1.3198863],[103.7656957,1.3199014],[103.7656842,1.3198869],[103.7656607,1.3199055],[103.7656515,1.319894],[103.7656101,1.3199268],[103.7656476,1.3199741],[103.7656536,1.3199694],[103.7656602,1.3199777],[103.7656376,1.3199956],[103.7656477,1.3200084],[103.7656359,1.3200177],[103.7656246,1.3200026],[103.7656354,1.3199954],[103.7656241,1.3199812],[103.7655993,1.320001],[103.765446,1.3201231],[103.7655549,1.3202597],[103.7656411,1.3201918],[103.7656941,1.3201488],[103.7657332,1.320118],[103.7656926,1.3201113],[103.7656786,1.3200938]]]}},{"type":"Feature","id":"way/1348211848-0","properties":{"building":"yes"},"geometry":{"type":"Polygon","coordinates":[[[103.7667634,1.3203029],[103.7667938,1.3202857],[103.7667348,1.3201811],[103.7667053,1.3201791],[103.7666644,1.3201838],[103.7666289,1.3201959],[103.7667073,1.3203346],[103.7667634,1.3203029]]]}},{"type":"Feature","id":"way/1353610085-0","properties":{"building":"roof","building:levels":"1","layer":"1"},"geometry":{"type":"Polygon","coordinates":[[[103.7695151,1.3222474],[103.7695449,1.322247],[103.7695448,1.3222366],[103.7695446,1.3222164],[103.7695152,1.3222166],[103.7694795,1.3222168],[103.7694797,1.3222221],[103.769506,1.3222475],[103.7695151,1.3222474]]]}},{"type":"Feature","id":"way/1353610098-0","properties":{"building":"roof","building:levels":"1","layer":"1"},"geometry":{"type":"Polygon","coordinates":[[[103.770141,1.3219666],[103.7700382,1.322023],[103.7700646,1.3220726],[103.7700842,1.3220622],[103.7700816,1.3222606],[103.7700815,1.3222687],[103.7699816,1.3223239],[103.7699905,1.3223396],[103.7699981,1.322353],[103.7700871,1.3223028],[103.7700958,1.322321],[103.7701114,1.3223459],[103.7701141,1.3223025],[103.7701495,1.3222841],[103.7701926,1.3222846],[103.7702051,1.3222774],[103.7702152,1.3222715],[103.7703178,1.3222119],[103.7703094,1.3221973],[103.7701982,1.3222615],[103.7701811,1.3222713],[103.7701141,1.3222328],[103.7701141,1.3222138],[103.770115,1.3220763],[103.7701151,1.322064],[103.7701567,1.3220401],[103.7701565,1.3219576],[103.770141,1.3219666]]]}},{"type":"Feature","id":"way/1353610099-0","properties":{"building":"roof","building:levels":"1","layer":"1"},"geometry":{"type":"Polygon","coordinates":[[[103.7694422,1.3220206],[103.7694439,1.3222107],[103.7694795,1.3222103],[103.7694792,1.3220203],[103.7694422,1.3220206]]]}},{"type":"Feature","id":"way/1353610101-0","properties":{"building":"roof","building:levels":"1","layer":"1"},"geometry":{"type":"Polygon","coordinates":[[[103.7699974,1.3216714],[103.7695203,1.3219472],[103.7695381,1.321978],[103.7698706,1.3217856],[103.7700153,1.3217018],[103.7699974,1.3216714]]]}},{"type":"Feature","id":"way/28581125-0-0-0","properties":{"highway":"residential","lanes":"2","lanes:backward":"1","lanes:forward":"1","lit":"yes","maxspeed":"50","name":"Sunset Walk","source":"Yahoo","surface":"asphalt"},"geometry":{"type":"LineString","coordinates":[[103.7676059,1.323769],[103.7676248,1.323811]]}},{"type":"Feature","id":"way/28581125-0-1-0","properties":{"highway":"residential","lanes":"2","lanes:backward":"1","lanes:forward":"1","lit":"yes","maxspeed":"50","name":"Sunset Walk","source":"Yahoo","surface":"asphalt"},"geometry":{"type":"LineString","coordinates":[[103.7676248,1.323811],[103.7678551,1.3243223]]}},{"type":"Feature","id":"way/28581125-0-2-0","properties":{"highway":"residential","lanes":"2","lanes:backward":"1","lanes:forward":"1","lit":"yes","maxspeed":"50","name":"Sunset Walk","source":"Yahoo","surface":"asphalt"},"geometry":{"type":"LineString","coordinates":[[103.7678551,1.3243223],[103.7678628,1.3243394]]}},{"type":"Feature","id":"way/28581156-0-4-0","properties":{"highway":"residential","lanes":"2","lanes:backward":"1","lanes:forward":"1","lit":"yes","maxspeed":"40","name":"Sunset Way","sidewalk:both":"separate","source":"Yahoo","surface":"asphalt"},"geometry":{"type":"LineString","coordinates":[[103.7660219,1.3244552],[103.76625,1.324363]]}},{"type":"Feature","id":"way/28581156-0-5-0","properties":{"highway":"residential","lanes":"2","lanes:backward":"1","lanes:forward":"1","lit":"yes","maxspeed":"40","name":"Sunset Way","sidewalk:both":"separate","source":"Yahoo","surface":"asphalt"},"geometry":{"type":"LineString","coordinates":[[103.76625,1.324363],[103.7666448,1.3241901]]}},{"type":"Feature","id":"way/28581281-0-0-0","properties":{"highway":"residential","lanes":"2","lanes:backward":"1","lanes:forward":"1","maxspeed":"50","name":"Sunset Walk","source":"Yahoo","surface":"asphalt"},"geometry":{"type":"LineString","coordinates":[[103.7681466,1.3242323],[103.7678628,1.3243394]]}},{"type":"Feature","id":"way/104960232-0-0-0","properties":{"highway":"service","lanes":"1","service":"parking_aisle","sidewalk":"right"},"geometry":{"type":"LineString","coordinates":[[103.7681786,1.3199753],[103.7681866,1.3201201]]}},{"type":"Feature","id":"way/104960232-0-1-0","properties":{"highway":"service","lanes":"1","service":"parking_aisle","sidewalk":"right"},"geometry":{"type":"LineString","coordinates":[[103.7681866,1.3201201],[103.76818,1.3201536]]}},{"type":"Feature","id":"way/104960232-0-2-0","properties":{"highway":"service","lanes":"1","service":"parking_aisle","sidewalk":"right"},"geometry":{"type":"LineString","coordinates":[[103.76818,1.3201536],[103.7681544,1.3201831]]}},{"type":"Feature","id":"way/104960232-0-3-0","properties":{"highway":"service","lanes":"1","service":"parking_aisle","sidewalk":"right"},"geometry":{"type":"LineString","coordinates":[[103.7681544,1.3201831],[103.7678211,1.3203623]]}},{"type":"Feature","id":"way/104960232-0-4-0","properties":{"highway":"service","lanes":"1","service":"parking_aisle","sidewalk":"right"},"geometry":{"type":"LineString","coordinates":[[103.7678211,1.3203623],[103.7678154,1.3203619]]}},{"type":"Feature","id":"way/104960232-0-5-0","properties":{"highway":"service","lanes":"1","service":"parking_aisle","sidewalk":"right"},"geometry":{"type":"LineString","coordinates":[[103.7678154,1.3203619],[103.7678111,1.3203587]]}},{"type":"Feature","id":"way/173551175-0-0-0","properties":{"highway":"service","lanes":"2","lanes:backward":"1","lanes:forward":"1","service":"parking_aisle"},"geometry":{"type":"LineString","coordinates":[[103.7666066,1.321457],[103.766649,1.3214337]]}},{"type":"Feature","id":"way/173551175-0-1-0","properties":{"highway":"service","lanes":"2","lanes:backward":"1","lanes:forward":"1","service":"parking_aisle"},"geometry":{"type":"LineString","coordinates":[[103.766649,1.3214337],[103.7675138,1.320975]]}},{"type":"Feature","id":"way/173551220-0-4-0","properties":{"highway":"service","lanes":"2","lanes:backward":"1","lanes:forward":"1","service":"driveway","turn:lanes:backward":"through","turn:lanes:forward":"through"},"geometry":{"type":"LineString","coordinates":[[103.7656129,1.3206046],[103.7656733,1.320599]]}},{"type":"Feature","id":"way/173551220-0-5-0","properties":{"highway":"service","lanes":"2","lanes:backward":"1","lanes:forward":"1","service":"driveway","turn:lanes:backward":"through","turn:lanes:forward":"through"},"geometry":{"type":"LineString","coordinates":[[103.7656733,1.320599],[103.765741,1.3206021]]}},{"type":"Feature","id":"way/173551220-0-6-0","properties":{"highway":"service","lanes":"2","lanes:backward":"1","lanes:forward":"1","service":"driveway","turn:lanes:backward":"through","turn:lanes:forward":"through"},"geometry":{"type":"LineString","coordinates":[[103.765741,1.3206021],[103.7657961,1.3206292]]}},{"type":"Feature","id":"way/173551220-0-7-0","properties":{"highway":"service","lanes":"2","lanes:backward":"1","lanes:forward":"1","service":"driveway","turn:lanes:backward":"through","turn:lanes:forward":"through"},"geometry":{"type":"LineString","coordinates":[[103.7657961,1.3206292],[103.7658386,1.3206854]]}},{"type":"Feature","id":"way/173551220-0-8-0","properties":{"highway":"service","lanes":"2","lanes:backward":"1","lanes:forward":"1","service":"driveway","turn:lanes:backward":"through","turn:lanes:forward":"through"},"geometry":{"type":"LineString","coordinates":[[103.7658386,1.3206854],[103.7658701,1.3207414]]}},{"type":"Feature","id":"way/173551220-0-9-0","properties":{"highway":"service","lanes":"2","lanes:backward":"1","lanes:forward":"1","service":"driveway","turn:lanes:backward":"through","turn:lanes:forward":"through"},"geometry":{"type":"LineString","coordinates":[[103.7658701,1.3207414],[103.7659419,1.3208669]]}},{"type":"Feature","id":"way/173551220-0-10-0","properties":{"highway":"service","lanes":"2","lanes:backward":"1","lanes:forward":"1","service":"driveway","turn:lanes:backward":"through","turn:lanes:forward":"through"},"geometry":{"type":"LineString","coordinates":[[103.7659419,1.3208669],[103.7659758,1.3208922]]}},{"type":"Feature","id":"way/173551220-0-11-0","properties":{"highway":"service","lanes":"2","lanes:backward":"1","lanes:forward":"1","service":"driveway","turn:lanes:backward":"through","turn:lanes:forward":"through"},"geometry":{"type":"LineString","coordinates":[[103.7659758,1.3208922],[103.7660197,1.3209053]]}},{"type":"Feature","id":"way/173551220-0-12-0","properties":{"highway":"service","lanes":"2","lanes:backward":"1","lanes:forward":"1","service":"driveway","turn:lanes:backward":"through","turn:lanes:forward":"through"},"geometry":{"type":"LineString","coordinates":[[103.7660197,1.3209053],[103.7660674,1.3208979]]}},{"type":"Feature","id":"way/173551220-0-13-0","properties":{"highway":"service","lanes":"2","lanes:backward":"1","lanes:forward":"1","service":"driveway","turn:lanes:backward":"through","turn:lanes:forward":"through"},"geometry":{"type":"LineString","coordinates":[[103.7660674,1.3208979],[103.7661118,1.3208745]]}},{"type":"Feature","id":"way/175381364-0-0-0","properties":{"highway":"service","lanes":"2","lanes:backward":"1","lanes:forward":"1","name":"Clementi Street 14","oneway":"no","service":"driveway","sidewalk":"left","surface":"asphalt"},"geometry":{"type":"LineString","coordinates":[[103.7684326,1.3226346],[103.7682874,1.3228072]]}},{"type":"Feature","id":"way/175381364-0-1-0","properties":{"highway":"service","lanes":"2","lanes:backward":"1","lanes:forward":"1","name":"Clementi Street 14","oneway":"no","service":"driveway","sidewalk":"left","surface":"asphalt"},"geometry":{"type":"LineString","coordinates":[[103.7682874,1.3228072],[103.7684611,1.3228925]]}},{"type":"Feature","id":"way/175386913-0-0-0","properties":{"highway":"service","oneway":"no","service":"parking_aisle"},"geometry":{"type":"LineString","coordinates":[[103.7689778,1.3223807],[103.7691569,1.3223801]]}},{"type":"Feature","id":"way/175386913-0-1-0","properties":{"highway":"service","oneway":"no","service":"parking_aisle"},"geometry":{"type":"LineString","coordinates":[[103.7691569,1.3223801],[103.7691543,1.3222031]]}},{"type":"Feature","id":"way/183512817-0-4-0","properties":{"highway":"service","oneway":"yes","service":"driveway","sidewalk":"left"},"geometry":{"type":"LineString","coordinates":[[103.7656283,1.3210451],[103.76566,1.3210352]]}},{"type":"Feature","id":"way/183512817-0-5-0","properties":{"highway":"service","oneway":"yes","service":"driveway","sidewalk":"left"},"geometry":{"type":"LineString","coordinates":[[103.76566,1.3210352],[103.7656875,1.3210165]]}},{"type":"Feature","id":"way/183512817-0-6-0","properties":{"highway":"service","oneway":"yes","service":"driveway","sidewalk":"left"},"geometry":{"type":"LineString","coordinates":[[103.7656875,1.3210165],[103.7657086,1.3209906]]}},{"type":"Feature","id":"way/183512817-0-7-0","properties":{"highway":"service","oneway":"yes","service":"driveway","sidewalk":"left"},"geometry":{"type":"LineString","coordinates":[[103.7657086,1.3209906],[103.7657213,1.3209598]]}},{"type":"Feature","id":"way/183512817-0-8-0","properties":{"highway":"service","oneway":"yes","service":"driveway","sidewalk":"left"},"geometry":{"type":"LineString","coordinates":[[103.7657213,1.3209598],[103.7657246,1.3209266]]}},{"type":"Feature","id":"way/183512817-0-9-0","properties":{"highway":"service","oneway":"yes","service":"driveway","sidewalk":"left"},"geometry":{"type":"LineString","coordinates":[[103.7657246,1.3209266],[103.7657181,1.3208939]]}},{"type":"Feature","id":"way/183512817-0-10-0","properties":{"highway":"service","oneway":"yes","service":"driveway","sidewalk":"left"},"geometry":{"type":"LineString","coordinates":[[103.7657181,1.3208939],[103.7657025,1.3208644]]}},{"type":"Feature","id":"way/183512817-0-11-0","properties":{"highway":"service","oneway":"yes","service":"driveway","sidewalk":"left"},"geometry":{"type":"LineString","coordinates":[[103.7657025,1.3208644],[103.7656741,1.3208371]]}},{"type":"Feature","id":"way/183512817-0-12-0","properties":{"highway":"service","oneway":"yes","service":"driveway","sidewalk":"left"},"geometry":{"type":"LineString","coordinates":[[103.7656741,1.3208371],[103.7656382,1.3208211]]}},{"type":"Feature","id":"way/375698400-0-0-0","properties":{"highway":"unclassified","maxspeed":"50","name":"Albert Winsemius Lane","surface":"asphalt"},"geometry":{"type":"LineString","coordinates":[[103.7699018,1.3215636],[103.7698539,1.3215196]]}},{"type":"Feature","id":"way/375709915-0-0-0","properties":{"highway":"service","service":"parking_aisle","surface":"asphalt"},"geometry":{"type":"LineString","coordinates":[[103.7699464,1.3220817],[103.7697466,1.322197]]}},{"type":"Feature","id":"way/375709915-0-1-0","properties":{"highway":"service","service":"parking_aisle","surface":"asphalt"},"geometry":{"type":"LineString","coordinates":[[103.7697466,1.322197],[103.7697466,1.322336]]}},{"type":"Feature","id":"way/375709915-0-2-0","properties":{"highway":"service","service":"parking_aisle","surface":"asphalt"},"geometry":{"type":"LineString","coordinates":[[103.7697466,1.322336],[103.7697466,1.32249]]}},{"type":"Feature","id":"way/375709915-0-3-0","properties":{"highway":"service","service":"parking_aisle","surface":"asphalt"},"geometry":{"type":"LineString","coordinates":[[103.7697466,1.32249],[103.7697976,1.3225778]]}},{"type":"Feature","id":"way/445290290-0-0-0","properties":{"highway":"service","service":"parking_aisle"},"geometry":{"type":"LineString","coordinates":[[103.769816,1.3237219],[103.769668,1.3235843]]}},{"type":"Feature","id":"way/445290290-0-1-0","properties":{"highway":"service","service":"parking_aisle"},"geometry":{"type":"LineString","coordinates":[[103.769668,1.3235843],[103.7700666,1.3233455]]}},{"type":"Feature","id":"way/445290290-0-2-0","properties":{"highway":"service","service":"parking_aisle"},"geometry":{"type":"LineString","coordinates":[[103.7700666,1.3233455],[103.7701408,1.3234378]]}},{"type":"Feature","id":"way/465236688-0-0-0","properties":{"highway":"service","lanes":"1","service":"parking_aisle"},"geometry":{"type":"LineString","coordinates":[[103.7678111,1.3203587],[103.7677278,1.3202263]]}},{"type":"Feature","id":"way/465239952-0-0-0","properties":{"highway":"service","service":"parking_aisle"},"geometry":{"type":"LineString","coordinates":[[103.7701408,1.3234378],[103.769816,1.3237219]]}},{"type":"Feature","id":"way/465239967-0-0-0","properties":{"highway":"service","lanes":"2","lanes:backward":"1","lanes:forward":"1","oneway":"no","service":"parking_aisle","turn:lanes:forward":"left;right"},"geometry":{"type":"LineString","coordinates":[[103.7689778,1.3223807],[103.7687609,1.3225951]]}},{"type":"Feature","id":"way/465239967-0-1-0","properties":{"highway":"service","lanes":"2","lanes:backward":"1","lanes:forward":"1","oneway":"no","service":"parking_aisle","turn:lanes:forward":"left;right"},"geometry":{"type":"LineString","coordinates":[[103.7687609,1.3225951],[103.7684611,1.3228925]]}},{"type":"Feature","id":"way/465239972-0-0-0","properties":{"highway":"service","lanes":"2","lanes:backward":"1","lanes:forward":"1","service":"parking_aisle"},"geometry":{"type":"LineString","coordinates":[[103.7666623,1.3216722],[103.7663888,1.3218197]]}},{"type":"Feature","id":"way/465239972-0-1-0","properties":{"highway":"service","lanes":"2","lanes:backward":"1","lanes:forward":"1","service":"parking_aisle"},"geometry":{"type":"LineString","coordinates":[[103.7663888,1.3218197],[103.7663352,1.3218435]]}},{"type":"Feature","id":"way/465239972-0-2-0","properties":{"highway":"service","lanes":"2","lanes:backward":"1","lanes:forward":"1","service":"parking_aisle"},"geometry":{"type":"LineString","coordinates":[[103.7663352,1.3218435],[103.7662782,1.3218538]]}},{"type":"Feature","id":"way/465239972-0-3-0","properties":{"highway":"service","lanes":"2","lanes:backward":"1","lanes:forward":"1","service":"parking_aisle"},"geometry":{"type":"LineString","coordinates":[[103.7662782,1.3218538],[103.7654187,1.3218549]]}},{"type":"Feature","id":"way/465239973-0-0-0","properties":{"highway":"service","lanes":"2","lanes:backward":"1","lanes:forward":"1","service":"parking_aisle"},"geometry":{"type":"LineString","coordinates":[[103.7666066,1.321457],[103.7666987,1.321626]]}},{"type":"Feature","id":"way/465239973-0-1-0","properties":{"highway":"service","lanes":"2","lanes:backward":"1","lanes:forward":"1","service":"parking_aisle"},"geometry":{"type":"LineString","coordinates":[[103.7666987,1.321626],[103.7666928,1.3216489]]}},{"type":"Feature","id":"way/465239973-0-2-0","properties":{"highway":"service","lanes":"2","lanes:backward":"1","lanes:forward":"1","service":"parking_aisle"},"geometry":{"type":"LineString","coordinates":[[103.7666928,1.3216489],[103.7666623,1.3216722]]}},{"type":"Feature","id":"way/465239974-0-1-0","properties":{"highway":"service","service":"parking_aisle"},"geometry":{"type":"LineString","coordinates":[[103.7654554,1.3216431],[103.7662218,1.3216419]]}},{"type":"Feature","id":"way/465239974-0-2-0","properties":{"highway":"service","service":"parking_aisle"},"geometry":{"type":"LineString","coordinates":[[103.7662218,1.3216419],[103.7662532,1.3216387]]}},{"type":"Feature","id":"way/465239974-0-3-0","properties":{"highway":"service","service":"parking_aisle"},"geometry":{"type":"LineString","coordinates":[[103.7662532,1.3216387],[103.7662869,1.3216257]]}},{"type":"Feature","id":"way/465239974-0-4-0","properties":{"highway":"service","service":"parking_aisle"},"geometry":{"type":"LineString","coordinates":[[103.7662869,1.3216257],[103.7666066,1.321457]]}},{"type":"Feature","id":"way/480517946-0-0-0","properties":{"highway":"residential","lanes":"1","maxheight":"4.5","maxspeed":"40","name":"Sunset Way","oneway":"yes","source":"Yahoo","surface":"asphalt","width":"4.1"},"geometry":{"type":"LineString","coordinates":[[103.7690836,1.323352],[103.7692096,1.3233211]]}},{"type":"Feature","id":"way/480517946-0-1-0","properties":{"highway":"residential","lanes":"1","maxheight":"4.5","maxspeed":"40","name":"Sunset Way","oneway":"yes","source":"Yahoo","surface":"asphalt","width":"4.1"},"geometry":{"type":"LineString","coordinates":[[103.7692096,1.3233211],[103.7693284,1.3232897]]}},{"type":"Feature","id":"way/480517946-0-2-0","properties":{"highway":"residential","lanes":"1","maxheight":"4.5","maxspeed":"40","name":"Sunset Way","oneway":"yes","source":"Yahoo","surface":"asphalt","width":"4.1"},"geometry":{"type":"LineString","coordinates":[[103.7693284,1.3232897],[103.7694472,1.3232516]]}},{"type":"Feature","id":"way/480517947-0-0-0","properties":{"highway":"residential","lanes":"2","lanes:backward":"1","lanes:forward":"1","maxheight":"4.5","maxspeed":"40","name":"Sunset Way","sidewalk":"both","source":"Yahoo","surface":"asphalt"},"geometry":{"type":"LineString","coordinates":[[103.7686559,1.3234287],[103.7689126,1.3233697]]}},{"type":"Feature","id":"way/480526510-0-2-0","properties":{"highway":"unclassified","lanes":"2","maxspeed":"50","name":"Sunset Lane","sidewalk":"both","surface":"asphalt"},"geometry":{"type":"LineString","coordinates":[[103.7700802,1.3216023],[103.7700373,1.3216184]]}},{"type":"Feature","id":"way/480526510-0-3-0","properties":{"highway":"unclassified","lanes":"2","maxspeed":"50","name":"Sunset Lane","sidewalk":"both","surface":"asphalt"},"geometry":{"type":"LineString","coordinates":[[103.7700373,1.3216184],[103.7699978,1.3216166]]}},{"type":"Feature","id":"way/480526510-0-4-0","properties":{"highway":"unclassified","lanes":"2","maxspeed":"50","name":"Sunset Lane","sidewalk":"both","surface":"asphalt"},"geometry":{"type":"LineString","coordinates":[[103.7699978,1.3216166],[103.769969,1.3216059]]}},{"type":"Feature","id":"way/480526510-0-5-0","properties":{"highway":"unclassified","lanes":"2","maxspeed":"50","name":"Sunset Lane","sidewalk":"both","surface":"asphalt"},"geometry":{"type":"LineString","coordinates":[[103.769969,1.3216059],[103.769938,1.3215892]]}},{"type":"Feature","id":"way/480526510-0-6-0","properties":{"highway":"unclassified","lanes":"2","maxspeed":"50","name":"Sunset Lane","sidewalk":"both","surface":"asphalt"},"geometry":{"type":"LineString","coordinates":[[103.769938,1.3215892],[103.7699018,1.3215636]]}},{"type":"Feature","id":"way/533989670-0-0-0","properties":{"highway":"residential","lanes":"2","maxspeed":"50","name":"Clementi Avenue 4","name:zh":"\u91d1\u6587\u6cf04\u9053","oneway":"yes","surface":"asphalt"},"geometry":{"type":"LineString","coordinates":[[103.7676917,1.3208744],[103.7678597,1.3210464]]}},{"type":"Feature","id":"way/533989670-0-1-0","properties":{"highway":"residential","lanes":"2","maxspeed":"50","name":"Clementi Avenue 4","name:zh":"\u91d1\u6587\u6cf04\u9053","oneway":"yes","surface":"asphalt"},"geometry":{"type":"LineString","coordinates":[[103.7678597,1.3210464],[103.7679404,1.3209724]]}},{"type":"Feature","id":"way/533989670-0-2-0","properties":{"highway":"residential","lanes":"2","maxspeed":"50","name":"Clementi Avenue 4","name:zh":"\u91d1\u6587\u6cf04\u9053","oneway":"yes","surface":"asphalt"},"geometry":{"type":"LineString","coordinates":[[103.7679404,1.3209724],[103.7671909,1.3202331]]}},{"type":"Feature","id":"way/533989670-0-3-0","properties":{"highway":"residential","lanes":"2","maxspeed":"50","name":"Clementi Avenue 4","name:zh":"\u91d1\u6587\u6cf04\u9053","oneway":"yes","surface":"asphalt"},"geometry":{"type":"LineString","coordinates":[[103.7671909,1.3202331],[103.7669666,1.3200037]]}},{"type":"Feature","id":"way/541112277-0-0-0","properties":{"highway":"service","service":"parking_aisle"},"geometry":{"type":"LineString","coordinates":[[103.7701072,1.3216963],[103.7701507,1.3217703]]}},{"type":"Feature","id":"way/541117927-0-0-0","properties":{"highway":"service","oneway":"yes"},"geometry":{"type":"LineString","coordinates":[[103.7679472,1.3234958],[103.7674262,1.3237361]]}},{"type":"Feature","id":"way/541117929-0-0-0","properties":{"highway":"service"},"geometry":{"type":"LineString","coordinates":[[103.7672129,1.3231569],[103.7674369,1.323063]]}},{"type":"Feature","id":"way/541117929-0-1-0","properties":{"highway":"service"},"geometry":{"type":"LineString","coordinates":[[103.7674369,1.323063],[103.7674597,1.3230644]]}},{"type":"Feature","id":"way/541117929-0-2-0","properties":{"highway":"service"},"geometry":{"type":"LineString","coordinates":[[103.7674597,1.3230644],[103.7674758,1.3230738]]}},{"type":"Feature","id":"way/541117929-0-3-0","properties":{"highway":"service"},"geometry":{"type":"LineString","coordinates":[[103.7674758,1.3230738],[103.7675562,1.3232628]]}},{"type":"Feature","id":"way/541117929-0-4-0","properties":{"highway":"service"},"geometry":{"type":"LineString","coordinates":[[103.7675562,1.3232628],[103.7675656,1.3232762]]}},{"type":"Feature","id":"way/541117929-0-5-0","properties":{"highway":"service"},"geometry":{"type":"LineString","coordinates":[[103.7675656,1.3232762],[103.7675831,1.3232829]]}},{"type":"Feature","id":"way/541117929-0-6-0","properties":{"highway":"service"},"geometry":{"type":"LineString","coordinates":[[103.7675831,1.3232829],[103.7677842,1.3232119]]}},{"type":"Feature","id":"way/541117929-0-7-0","properties":{"highway":"service"},"geometry":{"type":"LineString","coordinates":[[103.7677842,1.3232119],[103.7678111,1.3232159]]}},{"type":"Feature","id":"way/541117929-0-8-0","properties":{"highway":"service"},"geometry":{"type":"LineString","coordinates":[[103.7678111,1.3232159],[103.7678339,1.3232306]]}},{"type":"Feature","id":"way/541117929-0-9-0","properties":{"highway":"service"},"geometry":{"type":"LineString","coordinates":[[103.7678339,1.3232306],[103.7679472,1.3234958]]}},{"type":"Feature","id":"way/594829818-0-0-0","properties":{"highway":"service","name":"Clementi Street 12","service":"driveway","surface":"asphalt"},"geometry":{"type":"LineString","coordinates":[[103.769979,1.3227147],[103.7700266,1.3227978]]}},{"type":"Feature","id":"way/594829818-0-1-0","properties":{"highway":"service","name":"Clementi Street 12","service":"driveway","surface":"asphalt"},"geometry":{"type":"LineString","coordinates":[[103.7700266,1.3227978],[103.7700471,1.3228336]]}},{"type":"Feature","id":"way/594829821-0-0-0","properties":{"highway":"service","name":"Clementi Street 12","service":"driveway","surface":"asphalt","tunnel":"building_passage"},"geometry":{"type":"LineString","coordinates":[[103.7699021,1.3225803],[103.7699415,1.3226491]]}},{"type":"Feature","id":"way/594829821-0-1-0","properties":{"highway":"service","name":"Clementi Street 12","service":"driveway","surface":"asphalt","tunnel":"building_passage"},"geometry":{"type":"LineString","coordinates":[[103.7699415,1.3226491],[103.7699745,1.3227068]]}},{"type":"Feature","id":"way/594829821-0-2-0","properties":{"highway":"service","name":"Clementi Street 12","service":"driveway","surface":"asphalt","tunnel":"building_passage"},"geometry":{"type":"LineString","coordinates":[[103.7699745,1.3227068],[103.769979,1.3227147]]}},{"type":"Feature","id":"way/594829824-0-0-0","properties":{"highway":"service","name":"Clementi Street 12","service":"driveway","surface":"asphalt"},"geometry":{"type":"LineString","coordinates":[[103.7698753,1.3225335],[103.7699021,1.3225803]]}},{"type":"Feature","id":"way/632222920-0-0-0","properties":{"highway":"residential","lanes":"2","lanes:backward":"1","lanes:forward":"1","lit":"yes","maxspeed":"50","name":"Sunset Walk","source":"Yahoo","surface":"asphalt"},"geometry":{"type":"LineString","coordinates":[[103.7678628,1.3243394],[103.7678716,1.3243589]]}},{"type":"Feature","id":"way/632257954-0-0-0","properties":{"highway":"residential","lanes":"2","maxspeed":"50","name":"Clementi Avenue 4","name:zh":"\u91d1\u6587\u6cf04\u9053","oneway":"yes","surface":"asphalt"},"geometry":{"type":"LineString","coordinates":[[103.7668704,1.3200323],[103.7671275,1.3202926]]}},{"type":"Feature","id":"way/633268039-0-0-0","properties":{"highway":"residential","lanes":"2","lanes:backward":"1","lanes:forward":"1","lit":"yes","maxspeed":"40","name":"Sunset Way","sidewalk":"left","source":"Yahoo","surface":"asphalt"},"geometry":{"type":"LineString","coordinates":[[103.7676059,1.323769],[103.7679909,1.3235979]]}},{"type":"Feature","id":"way/633268043-0-0-0","properties":{"highway":"residential","lanes":"2","lanes:backward":"1","lanes:forward":"1","maxspeed":"40","name":"Sunset Way","sidewalk":"both","source":"Yahoo","surface":"asphalt"},"geometry":{"type":"LineString","coordinates":[[103.7679909,1.3235979],[103.7680737,1.3235692]]}},{"type":"Feature","id":"way/633268043-0-1-0","properties":{"highway":"residential","lanes":"2","lanes:backward":"1","lanes:forward":"1","maxspeed":"40","name":"Sunset Way","sidewalk":"both","source":"Yahoo","surface":"asphalt"},"geometry":{"type":"LineString","coordinates":[[103.7680737,1.3235692],[103.7686559,1.3234287]]}},{"type":"Feature","id":"way/634148889-0-0-0","properties":{"highway":"residential","lanes":"1","maxheight":"4.5","maxspeed":"40","name":"Sunset Way","oneway":"yes","source":"Yahoo","surface":"asphalt"},"geometry":{"type":"LineString","coordinates":[[103.7700851,1.3228988],[103.7701588,1.3228572]]}},{"type":"Feature","id":"way/635282777-0-0-0","properties":{"highway":"residential","lanes":"2","maxspeed":"50","name":"Clementi Avenue 4","name:zh":"\u91d1\u6587\u6cf04\u9053","oneway":"yes","surface":"asphalt"},"geometry":{"type":"LineString","coordinates":[[103.7671275,1.3202926],[103.7676917,1.3208744]]}},{"type":"Feature","id":"way/635282779-0-0-0","properties":{"highway":"service","lanes":"2","lanes:backward":"1","lanes:forward":"1","service":"driveway","turn:lanes:backward":"through","turn:lanes:forward":"left"},"geometry":{"type":"LineString","coordinates":[[103.7661118,1.3208745],[103.7661745,1.3208379]]}},{"type":"Feature","id":"way/635282779-0-1-0","properties":{"highway":"service","lanes":"2","lanes:backward":"1","lanes:forward":"1","service":"driveway","turn:lanes:backward":"through","turn:lanes:forward":"left"},"geometry":{"type":"LineString","coordinates":[[103.7661745,1.3208379],[103.7665481,1.3206191]]}},{"type":"Feature","id":"way/635282779-0-2-0","properties":{"highway":"service","lanes":"2","lanes:backward":"1","lanes:forward":"1","service":"driveway","turn:lanes:backward":"through","turn:lanes:forward":"left"},"geometry":{"type":"LineString","coordinates":[[103.7665481,1.3206191],[103.766842,1.320449]]}},{"type":"Feature","id":"way/635282779-0-3-0","properties":{"highway":"service","lanes":"2","lanes:backward":"1","lanes:forward":"1","service":"driveway","turn:lanes:backward":"through","turn:lanes:forward":"left"},"geometry":{"type":"LineString","coordinates":[[103.766842,1.320449],[103.7670446,1.3203354]]}},{"type":"Feature","id":"way/635282779-0-4-0","properties":{"highway":"service","lanes":"2","lanes:backward":"1","lanes:forward":"1","service":"driveway","turn:lanes:backward":"through","turn:lanes:forward":"left"},"geometry":{"type":"LineString","coordinates":[[103.7670446,1.3203354],[103.7671275,1.3202926]]}},{"type":"Feature","id":"way/635309759-0-0-0","properties":{"highway":"residential","lanes":"1","maxheight":"4.5","maxspeed":"40","name":"Sunset Way","oneway":"yes","sidewalk":"left","source":"Yahoo","surface":"asphalt"},"geometry":{"type":"LineString","coordinates":[[103.7689126,1.3233697],[103.7690573,1.3233542]]}},{"type":"Feature","id":"way/635309759-0-1-0","properties":{"highway":"residential","lanes":"1","maxheight":"4.5","maxspeed":"40","name":"Sunset Way","oneway":"yes","sidewalk":"left","source":"Yahoo","surface":"asphalt"},"geometry":{"type":"LineString","coordinates":[[103.7690573,1.3233542],[103.7690836,1.323352]]}},{"type":"Feature","id":"way/635309760-0-0-0","properties":{"highway":"service","lanes":"2","lanes:backward":"1","lanes:forward":"1","name":"Clementi Street 14","oneway":"no","service":"driveway","sidewalk":"left","surface":"asphalt","turn:lanes:forward":"left;right"},"geometry":{"type":"LineString","coordinates":[[103.7687659,1.3230948],[103.7689979,1.3232581]]}},{"type":"Feature","id":"way/635309760-0-1-0","properties":{"highway":"service","lanes":"2","lanes:backward":"1","lanes:forward":"1","name":"Clementi Street 14","oneway":"no","service":"driveway","sidewalk":"left","surface":"asphalt","turn:lanes:forward":"left;right"},"geometry":{"type":"LineString","coordinates":[[103.7689979,1.3232581],[103.769026,1.3232915]]}},{"type":"Feature","id":"way/635309760-0-2-0","properties":{"highway":"service","lanes":"2","lanes:backward":"1","lanes:forward":"1","name":"Clementi Street 14","oneway":"no","service":"driveway","sidewalk":"left","surface":"asphalt","turn:lanes:forward":"left;right"},"geometry":{"type":"LineString","coordinates":[[103.769026,1.3232915],[103.7690488,1.3233155]]}},{"type":"Feature","id":"way/639572335-0-0-0","properties":{"highway":"service","lanes":"2","lanes:backward":"1","lanes:forward":"1","service":"driveway"},"geometry":{"type":"LineString","coordinates":[[103.7669666,1.3200037],[103.7670021,1.3199842]]}},{"type":"Feature","id":"way/642036117-0-0-0","properties":{"highway":"service","oneway":"yes","service":"parking_aisle"},"geometry":{"type":"LineString","coordinates":[[103.7694546,1.3215675],[103.7694875,1.3215815]]}},{"type":"Feature","id":"way/642036117-0-1-0","properties":{"highway":"service","oneway":"yes","service":"parking_aisle"},"geometry":{"type":"LineString","coordinates":[[103.7694875,1.3215815],[103.7695277,1.3215795]]}},{"type":"Feature","id":"way/642036117-0-2-0","properties":{"highway":"service","oneway":"yes","service":"parking_aisle"},"geometry":{"type":"LineString","coordinates":[[103.7695277,1.3215795],[103.7696706,1.3215206]]}},{"type":"Feature","id":"way/643236814-0-0-0","properties":{"highway":"residential","lanes":"2","lanes:backward":"1","lanes:forward":"1","lit":"yes","maxspeed":"40","name":"Sunset Way","sidewalk:both":"separate","source":"Yahoo","surface":"asphalt"},"geometry":{"type":"LineString","coordinates":[[103.7666448,1.3241901],[103.7668301,1.3241089]]}},{"type":"Feature","id":"way/643237808-0-0-0","properties":{"highway":"residential","lanes":"2","lanes:backward":"1","lanes:forward":"1","lit":"yes","maxspeed":"40","name":"Sunset Way","sidewalk:both":"separate","source":"Yahoo","surface":"asphalt"},"geometry":{"type":"LineString","coordinates":[[103.7668301,1.3241089],[103.7674698,1.3238286]]}},{"type":"Feature","id":"way/643261116-0-0-0","properties":{"highway":"residential","lanes":"1","maxheight":"4.5","maxspeed":"40","name":"Sunset Way","oneway":"yes","source":"Yahoo","surface":"asphalt"},"geometry":{"type":"LineString","coordinates":[[103.7694472,1.3232516],[103.7695105,1.3232228]]}},{"type":"Feature","id":"way/643261116-0-1-0","properties":{"highway":"residential","lanes":"1","maxheight":"4.5","maxspeed":"40","name":"Sunset Way","oneway":"yes","source":"Yahoo","surface":"asphalt"},"geometry":{"type":"LineString","coordinates":[[103.7695105,1.3232228],[103.7698377,1.3230383]]}},{"type":"Feature","id":"way/643261536-0-0-0","properties":{"highway":"service","lanes":"2","lanes:backward":"1","lanes:forward":"1","name":"Clementi Street 14","oneway":"no","service":"driveway","sidewalk":"left","surface":"asphalt"},"geometry":{"type":"LineString","coordinates":[[103.7684611,1.3228925],[103.7686028,1.3229787]]}},{"type":"Feature","id":"way/643261536-0-1-0","properties":{"highway":"service","lanes":"2","lanes:backward":"1","lanes:forward":"1","name":"Clementi Street 14","oneway":"no","service":"driveway","sidewalk":"left","surface":"asphalt"},"geometry":{"type":"LineString","coordinates":[[103.7686028,1.3229787],[103.7687659,1.3230948]]}},{"type":"Feature","id":"way/644914779-0-0-0","properties":{"highway":"service","oneway":"no","service":"parking_aisle"},"geometry":{"type":"LineString","coordinates":[[103.7691543,1.3222031],[103.7689778,1.3223807]]}},{"type":"Feature","id":"way/645108994-0-0-0","properties":{"highway":"service","service":"parking_aisle","surface":"asphalt"},"geometry":{"type":"LineString","coordinates":[[103.7698753,1.3225335],[103.7698965,1.3225214]]}},{"type":"Feature","id":"way/645108994-0-1-0","properties":{"highway":"service","service":"parking_aisle","surface":"asphalt"},"geometry":{"type":"LineString","coordinates":[[103.7698965,1.3225214],[103.7700081,1.3224578]]}},{"type":"Feature","id":"way/645108995-0-0-0","properties":{"highway":"service","service":"parking_aisle","surface":"asphalt"},"geometry":{"type":"LineString","coordinates":[[103.7697976,1.3225778],[103.7698531,1.3225462]]}},{"type":"Feature","id":"way/645108995-0-1-0","properties":{"highway":"service","service":"parking_aisle","surface":"asphalt"},"geometry":{"type":"LineString","coordinates":[[103.7698531,1.3225462],[103.7698753,1.3225335]]}},{"type":"Feature","id":"way/646790029-0-0-0","properties":{"highway":"service","oneway":"yes","surface":"asphalt"},"geometry":{"type":"LineString","coordinates":[[103.7679909,1.3235979],[103.7679824,1.323578]]}},{"type":"Feature","id":"way/646790029-0-1-0","properties":{"highway":"service","oneway":"yes","surface":"asphalt"},"geometry":{"type":"LineString","coordinates":[[103.7679824,1.323578],[103.767973,1.3235567]]}},{"type":"Feature","id":"way/646790029-0-2-0","properties":{"highway":"service","oneway":"yes","surface":"asphalt"},"geometry":{"type":"LineString","coordinates":[[103.767973,1.3235567],[103.7679472,1.3234958]]}},{"type":"Feature","id":"way/646827532-0-0-0","properties":{"highway":"service","lanes":"1","service":"parking_aisle"},"geometry":{"type":"LineString","coordinates":[[103.7677278,1.3202263],[103.7679514,1.3201018]]}},{"type":"Feature","id":"way/646827532-0-1-0","properties":{"highway":"service","lanes":"1","service":"parking_aisle"},"geometry":{"type":"LineString","coordinates":[[103.7679514,1.3201018],[103.7679694,1.3200918]]}},{"type":"Feature","id":"way/646827532-0-2-0","properties":{"highway":"service","lanes":"1","service":"parking_aisle"},"geometry":{"type":"LineString","coordinates":[[103.7679694,1.3200918],[103.7681786,1.3199753]]}},{"type":"Feature","id":"way/647082109-0-0-0","properties":{"highway":"service","lanes":"1","service":"parking_aisle"},"geometry":{"type":"LineString","coordinates":[[103.7677278,1.3202263],[103.7676568,1.3201127]]}},{"type":"Feature","id":"way/647082109-0-1-0","properties":{"highway":"service","lanes":"1","service":"parking_aisle"},"geometry":{"type":"LineString","coordinates":[[103.7676568,1.3201127],[103.7676552,1.3201047]]}},{"type":"Feature","id":"way/647082109-0-2-0","properties":{"highway":"service","lanes":"1","service":"parking_aisle"},"geometry":{"type":"LineString","coordinates":[[103.7676552,1.3201047],[103.7676569,1.3200959]]}},{"type":"Feature","id":"way/647119215-0-0-0","properties":{"highway":"service","lanes":"2","lanes:backward":"1","lanes:forward":"1","oneway":"no","service":"parking_aisle"},"geometry":{"type":"LineString","coordinates":[[103.7692508,1.3227567],[103.7691219,1.3227574]]}},{"type":"Feature","id":"way/647119215-0-1-0","properties":{"highway":"service","lanes":"2","lanes:backward":"1","lanes:forward":"1","oneway":"no","service":"parking_aisle"},"geometry":{"type":"LineString","coordinates":[[103.7691219,1.3227574],[103.769089,1.3227615]]}},{"type":"Feature","id":"way/647119215-0-2-0","properties":{"highway":"service","lanes":"2","lanes:backward":"1","lanes:forward":"1","oneway":"no","service":"parking_aisle"},"geometry":{"type":"LineString","coordinates":[[103.769089,1.3227615],[103.7690677,1.3227775]]}},{"type":"Feature","id":"way/647119215-0-3-0","properties":{"highway":"service","lanes":"2","lanes:backward":"1","lanes:forward":"1","oneway":"no","service":"parking_aisle"},"geometry":{"type":"LineString","coordinates":[[103.7690677,1.3227775],[103.7688742,1.3229783]]}},{"type":"Feature","id":"way/647119216-0-0-0","properties":{"highway":"service","lanes":"2","lanes:backward":"1","lanes:forward":"1","oneway":"no","service":"parking_aisle","turn:lanes:forward":"left;right"},"geometry":{"type":"LineString","coordinates":[[103.7688742,1.3229783],[103.7687659,1.3230948]]}},{"type":"Feature","id":"way/670642555-0-0-0","properties":{"highway":"service","lanes":"2","lanes:backward":"1","lanes:forward":"1","service":"driveway","turn:lanes:backward":"through","turn:lanes:forward":"through"},"geometry":{"type":"LineString","coordinates":[[103.7675138,1.320975],[103.7675738,1.3209423]]}},{"type":"Feature","id":"way/670642555-0-1-0","properties":{"highway":"service","lanes":"2","lanes:backward":"1","lanes:forward":"1","service":"driveway","turn:lanes:backward":"through","turn:lanes:forward":"through"},"geometry":{"type":"LineString","coordinates":[[103.7675738,1.3209423],[103.767613,1.3209206]]}},{"type":"Feature","id":"way/670642555-0-2-0","properties":{"highway":"service","lanes":"2","lanes:backward":"1","lanes:forward":"1","service":"driveway","turn:lanes:backward":"through","turn:lanes:forward":"through"},"geometry":{"type":"LineString","coordinates":[[103.767613,1.3209206],[103.7676917,1.3208744]]}},{"type":"Feature","id":"way/768060504-0-0-0","properties":{"highway":"residential","lanes":"1","maxheight":"4.5","maxspeed":"40","name":"Sunset Way","oneway":"yes","source":"Yahoo","surface":"asphalt","turn:lanes":"left;through;right"},"geometry":{"type":"LineString","coordinates":[[103.7699384,1.3229815],[103.7700851,1.3228988]]}},{"type":"Feature","id":"way/768060505-0-0-0","properties":{"highway":"residential","lanes":"1","maxheight":"4.5","maxspeed":"40","name":"Sunset Way","oneway":"yes","source":"Yahoo","surface":"asphalt","turn:lanes":"left;through"},"geometry":{"type":"LineString","coordinates":[[103.7698377,1.3230383],[103.7699384,1.3229815]]}},{"type":"Feature","id":"way/768060510-0-0-0","properties":{"highway":"service","lanes":"1","name":"Clementi Street 12","service":"driveway","surface":"asphalt"},"geometry":{"type":"LineString","coordinates":[[103.7700471,1.3228336],[103.7700851,1.3228988]]}},{"type":"Feature","id":"way/768060511-0-0-0","properties":{"highway":"service","lanes":"2","name":"Clementi Street 14","oneway":"no","service":"driveway","surface":"asphalt"},"geometry":{"type":"LineString","coordinates":[[103.7690488,1.3233155],[103.7690836,1.323352]]}},{"type":"Feature","id":"way/768060512-0-0-0","properties":{"highway":"residential","lanes":"1","maxheight":"4.5","maxspeed":"40","name":"Sunset Way","oneway":"yes","sidewalk":"left","source":"Yahoo","surface":"asphalt"},"geometry":{"type":"LineString","coordinates":[[103.7690488,1.3233155],[103.7690245,1.3233262]]}},{"type":"Feature","id":"way/768060512-0-1-0","properties":{"highway":"residential","lanes":"1","maxheight":"4.5","maxspeed":"40","name":"Sunset Way","oneway":"yes","sidewalk":"left","source":"Yahoo","surface":"asphalt"},"geometry":{"type":"LineString","coordinates":[[103.7690245,1.3233262],[103.7689126,1.3233697]]}},{"type":"Feature","id":"way/768060513-0-0-0","properties":{"highway":"residential","lanes":"1","maxheight":"4.5","maxspeed":"40","name":"Sunset Way","oneway":"yes","source":"Yahoo","surface":"asphalt"},"geometry":{"type":"LineString","coordinates":[[103.7694141,1.3231875],[103.7693086,1.3232305]]}},{"type":"Feature","id":"way/768060513-0-1-0","properties":{"highway":"residential","lanes":"1","maxheight":"4.5","maxspeed":"40","name":"Sunset Way","oneway":"yes","source":"Yahoo","surface":"asphalt"},"geometry":{"type":"LineString","coordinates":[[103.7693086,1.3232305],[103.7691932,1.3232719]]}},{"type":"Feature","id":"way/768060513-0-2-0","properties":{"highway":"residential","lanes":"1","maxheight":"4.5","maxspeed":"40","name":"Sunset Way","oneway":"yes","source":"Yahoo","surface":"asphalt"},"geometry":{"type":"LineString","coordinates":[[103.7691932,1.3232719],[103.7690488,1.3233155]]}},{"type":"Feature","id":"way/768060514-0-0-0","properties":{"highway":"residential","lanes":"1","maxheight":"4.5","maxspeed":"40","name":"Sunset Way","oneway":"yes","source":"Yahoo","surface":"asphalt"},"geometry":{"type":"LineString","coordinates":[[103.7700471,1.3228336],[103.7697273,1.3230137]]}},{"type":"Feature","id":"way/768060514-0-1-0","properties":{"highway":"residential","lanes":"1","maxheight":"4.5","maxspeed":"40","name":"Sunset Way","oneway":"yes","source":"Yahoo","surface":"asphalt"},"geometry":{"type":"LineString","coordinates":[[103.7697273,1.3230137],[103.769496,1.3231475]]}},{"type":"Feature","id":"way/768060514-0-2-0","properties":{"highway":"residential","lanes":"1","maxheight":"4.5","maxspeed":"40","name":"Sunset Way","oneway":"yes","source":"Yahoo","surface":"asphalt"},"geometry":{"type":"LineString","coordinates":[[103.769496,1.3231475],[103.7694141,1.3231875]]}},{"type":"Feature","id":"way/768060515-0-0-0","properties":{"highway":"residential","lanes":"1","maxheight":"4.5","maxspeed":"40","name":"Sunset Way","oneway":"yes","source":"Yahoo","surface":"asphalt"},"geometry":{"type":"LineString","coordinates":[[103.7701971,1.322751],[103.7700471,1.3228336]]}},{"type":"Feature","id":"way/824394676-0-0-0","properties":{"highway":"service","oneway":"yes"},"geometry":{"type":"LineString","coordinates":[[103.7674262,1.3237361],[103.767451,1.3237863]]}},{"type":"Feature","id":"way/824394676-0-1-0","properties":{"highway":"service","oneway":"yes"},"geometry":{"type":"LineString","coordinates":[[103.767451,1.3237863],[103.7674698,1.3238286]]}},{"type":"Feature","id":"way/824394677-0-0-0","properties":{"highway":"residential","lanes":"2","lanes:backward":"1","lanes:forward":"1","lit":"yes","maxspeed":"40","name":"Sunset Way","source":"Yahoo","surface":"asphalt"},"geometry":{"type":"LineString","coordinates":[[103.7674698,1.3238286],[103.7676059,1.323769]]}},{"type":"Feature","id":"way/876410320-0-0-0","properties":{"highway":"service","maxspeed":"15","service":"driveway","surface":"asphalt"},"geometry":{"type":"LineString","coordinates":[[103.7665481,1.3206191],[103.7665417,1.3205987]]}},{"type":"Feature","id":"way/876410321-0-0-0","properties":{"highway":"service","maxspeed":"15","oneway":"yes","service":"driveway","surface":"asphalt"},"geometry":{"type":"LineString","coordinates":[[103.7661607,1.3208154],[103.7661745,1.3208379]]}},{"type":"Feature","id":"way/876410322-0-0-0","properties":{"highway":"service","maxspeed":"15","oneway":"no","service":"driveway","surface":"asphalt"},"geometry":{"type":"LineString","coordinates":[[103.766842,1.320449],[103.7667634,1.3203029]]}},{"type":"Feature","id":"way/933702881-0-0-0","properties":{"highway":"service","oneway":"yes","service":"parking_aisle"},"geometry":{"type":"LineString","coordinates":[[103.7696706,1.3215206],[103.7694244,1.3212651]]}},{"type":"Feature","id":"way/933702881-0-1-0","properties":{"highway":"service","oneway":"yes","service":"parking_aisle"},"geometry":{"type":"LineString","coordinates":[[103.7694244,1.3212651],[103.7692876,1.3214012]]}},{"type":"Feature","id":"way/933702881-0-2-0","properties":{"highway":"service","oneway":"yes","service":"parking_aisle"},"geometry":{"type":"LineString","coordinates":[[103.7692876,1.3214012],[103.7694546,1.3215675]]}},{"type":"Feature","id":"way/1253826362-0-1-0","properties":{"highway":"service","service":"driveway"},"geometry":{"type":"LineString","coordinates":[[103.7701239,1.321421],[103.7700137,1.3212172]]}},{"type":"Feature","id":"way/1353610081-0-0-0","properties":{"highway":"service","service":"driveway"},"geometry":{"type":"LineString","coordinates":[[103.7698539,1.3215196],[103.7697744,1.32152]]}},{"type":"Feature","id":"way/1353610081-0-1-0","properties":{"highway":"service","service":"driveway"},"geometry":{"type":"LineString","coordinates":[[103.7697744,1.32152],[103.7697262,1.3215203]]}},{"type":"Feature","id":"way/1353610081-0-2-0","properties":{"highway":"service","service":"driveway"},"geometry":{"type":"LineString","coordinates":[[103.7697262,1.3215203],[103.7696706,1.3215206]]}}]}