{"type":"FeatureCollection","features":[{"type":"Feature","id":"way/108542254-0","properties":{"building":"yes"},"geometry":{"type":"Polygon","coordinates":[[[103.7624969,1.4189695],[103.7618486,1.418349],[103.7617566,1.4184439],[103.7624004,1.419066],[103.7624969,1.4189695]]]}},{"type":"Feature","id":"way/453708336-0","properties":{"building":"yes"},"geometry":{"type":"Polygon","coordinates":[[[103.7634247,1.4178817],[103.7633581,1.4177737],[103.7632862,1.417818],[103.7633912,1.4179882],[103.7637231,1.4177836],[103.7637171,1.4177739],[103.7637192,1.4177727],[103.7636382,1.4176413],[103.7635542,1.417693],[103.7636029,1.4177719],[103.7634247,1.4178817]]]}},{"type":"Feature","id":"way/453708339-0","properties":{"building":"yes"},"geometry":{"type":"Polygon","coordinates":[[[103.7621768,1.4180129],[103.762732,1.4187583],[103.7628426,1.4186759],[103.7622874,1.4179305],[103.7621768,1.4180129]]]}},{"type":"Feature","id":"way/453708341-0","properties":{"building":"yes"},"geometry":{"type":"Polygon","coordinates":[[[103.7654618,1.417547],[103.7655342,1.4173781],[103.7654216,1.4173299],[103.7653492,1.4174988],[103.7654618,1.417547]]]}},{"type":"Feature","id":"way/453708346-0","properties":{"building":"yes"},"geometry":{"type":"Polygon","coordinates":[[[103.7653921,1.4183434],[103.7655266,1.4182571],[103.7654354,1.418115],[103.7653009,1.4182013],[103.7653921,1.4183434]]]}},{"type":"Feature","id":"way/453708349-0","properties":{"building":"yes"},"geometry":{"type":"Polygon","coordinates":[[[103.7636538,1.4173413],[103.7640507,1.4179794],[103.7641985,1.4178876],[103.7638015,1.4172494],[103.7636538,1.4173413]]]}},{"type":"Feature","id":"way/453708352-0","properties":{"building":"yes"},"geometry":{"type":"Polygon","coordinates":[[[103.765494,1.418515],[103.7656174,1.4183917],[103.7655503,1.4183246],[103.7654269,1.418448],[103.765494,1.418515]]]}},{"type":"Feature","id":"way/453708356-0","properties":{"building":"yes"},"geometry":{"type":"Polygon","coordinates":[[[103.762487,1.4177914],[103.7630208,1.4185341],[103.7631109,1.4184694],[103.7625771,1.4177267],[103.762487,1.4177914]]]}},{"type":"Feature","id":"way/453708358-0","properties":{"building":"yes"},"geometry":{"type":"Polygon","coordinates":[[[103.7656066,1.417228],[103.7656821,1.4170682],[103.7655855,1.4170226],[103.7655101,1.4171824],[103.7656066,1.417228]]]}},{"type":"Feature","id":"way/453708360-0","properties":{"building":"yes"},"geometry":{"type":"Polygon","coordinates":[[[103.7638887,1.4180699],[103.7637954,1.4179225],[103.7635325,1.4180888],[103.7636258,1.4182362],[103.7638887,1.4180699]]]}},{"type":"Feature","id":"way/453708363-0","properties":{"building":"yes"},"geometry":{"type":"Polygon","coordinates":[[[103.763989,1.4172018],[103.7643511,1.4178078],[103.7645767,1.4176731],[103.7642146,1.4170671],[103.763989,1.4172018]]]}},{"type":"Feature","id":"way/453708367-0","properties":{"building":"yes"},"geometry":{"type":"Polygon","coordinates":[[[103.7652982,1.4178715],[103.7653823,1.4176944],[103.765275,1.4176435],[103.7651909,1.4178205],[103.7652982,1.4178715]]]}},{"type":"Feature","id":"way/453708375-0","properties":{"building":"yes"},"geometry":{"type":"Polygon","coordinates":[[[103.7641358,1.4185152],[103.7640788,1.4184313],[103.7641195,1.4184036],[103.7640344,1.4182784],[103.7638874,1.4183783],[103.7640295,1.4185874],[103.7641358,1.4185152]]]}},{"type":"Feature","id":"way/453708379-0","properties":{"building":"yes"},"geometry":{"type":"Polygon","coordinates":[[[103.7633146,1.4176915],[103.763255,1.4175996],[103.7634291,1.4174868],[103.7634985,1.4175938],[103.7635858,1.4175372],[103.763521,1.4174375],[103.7634715,1.4173612],[103.7631248,1.417586],[103.7632291,1.4177469],[103.7633146,1.4176915]]]}},{"type":"Feature","id":"way/95860105-0-0-0","properties":{"highway":"primary","lanes":"3","maxspeed":"70","name":"Turf Club Avenue","name:zh":"\u8d5b\u9a6c\u516c\u4f1a\u9053","oneway":"yes","surface":"asphalt"},"geometry":{"type":"LineString","coordinates":[[103.7630457,1.4165125],[103.7633461,1.4164481]]}},{"type":"Feature","id":"way/95860105-0-1-0","properties":{"highway":"primary","lanes":"3","maxspeed":"70","name":"Turf Club Avenue","name:zh":"\u8d5b\u9a6c\u516c\u4f1a\u9053","oneway":"yes","surface":"asphalt"},"geometry":{"type":"LineString","coordinates":[[103.7633461,1.4164481],[103.7636894,1.4164052]]}},{"type":"Feature","id":"way/95860105-0-2-0","properties":{"highway":"primary","lanes":"3","maxspeed":"70","name":"Turf Club Avenue","name:zh":"\u8d5b\u9a6c\u516c\u4f1a\u9053","oneway":"yes","surface":"asphalt"},"geometry":{"type":"LineString","coordinates":[[103.7636894,1.4164052],[103.7640435,1.4163838]]}},{"type":"Feature","id":"way/95860105-0-3-0","properties":{"highway":"primary","lanes":"3","maxspeed":"70","name":"Turf Club Avenue","name:zh":"\u8d5b\u9a6c\u516c\u4f1a\u9053","oneway":"yes","surface":"asphalt"},"geometry":{"type":"LineString","coordinates":[[103.7640435,1.4163838],[103.7644895,1.4163866]]}},{"type":"Feature","id":"way/95860105-0-4-0","properties":{"highway":"primary","lanes":"3","maxspeed":"70","name":"Turf Club Avenue","name:zh":"\u8d5b\u9a6c\u516c\u4f1a\u9053","oneway":"yes","surface":"asphalt"},"geometry":{"type":"LineString","coordinates":[[103.7644895,1.4163866],[103.7649202,1.4164433]]}},{"type":"Feature","id":"way/95860105-0-5-0","properties":{"highway":"primary","lanes":"3","maxspeed":"70","name":"Turf Club Avenue","name:zh":"\u8d5b\u9a6c\u516c\u4f1a\u9053","oneway":"yes","surface":"asphalt"},"geometry":{"type":"LineString","coordinates":[[103.7649202,1.4164433],[103.7652987,1.4165305]]}},{"type":"Feature","id":"way/95860105-0-6-0","properties":{"highway":"primary","lanes":"3","maxspeed":"70","name":"Turf Club Avenue","name:zh":"\u8d5b\u9a6c\u516c\u4f1a\u9053","oneway":"yes","surface":"asphalt"},"geometry":{"type":"LineString","coordinates":[[103.7652987,1.4165305],[103.7656789,1.4166546]]}},{"type":"Feature","id":"way/95860108-0-0-0","properties":{"bridge":"yes","highway":"primary","lanes":"3","layer":"1","maxspeed":"70","name":"Turf Club Avenue","name:zh":"\u8d5b\u9a6c\u516c\u4f1a\u9053","oneway":"yes","surface":"asphalt"},"geometry":{"type":"LineString","coordinates":[[103.7621123,1.4168986],[103.7625736,1.4166948]]}},{"type":"Feature","id":"way/95860108-0-1-0","properties":{"bridge":"yes","highway":"primary","lanes":"3","layer":"1","maxspeed":"70","name":"Turf Club Avenue","name:zh":"\u8d5b\u9a6c\u516c\u4f1a\u9053","oneway":"yes","surface":"asphalt"},"geometry":{"type":"LineString","coordinates":[[103.7625736,1.4166948],[103.7630457,1.4165125]]}},{"type":"Feature","id":"way/95860117-0-0-0","properties":{"highway":"primary","lanes":"3","maxspeed":"70","name":"Turf Club Avenue","name:zh":"\u8d5b\u9a6c\u516c\u4f1a\u9053","oneway":"yes","surface":"asphalt"},"geometry":{"type":"LineString","coordinates":[[103.7620694,1.4167806],[103.7614471,1.4171238]]}},{"type":"Feature","id":"way/95860117-0-1-0","properties":{"highway":"primary","lanes":"3","maxspeed":"70","name":"Turf Club Avenue","name:zh":"\u8d5b\u9a6c\u516c\u4f1a\u9053","oneway":"yes","surface":"asphalt"},"geometry":{"type":"LineString","coordinates":[[103.7614471,1.4171238],[103.7609214,1.417467]]}},{"type":"Feature","id":"way/95860121-0-0-0","properties":{"bridge":"yes","highway":"primary","lanes":"3","layer":"1","maxspeed":"70","name":"Turf Club Avenue","name:zh":"\u8d5b\u9a6c\u516c\u4f1a\u9053","oneway":"yes","surface":"asphalt"},"geometry":{"type":"LineString","coordinates":[[103.762992,1.4163945],[103.76252,1.4165768]]}},{"type":"Feature","id":"way/95860121-0-1-0","properties":{"bridge":"yes","highway":"primary","lanes":"3","layer":"1","maxspeed":"70","name":"Turf Club Avenue","name:zh":"\u8d5b\u9a6c\u516c\u4f1a\u9053","oneway":"yes","surface":"asphalt"},"geometry":{"type":"LineString","coordinates":[[103.76252,1.4165768],[103.7620694,1.4167806]]}},{"type":"Feature","id":"way/108542250-0-0-0","properties":{"highway":"primary_link","lanes":"1","maxspeed":"50","oneway":"yes","surface":"asphalt"},"geometry":{"type":"LineString","coordinates":[[103.7615209,1.4174153],[103.7616322,1.4173523]]}},{"type":"Feature","id":"way/108542250-0-1-0","properties":{"highway":"primary_link","lanes":"1","maxspeed":"50","oneway":"yes","surface":"asphalt"},"geometry":{"type":"LineString","coordinates":[[103.7616322,1.4173523],[103.761677,1.4173327]]}},{"type":"Feature","id":"way/108542250-0-2-0","properties":{"highway":"primary_link","lanes":"1","maxspeed":"50","oneway":"yes","surface":"asphalt"},"geometry":{"type":"LineString","coordinates":[[103.761677,1.4173327],[103.7617313,1.4173199]]}},{"type":"Feature","id":"way/108542250-0-3-0","properties":{"highway":"primary_link","lanes":"1","maxspeed":"50","oneway":"yes","surface":"asphalt"},"geometry":{"type":"LineString","coordinates":[[103.7617313,1.4173199],[103.7617824,1.4173146]]}},{"type":"Feature","id":"way/108542250-0-4-0","properties":{"highway":"primary_link","lanes":"1","maxspeed":"50","oneway":"yes","surface":"asphalt"},"geometry":{"type":"LineString","coordinates":[[103.7617824,1.4173146],[103.7618249,1.4173253]]}},{"type":"Feature","id":"way/108542250-0-5-0","properties":{"highway":"primary_link","lanes":"1","maxspeed":"50","oneway":"yes","surface":"asphalt"},"geometry":{"type":"LineString","coordinates":[[103.7618249,1.4173253],[103.7618579,1.4173465]]}},{"type":"Feature","id":"way/108542250-0-6-0","properties":{"highway":"primary_link","lanes":"1","maxspeed":"50","oneway":"yes","surface":"asphalt"},"geometry":{"type":"LineString","coordinates":[[103.7618579,1.4173465],[103.7618915,1.4173632]]}},{"type":"Feature","id":"way/108542250-0-7-0","properties":{"highway":"primary_link","lanes":"1","maxspeed":"50","oneway":"yes","surface":"asphalt"},"geometry":{"type":"LineString","coordinates":[[103.7618915,1.4173632],[103.7619177,1.4174013]]}},{"type":"Feature","id":"way/108542250-0-8-0","properties":{"highway":"primary_link","lanes":"1","maxspeed":"50","oneway":"yes","surface":"asphalt"},"geometry":{"type":"LineString","coordinates":[[103.7619177,1.4174013],[103.7619208,1.417438]]}},{"type":"Feature","id":"way/108542250-0-9-0","properties":{"highway":"primary_link","lanes":"1","maxspeed":"50","oneway":"yes","surface":"asphalt"},"geometry":{"type":"LineString","coordinates":[[103.7619208,1.417438],[103.7619219,1.4174763]]}},{"type":"Feature","id":"way/108542250-0-10-0","properties":{"highway":"primary_link","lanes":"1","maxspeed":"50","oneway":"yes","surface":"asphalt"},"geometry":{"type":"LineString","coordinates":[[103.7619219,1.4174763],[103.7619123,1.4175285]]}},{"type":"Feature","id":"way/108542250-0-11-0","properties":{"highway":"primary_link","lanes":"1","maxspeed":"50","oneway":"yes","surface":"asphalt"},"geometry":{"type":"LineString","coordinates":[[103.7619123,1.4175285],[103.7618773,1.4176156]]}},{"type":"Feature","id":"way/108542275-0-0-0","properties":{"highway":"primary_link","lanes":"2","maxspeed":"50","oneway":"yes","surface":"asphalt"},"geometry":{"type":"LineString","coordinates":[[103.7626703,1.4169588],[103.7628142,1.4168768]]}},{"type":"Feature","id":"way/108542275-0-1-0","properties":{"highway":"primary_link","lanes":"2","maxspeed":"50","oneway":"yes","surface":"asphalt"},"geometry":{"type":"LineString","coordinates":[[103.7628142,1.4168768],[103.7629062,1.416827]]}},{"type":"Feature","id":"way/108542275-0-2-0","properties":{"highway":"primary_link","lanes":"2","maxspeed":"50","oneway":"yes","surface":"asphalt"},"geometry":{"type":"LineString","coordinates":[[103.7629062,1.416827],[103.7631451,1.4167382]]}},{"type":"Feature","id":"way/108542275-0-3-0","properties":{"highway":"primary_link","lanes":"2","maxspeed":"50","oneway":"yes","surface":"asphalt"},"geometry":{"type":"LineString","coordinates":[[103.7631451,1.4167382],[103.7635083,1.4166367]]}},{"type":"Feature","id":"way/108542275-0-4-0","properties":{"highway":"primary_link","lanes":"2","maxspeed":"50","oneway":"yes","surface":"asphalt"},"geometry":{"type":"LineString","coordinates":[[103.7635083,1.4166367],[103.7638625,1.4165667]]}},{"type":"Feature","id":"way/108542275-0-5-0","properties":{"highway":"primary_link","lanes":"2","maxspeed":"50","oneway":"yes","surface":"asphalt"},"geometry":{"type":"LineString","coordinates":[[103.7638625,1.4165667],[103.7643193,1.4165238]]}},{"type":"Feature","id":"way/108542275-0-6-0","properties":{"highway":"primary_link","lanes":"2","maxspeed":"50","oneway":"yes","surface":"asphalt"},"geometry":{"type":"LineString","coordinates":[[103.7643193,1.4165238],[103.7647372,1.4165284]]}},{"type":"Feature","id":"way/108542275-0-7-0","properties":{"highway":"primary_link","lanes":"2","maxspeed":"50","oneway":"yes","surface":"asphalt"},"geometry":{"type":"LineString","coordinates":[[103.7647372,1.4165284],[103.7651117,1.4165698]]}},{"type":"Feature","id":"way/108542275-0-8-0","properties":{"highway":"primary_link","lanes":"2","maxspeed":"50","oneway":"yes","surface":"asphalt"},"geometry":{"type":"LineString","coordinates":[[103.7651117,1.4165698],[103.7653764,1.4166305]]}},{"type":"Feature","id":"way/108542275-0-9-0","properties":{"highway":"primary_link","lanes":"2","maxspeed":"50","oneway":"yes","surface":"asphalt"},"geometry":{"type":"LineString","coordinates":[[103.7653764,1.4166305],[103.7656194,1.4167172]]}},{"type":"Feature","id":"way/108542296-0-0-0","properties":{"highway":"primary_link","lanes":"3","maxspeed":"50","oneway":"yes","surface":"asphalt"},"geometry":{"type":"LineString","coordinates":[[103.7640155,1.4161175],[103.7634138,1.4161219]]}},{"type":"Feature","id":"way/108542296-0-1-0","properties":{"highway":"primary_link","lanes":"3","maxspeed":"50","oneway":"yes","surface":"asphalt"},"geometry":{"type":"LineString","coordinates":[[103.7634138,1.4161219],[103.7631587,1.4161555]]}},{"type":"Feature","id":"way/108542296-0-2-0","properties":{"highway":"primary_link","lanes":"3","maxspeed":"50","oneway":"yes","surface":"asphalt"},"geometry":{"type":"LineString","coordinates":[[103.7631587,1.4161555],[103.7629858,1.4161902]]}},{"type":"Feature","id":"way/108542296-0-3-0","properties":{"highway":"primary_link","lanes":"3","maxspeed":"50","oneway":"yes","surface":"asphalt"},"geometry":{"type":"LineString","coordinates":[[103.7629858,1.4161902],[103.7628352,1.4162334]]}},{"type":"Feature","id":"way/108542296-0-4-0","properties":{"highway":"primary_link","lanes":"3","maxspeed":"50","oneway":"yes","surface":"asphalt"},"geometry":{"type":"LineString","coordinates":[[103.7628352,1.4162334],[103.7626793,1.4163389]]}},{"type":"Feature","id":"way/108542296-0-5-0","properties":{"highway":"primary_link","lanes":"3","maxspeed":"50","oneway":"yes","surface":"asphalt"},"geometry":{"type":"LineString","coordinates":[[103.7626793,1.4163389],[103.762572,1.4164704]]}},{"type":"Feature","id":"way/134768916-0-0-0","properties":{"highway":"unclassified","lanes":"1","maxspeed":"50","oneway":"yes","surface":"asphalt"},"geometry":{"type":"LineString","coordinates":[[103.7626703,1.4169588],[103.7626993,1.4170391]]}},{"type":"Feature","id":"way/134768916-0-1-0","properties":{"highway":"unclassified","lanes":"1","maxspeed":"50","oneway":"yes","surface":"asphalt"},"geometry":{"type":"LineString","coordinates":[[103.7626993,1.4170391],[103.7627343,1.4170739]]}},{"type":"Feature","id":"way/134768916-0-2-0","properties":{"highway":"unclassified","lanes":"1","maxspeed":"50","oneway":"yes","surface":"asphalt"},"geometry":{"type":"LineString","coordinates":[[103.7627343,1.4170739],[103.762804,1.4171253]]}},{"type":"Feature","id":"way/134768916-0-3-0","properties":{"highway":"unclassified","lanes":"1","maxspeed":"50","oneway":"yes","surface":"asphalt"},"geometry":{"type":"LineString","coordinates":[[103.762804,1.4171253],[103.7628833,1.4171509]]}},{"type":"Feature","id":"way/134768916-0-4-0","properties":{"highway":"unclassified","lanes":"1","maxspeed":"50","oneway":"yes","surface":"asphalt"},"geometry":{"type":"LineString","coordinates":[[103.7628833,1.4171509],[103.7629395,1.4171716]]}},{"type":"Feature","id":"way/134768916-0-5-0","properties":{"highway":"unclassified","lanes":"1","maxspeed":"50","oneway":"yes","surface":"asphalt"},"geometry":{"type":"LineString","coordinates":[[103.7629395,1.4171716],[103.7629993,1.4171795]]}},{"type":"Feature","id":"way/134768916-0-6-0","properties":{"highway":"unclassified","lanes":"1","maxspeed":"50","oneway":"yes","surface":"asphalt"},"geometry":{"type":"LineString","coordinates":[[103.7629993,1.4171795],[103.7630716,1.4171884]]}},{"type":"Feature","id":"way/134768916-0-7-0","properties":{"highway":"unclassified","lanes":"1","maxspeed":"50","oneway":"yes","surface":"asphalt"},"geometry":{"type":"LineString","coordinates":[[103.7630716,1.4171884],[103.7631333,1.4171893]]}},{"type":"Feature","id":"way/134768916-0-8-0","properties":{"highway":"unclassified","lanes":"1","maxspeed":"50","oneway":"yes","surface":"asphalt"},"geometry":{"type":"LineString","coordinates":[[103.7631333,1.4171893],[103.7631856,1.417187]]}},{"type":"Feature","id":"way/134768916-0-9-0","properties":{"highway":"unclassified","lanes":"1","maxspeed":"50","oneway":"yes","surface":"asphalt"},"geometry":{"type":"LineString","coordinates":[[103.7631856,1.417187],[103.7632282,1.4171746]]}},{"type":"Feature","id":"way/134768916-0-10-0","properties":{"highway":"unclassified","lanes":"1","maxspeed":"50","oneway":"yes","surface":"asphalt"},"geometry":{"type":"LineString","coordinates":[[103.7632282,1.4171746],[103.7633143,1.4171475]]}},{"type":"Feature","id":"way/134768916-0-11-0","properties":{"highway":"unclassified","lanes":"1","maxspeed":"50","oneway":"yes","surface":"asphalt"},"geometry":{"type":"LineString","coordinates":[[103.7633143,1.4171475],[103.7634046,1.4171009]]}},{"type":"Feature","id":"way/134768917-0-0-0","properties":{"highway":"primary_link","lanes":"3","maxspeed":"50","oneway":"yes","surface":"asphalt","turn:lanes":"through|through|through"},"geometry":{"type":"LineString","coordinates":[[103.762572,1.4164704],[103.7624921,1.4166876]]}},{"type":"Feature","id":"way/134768917-0-1-0","properties":{"highway":"primary_link","lanes":"3","maxspeed":"50","oneway":"yes","surface":"asphalt","turn:lanes":"through|through|through"},"geometry":{"type":"LineString","coordinates":[[103.7624921,1.4166876],[103.7624388,1.4168984]]}},{"type":"Feature","id":"way/134768917-0-2-0","properties":{"highway":"primary_link","lanes":"3","maxspeed":"50","oneway":"yes","surface":"asphalt","turn:lanes":"through|through|through"},"geometry":{"type":"LineString","coordinates":[[103.7624388,1.4168984],[103.7623862,1.4170943]]}},{"type":"Feature","id":"way/134768917-0-3-0","properties":{"highway":"primary_link","lanes":"3","maxspeed":"50","oneway":"yes","surface":"asphalt","turn:lanes":"through|through|through"},"geometry":{"type":"LineString","coordinates":[[103.7623862,1.4170943],[103.7623391,1.4171949]]}},{"type":"Feature","id":"way/134768917-0-4-0","properties":{"highway":"primary_link","lanes":"3","maxspeed":"50","oneway":"yes","surface":"asphalt","turn:lanes":"through|through|through"},"geometry":{"type":"LineString","coordinates":[[103.7623391,1.4171949],[103.762235,1.4173288]]}},{"type":"Feature","id":"way/134768917-0-5-0","properties":{"highway":"primary_link","lanes":"3","maxspeed":"50","oneway":"yes","surface":"asphalt","turn:lanes":"through|through|through"},"geometry":{"type":"LineString","coordinates":[[103.762235,1.4173288],[103.762027,1.4175066]]}},{"type":"Feature","id":"way/134768917-0-6-0","properties":{"highway":"primary_link","lanes":"3","maxspeed":"50","oneway":"yes","surface":"asphalt","turn:lanes":"through|through|through"},"geometry":{"type":"LineString","coordinates":[[103.762027,1.4175066],[103.7618773,1.4176156]]}},{"type":"Feature","id":"way/134770955-0-0-0","properties":{"highway":"primary_link","lanes":"1","maxspeed":"50","oneway":"yes","surface":"asphalt"},"geometry":{"type":"LineString","coordinates":[[103.7634046,1.4171009],[103.7632039,1.4171329]]}},{"type":"Feature","id":"way/134770955-0-1-0","properties":{"highway":"primary_link","lanes":"1","maxspeed":"50","oneway":"yes","surface":"asphalt"},"geometry":{"type":"LineString","coordinates":[[103.7632039,1.4171329],[103.7631316,1.4171357]]}},{"type":"Feature","id":"way/134770955-0-2-0","properties":{"highway":"primary_link","lanes":"1","maxspeed":"50","oneway":"yes","surface":"asphalt"},"geometry":{"type":"LineString","coordinates":[[103.7631316,1.4171357],[103.7630617,1.4171251]]}},{"type":"Feature","id":"way/134770955-0-3-0","properties":{"highway":"primary_link","lanes":"1","maxspeed":"50","oneway":"yes","surface":"asphalt"},"geometry":{"type":"LineString","coordinates":[[103.7630617,1.4171251],[103.7629978,1.4171113]]}},{"type":"Feature","id":"way/134770955-0-4-0","properties":{"highway":"primary_link","lanes":"1","maxspeed":"50","oneway":"yes","surface":"asphalt"},"geometry":{"type":"LineString","coordinates":[[103.7629978,1.4171113],[103.7629408,1.4170828]]}},{"type":"Feature","id":"way/134770955-0-5-0","properties":{"highway":"primary_link","lanes":"1","maxspeed":"50","oneway":"yes","surface":"asphalt"},"geometry":{"type":"LineString","coordinates":[[103.7629408,1.4170828],[103.7628926,1.417059]]}},{"type":"Feature","id":"way/134770955-0-6-0","properties":{"highway":"primary_link","lanes":"1","maxspeed":"50","oneway":"yes","surface":"asphalt"},"geometry":{"type":"LineString","coordinates":[[103.7628926,1.417059],[103.7628591,1.4170254]]}},{"type":"Feature","id":"way/134770955-0-7-0","properties":{"highway":"primary_link","lanes":"1","maxspeed":"50","oneway":"yes","surface":"asphalt"},"geometry":{"type":"LineString","coordinates":[[103.7628591,1.4170254],[103.7628285,1.4169899]]}},{"type":"Feature","id":"way/134770955-0-8-0","properties":{"highway":"primary_link","lanes":"1","maxspeed":"50","oneway":"yes","surface":"asphalt"},"geometry":{"type":"LineString","coordinates":[[103.7628285,1.4169899],[103.7628138,1.4169468]]}},{"type":"Feature","id":"way/134770955-0-9-0","properties":{"highway":"primary_link","lanes":"1","maxspeed":"50","oneway":"yes","surface":"asphalt"},"geometry":{"type":"LineString","coordinates":[[103.7628138,1.4169468],[103.7628061,1.4169135]]}},{"type":"Feature","id":"way/134770955-0-10-0","properties":{"highway":"primary_link","lanes":"1","maxspeed":"50","oneway":"yes","surface":"asphalt"},"geometry":{"type":"LineString","coordinates":[[103.7628061,1.4169135],[103.7628084,1.4168934]]}},{"type":"Feature","id":"way/134770955-0-11-0","properties":{"highway":"primary_link","lanes":"1","maxspeed":"50","oneway":"yes","surface":"asphalt"},"geometry":{"type":"LineString","coordinates":[[103.7628084,1.4168934],[103.7628142,1.4168768]]}},{"type":"Feature","id":"way/134770956-0-0-0","properties":{"highway":"unclassified","lanes":"2","maxspeed":"50","oneway":"yes","surface":"asphalt"},"geometry":{"type":"LineString","coordinates":[[103.7613782,1.418139],[103.7619935,1.4176502]]}},{"type":"Feature","id":"way/134770956-0-1-0","properties":{"highway":"unclassified","lanes":"2","maxspeed":"50","oneway":"yes","surface":"asphalt"},"geometry":{"type":"LineString","coordinates":[[103.7619935,1.4176502],[103.762148,1.4175249]]}},{"type":"Feature","id":"way/134770956-0-2-0","properties":{"highway":"unclassified","lanes":"2","maxspeed":"50","oneway":"yes","surface":"asphalt"},"geometry":{"type":"LineString","coordinates":[[103.762148,1.4175249],[103.762341,1.4173285]]}},{"type":"Feature","id":"way/134770956-0-3-0","properties":{"highway":"unclassified","lanes":"2","maxspeed":"50","oneway":"yes","surface":"asphalt"},"geometry":{"type":"LineString","coordinates":[[103.762341,1.4173285],[103.7625573,1.4170642]]}},{"type":"Feature","id":"way/134770956-0-4-0","properties":{"highway":"unclassified","lanes":"2","maxspeed":"50","oneway":"yes","surface":"asphalt"},"geometry":{"type":"LineString","coordinates":[[103.7625573,1.4170642],[103.7626703,1.4169588]]}},{"type":"Feature","id":"way/381419234-0-9-0","properties":{"highway":"primary","lanes":"3","maxspeed":"70","name":"Turf Club Avenue","name:zh":"\u8d5b\u9a6c\u516c\u4f1a\u9053","oneway":"yes","surface":"asphalt"},"geometry":{"type":"LineString","coordinates":[[103.7611574,1.4174563],[103.761608,1.4171775]]}},{"type":"Feature","id":"way/381419234-0-10-0","properties":{"highway":"primary","lanes":"3","maxspeed":"70","name":"Turf Club Avenue","name:zh":"\u8d5b\u9a6c\u516c\u4f1a\u9053","oneway":"yes","surface":"asphalt"},"geometry":{"type":"LineString","coordinates":[[103.761608,1.4171775],[103.7621123,1.4168986]]}},{"type":"Feature","id":"way/465523241-0-0-0","properties":{"highway":"service"},"geometry":{"type":"LineString","coordinates":[[103.7640735,1.4181735],[103.7646291,1.418949]]}},{"type":"Feature","id":"way/465523244-0-0-0","properties":{"highway":"service"},"geometry":{"type":"LineString","coordinates":[[103.7647632,1.4177464],[103.7651169,1.4182658]]}},{"type":"Feature","id":"way/465523244-0-1-0","properties":{"highway":"service"},"geometry":{"type":"LineString","coordinates":[[103.7651169,1.4182658],[103.765299,1.4185006]]}},{"type":"Feature","id":"way/465523244-0-2-0","properties":{"highway":"service"},"geometry":{"type":"LineString","coordinates":[[103.765299,1.4185006],[103.7655444,1.4187776]]}},{"type":"Feature","id":"way/480926559-0-0-0","properties":{"highway":"primary","lanes":"4","maxspeed":"70","name":"Turf Club Avenue","name:zh":"\u8d5b\u9a6c\u516c\u4f1a\u9053","oneway":"yes","surface":"asphalt","turn:lanes":"left|left;through|through|through"},"geometry":{"type":"LineString","coordinates":[[103.7657023,1.4165289],[103.7649746,1.416297]]}},{"type":"Feature","id":"way/480926561-0-0-0","properties":{"highway":"primary","lanes":"3","maxspeed":"70","name":"Turf Club Avenue","name:zh":"\u8d5b\u9a6c\u516c\u4f1a\u9053","oneway":"yes","surface":"asphalt"},"geometry":{"type":"LineString","coordinates":[[103.7646473,1.4162682],[103.7645404,1.4162571]]}},{"type":"Feature","id":"way/480926561-0-1-0","properties":{"highway":"primary","lanes":"3","maxspeed":"70","name":"Turf Club Avenue","name:zh":"\u8d5b\u9a6c\u516c\u4f1a\u9053","oneway":"yes","surface":"asphalt"},"geometry":{"type":"LineString","coordinates":[[103.7645404,1.4162571],[103.7641293,1.4162551]]}},{"type":"Feature","id":"way/480926561-0-2-0","properties":{"highway":"primary","lanes":"3","maxspeed":"70","name":"Turf Club Avenue","name:zh":"\u8d5b\u9a6c\u516c\u4f1a\u9053","oneway":"yes","surface":"asphalt"},"geometry":{"type":"LineString","coordinates":[[103.7641293,1.4162551],[103.7637323,1.4162658]]}},{"type":"Feature","id":"way/480926561-0-3-0","properties":{"highway":"primary","lanes":"3","maxspeed":"70","name":"Turf Club Avenue","name:zh":"\u8d5b\u9a6c\u516c\u4f1a\u9053","oneway":"yes","surface":"asphalt"},"geometry":{"type":"LineString","coordinates":[[103.7637323,1.4162658],[103.7633461,1.4163087]]}},{"type":"Feature","id":"way/480926561-0-4-0","properties":{"highway":"primary","lanes":"3","maxspeed":"70","name":"Turf Club Avenue","name:zh":"\u8d5b\u9a6c\u516c\u4f1a\u9053","oneway":"yes","surface":"asphalt"},"geometry":{"type":"LineString","coordinates":[[103.7633461,1.4163087],[103.762992,1.4163945]]}},{"type":"Feature","id":"way/545570945-0-0-0","properties":{"highway":"service"},"geometry":{"type":"LineString","coordinates":[[103.7639996,1.4186061],[103.7639111,1.4185002]]}},{"type":"Feature","id":"way/545570945-0-1-0","properties":{"highway":"service"},"geometry":{"type":"LineString","coordinates":[[103.7639111,1.4185002],[103.7638816,1.4185002]]}},{"type":"Feature","id":"way/545570945-0-2-0","properties":{"highway":"service"},"geometry":{"type":"LineString","coordinates":[[103.7638816,1.4185002],[103.7637692,1.4185501]]}},{"type":"Feature","id":"way/545570946-0-0-0","properties":{"highway":"service"},"geometry":{"type":"LineString","coordinates":[[103.7636104,1.4186709],[103.7636157,1.4186922]]}},{"type":"Feature","id":"way/545570947-0-0-0","properties":{"highway":"service"},"geometry":{"type":"LineString","coordinates":[[103.7636946,1.4184194],[103.7637692,1.4185501]]}},{"type":"Feature","id":"way/545570948-0-0-0","properties":{"highway":"service"},"geometry":{"type":"LineString","coordinates":[[103.7634617,1.4175692],[103.7634666,1.4175732]]}},{"type":"Feature","id":"way/545570948-0-1-0","properties":{"highway":"service"},"geometry":{"type":"LineString","coordinates":[[103.7634666,1.4175732],[103.7635053,1.4176376]]}},{"type":"Feature","id":"way/545570949-0-0-0","properties":{"highway":"service"},"geometry":{"type":"LineString","coordinates":[[103.763325,1.4176515],[103.7633279,1.417645]]}},{"type":"Feature","id":"way/545570949-0-1-0","properties":{"highway":"service"},"geometry":{"type":"LineString","coordinates":[[103.7633279,1.417645],[103.7634488,1.4175703]]}},{"type":"Feature","id":"way/545570949-0-2-0","properties":{"highway":"service"},"geometry":{"type":"LineString","coordinates":[[103.7634488,1.4175703],[103.7634551,1.4175683]]}},{"type":"Feature","id":"way/545570949-0-3-0","properties":{"highway":"service"},"geometry":{"type":"LineString","coordinates":[[103.7634551,1.4175683],[103.7634617,1.4175692]]}},{"type":"Feature","id":"way/545570950-0-0-0","properties":{"highway":"service"},"geometry":{"type":"LineString","coordinates":[[103.7635453,1.4177094],[103.7635449,1.417716]]}},{"type":"Feature","id":"way/545570950-0-1-0","properties":{"highway":"service"},"geometry":{"type":"LineString","coordinates":[[103.7635449,1.417716],[103.7635418,1.41772]]}},{"type":"Feature","id":"way/545570950-0-2-0","properties":{"highway":"service"},"geometry":{"type":"LineString","coordinates":[[103.7635418,1.41772],[103.763421,1.4177939]]}},{"type":"Feature","id":"way/545570950-0-3-0","properties":{"highway":"service"},"geometry":{"type":"LineString","coordinates":[[103.763421,1.4177939],[103.7634157,1.4177952]]}},{"type":"Feature","id":"way/545570950-0-4-0","properties":{"highway":"service"},"geometry":{"type":"LineString","coordinates":[[103.7634157,1.4177952],[103.7634104,1.4177948]]}},{"type":"Feature","id":"way/545570951-0-0-0","properties":{"highway":"service"},"geometry":{"type":"LineString","coordinates":[[103.7632072,1.4178086],[103.7633575,1.4177126]]}},{"type":"Feature","id":"way/545570952-0-0-0","properties":{"highway":"service","service":"parking_aisle"},"geometry":{"type":"LineString","coordinates":[[103.7631153,1.4176621],[103.7632072,1.4178086]]}},{"type":"Feature","id":"way/545570953-0-0-0","properties":{"highway":"service"},"geometry":{"type":"LineString","coordinates":[[103.7635053,1.4176376],[103.7636554,1.4175435]]}},{"type":"Feature","id":"way/545570954-0-0-0","properties":{"highway":"service"},"geometry":{"type":"LineString","coordinates":[[103.7633575,1.4177126],[103.7633278,1.417666]]}},{"type":"Feature","id":"way/545570954-0-1-0","properties":{"highway":"service"},"geometry":{"type":"LineString","coordinates":[[103.7633278,1.417666],[103.763325,1.4176579]]}},{"type":"Feature","id":"way/545570954-0-2-0","properties":{"highway":"service"},"geometry":{"type":"LineString","coordinates":[[103.763325,1.4176579],[103.763325,1.4176515]]}},{"type":"Feature","id":"way/545570955-0-0-0","properties":{"highway":"service"},"geometry":{"type":"LineString","coordinates":[[103.764869,1.4176809],[103.7646168,1.4172608]]}},{"type":"Feature","id":"way/545571743-0-0-0","properties":{"highway":"unclassified","lanes":"2","lanes:backward":"1","lanes:forward":"1","maxspeed":"50","surface":"asphalt"},"geometry":{"type":"LineString","coordinates":[[103.763847,1.4169505],[103.7641834,1.4168358]]}},{"type":"Feature","id":"way/545571743-0-1-0","properties":{"highway":"unclassified","lanes":"2","lanes:backward":"1","lanes:forward":"1","maxspeed":"50","surface":"asphalt"},"geometry":{"type":"LineString","coordinates":[[103.7641834,1.4168358],[103.7644889,1.4167526]]}},{"type":"Feature","id":"way/545571743-0-2-0","properties":{"highway":"unclassified","lanes":"2","lanes:backward":"1","lanes:forward":"1","maxspeed":"50","surface":"asphalt"},"geometry":{"type":"LineString","coordinates":[[103.7644889,1.4167526],[103.7646456,1.4167303]]}},{"type":"Feature","id":"way/545571743-0-3-0","properties":{"highway":"unclassified","lanes":"2","lanes:backward":"1","lanes:forward":"1","maxspeed":"50","surface":"asphalt"},"geometry":{"type":"LineString","coordinates":[[103.7646456,1.4167303],[103.7648265,1.4167249]]}},{"type":"Feature","id":"way/545571743-0-4-0","properties":{"highway":"unclassified","lanes":"2","lanes:backward":"1","lanes:forward":"1","maxspeed":"50","surface":"asphalt"},"geometry":{"type":"LineString","coordinates":[[103.7648265,1.4167249],[103.7651021,1.4167445]]}},{"type":"Feature","id":"way/545571743-0-5-0","properties":{"highway":"unclassified","lanes":"2","lanes:backward":"1","lanes:forward":"1","maxspeed":"50","surface":"asphalt"},"geometry":{"type":"LineString","coordinates":[[103.7651021,1.4167445],[103.7653676,1.4167943]]}},{"type":"Feature","id":"way/545571743-0-6-0","properties":{"highway":"unclassified","lanes":"2","lanes:backward":"1","lanes:forward":"1","maxspeed":"50","surface":"asphalt"},"geometry":{"type":"LineString","coordinates":[[103.7653676,1.4167943],[103.7655919,1.416861]]}},{"type":"Feature","id":"way/643664135-0-0-0","properties":{"highway":"service"},"geometry":{"type":"LineString","coordinates":[[103.76146,1.4182493],[103.761654,1.4184888]]}},{"type":"Feature","id":"way/643664140-0-0-0","properties":{"highway":"service"},"geometry":{"type":"LineString","coordinates":[[103.7631019,1.4188255],[103.7629764,1.4186604]]}},{"type":"Feature","id":"way/643664141-0-0-0","properties":{"highway":"service"},"geometry":{"type":"LineString","coordinates":[[103.7637692,1.4185501],[103.7636246,1.4186355]]}},{"type":"Feature","id":"way/643664141-0-1-0","properties":{"highway":"service"},"geometry":{"type":"LineString","coordinates":[[103.7636246,1.4186355],[103.7636122,1.4186515]]}},{"type":"Feature","id":"way/643664141-0-2-0","properties":{"highway":"service"},"geometry":{"type":"LineString","coordinates":[[103.7636122,1.4186515],[103.7636104,1.4186709]]}},{"type":"Feature","id":"way/645114910-0-0-0","properties":{"highway":"service"},"geometry":{"type":"LineString","coordinates":[[103.7636554,1.4175435],[103.7640735,1.4181735]]}},{"type":"Feature","id":"way/645114911-0-0-0","properties":{"highway":"service"},"geometry":{"type":"LineString","coordinates":[[103.7636122,1.4174745],[103.7636554,1.4175435]]}},{"type":"Feature","id":"way/645114912-0-0-0","properties":{"highway":"service"},"geometry":{"type":"LineString","coordinates":[[103.7635053,1.4176376],[103.7635435,1.417701]]}},{"type":"Feature","id":"way/645114912-0-1-0","properties":{"highway":"service"},"geometry":{"type":"LineString","coordinates":[[103.7635435,1.417701],[103.7635453,1.4177094]]}},{"type":"Feature","id":"way/645114913-0-0-0","properties":{"highway":"service"},"geometry":{"type":"LineString","coordinates":[[103.7634104,1.4177948],[103.7634056,1.4177884]]}},{"type":"Feature","id":"way/645114913-0-1-0","properties":{"highway":"service"},"geometry":{"type":"LineString","coordinates":[[103.7634056,1.4177884],[103.7633575,1.4177126]]}},{"type":"Feature","id":"way/645114914-0-0-0","properties":{"highway":"service","service":"parking_aisle"},"geometry":{"type":"LineString","coordinates":[[103.7632072,1.4178086],[103.7633391,1.418019]]}},{"type":"Feature","id":"way/645118244-0-0-0","properties":{"highway":"service"},"geometry":{"type":"LineString","coordinates":[[103.7637692,1.4185501],[103.7639059,1.4187894]]}},{"type":"Feature","id":"way/650845140-0-9-0","properties":{"highway":"primary_link","lanes":"2","maxspeed":"50","oneway":"yes","surface":"asphalt","turn:lanes":"through|through"},"geometry":{"type":"LineString","coordinates":[[103.7611079,1.4177464],[103.7615209,1.4174153]]}},{"type":"Feature","id":"way/651865813-0-0-0","properties":{"highway":"primary_link","lanes":"1","maxspeed":"50","oneway":"yes","surface":"asphalt","turn:lanes":"through;right"},"geometry":{"type":"LineString","coordinates":[[103.762572,1.4164704],[103.762565,1.4166439]]}},{"type":"Feature","id":"way/651865813-0-1-0","properties":{"highway":"primary_link","lanes":"1","maxspeed":"50","oneway":"yes","surface":"asphalt","turn:lanes":"through;right"},"geometry":{"type":"LineString","coordinates":[[103.762565,1.4166439],[103.7626119,1.4168136]]}},{"type":"Feature","id":"way/651865813-0-2-0","properties":{"highway":"primary_link","lanes":"1","maxspeed":"50","oneway":"yes","surface":"asphalt","turn:lanes":"through;right"},"geometry":{"type":"LineString","coordinates":[[103.7626119,1.4168136],[103.7626703,1.4169588]]}},{"type":"Feature","id":"way/651867700-0-0-0","properties":{"highway":"primary_link","lanes":"2","maxspeed":"50","oneway":"yes","surface":"asphalt"},"geometry":{"type":"LineString","coordinates":[[103.7649746,1.416297],[103.7647198,1.4162085]]}},{"type":"Feature","id":"way/651867700-0-1-0","properties":{"highway":"primary_link","lanes":"2","maxspeed":"50","oneway":"yes","surface":"asphalt"},"geometry":{"type":"LineString","coordinates":[[103.7647198,1.4162085],[103.7641966,1.4161244]]}},{"type":"Feature","id":"way/651867700-0-2-0","properties":{"highway":"primary_link","lanes":"2","maxspeed":"50","oneway":"yes","surface":"asphalt"},"geometry":{"type":"LineString","coordinates":[[103.7641966,1.4161244],[103.7640155,1.4161175]]}},{"type":"Feature","id":"way/652192858-0-0-0","properties":{"highway":"primary","lanes":"3","maxspeed":"70","name":"Turf Club Avenue","name:zh":"\u8d5b\u9a6c\u516c\u4f1a\u9053","oneway":"yes","surface":"asphalt","turn:lanes":"through|through|through"},"geometry":{"type":"LineString","coordinates":[[103.7649746,1.416297],[103.7646473,1.4162682]]}},{"type":"Feature","id":"way/652569742-0-0-0","properties":{"highway":"unclassified","lanes":"5","maxspeed":"50","oneway":"yes","surface":"asphalt"},"geometry":{"type":"LineString","coordinates":[[103.7618773,1.4176156],[103.7612048,1.4181027]]}},{"type":"Feature","id":"way/676575335-0-0-0","properties":{"highway":"unclassified","lanes":"2","lanes:backward":"1","lanes:forward":"1","maxspeed":"50","surface":"asphalt","turn:lanes:backward":"left","turn:lanes:forward":"through"},"geometry":{"type":"LineString","coordinates":[[103.7634046,1.4171009],[103.763608,1.4170355]]}},{"type":"Feature","id":"way/676575335-0-1-0","properties":{"highway":"unclassified","lanes":"2","lanes:backward":"1","lanes:forward":"1","maxspeed":"50","surface":"asphalt","turn:lanes:backward":"left","turn:lanes:forward":"through"},"geometry":{"type":"LineString","coordinates":[[103.763608,1.4170355],[103.763847,1.4169505]]}}]}