{"type":"FeatureCollection","features":[{"type":"Feature","id":"way/108542283-0","properties":{"building":"yes"},"geometry":{"type":"Polygon","coordinates":[[[103.7612524,1.4203852],[103.7613489,1.420278],[103.7602672,1.4195832],[103.7601795,1.4196881],[103.7612524,1.4203852]]]}},{"type":"Feature","id":"way/108542292-0","properties":{"building":"yes"},"geometry":{"type":"Polygon","coordinates":[[[103.7609949,1.4207177],[103.7610593,1.4206212],[103.7600293,1.4198919],[103.7599327,1.4199991],[103.7609949,1.4207177]]]}},{"type":"Feature","id":"way/108542294-0","properties":{"amenity":"parking","building":"yes","parking":"multi-storey"},"geometry":{"type":"Polygon","coordinates":[[[103.7582456,1.4224806],[103.7592809,1.4229572],[103.7594533,1.4230366],[103.7596222,1.4226698],[103.7599248,1.4220131],[103.7600876,1.4216597],[103.7600997,1.4216334],[103.7601105,1.42161],[103.7600598,1.4215867],[103.7599339,1.4215287],[103.759531,1.4213432],[103.7594139,1.4212893],[103.7589097,1.4210572],[103.7589029,1.421054],[103.7582456,1.4224806]]]}},{"type":"Feature","id":"way/266997723-0","properties":{"addr:housenumber":"9","addr:street":"Woodlands Road","building":"house"},"geometry":{"type":"Polygon","coordinates":[[[103.75735,1.4191205],[103.7573778,1.4189758],[103.7572895,1.4189588],[103.7572868,1.4189729],[103.7572396,1.4189638],[103.7572267,1.4190314],[103.7572741,1.4190405],[103.757262,1.4191037],[103.75735,1.4191205]]]}},{"type":"Feature","id":"way/266997724-0","properties":{"building":"house"},"geometry":{"type":"Polygon","coordinates":[[[103.7571626,1.4190428],[103.7571848,1.4189171],[103.7571105,1.418904],[103.7570883,1.4190297],[103.7571626,1.4190428]]]}},{"type":"Feature","id":"way/736818470-0","properties":{"building":"garages"},"geometry":{"type":"Polygon","coordinates":[[[103.7583725,1.4228271],[103.7582122,1.4227522],[103.7582307,1.4227125],[103.7581366,1.4226686],[103.7580514,1.4228508],[103.7581522,1.422898],[103.7581659,1.4228687],[103.7583195,1.4229404],[103.7583725,1.4228271]]]}},{"type":"Feature","id":"way/851996694-0","properties":{"building":"yes"},"geometry":{"type":"Polygon","coordinates":[[[103.7579428,1.4193772],[103.7579524,1.4193219],[103.7578995,1.4193127],[103.7578899,1.419368],[103.7579428,1.4193772]]]}},{"type":"Feature","id":"way/851996695-0","properties":{"building":"yes"},"geometry":{"type":"Polygon","coordinates":[[[103.7580697,1.4194011],[103.7580793,1.4193458],[103.7580264,1.4193366],[103.7580168,1.4193919],[103.7580697,1.4194011]]]}},{"type":"Feature","id":"way/965816861-0","properties":{"building":"garages","name":"KF1 Karting Circuit"},"geometry":{"type":"Polygon","coordinates":[[[103.7583195,1.4229404],[103.758309,1.422963],[103.7591568,1.4233593],[103.7591843,1.4233004],[103.7592416,1.4231779],[103.7583938,1.4227816],[103.7583725,1.4228271],[103.7583195,1.4229404]]]}},{"type":"Feature","id":"way/15092798-0-1-0","properties":{"highway":"primary","lanes":"3","maxheight":"4.5","maxspeed":"70","name":"Turf Club Avenue","name:zh":"\u8d5b\u9a6c\u516c\u4f1a\u9053","oneway":"yes","surface":"asphalt"},"geometry":{"type":"LineString","coordinates":[[103.7572684,1.4232954],[103.7574219,1.4228499]]}},{"type":"Feature","id":"way/95860117-0-5-0","properties":{"highway":"primary","lanes":"3","maxspeed":"70","name":"Turf Club Avenue","name:zh":"\u8d5b\u9a6c\u516c\u4f1a\u9053","oneway":"yes","surface":"asphalt"},"geometry":{"type":"LineString","coordinates":[[103.7596554,1.418604],[103.7592155,1.4191295]]}},{"type":"Feature","id":"way/95860117-0-6-0","properties":{"highway":"primary","lanes":"3","maxspeed":"70","name":"Turf Club Avenue","name:zh":"\u8d5b\u9a6c\u516c\u4f1a\u9053","oneway":"yes","surface":"asphalt"},"geometry":{"type":"LineString","coordinates":[[103.7592155,1.4191295],[103.7588293,1.4196658]]}},{"type":"Feature","id":"way/95860117-0-7-0","properties":{"highway":"primary","lanes":"3","maxspeed":"70","name":"Turf Club Avenue","name:zh":"\u8d5b\u9a6c\u516c\u4f1a\u9053","oneway":"yes","surface":"asphalt"},"geometry":{"type":"LineString","coordinates":[[103.7588293,1.4196658],[103.7584859,1.4202235]]}},{"type":"Feature","id":"way/95860117-0-8-0","properties":{"highway":"primary","lanes":"3","maxspeed":"70","name":"Turf Club Avenue","name:zh":"\u8d5b\u9a6c\u516c\u4f1a\u9053","oneway":"yes","surface":"asphalt"},"geometry":{"type":"LineString","coordinates":[[103.7584859,1.4202235],[103.758207,1.4207491]]}},{"type":"Feature","id":"way/95860117-0-9-0","properties":{"highway":"primary","lanes":"3","maxspeed":"70","name":"Turf Club Avenue","name:zh":"\u8d5b\u9a6c\u516c\u4f1a\u9053","oneway":"yes","surface":"asphalt"},"geometry":{"type":"LineString","coordinates":[[103.758207,1.4207491],[103.7576439,1.4219736]]}},{"type":"Feature","id":"way/108542263-0-0-0","properties":{"highway":"service","oneway":"yes"},"geometry":{"type":"LineString","coordinates":[[103.7601484,1.4214223],[103.7600598,1.4215867]]}},{"type":"Feature","id":"way/108542266-0-0-0","properties":{"highway":"service","oneway":"yes"},"geometry":{"type":"LineString","coordinates":[[103.7588967,1.4207839],[103.758949,1.420838]]}},{"type":"Feature","id":"way/108542266-0-1-0","properties":{"highway":"service","oneway":"yes"},"geometry":{"type":"LineString","coordinates":[[103.758949,1.420838],[103.7589978,1.4208802]]}},{"type":"Feature","id":"way/108542266-0-2-0","properties":{"highway":"service","oneway":"yes"},"geometry":{"type":"LineString","coordinates":[[103.7589978,1.4208802],[103.7590467,1.4209185]]}},{"type":"Feature","id":"way/108542266-0-3-0","properties":{"highway":"service","oneway":"yes"},"geometry":{"type":"LineString","coordinates":[[103.7590467,1.4209185],[103.7591008,1.4209475]]}},{"type":"Feature","id":"way/108542266-0-4-0","properties":{"highway":"service","oneway":"yes"},"geometry":{"type":"LineString","coordinates":[[103.7591008,1.4209475],[103.7594901,1.4211163]]}},{"type":"Feature","id":"way/108542266-0-5-0","properties":{"highway":"service","oneway":"yes"},"geometry":{"type":"LineString","coordinates":[[103.7594901,1.4211163],[103.7596087,1.4211677]]}},{"type":"Feature","id":"way/108542266-0-6-0","properties":{"highway":"service","oneway":"yes"},"geometry":{"type":"LineString","coordinates":[[103.7596087,1.4211677],[103.7596912,1.4212058]]}},{"type":"Feature","id":"way/108542266-0-7-0","properties":{"highway":"service","oneway":"yes"},"geometry":{"type":"LineString","coordinates":[[103.7596912,1.4212058],[103.7600112,1.4213537]]}},{"type":"Feature","id":"way/108542266-0-8-0","properties":{"highway":"service","oneway":"yes"},"geometry":{"type":"LineString","coordinates":[[103.7600112,1.4213537],[103.7601484,1.4214223]]}},{"type":"Feature","id":"way/108542266-0-9-0","properties":{"highway":"service","oneway":"yes"},"geometry":{"type":"LineString","coordinates":[[103.7601484,1.4214223],[103.7605499,1.4216012]]}},{"type":"Feature","id":"way/108542266-0-10-0","properties":{"highway":"service","oneway":"yes"},"geometry":{"type":"LineString","coordinates":[[103.7605499,1.4216012],[103.7607238,1.4216787]]}},{"type":"Feature","id":"way/108542266-0-11-0","properties":{"highway":"service","oneway":"yes"},"geometry":{"type":"LineString","coordinates":[[103.7607238,1.4216787],[103.7609681,1.4217876]]}},{"type":"Feature","id":"way/108542270-0-0-0","properties":{"bicycle":"no","highway":"unclassified","lanes":"2","maxspeed":"50","surface":"asphalt"},"geometry":{"type":"LineString","coordinates":[[103.7580827,1.4224958],[103.7580637,1.4224138]]}},{"type":"Feature","id":"way/108542270-0-1-0","properties":{"bicycle":"no","highway":"unclassified","lanes":"2","maxspeed":"50","surface":"asphalt"},"geometry":{"type":"LineString","coordinates":[[103.7580637,1.4224138],[103.758054,1.4223455]]}},{"type":"Feature","id":"way/108542270-0-2-0","properties":{"bicycle":"no","highway":"unclassified","lanes":"2","maxspeed":"50","surface":"asphalt"},"geometry":{"type":"LineString","coordinates":[[103.758054,1.4223455],[103.7580793,1.4222579]]}},{"type":"Feature","id":"way/108542270-0-3-0","properties":{"bicycle":"no","highway":"unclassified","lanes":"2","maxspeed":"50","surface":"asphalt"},"geometry":{"type":"LineString","coordinates":[[103.7580793,1.4222579],[103.7581598,1.4221204]]}},{"type":"Feature","id":"way/108542270-0-4-0","properties":{"bicycle":"no","highway":"unclassified","lanes":"2","maxspeed":"50","surface":"asphalt"},"geometry":{"type":"LineString","coordinates":[[103.7581598,1.4221204],[103.7582938,1.4219095]]}},{"type":"Feature","id":"way/108542270-0-5-0","properties":{"bicycle":"no","highway":"unclassified","lanes":"2","maxspeed":"50","surface":"asphalt"},"geometry":{"type":"LineString","coordinates":[[103.7582938,1.4219095],[103.7588967,1.4207839]]}},{"type":"Feature","id":"way/108542279-0-0-0","properties":{"highway":"service","oneway":"yes"},"geometry":{"type":"LineString","coordinates":[[103.7600112,1.4213537],[103.7599339,1.4215287]]}},{"type":"Feature","id":"way/108542280-0-0-0","properties":{"highway":"service"},"geometry":{"type":"LineString","coordinates":[[103.7608714,1.4216272],[103.7610218,1.4212965]]}},{"type":"Feature","id":"way/108542280-0-1-0","properties":{"highway":"service"},"geometry":{"type":"LineString","coordinates":[[103.7610218,1.4212965],[103.7610451,1.4212599]]}},{"type":"Feature","id":"way/108542280-0-2-0","properties":{"highway":"service"},"geometry":{"type":"LineString","coordinates":[[103.7610451,1.4212599],[103.7610634,1.4212367]]}},{"type":"Feature","id":"way/108542280-0-3-0","properties":{"highway":"service"},"geometry":{"type":"LineString","coordinates":[[103.7610634,1.4212367],[103.7610966,1.4212267]]}},{"type":"Feature","id":"way/108542280-0-4-0","properties":{"highway":"service"},"geometry":{"type":"LineString","coordinates":[[103.7610966,1.4212267],[103.7611365,1.4212234]]}},{"type":"Feature","id":"way/108542290-0-0-0","properties":{"highway":"service","oneway":"yes"},"geometry":{"type":"LineString","coordinates":[[103.7596087,1.4211677],[103.759531,1.4213432]]}},{"type":"Feature","id":"way/134770953-0-0-0","properties":{"highway":"unclassified","lanes":"2","maxspeed":"50","oneway":"yes","surface":"asphalt"},"geometry":{"type":"LineString","coordinates":[[103.7600187,1.4190393],[103.7596437,1.4195346]]}},{"type":"Feature","id":"way/134770953-0-1-0","properties":{"highway":"unclassified","lanes":"2","maxspeed":"50","oneway":"yes","surface":"asphalt"},"geometry":{"type":"LineString","coordinates":[[103.7596437,1.4195346],[103.7592769,1.4200563]]}},{"type":"Feature","id":"way/134770953-0-2-0","properties":{"highway":"unclassified","lanes":"2","maxspeed":"50","oneway":"yes","surface":"asphalt"},"geometry":{"type":"LineString","coordinates":[[103.7592769,1.4200563],[103.7592351,1.4201158]]}},{"type":"Feature","id":"way/134770953-0-3-0","properties":{"highway":"unclassified","lanes":"2","maxspeed":"50","oneway":"yes","surface":"asphalt"},"geometry":{"type":"LineString","coordinates":[[103.7592351,1.4201158],[103.7589236,1.4205589]]}},{"type":"Feature","id":"way/134770953-0-4-0","properties":{"highway":"unclassified","lanes":"2","maxspeed":"50","oneway":"yes","surface":"asphalt"},"geometry":{"type":"LineString","coordinates":[[103.7589236,1.4205589],[103.7588726,1.4206514]]}},{"type":"Feature","id":"way/134770953-0-5-0","properties":{"highway":"unclassified","lanes":"2","maxspeed":"50","oneway":"yes","surface":"asphalt"},"geometry":{"type":"LineString","coordinates":[[103.7588726,1.4206514],[103.7588672,1.4207063]]}},{"type":"Feature","id":"way/134770953-0-6-0","properties":{"highway":"unclassified","lanes":"2","maxspeed":"50","oneway":"yes","surface":"asphalt"},"geometry":{"type":"LineString","coordinates":[[103.7588672,1.4207063],[103.7588766,1.4207506]]}},{"type":"Feature","id":"way/134770953-0-7-0","properties":{"highway":"unclassified","lanes":"2","maxspeed":"50","oneway":"yes","surface":"asphalt"},"geometry":{"type":"LineString","coordinates":[[103.7588766,1.4207506],[103.7588967,1.4207839]]}},{"type":"Feature","id":"way/134772605-0-0-0","properties":{"highway":"service","oneway":"yes"},"geometry":{"type":"LineString","coordinates":[[103.7610118,1.4216972],[103.7608714,1.4216272]]}},{"type":"Feature","id":"way/134772606-0-0-0","properties":{"highway":"service","oneway":"yes"},"geometry":{"type":"LineString","coordinates":[[103.7609681,1.4217876],[103.7609678,1.421832]]}},{"type":"Feature","id":"way/134772606-0-1-0","properties":{"highway":"service","oneway":"yes"},"geometry":{"type":"LineString","coordinates":[[103.7609678,1.421832],[103.7609793,1.4218749]]}},{"type":"Feature","id":"way/134772606-0-2-0","properties":{"highway":"service","oneway":"yes"},"geometry":{"type":"LineString","coordinates":[[103.7609793,1.4218749],[103.7610019,1.4219132]]}},{"type":"Feature","id":"way/134772606-0-3-0","properties":{"highway":"service","oneway":"yes"},"geometry":{"type":"LineString","coordinates":[[103.7610019,1.4219132],[103.7610338,1.421944]]}},{"type":"Feature","id":"way/134772606-0-4-0","properties":{"highway":"service","oneway":"yes"},"geometry":{"type":"LineString","coordinates":[[103.7610338,1.421944],[103.7610729,1.4219653]]}},{"type":"Feature","id":"way/134772606-0-5-0","properties":{"highway":"service","oneway":"yes"},"geometry":{"type":"LineString","coordinates":[[103.7610729,1.4219653],[103.7611161,1.4219753]]}},{"type":"Feature","id":"way/134772606-0-6-0","properties":{"highway":"service","oneway":"yes"},"geometry":{"type":"LineString","coordinates":[[103.7611161,1.4219753],[103.7611605,1.4219735]]}},{"type":"Feature","id":"way/134772606-0-14-0","properties":{"highway":"service","oneway":"yes"},"geometry":{"type":"LineString","coordinates":[[103.7611313,1.4216458],[103.7610873,1.4216518]]}},{"type":"Feature","id":"way/134772606-0-15-0","properties":{"highway":"service","oneway":"yes"},"geometry":{"type":"LineString","coordinates":[[103.7610873,1.4216518],[103.7610465,1.4216694]]}},{"type":"Feature","id":"way/134772606-0-16-0","properties":{"highway":"service","oneway":"yes"},"geometry":{"type":"LineString","coordinates":[[103.7610465,1.4216694],[103.7610118,1.4216972]]}},{"type":"Feature","id":"way/134772606-0-17-0","properties":{"highway":"service","oneway":"yes"},"geometry":{"type":"LineString","coordinates":[[103.7610118,1.4216972],[103.7609911,1.4217241]]}},{"type":"Feature","id":"way/134772606-0-18-0","properties":{"highway":"service","oneway":"yes"},"geometry":{"type":"LineString","coordinates":[[103.7609911,1.4217241],[103.7609763,1.4217547]]}},{"type":"Feature","id":"way/134772606-0-19-0","properties":{"highway":"service","oneway":"yes"},"geometry":{"type":"LineString","coordinates":[[103.7609763,1.4217547],[103.7609681,1.4217876]]}},{"type":"Feature","id":"way/184745090-0-3-0","properties":{"highway":"primary_link","lanes":"1","maxheight":"4.5","maxspeed":"50","oneway":"yes","surface":"asphalt"},"geometry":{"type":"LineString","coordinates":[[103.7574345,1.4232756],[103.7573997,1.4231554]]}},{"type":"Feature","id":"way/184745090-0-4-0","properties":{"highway":"primary_link","lanes":"1","maxheight":"4.5","maxspeed":"50","oneway":"yes","surface":"asphalt"},"geometry":{"type":"LineString","coordinates":[[103.7573997,1.4231554],[103.7574015,1.4229989]]}},{"type":"Feature","id":"way/184745090-0-5-0","properties":{"highway":"primary_link","lanes":"1","maxheight":"4.5","maxspeed":"50","oneway":"yes","surface":"asphalt"},"geometry":{"type":"LineString","coordinates":[[103.7574015,1.4229989],[103.7574219,1.4228499]]}},{"type":"Feature","id":"way/186486836-0-0-0","properties":{"highway":"primary_link","lanes":"1","maxspeed":"50","oneway":"yes","surface":"asphalt"},"geometry":{"type":"LineString","coordinates":[[103.7573406,1.4226384],[103.7572207,1.4227669]]}},{"type":"Feature","id":"way/186486836-0-1-0","properties":{"highway":"primary_link","lanes":"1","maxspeed":"50","oneway":"yes","surface":"asphalt"},"geometry":{"type":"LineString","coordinates":[[103.7572207,1.4227669],[103.7571601,1.4228474]]}},{"type":"Feature","id":"way/186486836-0-2-0","properties":{"highway":"primary_link","lanes":"1","maxspeed":"50","oneway":"yes","surface":"asphalt"},"geometry":{"type":"LineString","coordinates":[[103.7571601,1.4228474],[103.7570939,1.4228915]]}},{"type":"Feature","id":"way/186486836-0-3-0","properties":{"highway":"primary_link","lanes":"1","maxspeed":"50","oneway":"yes","surface":"asphalt"},"geometry":{"type":"LineString","coordinates":[[103.7570939,1.4228915],[103.7570527,1.4229106]]}},{"type":"Feature","id":"way/186486836-0-4-0","properties":{"highway":"primary_link","lanes":"1","maxspeed":"50","oneway":"yes","surface":"asphalt"},"geometry":{"type":"LineString","coordinates":[[103.7570527,1.4229106],[103.7570343,1.4229191]]}},{"type":"Feature","id":"way/186486836-0-5-0","properties":{"highway":"primary_link","lanes":"1","maxspeed":"50","oneway":"yes","surface":"asphalt"},"geometry":{"type":"LineString","coordinates":[[103.7570343,1.4229191],[103.7569549,1.4229389]]}},{"type":"Feature","id":"way/186486836-0-6-0","properties":{"highway":"primary_link","lanes":"1","maxspeed":"50","oneway":"yes","surface":"asphalt"},"geometry":{"type":"LineString","coordinates":[[103.7569549,1.4229389],[103.7568711,1.4229345]]}},{"type":"Feature","id":"way/186486836-0-7-0","properties":{"highway":"primary_link","lanes":"1","maxspeed":"50","oneway":"yes","surface":"asphalt"},"geometry":{"type":"LineString","coordinates":[[103.7568711,1.4229345],[103.7568127,1.4229224]]}},{"type":"Feature","id":"way/186486836-0-8-0","properties":{"highway":"primary_link","lanes":"1","maxspeed":"50","oneway":"yes","surface":"asphalt"},"geometry":{"type":"LineString","coordinates":[[103.7568127,1.4229224],[103.7567465,1.4228959]]}},{"type":"Feature","id":"way/186486836-0-9-0","properties":{"highway":"primary_link","lanes":"1","maxspeed":"50","oneway":"yes","surface":"asphalt"},"geometry":{"type":"LineString","coordinates":[[103.7567465,1.4228959],[103.7565994,1.4228059]]}},{"type":"Feature","id":"way/186496523-0-1-0","properties":{"highway":"service","surface":"asphalt"},"geometry":{"type":"LineString","coordinates":[[103.7561887,1.4221681],[103.7575004,1.4213365]]}},{"type":"Feature","id":"way/186496523-0-2-0","properties":{"highway":"service","surface":"asphalt"},"geometry":{"type":"LineString","coordinates":[[103.7575004,1.4213365],[103.7575862,1.4212695]]}},{"type":"Feature","id":"way/186496523-0-3-0","properties":{"highway":"service","surface":"asphalt"},"geometry":{"type":"LineString","coordinates":[[103.7575862,1.4212695],[103.7576517,1.4211712]]}},{"type":"Feature","id":"way/186496523-0-4-0","properties":{"highway":"service","surface":"asphalt"},"geometry":{"type":"LineString","coordinates":[[103.7576517,1.4211712],[103.7576813,1.4210683]]}},{"type":"Feature","id":"way/186496523-0-5-0","properties":{"highway":"service","surface":"asphalt"},"geometry":{"type":"LineString","coordinates":[[103.7576813,1.4210683],[103.7577553,1.4206431]]}},{"type":"Feature","id":"way/186496523-0-6-0","properties":{"highway":"service","surface":"asphalt"},"geometry":{"type":"LineString","coordinates":[[103.7577553,1.4206431],[103.7578678,1.4200307]]}},{"type":"Feature","id":"way/186496523-0-7-0","properties":{"highway":"service","surface":"asphalt"},"geometry":{"type":"LineString","coordinates":[[103.7578678,1.4200307],[103.7579522,1.4195746]]}},{"type":"Feature","id":"way/265901846-0-1-0","properties":{"highway":"service"},"geometry":{"type":"LineString","coordinates":[[103.756504,1.4199759],[103.757135,1.4202282]]}},{"type":"Feature","id":"way/265901846-0-2-0","properties":{"highway":"service"},"geometry":{"type":"LineString","coordinates":[[103.757135,1.4202282],[103.7574729,1.420387]]}},{"type":"Feature","id":"way/265901846-0-3-0","properties":{"highway":"service"},"geometry":{"type":"LineString","coordinates":[[103.7574729,1.420387],[103.7575462,1.4204684]]}},{"type":"Feature","id":"way/265901846-0-4-0","properties":{"highway":"service"},"geometry":{"type":"LineString","coordinates":[[103.7575462,1.4204684],[103.7573548,1.4210259]]}},{"type":"Feature","id":"way/265901846-0-5-0","properties":{"highway":"service"},"geometry":{"type":"LineString","coordinates":[[103.7573548,1.4210259],[103.7572856,1.4211358]]}},{"type":"Feature","id":"way/265901846-0-6-0","properties":{"highway":"service"},"geometry":{"type":"LineString","coordinates":[[103.7572856,1.4211358],[103.7572072,1.4211772]]}},{"type":"Feature","id":"way/265901846-0-7-0","properties":{"highway":"service"},"geometry":{"type":"LineString","coordinates":[[103.7572072,1.4211772],[103.7571391,1.4212131]]}},{"type":"Feature","id":"way/265901846-0-8-0","properties":{"highway":"service"},"geometry":{"type":"LineString","coordinates":[[103.7571391,1.4212131],[103.7569355,1.4212416]]}},{"type":"Feature","id":"way/265901846-0-9-0","properties":{"highway":"service"},"geometry":{"type":"LineString","coordinates":[[103.7569355,1.4212416],[103.7568297,1.4212457]]}},{"type":"Feature","id":"way/265901846-0-10-0","properties":{"highway":"service"},"geometry":{"type":"LineString","coordinates":[[103.7568297,1.4212457],[103.7567209,1.4214995]]}},{"type":"Feature","id":"way/265901846-0-11-0","properties":{"highway":"service"},"geometry":{"type":"LineString","coordinates":[[103.7567209,1.4214995],[103.7566719,1.4216999]]}},{"type":"Feature","id":"way/265901848-0-0-0","properties":{"highway":"service","surface":"asphalt"},"geometry":{"type":"LineString","coordinates":[[103.7566691,1.4188055],[103.7567161,1.4187747]]}},{"type":"Feature","id":"way/266997725-0-0-0","properties":{"highway":"service","surface":"asphalt"},"geometry":{"type":"LineString","coordinates":[[103.757327,1.4192091],[103.7571937,1.4191449]]}},{"type":"Feature","id":"way/266997725-0-1-0","properties":{"highway":"service","surface":"asphalt"},"geometry":{"type":"LineString","coordinates":[[103.7571937,1.4191449],[103.7566691,1.4188055]]}},{"type":"Feature","id":"way/381419234-0-0-0","properties":{"highway":"primary","lanes":"3","maxspeed":"70","name":"Turf Club Avenue","name:zh":"\u8d5b\u9a6c\u516c\u4f1a\u9053","oneway":"yes","surface":"asphalt"},"geometry":{"type":"LineString","coordinates":[[103.7579595,1.421631],[103.7582177,1.4210494]]}},{"type":"Feature","id":"way/381419234-0-1-0","properties":{"highway":"primary","lanes":"3","maxspeed":"70","name":"Turf Club Avenue","name:zh":"\u8d5b\u9a6c\u516c\u4f1a\u9053","oneway":"yes","surface":"asphalt"},"geometry":{"type":"LineString","coordinates":[[103.7582177,1.4210494],[103.7585503,1.4203737]]}},{"type":"Feature","id":"way/381419234-0-2-0","properties":{"highway":"primary","lanes":"3","maxspeed":"70","name":"Turf Club Avenue","name:zh":"\u8d5b\u9a6c\u516c\u4f1a\u9053","oneway":"yes","surface":"asphalt"},"geometry":{"type":"LineString","coordinates":[[103.7585503,1.4203737],[103.7586492,1.4202014]]}},{"type":"Feature","id":"way/381419234-0-3-0","properties":{"highway":"primary","lanes":"3","maxspeed":"70","name":"Turf Club Avenue","name:zh":"\u8d5b\u9a6c\u516c\u4f1a\u9053","oneway":"yes","surface":"asphalt"},"geometry":{"type":"LineString","coordinates":[[103.7586492,1.4202014],[103.7588829,1.4197945]]}},{"type":"Feature","id":"way/381419234-0-4-0","properties":{"highway":"primary","lanes":"3","maxspeed":"70","name":"Turf Club Avenue","name:zh":"\u8d5b\u9a6c\u516c\u4f1a\u9053","oneway":"yes","surface":"asphalt"},"geometry":{"type":"LineString","coordinates":[[103.7588829,1.4197945],[103.7594086,1.4190866]]}},{"type":"Feature","id":"way/381419234-0-5-0","properties":{"highway":"primary","lanes":"3","maxspeed":"70","name":"Turf Club Avenue","name:zh":"\u8d5b\u9a6c\u516c\u4f1a\u9053","oneway":"yes","surface":"asphalt"},"geometry":{"type":"LineString","coordinates":[[103.7594086,1.4190866],[103.7598592,1.4185611]]}},{"type":"Feature","id":"way/452246991-0-0-0","properties":{"highway":"service","lanes":"1","oneway":"yes","service":"parking_aisle","turn:lanes":"left;through"},"geometry":{"type":"LineString","coordinates":[[103.7598086,1.4209025],[103.7598928,1.4207519]]}},{"type":"Feature","id":"way/452246992-0-0-0","properties":{"highway":"service","lanes":"1","oneway":"yes","service":"parking_aisle"},"geometry":{"type":"LineString","coordinates":[[103.7594596,1.4205181],[103.7598928,1.4207519]]}},{"type":"Feature","id":"way/452246992-0-1-0","properties":{"highway":"service","lanes":"1","oneway":"yes","service":"parking_aisle"},"geometry":{"type":"LineString","coordinates":[[103.7598928,1.4207519],[103.7608309,1.4212584]]}},{"type":"Feature","id":"way/452246993-0-0-0","properties":{"highway":"service","lanes":"1","oneway":"yes","service":"parking_aisle"},"geometry":{"type":"LineString","coordinates":[[103.7595375,1.4203779],[103.7594596,1.4205181]]}},{"type":"Feature","id":"way/452246993-0-1-0","properties":{"highway":"service","lanes":"1","oneway":"yes","service":"parking_aisle"},"geometry":{"type":"LineString","coordinates":[[103.7594596,1.4205181],[103.7593731,1.4206738]]}},{"type":"Feature","id":"way/452246993-0-2-0","properties":{"highway":"service","lanes":"1","oneway":"yes","service":"parking_aisle"},"geometry":{"type":"LineString","coordinates":[[103.7593731,1.4206738],[103.7598086,1.4209025]]}},{"type":"Feature","id":"way/452246993-0-3-0","properties":{"highway":"service","lanes":"1","oneway":"yes","service":"parking_aisle"},"geometry":{"type":"LineString","coordinates":[[103.7598086,1.4209025],[103.7607545,1.4213991]]}},{"type":"Feature","id":"way/452246993-0-4-0","properties":{"highway":"service","lanes":"1","oneway":"yes","service":"parking_aisle"},"geometry":{"type":"LineString","coordinates":[[103.7607545,1.4213991],[103.7608309,1.4212584]]}},{"type":"Feature","id":"way/452246993-0-5-0","properties":{"highway":"service","lanes":"1","oneway":"yes","service":"parking_aisle"},"geometry":{"type":"LineString","coordinates":[[103.7608309,1.4212584],[103.7609074,1.4211176]]}},{"type":"Feature","id":"way/465523238-0-8-0","properties":{"highway":"service"},"geometry":{"type":"LineString","coordinates":[[103.7611132,1.4232469],[103.7611211,1.4232179]]}},{"type":"Feature","id":"way/465523238-0-9-0","properties":{"highway":"service"},"geometry":{"type":"LineString","coordinates":[[103.7611211,1.4232179],[103.761166,1.42309]]}},{"type":"Feature","id":"way/480926564-0-0-0","properties":{"highway":"primary","lanes":"4","maxspeed":"70","name":"Turf Club Avenue","name:zh":"\u8d5b\u9a6c\u516c\u4f1a\u9053","oneway":"yes","surface":"asphalt","turn:lanes":"left|through|through|right"},"geometry":{"type":"LineString","coordinates":[[103.7576439,1.4219736],[103.7573406,1.4226384]]}},{"type":"Feature","id":"way/480926567-0-0-0","properties":{"highway":"primary","lanes":"4","maxheight":"4.5","maxspeed":"70","name":"Turf Club Avenue","name:zh":"\u8d5b\u9a6c\u516c\u4f1a\u9053","oneway":"yes","surface":"asphalt","turn:lanes":"through|through|right|right"},"geometry":{"type":"LineString","coordinates":[[103.7573406,1.4226384],[103.7572855,1.4227914]]}},{"type":"Feature","id":"way/480926567-0-1-0","properties":{"highway":"primary","lanes":"4","maxheight":"4.5","maxspeed":"70","name":"Turf Club Avenue","name:zh":"\u8d5b\u9a6c\u516c\u4f1a\u9053","oneway":"yes","surface":"asphalt","turn:lanes":"through|through|right|right"},"geometry":{"type":"LineString","coordinates":[[103.7572855,1.4227914],[103.757129,1.4232123]]}},{"type":"Feature","id":"way/480926570-0-0-0","properties":{"highway":"primary","lanes":"3","maxspeed":"70","name":"Turf Club Avenue","name:zh":"\u8d5b\u9a6c\u516c\u4f1a\u9053","oneway":"yes","surface":"asphalt","turn:lanes":"left;through|through|through"},"geometry":{"type":"LineString","coordinates":[[103.7574219,1.4228499],[103.757811,1.4219676]]}},{"type":"Feature","id":"way/494980808-0-0-0","properties":{"highway":"unclassified","lanes":"1","maxspeed":"50","oneway":"yes"},"geometry":{"type":"LineString","coordinates":[[103.7600187,1.4190393],[103.7596305,1.4193717]]}},{"type":"Feature","id":"way/494980808-0-1-0","properties":{"highway":"unclassified","lanes":"1","maxspeed":"50","oneway":"yes"},"geometry":{"type":"LineString","coordinates":[[103.7596305,1.4193717],[103.7593726,1.4196494]]}},{"type":"Feature","id":"way/499207325-0-0-0","properties":{"highway":"service","oneway":"yes"},"geometry":{"type":"LineString","coordinates":[[103.7596814,1.421034],[103.7593139,1.4208524]]}},{"type":"Feature","id":"way/499207325-0-1-0","properties":{"highway":"service","oneway":"yes"},"geometry":{"type":"LineString","coordinates":[[103.7593139,1.4208524],[103.7592814,1.4208325]]}},{"type":"Feature","id":"way/499207325-0-2-0","properties":{"highway":"service","oneway":"yes"},"geometry":{"type":"LineString","coordinates":[[103.7592814,1.4208325],[103.75925,1.4208022]]}},{"type":"Feature","id":"way/499207325-0-3-0","properties":{"highway":"service","oneway":"yes"},"geometry":{"type":"LineString","coordinates":[[103.75925,1.4208022],[103.7592217,1.4207697]]}},{"type":"Feature","id":"way/499207325-0-4-0","properties":{"highway":"service","oneway":"yes"},"geometry":{"type":"LineString","coordinates":[[103.7592217,1.4207697],[103.7591934,1.4207163]]}},{"type":"Feature","id":"way/499207325-0-5-0","properties":{"highway":"service","oneway":"yes"},"geometry":{"type":"LineString","coordinates":[[103.7591934,1.4207163],[103.7591767,1.4206724]]}},{"type":"Feature","id":"way/499207325-0-6-0","properties":{"highway":"service","oneway":"yes"},"geometry":{"type":"LineString","coordinates":[[103.7591767,1.4206724],[103.7591683,1.420619]]}},{"type":"Feature","id":"way/499207325-0-7-0","properties":{"highway":"service","oneway":"yes"},"geometry":{"type":"LineString","coordinates":[[103.7591683,1.420619],[103.759162,1.4205624]]}},{"type":"Feature","id":"way/499207325-0-8-0","properties":{"highway":"service","oneway":"yes"},"geometry":{"type":"LineString","coordinates":[[103.759162,1.4205624],[103.7591861,1.4204468]]}},{"type":"Feature","id":"way/537283542-0-0-0","properties":{"highway":"service","oneway":"yes"},"geometry":{"type":"LineString","coordinates":[[103.7590705,1.4208063],[103.7595445,1.4210268]]}},{"type":"Feature","id":"way/537283542-0-1-0","properties":{"highway":"service","oneway":"yes"},"geometry":{"type":"LineString","coordinates":[[103.7595445,1.4210268],[103.7596912,1.4212058]]}},{"type":"Feature","id":"way/543952431-0-5-0","properties":{"highway":"service","oneway":"yes","service":"parking_aisle"},"geometry":{"type":"LineString","coordinates":[[103.7599047,1.4232526],[103.7597619,1.423189]]}},{"type":"Feature","id":"way/543952431-0-6-0","properties":{"highway":"service","oneway":"yes","service":"parking_aisle"},"geometry":{"type":"LineString","coordinates":[[103.7597619,1.423189],[103.7596099,1.4231214]]}},{"type":"Feature","id":"way/543952432-0-0-0","properties":{"highway":"service","oneway":"yes","service":"parking_aisle"},"geometry":{"type":"LineString","coordinates":[[103.7610787,1.4222682],[103.761068,1.4222924]]}},{"type":"Feature","id":"way/543952432-0-1-0","properties":{"highway":"service","oneway":"yes","service":"parking_aisle"},"geometry":{"type":"LineString","coordinates":[[103.761068,1.4222924],[103.760685,1.4231449]]}},{"type":"Feature","id":"way/543952433-0-0-0","properties":{"highway":"service","oneway":"yes","service":"parking_aisle"},"geometry":{"type":"LineString","coordinates":[[103.7601976,1.421858],[103.7601829,1.4218727]]}},{"type":"Feature","id":"way/543952433-0-1-0","properties":{"highway":"service","oneway":"yes","service":"parking_aisle"},"geometry":{"type":"LineString","coordinates":[[103.7601829,1.4218727],[103.7600834,1.4220896]]}},{"type":"Feature","id":"way/543952433-0-2-0","properties":{"highway":"service","oneway":"yes","service":"parking_aisle"},"geometry":{"type":"LineString","coordinates":[[103.7600834,1.4220896],[103.7597848,1.4227402]]}},{"type":"Feature","id":"way/543952433-0-3-0","properties":{"highway":"service","oneway":"yes","service":"parking_aisle"},"geometry":{"type":"LineString","coordinates":[[103.7597848,1.4227402],[103.7596099,1.4231214]]}},{"type":"Feature","id":"way/543952434-0-0-0","properties":{"highway":"service"},"geometry":{"type":"LineString","coordinates":[[103.7595256,1.4232883],[103.7596029,1.4231366]]}},{"type":"Feature","id":"way/543952434-0-1-0","properties":{"highway":"service"},"geometry":{"type":"LineString","coordinates":[[103.7596029,1.4231366],[103.7596099,1.4231214]]}},{"type":"Feature","id":"way/543952435-0-0-0","properties":{"highway":"service","service":"parking_aisle"},"geometry":{"type":"LineString","coordinates":[[103.7601976,1.421858],[103.7602244,1.4218567]]}},{"type":"Feature","id":"way/543952435-0-1-0","properties":{"highway":"service","service":"parking_aisle"},"geometry":{"type":"LineString","coordinates":[[103.7602244,1.4218567],[103.7603486,1.4219141]]}},{"type":"Feature","id":"way/543952436-0-0-0","properties":{"highway":"service","oneway":"yes"},"geometry":{"type":"LineString","coordinates":[[103.7592809,1.4229572],[103.7592602,1.423007]]}},{"type":"Feature","id":"way/543952436-0-1-0","properties":{"highway":"service","oneway":"yes"},"geometry":{"type":"LineString","coordinates":[[103.7592602,1.423007],[103.7592427,1.4230217]]}},{"type":"Feature","id":"way/543952436-0-2-0","properties":{"highway":"service","oneway":"yes"},"geometry":{"type":"LineString","coordinates":[[103.7592427,1.4230217],[103.7592213,1.4230298]]}},{"type":"Feature","id":"way/543952436-0-3-0","properties":{"highway":"service","oneway":"yes"},"geometry":{"type":"LineString","coordinates":[[103.7592213,1.4230298],[103.7591891,1.4230244]]}},{"type":"Feature","id":"way/543952436-0-4-0","properties":{"highway":"service","oneway":"yes"},"geometry":{"type":"LineString","coordinates":[[103.7591891,1.4230244],[103.7580827,1.4224958]]}},{"type":"Feature","id":"way/543952437-0-0-0","properties":{"highway":"service","oneway":"yes"},"geometry":{"type":"LineString","coordinates":[[103.7594901,1.4211163],[103.7594139,1.4212893]]}},{"type":"Feature","id":"way/543953045-0-0-0","properties":{"highway":"service","oneway":"yes"},"geometry":{"type":"LineString","coordinates":[[103.7599248,1.4220131],[103.7600064,1.4220534]]}},{"type":"Feature","id":"way/543953045-0-1-0","properties":{"highway":"service","oneway":"yes"},"geometry":{"type":"LineString","coordinates":[[103.7600064,1.4220534],[103.7600834,1.4220896]]}},{"type":"Feature","id":"way/543953047-0-0-0","properties":{"highway":"service","oneway":"yes","service":"parking_aisle"},"geometry":{"type":"LineString","coordinates":[[103.760685,1.4231449],[103.7605349,1.4230789]]}},{"type":"Feature","id":"way/543953047-0-1-0","properties":{"highway":"service","oneway":"yes","service":"parking_aisle"},"geometry":{"type":"LineString","coordinates":[[103.7605349,1.4230789],[103.7604045,1.423019]]}},{"type":"Feature","id":"way/543953047-0-2-0","properties":{"highway":"service","oneway":"yes","service":"parking_aisle"},"geometry":{"type":"LineString","coordinates":[[103.7604045,1.423019],[103.7602429,1.422942]]}},{"type":"Feature","id":"way/543953047-0-3-0","properties":{"highway":"service","oneway":"yes","service":"parking_aisle"},"geometry":{"type":"LineString","coordinates":[[103.7602429,1.422942],[103.760082,1.4228746]]}},{"type":"Feature","id":"way/543953047-0-4-0","properties":{"highway":"service","oneway":"yes","service":"parking_aisle"},"geometry":{"type":"LineString","coordinates":[[103.760082,1.4228746],[103.759936,1.4228106]]}},{"type":"Feature","id":"way/543953047-0-5-0","properties":{"highway":"service","oneway":"yes","service":"parking_aisle"},"geometry":{"type":"LineString","coordinates":[[103.759936,1.4228106],[103.7597848,1.4227402]]}},{"type":"Feature","id":"way/543953047-0-6-0","properties":{"highway":"service","oneway":"yes","service":"parking_aisle"},"geometry":{"type":"LineString","coordinates":[[103.7597848,1.4227402],[103.7597146,1.4227124]]}},{"type":"Feature","id":"way/543953047-0-7-0","properties":{"highway":"service","oneway":"yes","service":"parking_aisle"},"geometry":{"type":"LineString","coordinates":[[103.7597146,1.4227124],[103.7596222,1.4226698]]}},{"type":"Feature","id":"way/543953054-0-0-0","properties":{"highway":"service","oneway":"yes","service":"parking_aisle"},"geometry":{"type":"LineString","coordinates":[[103.7604045,1.423019],[103.7602297,1.4234018]]}},{"type":"Feature","id":"way/543953056-0-0-0","properties":{"highway":"service","oneway":"yes","service":"parking_aisle"},"geometry":{"type":"LineString","coordinates":[[103.7602429,1.422942],[103.7600659,1.4233243]]}},{"type":"Feature","id":"way/543953059-0-0-0","properties":{"highway":"service","service":"parking_aisle"},"geometry":{"type":"LineString","coordinates":[[103.7599047,1.4232526],[103.760082,1.4228746]]}},{"type":"Feature","id":"way/543953061-0-0-0","properties":{"highway":"service","service":"parking_aisle"},"geometry":{"type":"LineString","coordinates":[[103.7597619,1.423189],[103.759936,1.4228106]]}},{"type":"Feature","id":"way/543953583-0-0-0","properties":{"highway":"service"},"geometry":{"type":"LineString","coordinates":[[103.7605774,1.4220199],[103.7606258,1.4219086]]}},{"type":"Feature","id":"way/543953584-0-0-0","properties":{"highway":"service"},"geometry":{"type":"LineString","coordinates":[[103.7603999,1.4219378],[103.7604507,1.4218268]]}},{"type":"Feature","id":"way/543959542-0-0-0","properties":{"highway":"service"},"geometry":{"type":"LineString","coordinates":[[103.7604732,1.4217732],[103.7605499,1.4216012]]}},{"type":"Feature","id":"way/543959544-0-0-0","properties":{"covered":"yes","highway":"service"},"geometry":{"type":"LineString","coordinates":[[103.7604507,1.4218268],[103.7604605,1.4218036]]}},{"type":"Feature","id":"way/543959544-0-1-0","properties":{"covered":"yes","highway":"service"},"geometry":{"type":"LineString","coordinates":[[103.7604605,1.4218036],[103.7604732,1.4217732]]}},{"type":"Feature","id":"way/543959545-0-0-0","properties":{"highway":"service"},"geometry":{"type":"LineString","coordinates":[[103.7606475,1.4218573],[103.7607238,1.4216787]]}},{"type":"Feature","id":"way/543959547-0-0-0","properties":{"covered":"yes","highway":"service"},"geometry":{"type":"LineString","coordinates":[[103.7606258,1.4219086],[103.7606365,1.4218834]]}},{"type":"Feature","id":"way/543959547-0-1-0","properties":{"covered":"yes","highway":"service"},"geometry":{"type":"LineString","coordinates":[[103.7606365,1.4218834],[103.7606475,1.4218573]]}},{"type":"Feature","id":"way/546177458-0-0-0","properties":{"highway":"service","lanes":"1","oneway":"yes","service":"parking_aisle"},"geometry":{"type":"LineString","coordinates":[[103.7609074,1.4211176],[103.7599682,1.4206105]]}},{"type":"Feature","id":"way/546177458-0-1-0","properties":{"highway":"service","lanes":"1","oneway":"yes","service":"parking_aisle"},"geometry":{"type":"LineString","coordinates":[[103.7599682,1.4206105],[103.7595375,1.4203779]]}},{"type":"Feature","id":"way/546177459-0-0-0","properties":{"highway":"service","oneway":"no","service":"parking_aisle"},"geometry":{"type":"LineString","coordinates":[[103.7596109,1.4202457],[103.7595375,1.4203779]]}},{"type":"Feature","id":"way/635660100-0-1-0","properties":{"highway":"primary","lanes":"3","maxheight":"4.5","maxspeed":"60","name":"Woodlands Road","name:en":"Woodlands Road","name:zh":"\u5140\u5170\u8def","oneway":"yes","source":"Yahoo aerial images","surface":"asphalt"},"geometry":{"type":"LineString","coordinates":[[103.7570165,1.4232618],[103.7568861,1.4231574]]}},{"type":"Feature","id":"way/635660100-0-2-0","properties":{"highway":"primary","lanes":"3","maxheight":"4.5","maxspeed":"60","name":"Woodlands Road","name:en":"Woodlands Road","name:zh":"\u5140\u5170\u8def","oneway":"yes","source":"Yahoo aerial images","surface":"asphalt"},"geometry":{"type":"LineString","coordinates":[[103.7568861,1.4231574],[103.7567736,1.4230458]]}},{"type":"Feature","id":"way/635660100-0-3-0","properties":{"highway":"primary","lanes":"3","maxheight":"4.5","maxspeed":"60","name":"Woodlands Road","name:en":"Woodlands Road","name:zh":"\u5140\u5170\u8def","oneway":"yes","source":"Yahoo aerial images","surface":"asphalt"},"geometry":{"type":"LineString","coordinates":[[103.7567736,1.4230458],[103.7565994,1.4228059]]}},{"type":"Feature","id":"way/635731410-0-0-0","properties":{"highway":"service","oneway":"yes"},"geometry":{"type":"LineString","coordinates":[[103.7608714,1.4216272],[103.7596814,1.421034]]}},{"type":"Feature","id":"way/643664136-0-0-0","properties":{"highway":"service"},"geometry":{"type":"LineString","coordinates":[[103.7605843,1.4189246],[103.7607998,1.4191116]]}},{"type":"Feature","id":"way/643680691-0-0-0","properties":{"highway":"service"},"geometry":{"type":"LineString","coordinates":[[103.7572072,1.4211772],[103.7570621,1.4209986]]}},{"type":"Feature","id":"way/643680691-0-1-0","properties":{"highway":"service"},"geometry":{"type":"LineString","coordinates":[[103.7570621,1.4209986],[103.7570205,1.4209517]]}},{"type":"Feature","id":"way/643680691-0-2-0","properties":{"highway":"service"},"geometry":{"type":"LineString","coordinates":[[103.7570205,1.4209517],[103.7568636,1.4208216]]}},{"type":"Feature","id":"way/643680691-0-3-0","properties":{"highway":"service"},"geometry":{"type":"LineString","coordinates":[[103.7568636,1.4208216],[103.7566611,1.4207037]]}},{"type":"Feature","id":"way/644698055-0-0-0","properties":{"highway":"service","lanes":"1","oneway":"yes","service":"parking_aisle","turn:lanes":"right"},"geometry":{"type":"LineString","coordinates":[[103.7598928,1.4207519],[103.7599682,1.4206105]]}},{"type":"Feature","id":"way/644698499-0-0-0","properties":{"highway":"unclassified","lanes":"2","maxspeed":"50","oneway":"yes","surface":"asphalt"},"geometry":{"type":"LineString","coordinates":[[103.7588967,1.4207839],[103.7591861,1.4204468]]}},{"type":"Feature","id":"way/644698500-0-0-0","properties":{"bicycle":"no","highway":"unclassified","lanes":"2","maxspeed":"50","surface":"asphalt"},"geometry":{"type":"LineString","coordinates":[[103.7595256,1.4232883],[103.7590288,1.4230746]]}},{"type":"Feature","id":"way/644698500-0-1-0","properties":{"bicycle":"no","highway":"unclassified","lanes":"2","maxspeed":"50","surface":"asphalt"},"geometry":{"type":"LineString","coordinates":[[103.7590288,1.4230746],[103.7582722,1.422687]]}},{"type":"Feature","id":"way/644698500-0-2-0","properties":{"bicycle":"no","highway":"unclassified","lanes":"2","maxspeed":"50","surface":"asphalt"},"geometry":{"type":"LineString","coordinates":[[103.7582722,1.422687],[103.7581267,1.4225876]]}},{"type":"Feature","id":"way/644698500-0-3-0","properties":{"bicycle":"no","highway":"unclassified","lanes":"2","maxspeed":"50","surface":"asphalt"},"geometry":{"type":"LineString","coordinates":[[103.7581267,1.4225876],[103.7580884,1.4225205]]}},{"type":"Feature","id":"way/644698500-0-4-0","properties":{"bicycle":"no","highway":"unclassified","lanes":"2","maxspeed":"50","surface":"asphalt"},"geometry":{"type":"LineString","coordinates":[[103.7580884,1.4225205],[103.7580827,1.4224958]]}},{"type":"Feature","id":"way/644704198-0-0-0","properties":{"highway":"service","oneway":"yes","service":"parking_aisle"},"geometry":{"type":"LineString","coordinates":[[103.760082,1.4228746],[103.7604998,1.421984]]}},{"type":"Feature","id":"way/644704199-0-0-0","properties":{"highway":"service","oneway":"yes","service":"parking_aisle"},"geometry":{"type":"LineString","coordinates":[[103.7606535,1.4220551],[103.7602429,1.422942]]}},{"type":"Feature","id":"way/644704200-0-0-0","properties":{"highway":"service","oneway":"yes","service":"parking_aisle"},"geometry":{"type":"LineString","coordinates":[[103.7608112,1.4221281],[103.7604045,1.423019]]}},{"type":"Feature","id":"way/644704201-0-0-0","properties":{"highway":"service","oneway":"yes","service":"parking_aisle"},"geometry":{"type":"LineString","coordinates":[[103.7609352,1.4221855],[103.7605349,1.4230789]]}},{"type":"Feature","id":"way/644704202-0-0-0","properties":{"highway":"service","oneway":"yes","service":"parking_aisle"},"geometry":{"type":"LineString","coordinates":[[103.7608112,1.4221281],[103.7609352,1.4221855]]}},{"type":"Feature","id":"way/644704202-0-1-0","properties":{"highway":"service","oneway":"yes","service":"parking_aisle"},"geometry":{"type":"LineString","coordinates":[[103.7609352,1.4221855],[103.7610532,1.4222401]]}},{"type":"Feature","id":"way/644704202-0-2-0","properties":{"highway":"service","oneway":"yes","service":"parking_aisle"},"geometry":{"type":"LineString","coordinates":[[103.7610532,1.4222401],[103.761072,1.4222508]]}},{"type":"Feature","id":"way/644704202-0-3-0","properties":{"highway":"service","oneway":"yes","service":"parking_aisle"},"geometry":{"type":"LineString","coordinates":[[103.761072,1.4222508],[103.7610787,1.4222682]]}},{"type":"Feature","id":"way/644704203-0-0-0","properties":{"highway":"service","oneway":"yes","service":"parking_aisle"},"geometry":{"type":"LineString","coordinates":[[103.7603486,1.4219141],[103.759936,1.4228106]]}},{"type":"Feature","id":"way/645331263-0-4-0","properties":{"highway":"service"},"geometry":{"type":"LineString","coordinates":[[103.7611462,1.4227839],[103.7610817,1.4228599]]}},{"type":"Feature","id":"way/645332355-0-0-0","properties":{"highway":"service"},"geometry":{"type":"LineString","coordinates":[[103.7610817,1.4228599],[103.7609142,1.4233616]]}},{"type":"Feature","id":"way/646845083-0-0-0","properties":{"highway":"service","service":"parking_aisle"},"geometry":{"type":"LineString","coordinates":[[103.7603999,1.4219378],[103.7604998,1.421984]]}},{"type":"Feature","id":"way/646845084-0-0-0","properties":{"highway":"service","service":"parking_aisle"},"geometry":{"type":"LineString","coordinates":[[103.7605774,1.4220199],[103.7606535,1.4220551]]}},{"type":"Feature","id":"way/646845085-0-0-0","properties":{"highway":"service","service":"parking_aisle"},"geometry":{"type":"LineString","coordinates":[[103.7603486,1.4219141],[103.7603999,1.4219378]]}},{"type":"Feature","id":"way/646845086-0-0-0","properties":{"highway":"service","service":"parking_aisle"},"geometry":{"type":"LineString","coordinates":[[103.7604998,1.421984],[103.7605774,1.4220199]]}},{"type":"Feature","id":"way/646845087-0-0-0","properties":{"highway":"service","service":"parking_aisle"},"geometry":{"type":"LineString","coordinates":[[103.7606535,1.4220551],[103.7608112,1.4221281]]}},{"type":"Feature","id":"way/650845140-0-0-0","properties":{"highway":"primary_link","lanes":"2","maxspeed":"50","oneway":"yes","surface":"asphalt","turn:lanes":"through|through"},"geometry":{"type":"LineString","coordinates":[[103.7579595,1.421631],[103.7580696,1.4215178]]}},{"type":"Feature","id":"way/650845140-0-1-0","properties":{"highway":"primary_link","lanes":"2","maxspeed":"50","oneway":"yes","surface":"asphalt","turn:lanes":"through|through"},"geometry":{"type":"LineString","coordinates":[[103.7580696,1.4215178],[103.7582597,1.4213225]]}},{"type":"Feature","id":"way/650845140-0-2-0","properties":{"highway":"primary_link","lanes":"2","maxspeed":"50","oneway":"yes","surface":"asphalt","turn:lanes":"through|through"},"geometry":{"type":"LineString","coordinates":[[103.7582597,1.4213225],[103.7584992,1.4209236]]}},{"type":"Feature","id":"way/650845140-0-3-0","properties":{"highway":"primary_link","lanes":"2","maxspeed":"50","oneway":"yes","surface":"asphalt","turn:lanes":"through|through"},"geometry":{"type":"LineString","coordinates":[[103.7584992,1.4209236],[103.7588273,1.4203102]]}},{"type":"Feature","id":"way/650845140-0-4-0","properties":{"highway":"primary_link","lanes":"2","maxspeed":"50","oneway":"yes","surface":"asphalt","turn:lanes":"through|through"},"geometry":{"type":"LineString","coordinates":[[103.7588273,1.4203102],[103.7590222,1.419958]]}},{"type":"Feature","id":"way/650845140-0-5-0","properties":{"highway":"primary_link","lanes":"2","maxspeed":"50","oneway":"yes","surface":"asphalt","turn:lanes":"through|through"},"geometry":{"type":"LineString","coordinates":[[103.7590222,1.419958],[103.7593959,1.4194808]]}},{"type":"Feature","id":"way/650845140-0-6-0","properties":{"highway":"primary_link","lanes":"2","maxspeed":"50","oneway":"yes","surface":"asphalt","turn:lanes":"through|through"},"geometry":{"type":"LineString","coordinates":[[103.7593959,1.4194808],[103.7598864,1.4189948]]}},{"type":"Feature","id":"way/652193361-0-0-0","properties":{"highway":"primary","lanes":"4","maxspeed":"70","name":"Turf Club Avenue","name:zh":"\u8d5b\u9a6c\u516c\u4f1a\u9053","oneway":"yes","surface":"asphalt","turn:lanes":"left|through|through|through"},"geometry":{"type":"LineString","coordinates":[[103.757811,1.4219676],[103.7579595,1.421631]]}},{"type":"Feature","id":"way/652569743-0-2-0","properties":{"highway":"unclassified","lanes":"5","maxspeed":"50","oneway":"yes","surface":"asphalt","turn:lanes":"through|through|through|through|through"},"geometry":{"type":"LineString","coordinates":[[103.7603193,1.4187865],[103.7600187,1.4190393]]}},{"type":"Feature","id":"way/652570004-0-0-0","properties":{"highway":"unclassified","lanes":"2","maxspeed":"50","oneway":"yes","surface":"asphalt","turn:lanes":"through|through"},"geometry":{"type":"LineString","coordinates":[[103.7600813,1.4191795],[103.7604063,1.4188975]]}},{"type":"Feature","id":"way/652570005-0-0-0","properties":{"highway":"unclassified","lanes":"2","maxspeed":"50","oneway":"yes","surface":"asphalt"},"geometry":{"type":"LineString","coordinates":[[103.7591861,1.4204468],[103.7594205,1.4201354]]}},{"type":"Feature","id":"way/652570005-0-1-0","properties":{"highway":"unclassified","lanes":"2","maxspeed":"50","oneway":"yes","surface":"asphalt"},"geometry":{"type":"LineString","coordinates":[[103.7594205,1.4201354],[103.759643,1.4197511]]}},{"type":"Feature","id":"way/652570005-0-2-0","properties":{"highway":"unclassified","lanes":"2","maxspeed":"50","oneway":"yes","surface":"asphalt"},"geometry":{"type":"LineString","coordinates":[[103.759643,1.4197511],[103.7600813,1.4191795]]}},{"type":"Feature","id":"way/1327190551-0-0-0","properties":{"highway":"unclassified"},"geometry":{"type":"LineString","coordinates":[[103.7592769,1.4200563],[103.759351,1.4200971]]}},{"type":"Feature","id":"way/1327190551-0-1-0","properties":{"highway":"unclassified"},"geometry":{"type":"LineString","coordinates":[[103.759351,1.4200971],[103.7594205,1.4201354]]}}]}