{"type":"FeatureCollection","features":[{"type":"Feature","id":"way/315894035-0","properties":{"addr:housenumber":"31","addr:street":"Mandai Estate","building":"industrial","name":"Immedia Tower 4"},"geometry":{"type":"Polygon","coordinates":[[[103.7581835,1.4053304],[103.7583223,1.4050945],[103.7577576,1.4047623],[103.7576188,1.4049981],[103.7581835,1.4053304]]]}},{"type":"Feature","id":"way/380510436-0","properties":{"building":"yes","layer":"1"},"geometry":{"type":"Polygon","coordinates":[[[103.757676,1.4020475],[103.7566752,1.4022669],[103.7566817,1.4023022],[103.7567409,1.4026717],[103.7567553,1.4027306],[103.7567882,1.4029104],[103.7567984,1.4029504],[103.7568584,1.4032373],[103.756873,1.4033005],[103.7571516,1.4032382],[103.7578756,1.4030762],[103.757885,1.4030572],[103.7579426,1.4030409],[103.7579602,1.4030152],[103.7578128,1.4023361],[103.7578,1.4023224],[103.7577826,1.4023146],[103.7577659,1.4023139],[103.757757,1.4022708],[103.7577808,1.402251],[103.7577904,1.4022284],[103.7577905,1.4022039],[103.7577812,1.4021812],[103.757764,1.4021638],[103.7577328,1.4021542],[103.757676,1.4020475]]]}},{"type":"Feature","id":"way/380510437-0","properties":{"building":"yes"},"geometry":{"type":"Polygon","coordinates":[[[103.7568849,1.4040099],[103.7567842,1.4035212],[103.7567773,1.4034874],[103.7565156,1.4035412],[103.7566233,1.4040638],[103.7568849,1.4040099]]]}},{"type":"Feature","id":"way/445044924-0","properties":{"building":"yes","source":"Mapbox"},"geometry":{"type":"Polygon","coordinates":[[[103.7568849,1.4040099],[103.7570025,1.4039857],[103.7569018,1.403497],[103.7567842,1.4035212],[103.7568849,1.4040099]]]}},{"type":"Feature","id":"way/455064754-0","properties":{"building":"yes"},"geometry":{"type":"Polygon","coordinates":[[[103.7567882,1.4029104],[103.7567553,1.4027306],[103.7565936,1.4027701],[103.7565909,1.4029597],[103.7567882,1.4029104]]]}},{"type":"Feature","id":"way/520714331-0","properties":{"building":"yes"},"geometry":{"type":"Polygon","coordinates":[[[103.7568584,1.4032373],[103.7567984,1.4029504],[103.7566069,1.4029946],[103.7566,1.4031666],[103.7566314,1.4032884],[103.7568584,1.4032373]]]}},{"type":"Feature","id":"way/965294308-0","properties":{"building":"yes"},"geometry":{"type":"Polygon","coordinates":[[[103.7574399,1.4035895],[103.7574484,1.4036293],[103.7575918,1.4035987],[103.7575833,1.4035601],[103.7575578,1.4034371],[103.7580196,1.4033311],[103.7579666,1.4030877],[103.7578805,1.4031056],[103.7578756,1.4030762],[103.7571516,1.4032382],[103.7572098,1.4035206],[103.7574154,1.403473],[103.7574399,1.4035895]]]}},{"type":"Feature","id":"way/965294309-0","properties":{"building":"yes"},"geometry":{"type":"Polygon","coordinates":[[[103.7566171,1.4023145],[103.7565982,1.4027044],[103.7567409,1.4026717],[103.7566817,1.4023022],[103.7566171,1.4023145]]]}},{"type":"Feature","id":"way/965294346-0","properties":{"building":"yes"},"geometry":{"type":"Polygon","coordinates":[[[103.7571017,1.4039865],[103.7571563,1.4039748],[103.7571354,1.403877],[103.7570808,1.4038887],[103.7571017,1.4039865]]]}},{"type":"Feature","id":"way/965294347-0","properties":{"building":"yes"},"geometry":{"type":"Polygon","coordinates":[[[103.7571272,1.4037757],[103.7571028,1.4036614],[103.7570917,1.4036095],[103.7570779,1.4036124],[103.7570637,1.4036155],[103.7570748,1.4036674],[103.7571037,1.403803],[103.7571179,1.4037999],[103.7571318,1.403797],[103.7571272,1.4037757]]]}},{"type":"Feature","id":"way/965294348-0","properties":{"building":"yes"},"geometry":{"type":"Polygon","coordinates":[[[103.757005,1.4039049],[103.7570434,1.4038967],[103.7570808,1.4038887],[103.7571354,1.403877],[103.7571483,1.4038743],[103.7571318,1.403797],[103.7571179,1.4037999],[103.7571037,1.403803],[103.7570269,1.4038193],[103.7569836,1.4038286],[103.7570001,1.4039059],[103.757005,1.4039049]]]}},{"type":"Feature","id":"way/537225421-0-0-0","properties":{"highway":"residential","lanes":"2","lanes:backward":"1","lanes:forward":"1","maxspeed":"50","name":"Mandai Estate"},"geometry":{"type":"LineString","coordinates":[[103.7574475,1.4049646],[103.7573826,1.4051516]]}},{"type":"Feature","id":"way/537225421-0-1-0","properties":{"highway":"residential","lanes":"2","lanes:backward":"1","lanes:forward":"1","maxspeed":"50","name":"Mandai Estate"},"geometry":{"type":"LineString","coordinates":[[103.7573826,1.4051516],[103.7573625,1.4052173]]}},{"type":"Feature","id":"way/545534615-0-0-0","properties":{"highway":"service","lanes":"2","lanes:backward":"1","lanes:forward":"1"},"geometry":{"type":"LineString","coordinates":[[103.7571101,1.404209],[103.7570914,1.4041213]]}},{"type":"Feature","id":"way/545534615-0-1-0","properties":{"highway":"service","lanes":"2","lanes:backward":"1","lanes:forward":"1"},"geometry":{"type":"LineString","coordinates":[[103.7570914,1.4041213],[103.7570688,1.4040155]]}},{"type":"Feature","id":"way/644258689-0-1-0","properties":{"highway":"residential","lanes":"2","lanes:backward":"1","lanes:forward":"1","maxspeed":"50","name":"Mandai Estate","source":"Yahoo aerial images","surface":"asphalt"},"geometry":{"type":"LineString","coordinates":[[103.7576164,1.4052857],[103.7575429,1.4052562]]}},{"type":"Feature","id":"way/644258689-0-2-0","properties":{"highway":"residential","lanes":"2","lanes:backward":"1","lanes:forward":"1","maxspeed":"50","name":"Mandai Estate","source":"Yahoo aerial images","surface":"asphalt"},"geometry":{"type":"LineString","coordinates":[[103.7575429,1.4052562],[103.7573625,1.4052173]]}},{"type":"Feature","id":"way/644373255-0-0-0","properties":{"highway":"unclassified","lanes":"2","lanes:backward":"1","lanes:forward":"1","name":"Gali Batu Close","surface":"asphalt"},"geometry":{"type":"LineString","coordinates":[[103.7571101,1.404209],[103.7575961,1.4041013]]}},{"type":"Feature","id":"way/644373255-0-1-0","properties":{"highway":"unclassified","lanes":"2","lanes:backward":"1","lanes:forward":"1","name":"Gali Batu Close","surface":"asphalt"},"geometry":{"type":"LineString","coordinates":[[103.7575961,1.4041013],[103.7577805,1.4040567]]}},{"type":"Feature","id":"way/644373255-0-2-0","properties":{"highway":"unclassified","lanes":"2","lanes:backward":"1","lanes:forward":"1","name":"Gali Batu Close","surface":"asphalt"},"geometry":{"type":"LineString","coordinates":[[103.7577805,1.4040567],[103.7579203,1.4040187]]}},{"type":"Feature","id":"way/644373255-0-3-0","properties":{"highway":"unclassified","lanes":"2","lanes:backward":"1","lanes:forward":"1","name":"Gali Batu Close","surface":"asphalt"},"geometry":{"type":"LineString","coordinates":[[103.7579203,1.4040187],[103.7580411,1.4039644]]}},{"type":"Feature","id":"way/644373255-0-4-0","properties":{"highway":"unclassified","lanes":"2","lanes:backward":"1","lanes:forward":"1","name":"Gali Batu Close","surface":"asphalt"},"geometry":{"type":"LineString","coordinates":[[103.7580411,1.4039644],[103.758188,1.4038618]]}},{"type":"Feature","id":"way/644373256-0-0-0","properties":{"highway":"unclassified","lanes":"2","lanes:backward":"1","lanes:forward":"1","name":"Gali Batu Close","surface":"asphalt"},"geometry":{"type":"LineString","coordinates":[[103.7565967,1.4043257],[103.7568452,1.404267]]}},{"type":"Feature","id":"way/644824538-0-0-0","properties":{"highway":"unclassified","lanes":"2","lanes:backward":"1","lanes:forward":"1","name":"Gali Batu Close","surface":"asphalt"},"geometry":{"type":"LineString","coordinates":[[103.7568452,1.404267],[103.7571101,1.404209]]}},{"type":"Feature","id":"way/645280480-0-0-0","properties":{"highway":"residential","lanes":"2","lanes:backward":"1","lanes:forward":"1","maxspeed":"50","name":"Mandai Estate"},"geometry":{"type":"LineString","coordinates":[[103.7575757,1.4045952],[103.7574475,1.4049646]]}},{"type":"Feature","id":"way/788100274-0-0-0","properties":{"highway":"unclassified","lanes":"2","lanes:backward":"1","lanes:forward":"1","name":"Gali Batu Close","surface":"asphalt"},"geometry":{"type":"LineString","coordinates":[[103.758188,1.4038618],[103.7583871,1.4036761]]}},{"type":"Feature","id":"way/788101068-0-0-0","properties":{"highway":"service","lanes":"2","lanes:backward":"1","lanes:forward":"1"},"geometry":{"type":"LineString","coordinates":[[103.7581335,1.4035579],[103.7581633,1.403778]]}},{"type":"Feature","id":"way/788101068-0-1-0","properties":{"highway":"service","lanes":"2","lanes:backward":"1","lanes:forward":"1"},"geometry":{"type":"LineString","coordinates":[[103.7581633,1.403778],[103.758188,1.4038618]]}},{"type":"Feature","id":"way/909019742-0-0-0","properties":{"highway":"service"},"geometry":{"type":"LineString","coordinates":[[103.7575961,1.4041013],[103.7576578,1.4043029]]}},{"type":"Feature","id":"way/909019742-0-1-0","properties":{"highway":"service"},"geometry":{"type":"LineString","coordinates":[[103.7576578,1.4043029],[103.7576941,1.404383]]}},{"type":"Feature","id":"way/909019742-0-2-0","properties":{"highway":"service"},"geometry":{"type":"LineString","coordinates":[[103.7576941,1.404383],[103.7581753,1.40463]]}},{"type":"Feature","id":"way/909019742-0-3-0","properties":{"highway":"service"},"geometry":{"type":"LineString","coordinates":[[103.7581753,1.40463],[103.758351,1.4043299]]}}]}