{"type":"FeatureCollection","features":[{"type":"Feature","id":"way/97638257-0","properties":{"addr:city":"Singapore","addr:country":"SG","addr:housenumber":"40","addr:street":"Boon Lay Way","building":"yes","building:levels":"5"},"geometry":{"type":"Polygon","coordinates":[[[103.7488105,1.3302667],[103.7488052,1.3303204],[103.748832,1.3303686],[103.7488856,1.3304008],[103.7490627,1.3305671],[103.7491699,1.3304705],[103.7491431,1.3304223],[103.749186,1.3303901],[103.7491431,1.3303204],[103.7491914,1.3302775],[103.7491539,1.3302238],[103.7492129,1.3301595],[103.7491753,1.3301166],[103.7492236,1.3300522],[103.7491485,1.3299449],[103.7488213,1.3302131],[103.7488105,1.3302667]]]}},{"type":"Feature","id":"way/97638266-0","properties":{"building:levels":"8","building:part":"yes","height":"20"},"geometry":{"type":"Polygon","coordinates":[[[103.7487283,1.3321063],[103.7478411,1.3318171],[103.747875,1.3318727],[103.747888,1.3319402],[103.7478787,1.332],[103.7478509,1.3320537],[103.7478052,1.3320975],[103.747738,1.3321259],[103.7480624,1.3322342],[103.74863,1.3324323],[103.7487283,1.3321063]]]}},{"type":"Feature","id":"way/97638269-0","properties":{"addr:city":"Singapore","addr:country":"SG","addr:housenumber":"48","addr:street":"Boon Lay Way","building":"yes","building:levels":"2"},"geometry":{"type":"Polygon","coordinates":[[[103.7485018,1.3311903],[103.7485347,1.3311712],[103.7486239,1.3311732],[103.7486403,1.3311699],[103.7486665,1.3311588],[103.7486919,1.3311427],[103.7487074,1.3311286],[103.7487235,1.3311065],[103.7487375,1.3310807],[103.7487432,1.3310546],[103.7487419,1.3310298],[103.7487318,1.3309815],[103.7487587,1.3309563],[103.74887,1.3309577],[103.7488727,1.3309711],[103.7488857,1.3309865],[103.7489079,1.3310043],[103.749041,1.3310609],[103.7490825,1.3310599],[103.7490825,1.3311256],[103.7490953,1.331126],[103.7491,1.3311363],[103.7491141,1.3311491],[103.7491301,1.3311591],[103.7491489,1.3311672],[103.7491731,1.3311689],[103.7491927,1.3311642],[103.7492101,1.3311531],[103.7492207,1.331139],[103.7492222,1.3311285],[103.7492309,1.3311288],[103.7492314,1.3310043],[103.7492582,1.3310036],[103.7492636,1.3308193],[103.7491255,1.3308159],[103.7491258,1.3307995],[103.7491134,1.3307824],[103.7490933,1.3307676],[103.7490601,1.3307499],[103.7490332,1.3307422],[103.748992,1.3307398],[103.7489545,1.3307422],[103.748928,1.3307512],[103.7489008,1.3307643],[103.748883,1.330777],[103.7488773,1.3307941],[103.7487711,1.3307901],[103.7487791,1.3305266],[103.7487479,1.330526],[103.7487489,1.3304968],[103.7487302,1.3304831],[103.7487053,1.3304723],[103.7486772,1.330469],[103.7486487,1.3304693],[103.7486222,1.3304767],[103.7486031,1.3304851],[103.7485944,1.3304941],[103.7485937,1.3305183],[103.7485176,1.3305196],[103.7485117,1.3305833],[103.7484083,1.3306778],[103.748296,1.3307831],[103.7483017,1.3307904],[103.7483503,1.3308434],[103.7483092,1.3308848],[103.7483263,1.3309051],[103.7480935,1.330898],[103.7480945,1.3309476],[103.7480827,1.330961],[103.7480723,1.3309771],[103.748067,1.3309915],[103.748062,1.331015],[103.7480643,1.3310361],[103.7480693,1.3310633],[103.7480837,1.3310988],[103.7480995,1.3311162],[103.7481008,1.3311658],[103.7485018,1.3311903]]]}},{"type":"Feature","id":"way/97638272-0","properties":{"building":"yes"},"geometry":{"type":"Polygon","coordinates":[[[103.7490279,1.3314295],[103.7490844,1.3313946],[103.7491463,1.3313596],[103.7491744,1.3313111],[103.7491085,1.3312686],[103.7490828,1.3312924],[103.7490238,1.3313246],[103.7489487,1.3313568],[103.7489647,1.3314372],[103.7490279,1.3314295]]]}},{"type":"Feature","id":"way/122543456-0","properties":{"addr:housenumber":"52","addr:street":"Toh Guan Road East","building":"industrial","building:levels":"2"},"geometry":{"type":"Polygon","coordinates":[[[103.7501685,1.3332663],[103.7502736,1.3321861],[103.7498167,1.3321417],[103.7497115,1.3332218],[103.7501685,1.3332663]]]}},{"type":"Feature","id":"way/224052816-0","properties":{"addr:housenumber":"30","addr:street":"Boon Lay Way","building":"yes","building:levels":"4"},"geometry":{"type":"Polygon","coordinates":[[[103.7503497,1.3317633],[103.7503538,1.3317244],[103.7506542,1.3317458],[103.7507829,1.3306893],[103.7504664,1.3306679],[103.7505952,1.3290215],[103.7505469,1.3290161],[103.7503591,1.329],[103.7502572,1.329059],[103.7501446,1.3291448],[103.7500963,1.3293218],[103.7500373,1.3293218],[103.7497851,1.3317083],[103.7503497,1.3317633]]]}},{"type":"Feature","id":"way/224052817-0","properties":{"building":"industrial"},"geometry":{"type":"Polygon","coordinates":[[[103.7511714,1.3304917],[103.7510228,1.3304832],[103.7509566,1.3316439],[103.751346,1.3316661],[103.7513782,1.3311007],[103.7518916,1.33113],[103.7519231,1.3305774],[103.7520544,1.3305849],[103.7520792,1.3301494],[103.7511938,1.330099],[103.7511714,1.3304917]]]}},{"type":"Feature","id":"way/368005221-0","properties":{"building:levels":"4","building:part":"yes"},"geometry":{"type":"Polygon","coordinates":[[[103.7485758,1.329265],[103.7486071,1.3293078],[103.7486597,1.3293259],[103.7488686,1.3293275],[103.7489163,1.3293012],[103.7489426,1.329265],[103.748941,1.3292239],[103.7486,1.329209],[103.7485572,1.3291663],[103.7485408,1.3291219],[103.748543,1.3290298],[103.7484315,1.3290252],[103.7484585,1.3291087],[103.7484441,1.3292097],[103.748561,1.3292141],[103.7485758,1.329265]]]}},{"type":"Feature","id":"way/368005222-0","properties":{"building:levels":"12","building:min_level":"11","building:part":"yes","height":"32"},"geometry":{"type":"Polygon","coordinates":[[[103.7481446,1.3290852],[103.7481308,1.329122],[103.7481321,1.3291613],[103.7481483,1.3291971],[103.748177,1.329224],[103.7482138,1.3292379],[103.7482532,1.3292366],[103.748289,1.3292204],[103.7483159,1.3291917],[103.7483298,1.3291549],[103.7483285,1.3291155],[103.7483123,1.3290797],[103.7482836,1.3290528],[103.7482467,1.3290389],[103.7482074,1.3290402],[103.7481716,1.3290564],[103.7481446,1.3290852]]]}},{"type":"Feature","id":"way/368005223-0","properties":{"building:levels":"11","building:min_level":"6","building:part":"yes"},"geometry":{"type":"Polygon","coordinates":[[[103.7484585,1.3291087],[103.7484315,1.3290252],[103.7483747,1.328955],[103.7482955,1.3289118],[103.7482057,1.3289023],[103.7481192,1.3289278],[103.7480489,1.3289845],[103.7480058,1.3290637],[103.7479962,1.3291535],[103.7480217,1.32924],[103.7480784,1.3293102],[103.7481577,1.3293534],[103.7482475,1.3293629],[103.748334,1.3293374],[103.7484042,1.3292807],[103.7484441,1.3292097],[103.7484585,1.3291087]]]}},{"type":"Feature","id":"way/368005225-0","properties":{"building:part":"yes","height":"30","min_height":"27"},"geometry":{"type":"Polygon","coordinates":[[[103.7476408,1.3318097],[103.7475965,1.3318415],[103.7475679,1.3318878],[103.7475591,1.3319415],[103.7475716,1.3319946],[103.7476034,1.3320388],[103.7476497,1.3320675],[103.7477035,1.3320762],[103.7477565,1.3320637],[103.7478008,1.3320319],[103.7478294,1.3319856],[103.7478382,1.3319319],[103.7478257,1.3318788],[103.7477939,1.3318346],[103.7477476,1.3318059],[103.7476938,1.3317972],[103.7476408,1.3318097]]]}},{"type":"Feature","id":"way/368005228-0","properties":{"building:levels":"11","building:part":"yes","height":"27"},"geometry":{"type":"Polygon","coordinates":[[[103.7478052,1.3320975],[103.7478509,1.3320537],[103.7478787,1.332],[103.747888,1.3319402],[103.747875,1.3318727],[103.7478411,1.3318171],[103.7477994,1.3317816],[103.7477545,1.3317612],[103.7477024,1.331753],[103.7476365,1.3317638],[103.7475857,1.3317911],[103.7475495,1.3318271],[103.7475155,1.3319],[103.7475138,1.3319745],[103.7475434,1.3320472],[103.7475897,1.3320947],[103.7476491,1.3321231],[103.7476941,1.3321298],[103.747738,1.3321259],[103.7478052,1.3320975]]]}},{"type":"Feature","id":"way/368005231-0","properties":{"building:levels":"6","building:part":"yes","height":"15"},"geometry":{"type":"Polygon","coordinates":[[[103.7480624,1.3322342],[103.747738,1.3321259],[103.7476941,1.3321298],[103.7476491,1.3321231],[103.7479358,1.3325967],[103.7480624,1.3322342]]]}},{"type":"Feature","id":"way/368005232-0","properties":{"building:levels":"12","building:part":"yes"},"geometry":{"type":"Polygon","coordinates":[[[103.7483928,1.3289969],[103.7483867,1.3289705],[103.7483623,1.3289589],[103.748338,1.3289707],[103.748332,1.328997],[103.7483489,1.3290181],[103.748376,1.3290181],[103.7483928,1.3289969]]]}},{"type":"Feature","id":"way/368005233-0","properties":{"building:levels":"12","building:part":"yes"},"geometry":{"type":"Polygon","coordinates":[[[103.7483977,1.3292758],[103.7483917,1.3292494],[103.7483673,1.3292378],[103.7483429,1.3292496],[103.748337,1.3292759],[103.7483539,1.329297],[103.7483809,1.329297],[103.7483977,1.3292758]]]}},{"type":"Feature","id":"way/368005234-0","properties":{"building:levels":"12","building:part":"yes"},"geometry":{"type":"Polygon","coordinates":[[[103.7481186,1.3292697],[103.7481125,1.3292434],[103.7480881,1.3292317],[103.7480638,1.3292435],[103.7480579,1.3292699],[103.7480748,1.329291],[103.7481018,1.3292909],[103.7481186,1.3292697]]]}},{"type":"Feature","id":"way/368005235-0","properties":{"building:levels":"12","building:part":"yes"},"geometry":{"type":"Polygon","coordinates":[[[103.7481283,1.328995],[103.7481223,1.3289686],[103.7480979,1.328957],[103.7480735,1.3289688],[103.7480676,1.3289951],[103.7480845,1.3290162],[103.7481115,1.3290162],[103.7481283,1.328995]]]}},{"type":"Feature","id":"way/368005236-0","properties":{"building:levels":"5","building:part":"yes"},"geometry":{"type":"Polygon","coordinates":[[[103.7485408,1.3291219],[103.7485572,1.3291663],[103.7486,1.329209],[103.748941,1.3292239],[103.7489854,1.3292124],[103.7490183,1.3291549],[103.7490217,1.3290498],[103.748543,1.3290298],[103.7485408,1.3291219]]]}},{"type":"Feature","id":"way/368005237-0","properties":{"building:levels":"6","building:part":"yes","height":"18","name":"Areit"},"geometry":{"type":"Polygon","coordinates":[[[103.7480624,1.3322342],[103.7479358,1.3325967],[103.7479193,1.3326441],[103.7486109,1.3328855],[103.7487825,1.3329454],[103.7488015,1.3328912],[103.7488611,1.3329121],[103.7488841,1.3328462],[103.7489271,1.3328612],[103.74896,1.3327669],[103.7489316,1.332757],[103.7489642,1.3326637],[103.7490663,1.3326994],[103.7491021,1.332597],[103.7487686,1.3324806],[103.74863,1.3324323],[103.7480624,1.3322342]]]}},{"type":"Feature","id":"way/368005247-0","properties":{"addr:city":"Singapore","addr:country":"SG","addr:housenumber":"26","addr:postcode":"609970","addr:street":"Boon Lay Way","building":"yes","building:levels":"2","source":"Bing"},"geometry":{"type":"Polygon","coordinates":[[[103.751022,1.3290901],[103.7523048,1.3291808],[103.7523166,1.3290136],[103.7510338,1.3289229],[103.751022,1.3290901]]]}},{"type":"Feature","id":"way/368005264-0","properties":{"addr:city":"Singapore","addr:country":"SG","addr:housenumber":"10","addr:postcode":"608838","addr:street":"Toh Guan Road","building":"yes","name":"The Furniture Mall","old_name":"International Trade Park","shop":"furniture","website":"https://thefurnituremall.com.sg/"},"geometry":{"type":"Polygon","coordinates":[[[103.7479358,1.3325967],[103.7479193,1.3326441],[103.7486109,1.3328855],[103.7487825,1.3329454],[103.7488015,1.3328912],[103.7488611,1.3329121],[103.7488841,1.3328462],[103.7489271,1.3328612],[103.74896,1.3327669],[103.7489316,1.332757],[103.7489642,1.3326637],[103.7490663,1.3326994],[103.7491021,1.332597],[103.7487686,1.3324806],[103.74863,1.3324323],[103.7487283,1.3321063],[103.7478411,1.3318171],[103.7477994,1.3317816],[103.7477545,1.3317612],[103.7477024,1.331753],[103.7476365,1.3317638],[103.7475857,1.3317911],[103.7475495,1.3318271],[103.7475155,1.3319],[103.7475138,1.3319745],[103.7475434,1.3320472],[103.7475897,1.3320947],[103.7476491,1.3321231],[103.7479358,1.3325967]]]}},{"type":"Feature","id":"way/368005265-0","properties":{"addr:city":"Singapore","addr:country":"SG","addr:housenumber":"1","addr:postcode":"609917","addr:street":"International Business Park","building":"yes","name":"The Synergy","website":"https://www.mapletreeindustrialtrust.com/All-Properties/MIT/Singapore/The-Synergy.aspx"},"geometry":{"type":"Polygon","coordinates":[[[103.7480784,1.3293102],[103.7481577,1.3293534],[103.7482475,1.3293629],[103.748334,1.3293374],[103.7484042,1.3292807],[103.7484441,1.3292097],[103.748561,1.3292141],[103.7485758,1.329265],[103.7486071,1.3293078],[103.7486597,1.3293259],[103.7488686,1.3293275],[103.7489163,1.3293012],[103.7489426,1.329265],[103.748941,1.3292239],[103.7489854,1.3292124],[103.7490183,1.3291549],[103.7490217,1.3290498],[103.7491762,1.3290562],[103.7491778,1.3289493],[103.7492305,1.3289279],[103.7492667,1.3288918],[103.7492749,1.3287438],[103.7492469,1.3286879],[103.7491877,1.3286665],[103.7486153,1.3286237],[103.7485676,1.3286369],[103.7485265,1.328678],[103.74851,1.3287224],[103.7483982,1.3287191],[103.7483554,1.3287635],[103.7483472,1.3287964],[103.7482633,1.3287915],[103.7482255,1.3288128],[103.7482008,1.3288572],[103.7482057,1.3289023],[103.7481192,1.3289278],[103.7480489,1.3289845],[103.7480058,1.3290637],[103.7479962,1.3291535],[103.7480217,1.32924],[103.7480784,1.3293102]]]}},{"type":"Feature","id":"way/451950403-0","properties":{"building":"industrial"},"geometry":{"type":"Polygon","coordinates":[[[103.7514806,1.3326337],[103.7514828,1.3326013],[103.7515271,1.3326043],[103.7515241,1.3326501],[103.7517542,1.3326655],[103.7517551,1.3326521],[103.7519626,1.332666],[103.7519723,1.3325205],[103.7518783,1.3325142],[103.7518803,1.3324848],[103.7515517,1.3324628],[103.7515484,1.3325114],[103.751456,1.3325053],[103.7514577,1.3324796],[103.7513263,1.3324708],[103.7513238,1.3325072],[103.751289,1.3325049],[103.7512813,1.3326204],[103.7514806,1.3326337]]]}},{"type":"Feature","id":"way/451950404-0","properties":{"building":"yes"},"geometry":{"type":"Polygon","coordinates":[[[103.7511715,1.3321298],[103.751236,1.332157],[103.7513055,1.332165],[103.7513745,1.3321531],[103.7514374,1.3321223],[103.751489,1.3320749],[103.7515251,1.332015],[103.751543,1.3319473],[103.751541,1.3318774],[103.7515194,1.3318108],[103.7514799,1.331753],[103.7514257,1.3317087],[103.7513612,1.3316814],[103.7512917,1.3316734],[103.7512227,1.3316853],[103.7511598,1.3317162],[103.7511082,1.3317635],[103.7510721,1.3318234],[103.7510542,1.3318911],[103.7510562,1.3319611],[103.7510778,1.3320276],[103.7511173,1.3320854],[103.7511715,1.3321298]]]}},{"type":"Feature","id":"way/451950405-0","properties":{"building":"yes"},"geometry":{"type":"Polygon","coordinates":[[[103.7515941,1.3318053],[103.7516586,1.3318325],[103.7517281,1.3318406],[103.7517971,1.3318286],[103.7518599,1.3317978],[103.7519115,1.3317505],[103.7519477,1.3316905],[103.7519655,1.3316229],[103.7519636,1.3315529],[103.751942,1.3314863],[103.7519025,1.3314285],[103.7518483,1.3313842],[103.7517838,1.3313569],[103.7517142,1.3313489],[103.7516452,1.3313608],[103.7515824,1.3313917],[103.7515308,1.331439],[103.7514946,1.3314989],[103.7514768,1.3315666],[103.7514788,1.3316366],[103.7515004,1.3317032],[103.7515399,1.331761],[103.7515941,1.3318053]]]}},{"type":"Feature","id":"way/451950412-0","properties":{"building":"yes"},"geometry":{"type":"Polygon","coordinates":[[[103.7509755,1.3327518],[103.7511186,1.3327585],[103.7511321,1.3324743],[103.7509889,1.3324676],[103.7509755,1.3327518]]]}},{"type":"Feature","id":"way/741259351-0","properties":{"building":"bungalow"},"geometry":{"type":"Polygon","coordinates":[[[103.7488139,1.3319257],[103.7488158,1.3318926],[103.7488454,1.3318943],[103.7488493,1.3318252],[103.7487326,1.3318186],[103.7487268,1.3319208],[103.7488139,1.3319257]]]}},{"type":"Feature","id":"way/741259352-0","properties":{"building":"bungalow"},"geometry":{"type":"Polygon","coordinates":[[[103.7489518,1.3319713],[103.7489536,1.3319382],[103.7489832,1.3319399],[103.7489872,1.3318708],[103.7488704,1.3318642],[103.7488647,1.3319664],[103.7489518,1.3319713]]]}},{"type":"Feature","id":"way/741259353-0","properties":{"building":"bungalow"},"geometry":{"type":"Polygon","coordinates":[[[103.7490872,1.3320075],[103.7490891,1.3319744],[103.7491187,1.3319761],[103.7491226,1.331907],[103.7490059,1.3319004],[103.7490001,1.3320026],[103.7490872,1.3320075]]]}},{"type":"Feature","id":"way/22904200-0-0-0","properties":{"highway":"service","lanes":"2","maxspeed":"50","name":"International Business Park","oneway":"yes","surface":"asphalt","turn:lanes":"left|left"},"geometry":{"type":"LineString","coordinates":[[103.7477419,1.3294345],[103.7479844,1.3297497]]}},{"type":"Feature","id":"way/22904200-0-1-0","properties":{"highway":"service","lanes":"2","maxspeed":"50","name":"International Business Park","oneway":"yes","surface":"asphalt","turn:lanes":"left|left"},"geometry":{"type":"LineString","coordinates":[[103.7479844,1.3297497],[103.7480197,1.3297956]]}},{"type":"Feature","id":"way/22904200-0-2-0","properties":{"highway":"service","lanes":"2","maxspeed":"50","name":"International Business Park","oneway":"yes","surface":"asphalt","turn:lanes":"left|left"},"geometry":{"type":"LineString","coordinates":[[103.7480197,1.3297956],[103.7480325,1.3298278]]}},{"type":"Feature","id":"way/22904200-0-3-0","properties":{"highway":"service","lanes":"2","maxspeed":"50","name":"International Business Park","oneway":"yes","surface":"asphalt","turn:lanes":"left|left"},"geometry":{"type":"LineString","coordinates":[[103.7480325,1.3298278],[103.7480399,1.3298583]]}},{"type":"Feature","id":"way/22904202-0-0-0","properties":{"highway":"service","lanes":"2","maxspeed":"50","name":"International Business Park","oneway":"yes","surface":"asphalt"},"geometry":{"type":"LineString","coordinates":[[103.7480399,1.3298583],[103.7480412,1.3298861]]}},{"type":"Feature","id":"way/22904202-0-1-0","properties":{"highway":"service","lanes":"2","maxspeed":"50","name":"International Business Park","oneway":"yes","surface":"asphalt"},"geometry":{"type":"LineString","coordinates":[[103.7480412,1.3298861],[103.7480257,1.3299163]]}},{"type":"Feature","id":"way/22904202-0-2-0","properties":{"highway":"service","lanes":"2","maxspeed":"50","name":"International Business Park","oneway":"yes","surface":"asphalt"},"geometry":{"type":"LineString","coordinates":[[103.7480257,1.3299163],[103.7479233,1.3300602]]}},{"type":"Feature","id":"way/22904202-0-3-0","properties":{"highway":"service","lanes":"2","maxspeed":"50","name":"International Business Park","oneway":"yes","surface":"asphalt"},"geometry":{"type":"LineString","coordinates":[[103.7479233,1.3300602],[103.7478999,1.330153]]}},{"type":"Feature","id":"way/22904202-0-4-0","properties":{"highway":"service","lanes":"2","maxspeed":"50","name":"International Business Park","oneway":"yes","surface":"asphalt"},"geometry":{"type":"LineString","coordinates":[[103.7478999,1.330153],[103.747913,1.3302409]]}},{"type":"Feature","id":"way/136811677-0-0-0","properties":{"bridge":"yes","highway":"primary","lanes":"3","layer":"1","maxspeed":"70","name":"Boon Lay Way","name:en":"Boon Lay Way","name:zh":"\u6587\u793c\u5927\u9053","note":"Part of it estimated ???","oneway":"yes","source":"Yahoo aerial images","surface":"asphalt"},"geometry":{"type":"LineString","coordinates":[[103.7495877,1.3293252],[103.7499969,1.3289608]]}},{"type":"Feature","id":"way/136811679-0-0-0","properties":{"highway":"primary","lanes":"3","maxspeed":"70","name":"Boon Lay Way","name:en":"Boon Lay Way","name:zh":"\u6587\u793c\u5927\u9053","note":"Part of it estimated ???","oneway":"yes","source":"Yahoo aerial images","surface":"asphalt","turn:lanes":"through|through|through"},"geometry":{"type":"LineString","coordinates":[[103.7496133,1.329014],[103.7492562,1.3293252]]}},{"type":"Feature","id":"way/173767587-0-0-0","properties":{"highway":"primary","lanes":"3","maxspeed":"70","name":"Boon Lay Way","name:en":"Boon Lay Way","name:zh":"\u6587\u793c\u5927\u9053","note":"Part of it estimated ???","oneway":"yes","source":"Yahoo aerial images","surface":"asphalt"},"geometry":{"type":"LineString","coordinates":[[103.7472519,1.3314146],[103.7481941,1.3305989]]}},{"type":"Feature","id":"way/175014499-0-7-0","properties":{"highway":"secondary","lanes":"3","maxheight":"4.5","maxspeed":"60","name":"Toh Guan Road","oneway":"yes","source":"Yahoo aerial images","surface":"asphalt"},"geometry":{"type":"LineString","coordinates":[[103.7479988,1.3334111],[103.7479741,1.3332932]]}},{"type":"Feature","id":"way/175014499-0-8-0","properties":{"highway":"secondary","lanes":"3","maxheight":"4.5","maxspeed":"60","name":"Toh Guan Road","oneway":"yes","source":"Yahoo aerial images","surface":"asphalt"},"geometry":{"type":"LineString","coordinates":[[103.7479741,1.3332932],[103.7479372,1.3331414]]}},{"type":"Feature","id":"way/175014499-0-9-0","properties":{"highway":"secondary","lanes":"3","maxheight":"4.5","maxspeed":"60","name":"Toh Guan Road","oneway":"yes","source":"Yahoo aerial images","surface":"asphalt"},"geometry":{"type":"LineString","coordinates":[[103.7479372,1.3331414],[103.7478749,1.3329414]]}},{"type":"Feature","id":"way/175014499-0-10-0","properties":{"highway":"secondary","lanes":"3","maxheight":"4.5","maxspeed":"60","name":"Toh Guan Road","oneway":"yes","source":"Yahoo aerial images","surface":"asphalt"},"geometry":{"type":"LineString","coordinates":[[103.7478749,1.3329414],[103.7478252,1.3328489]]}},{"type":"Feature","id":"way/263298867-0-1-0","properties":{"highway":"service","oneway":"no"},"geometry":{"type":"LineString","coordinates":[[103.7488721,1.3333236],[103.7488265,1.3331922]]}},{"type":"Feature","id":"way/263298867-0-2-0","properties":{"highway":"service","oneway":"no"},"geometry":{"type":"LineString","coordinates":[[103.7488265,1.3331922],[103.748738,1.3331091]]}},{"type":"Feature","id":"way/263298867-0-3-0","properties":{"highway":"service","oneway":"no"},"geometry":{"type":"LineString","coordinates":[[103.748738,1.3331091],[103.7485261,1.3330864]]}},{"type":"Feature","id":"way/263298868-0-0-0","properties":{"highway":"service","lanes":"1","oneway":"yes"},"geometry":{"type":"LineString","coordinates":[[103.7479988,1.3334111],[103.7480053,1.3333884]]}},{"type":"Feature","id":"way/263298868-0-1-0","properties":{"highway":"service","lanes":"1","oneway":"yes"},"geometry":{"type":"LineString","coordinates":[[103.7480053,1.3333884],[103.7480057,1.3332291]]}},{"type":"Feature","id":"way/263298868-0-2-0","properties":{"highway":"service","lanes":"1","oneway":"yes"},"geometry":{"type":"LineString","coordinates":[[103.7480057,1.3332291],[103.7480211,1.3331622]]}},{"type":"Feature","id":"way/263298868-0-3-0","properties":{"highway":"service","lanes":"1","oneway":"yes"},"geometry":{"type":"LineString","coordinates":[[103.7480211,1.3331622],[103.7480533,1.3331062]]}},{"type":"Feature","id":"way/263298868-0-4-0","properties":{"highway":"service","lanes":"1","oneway":"yes"},"geometry":{"type":"LineString","coordinates":[[103.7480533,1.3331062],[103.7480982,1.333067]]}},{"type":"Feature","id":"way/263298868-0-5-0","properties":{"highway":"service","lanes":"1","oneway":"yes"},"geometry":{"type":"LineString","coordinates":[[103.7480982,1.333067],[103.7481613,1.3330474]]}},{"type":"Feature","id":"way/325024340-0-0-0","properties":{"highway":"secondary","lanes":"3","maxspeed":"60","name":"Toh Guan Road","oneway":"yes","source":"Bing","surface":"asphalt"},"geometry":{"type":"LineString","coordinates":[[103.7477577,1.3331544],[103.7477891,1.3333184]]}},{"type":"Feature","id":"way/325024340-0-1-0","properties":{"highway":"secondary","lanes":"3","maxspeed":"60","name":"Toh Guan Road","oneway":"yes","source":"Bing","surface":"asphalt"},"geometry":{"type":"LineString","coordinates":[[103.7477891,1.3333184],[103.7478206,1.3334793]]}},{"type":"Feature","id":"way/333883576-0-0-0","properties":{"highway":"service","lanes":"2","maxspeed":"15","service":"driveway"},"geometry":{"type":"LineString","coordinates":[[103.7481974,1.3307831],[103.7480172,1.3309508]]}},{"type":"Feature","id":"way/333883576-0-1-0","properties":{"highway":"service","lanes":"2","maxspeed":"15","service":"driveway"},"geometry":{"type":"LineString","coordinates":[[103.7480172,1.3309508],[103.7480055,1.3309822]]}},{"type":"Feature","id":"way/333883576-0-2-0","properties":{"highway":"service","lanes":"2","maxspeed":"15","service":"driveway"},"geometry":{"type":"LineString","coordinates":[[103.7480055,1.3309822],[103.7480018,1.3310743]]}},{"type":"Feature","id":"way/333883576-0-3-0","properties":{"highway":"service","lanes":"2","maxspeed":"15","service":"driveway"},"geometry":{"type":"LineString","coordinates":[[103.7480018,1.3310743],[103.7479794,1.3311445]]}},{"type":"Feature","id":"way/333883576-0-4-0","properties":{"highway":"service","lanes":"2","maxspeed":"15","service":"driveway"},"geometry":{"type":"LineString","coordinates":[[103.7479794,1.3311445],[103.7479438,1.3312014]]}},{"type":"Feature","id":"way/333883577-0-0-0","properties":{"covered":"yes","highway":"service","maxheight":"4.5","maxspeed":"15","oneway":"yes","service":"driveway"},"geometry":{"type":"LineString","coordinates":[[103.7483017,1.3307904],[103.7483355,1.3307911]]}},{"type":"Feature","id":"way/333883577-0-1-0","properties":{"covered":"yes","highway":"service","maxheight":"4.5","maxspeed":"15","oneway":"yes","service":"driveway"},"geometry":{"type":"LineString","coordinates":[[103.7483355,1.3307911],[103.748418,1.3307174]]}},{"type":"Feature","id":"way/333883577-0-2-0","properties":{"covered":"yes","highway":"service","maxheight":"4.5","maxspeed":"15","oneway":"yes","service":"driveway"},"geometry":{"type":"LineString","coordinates":[[103.748418,1.3307174],[103.7484083,1.3306778]]}},{"type":"Feature","id":"way/368005352-0-0-0","properties":{"highway":"service","lanes":"1","maxspeed":"15","oneway":"yes","service":"parking_aisle","surface":"asphalt"},"geometry":{"type":"LineString","coordinates":[[103.7511121,1.3288908],[103.7523133,1.3289623]]}},{"type":"Feature","id":"way/368005353-0-0-0","properties":{"highway":"service","lanes":"1","maxspeed":"15","oneway":"yes","service":"parking_aisle"},"geometry":{"type":"LineString","coordinates":[[103.7482579,1.3314704],[103.74822,1.3314552]]}},{"type":"Feature","id":"way/368005353-0-1-0","properties":{"highway":"service","lanes":"1","maxspeed":"15","oneway":"yes","service":"parking_aisle"},"geometry":{"type":"LineString","coordinates":[[103.74822,1.3314552],[103.7481821,1.3314494]]}},{"type":"Feature","id":"way/368007657-0-4-0","properties":{"highway":"residential","lanes":"2","maxspeed":"50","name":"Jurong East Street 21","oneway":"yes","turn:lanes":"left|left"},"geometry":{"type":"LineString","coordinates":[[103.747668,1.3330981],[103.7477577,1.3331544]]}},{"type":"Feature","id":"way/465270685-0-0-0","properties":{"highway":"service","lanes":"1","maxspeed":"15","oneway":"yes","service":"parking_aisle","turn:lanes":"left;right"},"geometry":{"type":"LineString","coordinates":[[103.7481971,1.3316321],[103.7482176,1.3316285]]}},{"type":"Feature","id":"way/465270685-0-1-0","properties":{"highway":"service","lanes":"1","maxspeed":"15","oneway":"yes","service":"parking_aisle","turn:lanes":"left;right"},"geometry":{"type":"LineString","coordinates":[[103.7482176,1.3316285],[103.7482344,1.3316122]]}},{"type":"Feature","id":"way/465270685-0-2-0","properties":{"highway":"service","lanes":"1","maxspeed":"15","oneway":"yes","service":"parking_aisle","turn:lanes":"left;right"},"geometry":{"type":"LineString","coordinates":[[103.7482344,1.3316122],[103.7482466,1.331584]]}},{"type":"Feature","id":"way/465270685-0-3-0","properties":{"highway":"service","lanes":"1","maxspeed":"15","oneway":"yes","service":"parking_aisle","turn:lanes":"left;right"},"geometry":{"type":"LineString","coordinates":[[103.7482466,1.331584],[103.7482579,1.3314704]]}},{"type":"Feature","id":"way/465270686-0-0-0","properties":{"highway":"service","lanes":"1","maxspeed":"15","oneway":"yes","service":"parking_aisle"},"geometry":{"type":"LineString","coordinates":[[103.7476013,1.3314626],[103.7481971,1.3316321]]}},{"type":"Feature","id":"way/465270687-0-0-0","properties":{"highway":"service","lanes":"1","maxspeed":"15","oneway":"yes","service":"parking_aisle"},"geometry":{"type":"LineString","coordinates":[[103.7477043,1.3313066],[103.7476936,1.3313067]]}},{"type":"Feature","id":"way/465270687-0-1-0","properties":{"highway":"service","lanes":"1","maxspeed":"15","oneway":"yes","service":"parking_aisle"},"geometry":{"type":"LineString","coordinates":[[103.7476936,1.3313067],[103.7476779,1.3313146]]}},{"type":"Feature","id":"way/465276674-0-0-0","properties":{"highway":"service","lanes":"1","oneway":"yes"},"geometry":{"type":"LineString","coordinates":[[103.7481613,1.3330474],[103.7480574,1.3330012]]}},{"type":"Feature","id":"way/465276674-0-1-0","properties":{"highway":"service","lanes":"1","oneway":"yes"},"geometry":{"type":"LineString","coordinates":[[103.7480574,1.3330012],[103.7479675,1.3329602]]}},{"type":"Feature","id":"way/465276674-0-2-0","properties":{"highway":"service","lanes":"1","oneway":"yes"},"geometry":{"type":"LineString","coordinates":[[103.7479675,1.3329602],[103.7479164,1.3329249]]}},{"type":"Feature","id":"way/465276674-0-3-0","properties":{"highway":"service","lanes":"1","oneway":"yes"},"geometry":{"type":"LineString","coordinates":[[103.7479164,1.3329249],[103.7478252,1.3328489]]}},{"type":"Feature","id":"way/465289074-0-0-0","properties":{"highway":"service","oneway":"yes"},"geometry":{"type":"LineString","coordinates":[[103.748528,1.3329446],[103.7485144,1.332921]]}},{"type":"Feature","id":"way/465289074-0-1-0","properties":{"highway":"service","oneway":"yes"},"geometry":{"type":"LineString","coordinates":[[103.7485144,1.332921],[103.7484823,1.332899]]}},{"type":"Feature","id":"way/465289074-0-2-0","properties":{"highway":"service","oneway":"yes"},"geometry":{"type":"LineString","coordinates":[[103.7484823,1.332899],[103.748043,1.3327706]]}},{"type":"Feature","id":"way/465289074-0-3-0","properties":{"highway":"service","oneway":"yes"},"geometry":{"type":"LineString","coordinates":[[103.748043,1.3327706],[103.7479345,1.3327218]]}},{"type":"Feature","id":"way/465289074-0-4-0","properties":{"highway":"service","oneway":"yes"},"geometry":{"type":"LineString","coordinates":[[103.7479345,1.3327218],[103.747889,1.3326883]]}},{"type":"Feature","id":"way/465289074-0-5-0","properties":{"highway":"service","oneway":"yes"},"geometry":{"type":"LineString","coordinates":[[103.747889,1.3326883],[103.747834,1.3326118]]}},{"type":"Feature","id":"way/465289074-0-14-0","properties":{"highway":"service","oneway":"yes"},"geometry":{"type":"LineString","coordinates":[[103.7476502,1.3317001],[103.7477186,1.3317028]]}},{"type":"Feature","id":"way/465289074-0-15-0","properties":{"highway":"service","oneway":"yes"},"geometry":{"type":"LineString","coordinates":[[103.7477186,1.3317028],[103.7488653,1.3321225]]}},{"type":"Feature","id":"way/465289074-0-16-0","properties":{"highway":"service","oneway":"yes"},"geometry":{"type":"LineString","coordinates":[[103.7488653,1.3321225],[103.74888,1.3321533]]}},{"type":"Feature","id":"way/465289074-0-17-0","properties":{"highway":"service","oneway":"yes"},"geometry":{"type":"LineString","coordinates":[[103.74888,1.3321533],[103.7488841,1.3321841]]}},{"type":"Feature","id":"way/465289074-0-18-0","properties":{"highway":"service","oneway":"yes"},"geometry":{"type":"LineString","coordinates":[[103.7488841,1.3321841],[103.7487686,1.3324806]]}},{"type":"Feature","id":"way/482047176-0-0-0","properties":{"highway":"primary","lanes":"4","maxspeed":"70","name":"Boon Lay Way","name:en":"Boon Lay Way","name:zh":"\u6587\u793c\u5927\u9053","note":"Part of it estimated ???","oneway":"yes","source":"Yahoo aerial images","surface":"asphalt"},"geometry":{"type":"LineString","coordinates":[[103.7490095,1.3295517],[103.7487963,1.3297433]]}},{"type":"Feature","id":"way/482047177-0-0-0","properties":{"highway":"primary","lanes":"4","maxspeed":"70","name":"Boon Lay Way","name:en":"Boon Lay Way","name:zh":"\u6587\u793c\u5927\u9053","note":"Part of it estimated ???","oneway":"yes","source":"Yahoo aerial images","surface":"asphalt"},"geometry":{"type":"LineString","coordinates":[[103.7487963,1.3297433],[103.7482066,1.3302652]]}},{"type":"Feature","id":"way/482053290-0-0-0","properties":{"highway":"primary","lanes":"3","maxspeed":"70","name":"Boon Lay Way","name:en":"Boon Lay Way","name:zh":"\u6587\u793c\u5927\u9053","note":"Part of it estimated ???","oneway":"yes","source":"Yahoo aerial images","surface":"asphalt"},"geometry":{"type":"LineString","coordinates":[[103.7483832,1.3304257],[103.7484849,1.3303326]]}},{"type":"Feature","id":"way/482053293-0-0-0","properties":{"highway":"primary","lanes":"3","maxheight":"4.5","maxspeed":"70","name":"Boon Lay Way","name:en":"Boon Lay Way","name:zh":"\u6587\u793c\u5927\u9053","note":"Part of it estimated ???","oneway":"yes","source":"Yahoo aerial images","surface":"asphalt"},"geometry":{"type":"LineString","coordinates":[[103.7481941,1.3305989],[103.7483832,1.3304257]]}},{"type":"Feature","id":"way/482053296-0-0-0","properties":{"highway":"primary","lanes":"4","maxheight":"4.5","maxspeed":"70","name":"Boon Lay Way","name:en":"Boon Lay Way","name:zh":"\u6587\u793c\u5927\u9053","note":"Part of it estimated ???","oneway":"yes","source":"Yahoo aerial images","surface":"asphalt"},"geometry":{"type":"LineString","coordinates":[[103.7482066,1.3302652],[103.7480176,1.3304325]]}},{"type":"Feature","id":"way/482053300-0-0-0","properties":{"highway":"primary","lanes":"5","maxspeed":"70","name":"Boon Lay Way","name:en":"Boon Lay Way","name:zh":"\u6587\u793c\u5927\u9053","note":"Part of it estimated ???","oneway":"yes","source":"Yahoo aerial images","surface":"asphalt"},"geometry":{"type":"LineString","coordinates":[[103.7480176,1.3304325],[103.7476949,1.3307379]]}},{"type":"Feature","id":"way/482115540-0-0-0","properties":{"highway":"service","lanes":"2","maxspeed":"50","name":"International Business Park","oneway":"yes","surface":"asphalt"},"geometry":{"type":"LineString","coordinates":[[103.7481578,1.3297587],[103.748121,1.32975]]}},{"type":"Feature","id":"way/482115540-0-1-0","properties":{"highway":"service","lanes":"2","maxspeed":"50","name":"International Business Park","oneway":"yes","surface":"asphalt"},"geometry":{"type":"LineString","coordinates":[[103.748121,1.32975],[103.7480975,1.3297339]]}},{"type":"Feature","id":"way/482115540-0-2-0","properties":{"highway":"service","lanes":"2","maxspeed":"50","name":"International Business Park","oneway":"yes","surface":"asphalt"},"geometry":{"type":"LineString","coordinates":[[103.7480975,1.3297339],[103.7480663,1.3296893]]}},{"type":"Feature","id":"way/482115540-0-3-0","properties":{"highway":"service","lanes":"2","maxspeed":"50","name":"International Business Park","oneway":"yes","surface":"asphalt"},"geometry":{"type":"LineString","coordinates":[[103.7480663,1.3296893],[103.747956,1.3295321]]}},{"type":"Feature","id":"way/528902481-0-0-0","properties":{"highway":"service","lanes":"2","maxspeed":"50","name":"International Business Park","oneway":"yes","surface":"asphalt"},"geometry":{"type":"LineString","coordinates":[[103.7487963,1.3297433],[103.7486997,1.3297514]]}},{"type":"Feature","id":"way/528902481-0-1-0","properties":{"highway":"service","lanes":"2","maxspeed":"50","name":"International Business Park","oneway":"yes","surface":"asphalt"},"geometry":{"type":"LineString","coordinates":[[103.7486997,1.3297514],[103.7486382,1.3297286]]}},{"type":"Feature","id":"way/528902481-0-2-0","properties":{"highway":"service","lanes":"2","maxspeed":"50","name":"International Business Park","oneway":"yes","surface":"asphalt"},"geometry":{"type":"LineString","coordinates":[[103.7486382,1.3297286],[103.7485532,1.329697]]}},{"type":"Feature","id":"way/528902481-0-3-0","properties":{"highway":"service","lanes":"2","maxspeed":"50","name":"International Business Park","oneway":"yes","surface":"asphalt"},"geometry":{"type":"LineString","coordinates":[[103.7485532,1.329697],[103.7484728,1.3296836]]}},{"type":"Feature","id":"way/528902481-0-4-0","properties":{"highway":"service","lanes":"2","maxspeed":"50","name":"International Business Park","oneway":"yes","surface":"asphalt"},"geometry":{"type":"LineString","coordinates":[[103.7484728,1.3296836],[103.7483225,1.3297127]]}},{"type":"Feature","id":"way/532436187-0-0-0","properties":{"foot":"no","highway":"primary_link","maxspeed":"50","name":"Boon Lay Way","oneway":"yes","surface":"asphalt"},"geometry":{"type":"LineString","coordinates":[[103.7490961,1.3297674],[103.7491281,1.3297044]]}},{"type":"Feature","id":"way/532436187-0-1-0","properties":{"foot":"no","highway":"primary_link","maxspeed":"50","name":"Boon Lay Way","oneway":"yes","surface":"asphalt"},"geometry":{"type":"LineString","coordinates":[[103.7491281,1.3297044],[103.7491386,1.3296654]]}},{"type":"Feature","id":"way/532436187-0-2-0","properties":{"foot":"no","highway":"primary_link","maxspeed":"50","name":"Boon Lay Way","oneway":"yes","surface":"asphalt"},"geometry":{"type":"LineString","coordinates":[[103.7491386,1.3296654],[103.7491401,1.3296307]]}},{"type":"Feature","id":"way/532436187-0-3-0","properties":{"foot":"no","highway":"primary_link","maxspeed":"50","name":"Boon Lay Way","oneway":"yes","surface":"asphalt"},"geometry":{"type":"LineString","coordinates":[[103.7491401,1.3296307],[103.7491349,1.3296042]]}},{"type":"Feature","id":"way/532436187-0-4-0","properties":{"foot":"no","highway":"primary_link","maxspeed":"50","name":"Boon Lay Way","oneway":"yes","surface":"asphalt"},"geometry":{"type":"LineString","coordinates":[[103.7491349,1.3296042],[103.7491114,1.3295686]]}},{"type":"Feature","id":"way/532436187-0-5-0","properties":{"foot":"no","highway":"primary_link","maxspeed":"50","name":"Boon Lay Way","oneway":"yes","surface":"asphalt"},"geometry":{"type":"LineString","coordinates":[[103.7491114,1.3295686],[103.749092,1.3295555]]}},{"type":"Feature","id":"way/532436187-0-6-0","properties":{"foot":"no","highway":"primary_link","maxspeed":"50","name":"Boon Lay Way","oneway":"yes","surface":"asphalt"},"geometry":{"type":"LineString","coordinates":[[103.749092,1.3295555],[103.7490738,1.3295471]]}},{"type":"Feature","id":"way/532436187-0-7-0","properties":{"foot":"no","highway":"primary_link","maxspeed":"50","name":"Boon Lay Way","oneway":"yes","surface":"asphalt"},"geometry":{"type":"LineString","coordinates":[[103.7490738,1.3295471],[103.7490515,1.3295443]]}},{"type":"Feature","id":"way/532436187-0-8-0","properties":{"foot":"no","highway":"primary_link","maxspeed":"50","name":"Boon Lay Way","oneway":"yes","surface":"asphalt"},"geometry":{"type":"LineString","coordinates":[[103.7490515,1.3295443],[103.749033,1.3295451]]}},{"type":"Feature","id":"way/532436187-0-9-0","properties":{"foot":"no","highway":"primary_link","maxspeed":"50","name":"Boon Lay Way","oneway":"yes","surface":"asphalt"},"geometry":{"type":"LineString","coordinates":[[103.749033,1.3295451],[103.7490095,1.3295517]]}},{"type":"Feature","id":"way/533069691-0-0-0","properties":{"highway":"service","maxspeed":"15","service":"parking_aisle"},"geometry":{"type":"LineString","coordinates":[[103.7482579,1.3314704],[103.7483221,1.3314569]]}},{"type":"Feature","id":"way/533069691-0-1-0","properties":{"highway":"service","maxspeed":"15","service":"parking_aisle"},"geometry":{"type":"LineString","coordinates":[[103.7483221,1.3314569],[103.7483579,1.3314503]]}},{"type":"Feature","id":"way/533069691-0-2-0","properties":{"highway":"service","maxspeed":"15","service":"parking_aisle"},"geometry":{"type":"LineString","coordinates":[[103.7483579,1.3314503],[103.7483891,1.3314194]]}},{"type":"Feature","id":"way/533069691-0-3-0","properties":{"highway":"service","maxspeed":"15","service":"parking_aisle"},"geometry":{"type":"LineString","coordinates":[[103.7483891,1.3314194],[103.7484026,1.3313777]]}},{"type":"Feature","id":"way/533069691-0-4-0","properties":{"highway":"service","maxspeed":"15","service":"parking_aisle"},"geometry":{"type":"LineString","coordinates":[[103.7484026,1.3313777],[103.7484019,1.3313549]]}},{"type":"Feature","id":"way/533069691-0-5-0","properties":{"highway":"service","maxspeed":"15","service":"parking_aisle"},"geometry":{"type":"LineString","coordinates":[[103.7484019,1.3313549],[103.7483831,1.3313173]]}},{"type":"Feature","id":"way/533069691-0-6-0","properties":{"highway":"service","maxspeed":"15","service":"parking_aisle"},"geometry":{"type":"LineString","coordinates":[[103.7483831,1.3313173],[103.7483536,1.3313019]]}},{"type":"Feature","id":"way/533069691-0-7-0","properties":{"highway":"service","maxspeed":"15","service":"parking_aisle"},"geometry":{"type":"LineString","coordinates":[[103.7483536,1.3313019],[103.7483034,1.3313006]]}},{"type":"Feature","id":"way/533069691-0-8-0","properties":{"highway":"service","maxspeed":"15","service":"parking_aisle"},"geometry":{"type":"LineString","coordinates":[[103.7483034,1.3313006],[103.7481947,1.3313026]]}},{"type":"Feature","id":"way/533069691-0-9-0","properties":{"highway":"service","maxspeed":"15","service":"parking_aisle"},"geometry":{"type":"LineString","coordinates":[[103.7481947,1.3313026],[103.7481143,1.3312892]]}},{"type":"Feature","id":"way/533069691-0-10-0","properties":{"highway":"service","maxspeed":"15","service":"parking_aisle"},"geometry":{"type":"LineString","coordinates":[[103.7481143,1.3312892],[103.7480405,1.331263]]}},{"type":"Feature","id":"way/533069691-0-11-0","properties":{"highway":"service","maxspeed":"15","service":"parking_aisle"},"geometry":{"type":"LineString","coordinates":[[103.7480405,1.331263],[103.7479438,1.3312014]]}},{"type":"Feature","id":"way/537148252-0-0-0","properties":{"highway":"primary","lanes":"3","maxspeed":"70","name":"Boon Lay Way","name:en":"Boon Lay Way","name:zh":"\u6587\u793c\u5927\u9053","note":"Part of it estimated ???","oneway":"yes","source":"Yahoo aerial images","surface":"asphalt"},"geometry":{"type":"LineString","coordinates":[[103.7492582,1.329618],[103.7493207,1.329567]]}},{"type":"Feature","id":"way/537148252-0-1-0","properties":{"highway":"primary","lanes":"3","maxspeed":"70","name":"Boon Lay Way","name:en":"Boon Lay Way","name:zh":"\u6587\u793c\u5927\u9053","note":"Part of it estimated ???","oneway":"yes","source":"Yahoo aerial images","surface":"asphalt"},"geometry":{"type":"LineString","coordinates":[[103.7493207,1.329567],[103.7495877,1.3293252]]}},{"type":"Feature","id":"way/542132464-0-0-0","properties":{"highway":"service","lanes":"2","lanes:backward":"1","lanes:forward":"1"},"geometry":{"type":"LineString","coordinates":[[103.7508434,1.3290052],[103.7505778,1.3289864]]}},{"type":"Feature","id":"way/542132464-0-1-0","properties":{"highway":"service","lanes":"2","lanes:backward":"1","lanes:forward":"1"},"geometry":{"type":"LineString","coordinates":[[103.7505778,1.3289864],[103.750555,1.328973]]}},{"type":"Feature","id":"way/542132464-0-2-0","properties":{"highway":"service","lanes":"2","lanes:backward":"1","lanes:forward":"1"},"geometry":{"type":"LineString","coordinates":[[103.750555,1.328973],[103.7505336,1.3289502]]}},{"type":"Feature","id":"way/542132466-0-0-0","properties":{"highway":"service"},"geometry":{"type":"LineString","coordinates":[[103.7479417,1.3292897],[103.7479198,1.3292238]]}},{"type":"Feature","id":"way/542132466-0-1-0","properties":{"highway":"service"},"geometry":{"type":"LineString","coordinates":[[103.7479198,1.3292238],[103.7479144,1.3291527]]}},{"type":"Feature","id":"way/542132466-0-2-0","properties":{"highway":"service"},"geometry":{"type":"LineString","coordinates":[[103.7479144,1.3291527],[103.7479292,1.329032]]}},{"type":"Feature","id":"way/542132466-0-3-0","properties":{"highway":"service"},"geometry":{"type":"LineString","coordinates":[[103.7479292,1.329032],[103.7479547,1.3289704]]}},{"type":"Feature","id":"way/542132466-0-4-0","properties":{"highway":"service"},"geometry":{"type":"LineString","coordinates":[[103.7479547,1.3289704],[103.7480083,1.3289127]]}},{"type":"Feature","id":"way/542132467-0-0-0","properties":{"highway":"service"},"geometry":{"type":"LineString","coordinates":[[103.7479417,1.3292897],[103.7479949,1.3293511]]}},{"type":"Feature","id":"way/542132467-0-1-0","properties":{"highway":"service"},"geometry":{"type":"LineString","coordinates":[[103.7479949,1.3293511],[103.7480485,1.3293927]]}},{"type":"Feature","id":"way/542132467-0-2-0","properties":{"highway":"service"},"geometry":{"type":"LineString","coordinates":[[103.7480485,1.3293927],[103.7481277,1.3294276]]}},{"type":"Feature","id":"way/542132467-0-3-0","properties":{"highway":"service"},"geometry":{"type":"LineString","coordinates":[[103.7481277,1.3294276],[103.7482189,1.329445]]}},{"type":"Feature","id":"way/542132467-0-4-0","properties":{"highway":"service"},"geometry":{"type":"LineString","coordinates":[[103.7482189,1.329445],[103.748306,1.329445]]}},{"type":"Feature","id":"way/542132467-0-5-0","properties":{"highway":"service"},"geometry":{"type":"LineString","coordinates":[[103.748306,1.329445],[103.7484053,1.3294209]]}},{"type":"Feature","id":"way/542132467-0-6-0","properties":{"highway":"service"},"geometry":{"type":"LineString","coordinates":[[103.7484053,1.3294209],[103.7485059,1.3293833]]}},{"type":"Feature","id":"way/542132470-0-0-0","properties":{"highway":"service"},"geometry":{"type":"LineString","coordinates":[[103.7479417,1.3292897],[103.7478929,1.3293251]]}},{"type":"Feature","id":"way/542132470-0-1-0","properties":{"highway":"service"},"geometry":{"type":"LineString","coordinates":[[103.7478929,1.3293251],[103.7478363,1.3293661]]}},{"type":"Feature","id":"way/542139316-0-0-0","properties":{"highway":"service","lanes":"2","lanes:backward":"1","lanes:forward":"1"},"geometry":{"type":"LineString","coordinates":[[103.7485261,1.3330864],[103.7485266,1.3330493]]}},{"type":"Feature","id":"way/542139316-0-1-0","properties":{"highway":"service","lanes":"2","lanes:backward":"1","lanes:forward":"1"},"geometry":{"type":"LineString","coordinates":[[103.7485266,1.3330493],[103.748528,1.3329446]]}},{"type":"Feature","id":"way/542139318-0-0-0","properties":{"highway":"service","oneway":"yes"},"geometry":{"type":"LineString","coordinates":[[103.7486109,1.3328855],[103.7485636,1.3329192]]}},{"type":"Feature","id":"way/542139318-0-1-0","properties":{"highway":"service","oneway":"yes"},"geometry":{"type":"LineString","coordinates":[[103.7485636,1.3329192],[103.748528,1.3329446]]}},{"type":"Feature","id":"way/542139319-0-0-0","properties":{"covered":"yes","highway":"service","oneway":"yes"},"geometry":{"type":"LineString","coordinates":[[103.7487686,1.3324806],[103.7486109,1.3328855]]}},{"type":"Feature","id":"way/545567574-0-0-0","properties":{"highway":"service","maxspeed":"15","oneway":"yes","service":"driveway"},"geometry":{"type":"LineString","coordinates":[[103.7484083,1.3306778],[103.7483919,1.3306135]]}},{"type":"Feature","id":"way/545567575-0-0-0","properties":{"highway":"service","maxspeed":"15","oneway":"yes","service":"driveway"},"geometry":{"type":"LineString","coordinates":[[103.7481974,1.3307831],[103.7483017,1.3307904]]}},{"type":"Feature","id":"way/635751294-0-0-0","properties":{"highway":"secondary","lanes":"4","maxspeed":"60","name":"Toh Guan Road","oneway":"yes","source":"Yahoo aerial images","surface":"asphalt"},"geometry":{"type":"LineString","coordinates":[[103.7478252,1.3328489],[103.7476248,1.3325421]]}},{"type":"Feature","id":"way/639073443-0-0-0","properties":{"highway":"service"},"geometry":{"type":"LineString","coordinates":[[103.7478363,1.3293661],[103.7477419,1.3294345]]}},{"type":"Feature","id":"way/639073444-0-0-0","properties":{"highway":"service","lanes":"2","lanes:backward":"1","lanes:forward":"1","turn:lanes:backward":"left"},"geometry":{"type":"LineString","coordinates":[[103.7477419,1.3294345],[103.747661,1.3294919]]}},{"type":"Feature","id":"way/639073445-0-0-0","properties":{"highway":"service","lanes":"2","maxspeed":"50","name":"International Business Park","oneway":"yes","surface":"asphalt","turn:lanes":"left|left"},"geometry":{"type":"LineString","coordinates":[[103.7478363,1.3293661],[103.7475852,1.3290127]]}},{"type":"Feature","id":"way/639578691-0-0-0","properties":{"highway":"service","lanes":"2","lanes:backward":"1","lanes:forward":"1","service":"driveway","turn:lanes:backward":"left","turn:lanes:forward":"through"},"geometry":{"type":"LineString","coordinates":[[103.7484849,1.3303326],[103.7485112,1.3303633]]}},{"type":"Feature","id":"way/639578691-0-1-0","properties":{"highway":"service","lanes":"2","lanes:backward":"1","lanes:forward":"1","service":"driveway","turn:lanes:backward":"left","turn:lanes:forward":"through"},"geometry":{"type":"LineString","coordinates":[[103.7485112,1.3303633],[103.7485297,1.3303865]]}},{"type":"Feature","id":"way/645325328-0-0-0","properties":{"highway":"service","lanes":"2","lanes:backward":"1","lanes:forward":"1","maxspeed":"15","service":"driveway","turn:lanes:backward":"through","turn:lanes:forward":"left"},"geometry":{"type":"LineString","coordinates":[[103.7479438,1.3312014],[103.7479017,1.3312802]]}},{"type":"Feature","id":"way/645325328-0-1-0","properties":{"highway":"service","lanes":"2","lanes:backward":"1","lanes:forward":"1","maxspeed":"15","service":"driveway","turn:lanes:backward":"through","turn:lanes:forward":"left"},"geometry":{"type":"LineString","coordinates":[[103.7479017,1.3312802],[103.7478755,1.3313621]]}},{"type":"Feature","id":"way/645325329-0-0-0","properties":{"highway":"service","lanes":"2","lanes:backward":"1","lanes:forward":"1","service":"driveway","turn:lanes:backward":"left","turn:lanes:forward":"through"},"geometry":{"type":"LineString","coordinates":[[103.7485297,1.3303865],[103.7485488,1.3304066]]}},{"type":"Feature","id":"way/645325329-0-1-0","properties":{"highway":"service","lanes":"2","lanes:backward":"1","lanes:forward":"1","service":"driveway","turn:lanes:backward":"left","turn:lanes:forward":"through"},"geometry":{"type":"LineString","coordinates":[[103.7485488,1.3304066],[103.7485803,1.3304398]]}},{"type":"Feature","id":"way/645325329-0-2-0","properties":{"highway":"service","lanes":"2","lanes:backward":"1","lanes:forward":"1","service":"driveway","turn:lanes:backward":"left","turn:lanes:forward":"through"},"geometry":{"type":"LineString","coordinates":[[103.7485803,1.3304398],[103.7485817,1.3304475]]}},{"type":"Feature","id":"way/646149437-0-0-0","properties":{"highway":"service","oneway":"no"},"geometry":{"type":"LineString","coordinates":[[103.7485261,1.3330864],[103.7481613,1.3330474]]}},{"type":"Feature","id":"way/646189261-0-0-0","properties":{"highway":"service","lanes":"2","lanes:backward":"1","lanes:forward":"1","lit":"yes","maxspeed":"15","service":"driveway","sidewalk":"left","turn:lanes:backward":"through","turn:lanes:forward":"through;right"},"geometry":{"type":"LineString","coordinates":[[103.7483919,1.3306135],[103.7482294,1.3307552]]}},{"type":"Feature","id":"way/646189261-0-1-0","properties":{"highway":"service","lanes":"2","lanes:backward":"1","lanes:forward":"1","lit":"yes","maxspeed":"15","service":"driveway","sidewalk":"left","turn:lanes:backward":"through","turn:lanes:forward":"through;right"},"geometry":{"type":"LineString","coordinates":[[103.7482294,1.3307552],[103.7481974,1.3307831]]}},{"type":"Feature","id":"way/649919145-0-0-0","properties":{"highway":"service","lanes":"3","maxspeed":"50","name":"International Business Park","oneway":"yes","surface":"asphalt","turn:lanes":"left|through|through;right"},"geometry":{"type":"LineString","coordinates":[[103.7476129,1.329267],[103.7477419,1.3294345]]}},{"type":"Feature","id":"way/652382673-0-0-0","properties":{"highway":"primary","lanes":"4","maxspeed":"70","name":"Boon Lay Way","name:en":"Boon Lay Way","name:zh":"\u6587\u793c\u5927\u9053","note":"Part of it estimated ???","oneway":"yes","source":"Yahoo aerial images","surface":"asphalt","turn:lanes":"through|through|through|right"},"geometry":{"type":"LineString","coordinates":[[103.748842,1.3299973],[103.7490537,1.3298075]]}},{"type":"Feature","id":"way/677008150-0-0-0","properties":{"highway":"service","lanes":"2","lanes:backward":"1","lanes:forward":"1","lit":"yes","maxspeed":"15","service":"driveway","sidewalk":"left"},"geometry":{"type":"LineString","coordinates":[[103.7485817,1.3304475],[103.7485769,1.3304566]]}},{"type":"Feature","id":"way/677008150-0-1-0","properties":{"highway":"service","lanes":"2","lanes:backward":"1","lanes:forward":"1","lit":"yes","maxspeed":"15","service":"driveway","sidewalk":"left"},"geometry":{"type":"LineString","coordinates":[[103.7485769,1.3304566],[103.7483919,1.3306135]]}},{"type":"Feature","id":"way/711557031-0-0-0","properties":{"highway":"primary","lanes":"3","maxspeed":"70","name":"Boon Lay Way","name:en":"Boon Lay Way","name:zh":"\u6587\u793c\u5927\u9053","note":"Part of it estimated ???","oneway":"yes","source":"Yahoo aerial images","surface":"asphalt","turn:lanes":"through|through|through"},"geometry":{"type":"LineString","coordinates":[[103.7490961,1.3297674],[103.7492582,1.329618]]}},{"type":"Feature","id":"way/741953050-0-0-0","properties":{"highway":"primary","lanes":"4","maxspeed":"70","name":"Boon Lay Way","name:en":"Boon Lay Way","name:zh":"\u6587\u793c\u5927\u9053","note":"Part of it estimated ???","oneway":"yes","source":"Yahoo aerial images","surface":"asphalt","turn:lanes":"left|through|through|through"},"geometry":{"type":"LineString","coordinates":[[103.7492562,1.3293252],[103.7490095,1.3295517]]}},{"type":"Feature","id":"way/746719012-0-0-0","properties":{"highway":"service"},"geometry":{"type":"LineString","coordinates":[[103.7509213,1.3290151],[103.7508434,1.3290052]]}},{"type":"Feature","id":"way/746719034-0-0-0","properties":{"highway":"service","lanes":"1","maxspeed":"15","oneway":"yes","service":"parking_aisle","turn:lanes":"through"},"geometry":{"type":"LineString","coordinates":[[103.7481821,1.3314494],[103.7481029,1.331428]]}},{"type":"Feature","id":"way/746719035-0-0-0","properties":{"highway":"service","lanes":"1","maxspeed":"15","oneway":"yes","service":"parking_aisle"},"geometry":{"type":"LineString","coordinates":[[103.7481029,1.331428],[103.7480029,1.3313998]]}},{"type":"Feature","id":"way/746719036-0-0-0","properties":{"highway":"service","lanes":"1","maxspeed":"15","oneway":"yes","service":"parking_aisle","turn:lanes":"through"},"geometry":{"type":"LineString","coordinates":[[103.7478755,1.3313621],[103.7477043,1.3313066]]}},{"type":"Feature","id":"way/746719037-0-0-0","properties":{"highway":"service","lanes":"1","maxspeed":"15","oneway":"yes","service":"parking_aisle","turn:lanes":"left;through"},"geometry":{"type":"LineString","coordinates":[[103.7480029,1.3313998],[103.7478755,1.3313621]]}},{"type":"Feature","id":"way/747247416-0-0-0","properties":{"highway":"service","lanes":"2","maxspeed":"50","name":"International Business Park","oneway":"yes","surface":"asphalt","turn:lanes":"left|left"},"geometry":{"type":"LineString","coordinates":[[103.747956,1.3295321],[103.7478363,1.3293661]]}},{"type":"Feature","id":"way/747247417-0-0-0","properties":{"highway":"service","lanes":"2","maxspeed":"50","name":"International Business Park","oneway":"yes","surface":"asphalt","turn:lanes":"through|through"},"geometry":{"type":"LineString","coordinates":[[103.7483225,1.3297127],[103.7482215,1.3297507]]}},{"type":"Feature","id":"way/747247417-0-1-0","properties":{"highway":"service","lanes":"2","maxspeed":"50","name":"International Business Park","oneway":"yes","surface":"asphalt","turn:lanes":"through|through"},"geometry":{"type":"LineString","coordinates":[[103.7482215,1.3297507],[103.748192,1.3297587]]}},{"type":"Feature","id":"way/747247417-0-2-0","properties":{"highway":"service","lanes":"2","maxspeed":"50","name":"International Business Park","oneway":"yes","surface":"asphalt","turn:lanes":"through|through"},"geometry":{"type":"LineString","coordinates":[[103.748192,1.3297587],[103.7481578,1.3297587]]}},{"type":"Feature","id":"way/747247418-0-0-0","properties":{"highway":"service","lanes":"2","maxspeed":"50","name":"International Business Park","oneway":"yes","surface":"asphalt"},"geometry":{"type":"LineString","coordinates":[[103.7479726,1.3303569],[103.7480176,1.3304325]]}},{"type":"Feature","id":"way/747247419-0-0-0","properties":{"highway":"service","lanes":"2","maxspeed":"50","name":"International Business Park","oneway":"yes","surface":"asphalt","turn:lanes":"left|left"},"geometry":{"type":"LineString","coordinates":[[103.747913,1.3302409],[103.7479472,1.3303176]]}},{"type":"Feature","id":"way/747247419-0-1-0","properties":{"highway":"service","lanes":"2","maxspeed":"50","name":"International Business Park","oneway":"yes","surface":"asphalt","turn:lanes":"left|left"},"geometry":{"type":"LineString","coordinates":[[103.7479472,1.3303176],[103.7479726,1.3303569]]}},{"type":"Feature","id":"way/823169627-0-0-0","properties":{"highway":"primary","lanes":"4","maxspeed":"70","name":"Boon Lay Way","name:en":"Boon Lay Way","name:zh":"\u6587\u793c\u5927\u9053","note":"Part of it estimated ???","oneway":"yes","source":"Yahoo aerial images","surface":"asphalt","turn:lanes":"through|through|through|right"},"geometry":{"type":"LineString","coordinates":[[103.7490537,1.3298075],[103.7490961,1.3297674]]}},{"type":"Feature","id":"way/823170357-0-0-0","properties":{"highway":"primary","lanes":"3","maxspeed":"70","name":"Boon Lay Way","name:en":"Boon Lay Way","name:zh":"\u6587\u793c\u5927\u9053","note":"Part of it estimated ???","oneway":"yes","source":"Yahoo aerial images","surface":"asphalt"},"geometry":{"type":"LineString","coordinates":[[103.7484849,1.3303326],[103.748842,1.3299973]]}},{"type":"Feature","id":"way/1132177569-0-0-0","properties":{"highway":"service"},"geometry":{"type":"LineString","coordinates":[[103.7481314,1.333191],[103.7485735,1.333182]]}},{"type":"Feature","id":"way/1132177569-0-1-0","properties":{"highway":"service"},"geometry":{"type":"LineString","coordinates":[[103.7485735,1.333182],[103.7487843,1.3333875]]}},{"type":"Feature","id":"way/1132177570-0-2-0","properties":{"highway":"service"},"geometry":{"type":"LineString","coordinates":[[103.7481238,1.3334687],[103.7481314,1.333191]]}},{"type":"Feature","id":"way/1532243351-0-0-0","properties":{"highway":"service","oneway":"yes","service":"parking_aisle"},"geometry":{"type":"LineString","coordinates":[[103.748405,1.3317086],[103.7486722,1.3317699]]}},{"type":"Feature","id":"way/1532243351-0-1-0","properties":{"highway":"service","oneway":"yes","service":"parking_aisle"},"geometry":{"type":"LineString","coordinates":[[103.7486722,1.3317699],[103.7487102,1.331605]]}},{"type":"Feature","id":"way/1532243351-0-2-0","properties":{"highway":"service","oneway":"yes","service":"parking_aisle"},"geometry":{"type":"LineString","coordinates":[[103.7487102,1.331605],[103.7484403,1.3315454]]}},{"type":"Feature","id":"way/1532243352-0-0-0","properties":{"highway":"service","service":"parking_aisle"},"geometry":{"type":"LineString","coordinates":[[103.7483579,1.3314503],[103.748455,1.3314771]]}},{"type":"Feature","id":"way/1532243352-0-1-0","properties":{"highway":"service","service":"parking_aisle"},"geometry":{"type":"LineString","coordinates":[[103.748455,1.3314771],[103.7484403,1.3315454]]}},{"type":"Feature","id":"way/1532243353-0-0-0","properties":{"highway":"service","service":"parking_aisle"},"geometry":{"type":"LineString","coordinates":[[103.7484403,1.3315454],[103.748405,1.3317086]]}}]}