{"type":"FeatureCollection","features":[{"type":"Feature","id":"way/1330851673-0","properties":{"building":"yes","name":"Breathing Gallery"},"geometry":{"type":"Polygon","coordinates":[[[103.7332654,1.3332885],[103.7332628,1.3333011],[103.7333198,1.3333157],[103.7334037,1.333353],[103.7334501,1.3333922],[103.7334833,1.3334407],[103.7335174,1.3335025],[103.733527,1.3334988],[103.7336064,1.3334685],[103.7335591,1.3333725],[103.7335107,1.3333133],[103.7334829,1.3332903],[103.7334594,1.333271],[103.7333658,1.3332227],[103.7332826,1.3332036],[103.7332654,1.3332885]]]}}]}