{"type":"FeatureCollection","features":[{"type":"Feature","id":"relation/14347189-0","properties":{"addr:city":"Singapore","addr:country":"SG","addr:housenumber":"139","addr:postcode":"690139","addr:street":"Tengah Garden Avenue","amenity":"parking","building":"parking","parking":"multi-storey","type":"multipolygon"},"geometry":{"type":"Polygon","coordinates":[[[103.7291448,1.35437],[103.7291396,1.3544038],[103.729145,1.3544378],[103.7291608,1.3544682],[103.7291851,1.3544924],[103.7292157,1.3545079],[103.7292285,1.3545098],[103.7292496,1.3545131],[103.7292835,1.3545077],[103.7293141,1.354492],[103.7293382,1.3544676],[103.7293537,1.354437],[103.729359,1.3544032],[103.7293534,1.3543692],[103.7293377,1.3543388],[103.7293262,1.3543272],[103.7293904,1.3542566],[103.7295104,1.3541467],[103.7296288,1.3540646],[103.7297351,1.3540009],[103.729751,1.354032],[103.7298334,1.3539943],[103.7299248,1.3539524],[103.7299051,1.353922],[103.7299453,1.3539098],[103.7301282,1.353862],[103.7302756,1.35384],[103.7304154,1.353836],[103.7304188,1.3538572],[103.7304345,1.3538877],[103.7304588,1.3539119],[103.7304895,1.3539274],[103.7305233,1.3539326],[103.7305573,1.3539272],[103.7305877,1.3539114],[103.7306119,1.3538871],[103.7306274,1.3538564],[103.7306326,1.3538226],[103.7306272,1.3537887],[103.7306115,1.3537582],[103.7305871,1.353734],[103.7305565,1.3537185],[103.7305227,1.3537133],[103.7305181,1.353714],[103.7305203,1.3537008],[103.7305678,1.3537019],[103.7305701,1.3536564],[103.7303871,1.3536541],[103.7302498,1.3536647],[103.7301078,1.3536814],[103.7299529,1.3537186],[103.7298071,1.3537649],[103.7297436,1.3537968],[103.7296561,1.3538408],[103.7295339,1.3539076],[103.7294428,1.3539743],[103.7293259,1.3540677],[103.7292265,1.3541709],[103.7290875,1.3543363],[103.7291202,1.3543625],[103.7291483,1.3543276],[103.7291615,1.3543381],[103.7291603,1.3543393],[103.7291448,1.35437]],[[103.7305411,1.3537935],[103.7305545,1.3538061],[103.7305597,1.3538236],[103.7305556,1.3538415],[103.730543,1.3538548],[103.7305255,1.3538601],[103.7305076,1.353856],[103.7304941,1.3538434],[103.7304888,1.3538258],[103.730493,1.353808],[103.7305056,1.3537946],[103.7305231,1.3537894],[103.7305411,1.3537935]],[[103.7292625,1.3543762],[103.7292759,1.3543888],[103.7292813,1.3544063],[103.7292771,1.3544242],[103.7292645,1.3544376],[103.729247,1.3544428],[103.729229,1.3544387],[103.7292156,1.3544261],[103.7292104,1.3544086],[103.7292145,1.3543907],[103.7292271,1.3543773],[103.7292447,1.3543721],[103.7292625,1.3543762]]]}},{"type":"Feature","id":"way/108232867-0","properties":{"addr:city":"Singapore","addr:country":"SG","addr:housenumber":"332","addr:postcode":"600332","addr:street":"Jurong East Avenue 1","building":"residential","building:levels":"13","residential":"HDB"},"geometry":{"type":"Polygon","coordinates":[[[103.7297009,1.3512662],[103.729723,1.3513004],[103.7296848,1.3513292],[103.7297029,1.351352],[103.7297478,1.3513191],[103.729831,1.3514264],[103.72989,1.3514827],[103.7298504,1.3515276],[103.7298732,1.3515464],[103.7299088,1.3515001],[103.7299906,1.3515625],[103.7300985,1.3516208],[103.7302031,1.3516516],[103.7303017,1.3516657],[103.7303808,1.3516697],[103.7303815,1.3516999],[103.7304157,1.3516999],[103.730413,1.3516664],[103.7304921,1.3516503],[103.7305538,1.3516315],[103.7306128,1.3516107],[103.7306263,1.3516369],[103.7306551,1.3516208],[103.7306316,1.3515806],[103.7307094,1.3515397],[103.7306839,1.3514995],[103.7307081,1.3514807],[103.7306672,1.3514291],[103.7306122,1.3514673],[103.7305988,1.3514452],[103.730533,1.3514787],[103.7305512,1.3515115],[103.7305123,1.3515296],[103.7305056,1.3515196],[103.7304593,1.351537],[103.7304633,1.3515517],[103.7304144,1.3515631],[103.730411,1.3515176],[103.7303346,1.3515202],[103.7303393,1.3515571],[103.7302849,1.3515564],[103.7302849,1.3515397],[103.7302521,1.351537],[103.7302474,1.3515544],[103.7302045,1.351545],[103.7302199,1.3515082],[103.7300965,1.3514726],[103.7300831,1.3515062],[103.7300482,1.3514867],[103.7300536,1.3514767],[103.7300248,1.3514586],[103.7300181,1.3514666],[103.7299845,1.3514418],[103.7300026,1.3514163],[103.7299403,1.3513694],[103.7299202,1.3513969],[103.72989,1.3513674],[103.7299027,1.351356],[103.7298799,1.3513278],[103.7298705,1.3513352],[103.7298457,1.3513004],[103.7298732,1.3512762],[103.729831,1.3512219],[103.7298028,1.3512427],[103.7297787,1.3512146],[103.7297948,1.3512032],[103.7297706,1.3511509],[103.7297063,1.3511757],[103.7297183,1.3512099],[103.7296808,1.3512199],[103.7297009,1.3512662]]]}},{"type":"Feature","id":"way/882665450-0","properties":{"building:levels":"15","building:part":"yes"},"geometry":{"type":"Polygon","coordinates":[[[103.7315306,1.3557862],[103.7315488,1.3558044],[103.7315982,1.3557553],[103.7315131,1.3556697],[103.7314641,1.3557184],[103.7314471,1.3557014],[103.7314905,1.3556583],[103.7314539,1.3556215],[103.7314756,1.3555999],[103.7314348,1.3555588],[103.7313779,1.3556153],[103.7313867,1.3556242],[103.7313445,1.3556661],[103.7313347,1.3556562],[103.7312753,1.3557153],[103.7313173,1.3557575],[103.7313392,1.3557356],[103.731357,1.3557535],[103.7313088,1.3558014],[103.7312811,1.3557735],[103.7312697,1.3557848],[103.7312345,1.3557494],[103.7312134,1.3557703],[103.7311895,1.3557463],[103.731148,1.3557876],[103.7312076,1.3558477],[103.7312177,1.3558377],[103.731259,1.3558792],[103.7312492,1.355889],[103.7312997,1.3559398],[103.731309,1.3559491],[103.7313498,1.3559086],[103.731325,1.3558837],[103.7313439,1.355865],[103.7313086,1.3558294],[103.7313204,1.3558177],[103.7313735,1.355871],[103.7313925,1.3558521],[103.7313661,1.3558256],[103.7314045,1.3557875],[103.731397,1.35578],[103.7314166,1.3557605],[103.7313977,1.3557414],[103.7314316,1.3557078],[103.7315022,1.3557788],[103.73152,1.3557967],[103.7315306,1.3557862]]]}},{"type":"Feature","id":"way/882665452-0","properties":{"building:levels":"11","building:part":"yes","roof:material":"grass"},"geometry":{"type":"Polygon","coordinates":[[[103.7314487,1.355832],[103.7314889,1.3558724],[103.7314789,1.3558823],[103.7314939,1.3558974],[103.7315046,1.3558867],[103.7315471,1.3559294],[103.7315986,1.3558782],[103.7316167,1.3558964],[103.7316284,1.3558848],[103.7316444,1.3559009],[103.7316944,1.3558513],[103.7316165,1.355773],[103.7315667,1.3558224],[103.7315488,1.3558044],[103.7315306,1.3557862],[103.73152,1.3557967],[103.7315022,1.3557788],[103.7314487,1.355832]]]}},{"type":"Feature","id":"way/882665453-0","properties":{"addr:city":"Singapore","addr:country":"SG","addr:housenumber":"133C","addr:neighbourhood":"Plantation Grange","addr:postcode":"693133","addr:street":"Tengah Garden Avenue","building":"residential","residential":"HDB"},"geometry":{"type":"Polygon","coordinates":[[[103.7313498,1.3559086],[103.731325,1.3558837],[103.7313439,1.355865],[103.7313086,1.3558294],[103.7313204,1.3558177],[103.7313735,1.355871],[103.7313925,1.3558521],[103.7313661,1.3558256],[103.7314045,1.3557875],[103.731397,1.35578],[103.7314166,1.3557605],[103.7313977,1.3557414],[103.7314316,1.3557078],[103.7315022,1.3557788],[103.7314487,1.355832],[103.7314889,1.3558724],[103.7314789,1.3558823],[103.7314939,1.3558974],[103.7315046,1.3558867],[103.7315471,1.3559294],[103.7315986,1.3558782],[103.7316167,1.3558964],[103.7316345,1.3559143],[103.731583,1.3559655],[103.7316264,1.3560093],[103.7316164,1.3560193],[103.7316317,1.3560347],[103.7316417,1.3560246],[103.7316853,1.3560685],[103.7317374,1.3560167],[103.7317159,1.355995],[103.7317251,1.3559858],[103.731746,1.3560069],[103.7317991,1.3559541],[103.731754,1.3559087],[103.7317139,1.3558684],[103.7316627,1.3559193],[103.7316567,1.3559133],[103.7316444,1.3559009],[103.7316944,1.3558513],[103.7316165,1.355773],[103.7315667,1.3558224],[103.7315488,1.3558044],[103.7315982,1.3557553],[103.7315131,1.3556697],[103.7314641,1.3557184],[103.7314471,1.3557014],[103.7314905,1.3556583],[103.7314539,1.3556215],[103.7314756,1.3555999],[103.7314348,1.3555588],[103.7313779,1.3556153],[103.7313867,1.3556242],[103.7313445,1.3556661],[103.7313347,1.3556562],[103.7312753,1.3557153],[103.7313173,1.3557575],[103.7313392,1.3557356],[103.731357,1.3557535],[103.7313088,1.3558014],[103.7312811,1.3557735],[103.7312697,1.3557848],[103.7312345,1.3557494],[103.7312134,1.3557703],[103.7311895,1.3557463],[103.731148,1.3557876],[103.7312076,1.3558477],[103.7312177,1.3558377],[103.731259,1.3558792],[103.7312492,1.355889],[103.7312997,1.3559398],[103.731309,1.3559491],[103.7313498,1.3559086]]]}},{"type":"Feature","id":"way/882665478-0","properties":{"building:levels":"8","building:min_level":"1","building:part":"yes","roof:material":"grass"},"geometry":{"type":"Polygon","coordinates":[[[103.7325394,1.3558129],[103.7325573,1.3558309],[103.7325664,1.3558218],[103.7325838,1.3558393],[103.7326158,1.3558075],[103.7326257,1.3557977],[103.7326354,1.355788],[103.732603,1.3557553],[103.7325518,1.3557039],[103.7324992,1.3557561],[103.7325153,1.3557722],[103.732508,1.3557795],[103.7325264,1.3557981],[103.7325186,1.3558059],[103.7325074,1.355817],[103.7324938,1.3558305],[103.7325077,1.3558445],[103.7325394,1.3558129]]]}},{"type":"Feature","id":"way/882665483-0","properties":{"addr:city":"Singapore","addr:country":"SG","addr:housenumber":"131D","addr:neighbourhood":"Plantation Grange","addr:postcode":"694131","addr:street":"Tengah Garden Avenue","building":"residential","building:levels":"15","residential":"HDB"},"geometry":{"type":"Polygon","coordinates":[[[103.7320735,1.3557923],[103.7320539,1.3557726],[103.7320603,1.3557662],[103.7320707,1.3557766],[103.7320878,1.3557595],[103.7320596,1.3557311],[103.7320698,1.355721],[103.7321104,1.3557619],[103.7321269,1.3557456],[103.7321207,1.3557393],[103.7321434,1.3557167],[103.732152,1.3557254],[103.7321911,1.3556865],[103.7321615,1.3556567],[103.7321561,1.3556512],[103.7321374,1.3556697],[103.7321291,1.3556613],[103.7321385,1.3556521],[103.7321234,1.3556369],[103.7321529,1.3556075],[103.7321818,1.3556365],[103.7322026,1.3556574],[103.7322232,1.355637],[103.732232,1.3556459],[103.732287,1.3555913],[103.7322917,1.3555866],[103.7322546,1.3555493],[103.7322284,1.3555754],[103.7322072,1.3555541],[103.7322446,1.355517],[103.732275,1.3555475],[103.7322868,1.3555358],[103.7322967,1.3555458],[103.7323188,1.3555679],[103.7323387,1.3555481],[103.7323624,1.355572],[103.7324045,1.3555301],[103.7323475,1.3554727],[103.7323369,1.3554832],[103.732294,1.35544],[103.7323055,1.3554285],[103.7322475,1.3553701],[103.7322052,1.3554122],[103.732227,1.3554342],[103.7321793,1.3554817],[103.7321517,1.3555091],[103.7321709,1.3555284],[103.7321491,1.35555],[103.7321648,1.3555659],[103.7321499,1.3555807],[103.7320999,1.3555305],[103.7320775,1.3555527],[103.7320687,1.3555438],[103.7320112,1.3556009],[103.7320531,1.3556431],[103.7320757,1.3556206],[103.732093,1.355638],[103.7320394,1.3556912],[103.7320236,1.3556752],[103.7320152,1.3556835],[103.7319892,1.3556574],[103.7319728,1.3556737],[103.7319811,1.355682],[103.7319734,1.3556896],[103.7319547,1.3556708],[103.7319172,1.355708],[103.731927,1.355718],[103.7319357,1.3557266],[103.7319555,1.3557466],[103.7319642,1.3557379],[103.7320064,1.3557803],[103.7319989,1.3557877],[103.7320383,1.3558273],[103.7320735,1.3557923]]]}},{"type":"Feature","id":"way/882665493-0","properties":{"building:levels":"14","building:part":"yes"},"geometry":{"type":"Polygon","coordinates":[[[103.7336841,1.354894],[103.7336988,1.3549081],[103.7337326,1.3549404],[103.7337529,1.3549192],[103.7337625,1.3549283],[103.7337038,1.3549898],[103.7336953,1.3549815],[103.7337145,1.3549614],[103.7336785,1.354927],[103.7336653,1.3549143],[103.733492,1.3550956],[103.7335134,1.3551161],[103.733541,1.3551425],[103.7335609,1.3551218],[103.7335713,1.3551317],[103.7335799,1.3551228],[103.7335991,1.3551412],[103.7336201,1.3551192],[103.7336505,1.3551483],[103.7336546,1.3551441],[103.733681,1.3551693],[103.7336331,1.3552193],[103.7336452,1.3552307],[103.7336257,1.355251],[103.7336608,1.3552845],[103.7336751,1.3552981],[103.7337149,1.3552564],[103.7338481,1.3551171],[103.7338337,1.3551034],[103.733798,1.3550693],[103.7337766,1.3550917],[103.7337655,1.3550811],[103.7337146,1.3551343],[103.7336514,1.3550739],[103.7337582,1.3549623],[103.7337674,1.3549711],[103.7337479,1.3549916],[103.7337987,1.3550402],[103.733854,1.3549823],[103.7338462,1.3549747],[103.7338633,1.3549567],[103.7338682,1.3549614],[103.7338865,1.3549422],[103.7338298,1.3548881],[103.7338387,1.3548787],[103.7337655,1.3548088],[103.7336841,1.354894]]]}},{"type":"Feature","id":"way/882665494-0","properties":{"building:levels":"10","building:part":"yes","roof:material":"grass"},"geometry":{"type":"Polygon","coordinates":[[[103.7339326,1.3548695],[103.7339537,1.3548898],[103.7340015,1.3548402],[103.7339446,1.3547854],[103.7339386,1.3547915],[103.7339185,1.3547723],[103.7338992,1.3547922],[103.7338877,1.3547812],[103.7339063,1.3547618],[103.7338715,1.3547283],[103.7338567,1.3547141],[103.7337655,1.3548088],[103.7338387,1.3548787],[103.733866,1.3548503],[103.7338739,1.354858],[103.7338854,1.3548459],[103.7339217,1.3548808],[103.7339326,1.3548695]]]}},{"type":"Feature","id":"way/882665495-0","properties":{"building:levels":"7","building:part":"yes","roof:material":"grass"},"geometry":{"type":"Polygon","coordinates":[[[103.7338739,1.354858],[103.734011,1.3549893],[103.7339758,1.355026],[103.7339935,1.355043],[103.733979,1.3550581],[103.7339993,1.3550775],[103.7339914,1.3550857],[103.7340487,1.3551406],[103.7340973,1.3550899],[103.7340749,1.3550684],[103.7340857,1.3550572],[103.7340519,1.3550247],[103.7340624,1.3550137],[103.7340982,1.3550481],[103.7341083,1.3550378],[103.734127,1.3550557],[103.7341649,1.3550162],[103.7341741,1.3550067],[103.7341177,1.3549526],[103.734111,1.3549595],[103.7340728,1.3549229],[103.7340788,1.3549167],[103.7340207,1.354861],[103.7339743,1.3549095],[103.7339943,1.3549287],[103.7339835,1.35494],[103.7339217,1.3548808],[103.7338854,1.3548459],[103.7338739,1.354858]]]}},{"type":"Feature","id":"way/882665496-0","properties":{"addr:city":"Singapore","addr:country":"SG","addr:housenumber":"114B","addr:neighbourhood":"Plantation Acres","addr:postcode":"692114","addr:street":"Plantation Crescent","building":"residential","residential":"HDB"},"geometry":{"type":"Polygon","coordinates":[[[103.7341177,1.3549526],[103.734111,1.3549595],[103.7340728,1.3549229],[103.7340788,1.3549167],[103.7340207,1.354861],[103.7339743,1.3549095],[103.7339943,1.3549287],[103.7339835,1.35494],[103.7339217,1.3548808],[103.7339326,1.3548695],[103.7339537,1.3548898],[103.7340015,1.3548402],[103.7339446,1.3547854],[103.7339386,1.3547915],[103.7339185,1.3547723],[103.7338992,1.3547922],[103.7338877,1.3547812],[103.7339063,1.3547618],[103.7338715,1.3547283],[103.7338567,1.3547141],[103.7337655,1.3548088],[103.7336841,1.354894],[103.7336988,1.3549081],[103.7337326,1.3549404],[103.7337529,1.3549192],[103.7337625,1.3549283],[103.7337038,1.3549898],[103.7336953,1.3549815],[103.7337145,1.3549614],[103.7336785,1.354927],[103.7336653,1.3549143],[103.733492,1.3550956],[103.7335134,1.3551161],[103.733541,1.3551425],[103.7335609,1.3551218],[103.7335713,1.3551317],[103.7335799,1.3551228],[103.7335991,1.3551412],[103.7336201,1.3551192],[103.7336505,1.3551483],[103.7336546,1.3551441],[103.733681,1.3551693],[103.7336331,1.3552193],[103.7336452,1.3552307],[103.7336257,1.355251],[103.7336608,1.3552845],[103.7336751,1.3552981],[103.7337149,1.3552564],[103.7338481,1.3551171],[103.7338337,1.3551034],[103.733798,1.3550693],[103.7337766,1.3550917],[103.7337655,1.3550811],[103.7337146,1.3551343],[103.7336514,1.3550739],[103.7337582,1.3549623],[103.7337674,1.3549711],[103.7337479,1.3549916],[103.7337987,1.3550402],[103.733854,1.3549823],[103.7338462,1.3549747],[103.7338633,1.3549567],[103.7338682,1.3549614],[103.7338865,1.3549422],[103.7338298,1.3548881],[103.7338387,1.3548787],[103.733866,1.3548503],[103.7338739,1.354858],[103.734011,1.3549893],[103.7339758,1.355026],[103.7339935,1.355043],[103.733979,1.3550581],[103.7339993,1.3550775],[103.7339914,1.3550857],[103.7340487,1.3551406],[103.7340973,1.3550899],[103.7340749,1.3550684],[103.7340857,1.3550572],[103.7340519,1.3550247],[103.7340624,1.3550137],[103.7340982,1.3550481],[103.7341083,1.3550378],[103.734127,1.3550557],[103.7341649,1.3550162],[103.7341741,1.3550067],[103.7341177,1.3549526]]]}},{"type":"Feature","id":"way/882665497-0","properties":{"building:levels":"10","building:part":"yes","roof:material":"grass"},"geometry":{"type":"Polygon","coordinates":[[[103.7341432,1.3545779],[103.7341548,1.3545655],[103.7341466,1.354558],[103.7341742,1.3545283],[103.7340985,1.3544571],[103.7340065,1.3545557],[103.7340243,1.3545725],[103.734058,1.3546041],[103.7340769,1.3545838],[103.7340889,1.354595],[103.7340694,1.3546159],[103.7340903,1.3546354],[103.7340843,1.3546418],[103.7341435,1.3546972],[103.7341919,1.3546456],[103.7341699,1.354625],[103.7341809,1.3546133],[103.7341432,1.3545779]]]}},{"type":"Feature","id":"way/882665504-0","properties":{"building:levels":"7","building:part":"yes","roof:material":"grass"},"geometry":{"type":"Polygon","coordinates":[[[103.7335504,1.3555748],[103.7334991,1.3556298],[103.7334822,1.3556139],[103.7334403,1.3556588],[103.7334074,1.3556281],[103.733395,1.3556414],[103.7333753,1.355623],[103.733328,1.3556738],[103.7333864,1.3557282],[103.7333931,1.355721],[103.7334336,1.3557587],[103.7334276,1.3557653],[103.7334872,1.3558209],[103.7334964,1.3558111],[103.7335336,1.3557712],[103.7335133,1.3557521],[103.7335252,1.3557394],[103.7334891,1.3557057],[103.7334953,1.3556991],[103.7334763,1.3556813],[103.7335251,1.3556291],[103.733564,1.3555875],[103.7335504,1.3555748]]]}},{"type":"Feature","id":"way/882665505-0","properties":{"building:levels":"10","building:part":"yes","roof:material":"grass"},"geometry":{"type":"Polygon","coordinates":[[[103.7332789,1.3553734],[103.7332473,1.355344],[103.7332363,1.3553558],[103.7332155,1.3553363],[103.7331669,1.3553883],[103.7332607,1.3554759],[103.7332795,1.3554558],[103.7333203,1.3554121],[103.7332789,1.3553734]]]}},{"type":"Feature","id":"way/882665506-0","properties":{"building:levels":"10","building:part":"yes","roof:material":"grass"},"geometry":{"type":"Polygon","coordinates":[[[103.7335251,1.3556291],[103.7335362,1.3556395],[103.7335175,1.3556596],[103.7335678,1.3557065],[103.7336237,1.3556465],[103.7336157,1.355639],[103.7336343,1.355619],[103.7335909,1.3555784],[103.7335738,1.3555967],[103.733564,1.3555875],[103.7335251,1.3556291]]]}},{"type":"Feature","id":"way/882665507-0","properties":{"building:levels":"14","building:part":"yes"},"geometry":{"type":"Polygon","coordinates":[[[103.733564,1.3555875],[103.7335738,1.3555967],[103.7335909,1.3555784],[103.7336343,1.355619],[103.7336418,1.355626],[103.7336533,1.3556136],[103.7336761,1.3556348],[103.7337016,1.3556074],[103.7337223,1.3555852],[103.7335355,1.3554109],[103.7334881,1.3554617],[103.7335083,1.3554805],[103.7334976,1.355492],[103.7334659,1.3554624],[103.733433,1.3554317],[103.7334433,1.3554206],[103.7334647,1.3554406],[103.7335124,1.3553894],[103.7333757,1.3552618],[103.7333271,1.3552164],[103.7332769,1.3552703],[103.7332979,1.3552899],[103.7332705,1.3553194],[103.733302,1.3553489],[103.7332789,1.3553734],[103.7333203,1.3554121],[103.7333301,1.3554015],[103.733351,1.3554211],[103.7333721,1.3553985],[103.7334319,1.3554542],[103.7334834,1.3555023],[103.7334674,1.3555195],[103.7335087,1.3555581],[103.7335269,1.3555387],[103.7335574,1.3555673],[103.7335504,1.3555748],[103.733564,1.3555875]]]}},{"type":"Feature","id":"way/882665519-0","properties":{"addr:city":"Singapore","addr:country":"SG","addr:housenumber":"111C","addr:neighbourhood":"Plantation Acres","addr:postcode":"693111","addr:street":"Plantation Crescent","building":"residential","residential":"HDB"},"geometry":{"type":"Polygon","coordinates":[[[103.7334964,1.3558111],[103.7335336,1.3557712],[103.7335133,1.3557521],[103.7335252,1.3557394],[103.7334891,1.3557057],[103.7334953,1.3556991],[103.7334763,1.3556813],[103.7335251,1.3556291],[103.7335362,1.3556395],[103.7335175,1.3556596],[103.7335678,1.3557065],[103.7336237,1.3556465],[103.7336157,1.355639],[103.7336343,1.355619],[103.7336418,1.355626],[103.7336533,1.3556136],[103.7336761,1.3556348],[103.7337016,1.3556074],[103.7337223,1.3555852],[103.7335355,1.3554109],[103.7334881,1.3554617],[103.7335083,1.3554805],[103.7334976,1.355492],[103.7334659,1.3554624],[103.733433,1.3554317],[103.7334433,1.3554206],[103.7334647,1.3554406],[103.7335124,1.3553894],[103.7333757,1.3552618],[103.7333271,1.3552164],[103.7332769,1.3552703],[103.7332979,1.3552899],[103.7332705,1.3553194],[103.733302,1.3553489],[103.7332789,1.3553734],[103.7332473,1.355344],[103.7332363,1.3553558],[103.7332155,1.3553363],[103.7331669,1.3553883],[103.7332607,1.3554759],[103.7332795,1.3554558],[103.7333203,1.3554121],[103.7333301,1.3554015],[103.733351,1.3554211],[103.7333721,1.3553985],[103.7334319,1.3554542],[103.7334834,1.3555023],[103.7334674,1.3555195],[103.7335087,1.3555581],[103.7335269,1.3555387],[103.7335574,1.3555673],[103.7335504,1.3555748],[103.7334991,1.3556298],[103.7334822,1.3556139],[103.7334403,1.3556588],[103.7334074,1.3556281],[103.733395,1.3556414],[103.7333753,1.355623],[103.733328,1.3556738],[103.7333864,1.3557282],[103.7333931,1.355721],[103.7334336,1.3557587],[103.7334276,1.3557653],[103.7334872,1.3558209],[103.7334964,1.3558111]]]}},{"type":"Feature","id":"way/1077945416-0","properties":{"addr:city":"Singapore","addr:country":"SG","addr:housenumber":"134","addr:postcode":"690134","addr:street":"Tengah Garden Avenue","building":"public","building:levels":"1"},"geometry":{"type":"Polygon","coordinates":[[[103.7303734,1.3552884],[103.7303446,1.3551837],[103.7302531,1.355209],[103.7301943,1.3552699],[103.7302116,1.3553329],[103.7303734,1.3552884]]]}},{"type":"Feature","id":"way/1077945417-0","properties":{"addr:city":"Singapore","addr:country":"SG","addr:housenumber":"134A","addr:postcode":"691134","addr:street":"Tengah Garden Avenue","building":"residential","building:levels":"16","residential":"HDB"},"geometry":{"type":"Polygon","coordinates":[[[103.7306212,1.3555086],[103.7306169,1.3555045],[103.7306963,1.3554217],[103.7307028,1.3554278],[103.7307597,1.3553684],[103.7307231,1.3553334],[103.7307155,1.3553413],[103.7306972,1.3553239],[103.7306838,1.3553379],[103.7306718,1.3553264],[103.7306057,1.3553953],[103.730563,1.3553545],[103.730599,1.355317],[103.7305835,1.3553022],[103.730614,1.3552705],[103.7306045,1.3552615],[103.730615,1.3552505],[103.7305951,1.3552314],[103.7306058,1.35522],[103.7305735,1.355189],[103.7305182,1.3552466],[103.7305248,1.3552529],[103.7304842,1.3552952],[103.7304785,1.3552896],[103.7304215,1.355349],[103.7304548,1.3553808],[103.7304622,1.3553731],[103.7304802,1.3553903],[103.7304929,1.3553772],[103.7305034,1.3553873],[103.7305289,1.3553608],[103.7305442,1.3553754],[103.7305248,1.3553955],[103.7305367,1.355407],[103.7305109,1.355434],[103.7305305,1.3554528],[103.7305161,1.3554678],[103.7303776,1.355509],[103.7303658,1.3554695],[103.7304129,1.3554555],[103.7304085,1.3554406],[103.7304265,1.3554352],[103.7304187,1.3554089],[103.7304277,1.3554062],[103.7304139,1.35536],[103.7303359,1.3553832],[103.7303376,1.3553891],[103.7302478,1.3554158],[103.7302456,1.355408],[103.7302177,1.3554163],[103.7301664,1.3554315],[103.7301703,1.3554448],[103.7301806,1.3554794],[103.7301937,1.3554754],[103.7302008,1.3554989],[103.7302194,1.3554934],[103.7302248,1.3555112],[103.7302889,1.355492],[103.7302933,1.3555069],[103.7303507,1.3554898],[103.7303557,1.3555065],[103.730304,1.3555218],[103.7303152,1.3555596],[103.7303032,1.3555632],[103.7303104,1.3555875],[103.7302983,1.355591],[103.7303116,1.355636],[103.7303904,1.3556127],[103.7303875,1.3556027],[103.7304149,1.3555946],[103.7304401,1.3555871],[103.7304435,1.3555984],[103.730522,1.3555751],[103.7305086,1.3555302],[103.7304984,1.3555332],[103.7304919,1.3555109],[103.7304734,1.3555165],[103.7304685,1.3554995],[103.7305186,1.3554846],[103.7305332,1.3554986],[103.7305236,1.3555086],[103.7305391,1.3555234],[103.7305305,1.3555324],[103.7305658,1.3555664],[103.7306212,1.3555086]]]}},{"type":"Feature","id":"way/1077945418-0","properties":{"addr:city":"Singapore","addr:country":"SG","addr:housenumber":"134D","addr:postcode":"694134","addr:street":"Tengah Garden Avenue","building":"residential","building:levels":"16","residential":"HDB"},"geometry":{"type":"Polygon","coordinates":[[[103.730225,1.3551319],[103.7302207,1.3551278],[103.7303,1.355045],[103.7303064,1.3550511],[103.7303634,1.3549918],[103.7303268,1.3549568],[103.7303192,1.3549648],[103.7303009,1.3549473],[103.7302875,1.3549613],[103.7302754,1.3549497],[103.7302094,1.3550187],[103.7301668,1.3549779],[103.7302027,1.3549404],[103.7301873,1.3549256],[103.7302176,1.354894],[103.7302081,1.3548848],[103.7302186,1.3548738],[103.7301987,1.3548547],[103.7302096,1.3548434],[103.7301771,1.3548124],[103.730122,1.35487],[103.7301285,1.3548762],[103.730108,1.3548976],[103.730088,1.3549185],[103.7300822,1.3549131],[103.7300253,1.3549725],[103.7300584,1.3550043],[103.7300659,1.3549965],[103.7300839,1.3550138],[103.7300966,1.3550005],[103.7301072,1.3550107],[103.7301327,1.3549841],[103.7301478,1.3549987],[103.7301285,1.3550189],[103.7301405,1.3550304],[103.7301145,1.3550575],[103.7301341,1.3550762],[103.7301238,1.355087],[103.7299826,1.355129],[103.7299709,1.3550895],[103.730018,1.3550755],[103.7300135,1.3550605],[103.7300315,1.3550552],[103.7300237,1.3550288],[103.7300327,1.3550262],[103.7300189,1.35498],[103.7299409,1.3550032],[103.7299427,1.355009],[103.7298528,1.3550357],[103.7298506,1.3550279],[103.7298314,1.3550336],[103.7297714,1.3550515],[103.7297793,1.355078],[103.7297856,1.3550993],[103.7297989,1.3550955],[103.7298058,1.355119],[103.7298246,1.3551135],[103.7298298,1.3551311],[103.7298939,1.355112],[103.7298983,1.3551268],[103.7299558,1.3551097],[103.7299608,1.3551265],[103.729909,1.3551419],[103.7299202,1.3551795],[103.7299082,1.3551832],[103.7299154,1.3552075],[103.7299033,1.355211],[103.7299167,1.355256],[103.7299954,1.3552326],[103.7299925,1.3552226],[103.7300452,1.355207],[103.7300485,1.3552184],[103.730127,1.355195],[103.7301136,1.3551502],[103.7301035,1.3551532],[103.7300969,1.355131],[103.7300786,1.3551364],[103.7300735,1.3551195],[103.7301199,1.3551057],[103.730137,1.355122],[103.7301273,1.355132],[103.7301428,1.3551468],[103.7301341,1.3551559],[103.7301463,1.3551676],[103.7301695,1.3551898],[103.730225,1.3551319]]]}},{"type":"Feature","id":"way/1077945423-0","properties":{"addr:city":"Singapore","addr:country":"SG","addr:housenumber":"138","addr:postcode":"690138","addr:street":"Tengah Garden Avenue","building":"public","building:levels":"1","power":"substation"},"geometry":{"type":"Polygon","coordinates":[[[103.7301887,1.3540646],[103.7302501,1.3540556],[103.7303168,1.3540491],[103.7303882,1.3540464],[103.730386,1.3539713],[103.7303157,1.3539724],[103.7302451,1.3539793],[103.7302462,1.3539937],[103.7301229,1.3540122],[103.7301336,1.3540753],[103.7301887,1.3540646]]]}},{"type":"Feature","id":"way/1077945424-0","properties":{"addr:city":"Singapore","addr:country":"SG","addr:housenumber":"137","addr:postcode":"690137","addr:street":"Tengah Garden Avenue","building":"public","building:levels":"1","layer":"1"},"geometry":{"type":"Polygon","coordinates":[[[103.729767,1.354265],[103.729899,1.3541891],[103.7300046,1.3541459],[103.7300926,1.3541215],[103.7300645,1.3540146],[103.7299559,1.3540509],[103.7298527,1.3540973],[103.7297252,1.3541678],[103.7297631,1.3542308],[103.7297508,1.3542389],[103.729767,1.354265]]]}},{"type":"Feature","id":"way/1077945426-0","properties":{"addr:city":"Singapore","addr:country":"SG","addr:housenumber":"135","addr:postcode":"690135","addr:street":"Tengah Garden Avenue","building":"public","building:levels":"2"},"geometry":{"type":"Polygon","coordinates":[[[103.730936,1.3539626],[103.7309447,1.3539474],[103.7309534,1.3539205],[103.7309515,1.3538947],[103.7308449,1.3537857],[103.7306676,1.3539629],[103.7306623,1.3539842],[103.7306626,1.3540074],[103.7306702,1.3540313],[103.7307716,1.3541296],[103.730936,1.3539626]]]}},{"type":"Feature","id":"way/1077945427-0","properties":{"addr:city":"Singapore","addr:country":"SG","addr:housenumber":"135A","addr:postcode":"691135","addr:street":"Tengah Garden Avenue","building":"residential","building:levels":"15","residential":"HDB"},"geometry":{"type":"Polygon","coordinates":[[[103.7302681,1.3544391],[103.7302792,1.3544497],[103.7302686,1.3544607],[103.7302848,1.3544761],[103.730276,1.3544854],[103.7302977,1.3545062],[103.7303116,1.3545195],[103.7303687,1.3544595],[103.7303639,1.354455],[103.7304282,1.3543873],[103.7304352,1.354394],[103.7304897,1.3543366],[103.7304526,1.3543014],[103.7304462,1.3543082],[103.7304315,1.3542942],[103.73042,1.3543062],[103.7304063,1.3542933],[103.730471,1.3542254],[103.7304878,1.3542415],[103.7304712,1.354259],[103.7304832,1.3542704],[103.7304698,1.3542845],[103.7304891,1.3543028],[103.7304811,1.3543111],[103.730513,1.3543414],[103.7305692,1.3542825],[103.7305625,1.3542762],[103.7305734,1.3542648],[103.7306011,1.3542357],[103.7306085,1.3542428],[103.7306658,1.3541826],[103.7306323,1.3541508],[103.7306244,1.3541591],[103.7306047,1.3541404],[103.7305968,1.3541488],[103.7305831,1.3541359],[103.7305707,1.3541241],[103.7304867,1.3542125],[103.7304739,1.3542004],[103.7305206,1.3541513],[103.7305102,1.3541413],[103.7305228,1.3541281],[103.7305047,1.3541108],[103.7305136,1.3541013],[103.7304785,1.354068],[103.7304229,1.3541265],[103.7304277,1.354131],[103.7304102,1.3541494],[103.7303951,1.3541653],[103.7304525,1.3542199],[103.7303423,1.3543357],[103.730329,1.3543232],[103.7303451,1.3543062],[103.7303132,1.3542759],[103.7303483,1.354239],[103.7303366,1.3542279],[103.7303497,1.3542142],[103.7303329,1.3541981],[103.7303406,1.3541901],[103.7303071,1.3541583],[103.7302511,1.3542173],[103.730257,1.3542228],[103.7302357,1.3542451],[103.730243,1.354252],[103.7302373,1.3542579],[103.7302303,1.3542652],[103.7302237,1.354259],[103.7302029,1.3542807],[103.7301952,1.3542735],[103.7301383,1.3543333],[103.7301725,1.3543658],[103.730181,1.3543569],[103.7301976,1.3543726],[103.7302082,1.3543615],[103.7302211,1.3543737],[103.7302588,1.354334],[103.7302862,1.35436],[103.7302611,1.3543864],[103.7302782,1.3544027],[103.7302352,1.354448],[103.7301081,1.354485],[103.7300966,1.3544455],[103.7301298,1.3544359],[103.7301251,1.3544197],[103.7301422,1.3544147],[103.7301348,1.3543897],[103.7301469,1.3543861],[103.7301343,1.3543428],[103.7300527,1.3543666],[103.7300554,1.3543758],[103.7300272,1.354384],[103.7300294,1.3543915],[103.7300234,1.3543933],[103.7300099,1.3543972],[103.7300074,1.3543889],[103.729979,1.3543972],[103.7299763,1.3543877],[103.7298979,1.3544105],[103.7299048,1.354434],[103.7299111,1.3544557],[103.7299213,1.3544527],[103.7299282,1.3544762],[103.7299451,1.3544714],[103.7299495,1.3544868],[103.7299938,1.3544739],[103.7299989,1.3544916],[103.7300813,1.3544676],[103.7300929,1.3545077],[103.7300678,1.3545149],[103.7300721,1.3545298],[103.7300567,1.3545343],[103.7300633,1.3545567],[103.7300505,1.3545604],[103.7300642,1.3546074],[103.7301462,1.3545835],[103.7301434,1.354574],[103.730195,1.354559],[103.7301979,1.3545688],[103.7302776,1.3545456],[103.7302713,1.3545241],[103.7302647,1.3545015],[103.7302536,1.3545048],[103.7302468,1.3544813],[103.7302303,1.3544862],[103.7302258,1.3544709],[103.7302429,1.3544659],[103.7302681,1.3544391]]]}},{"type":"Feature","id":"way/1077945428-0","properties":{"addr:city":"Singapore","addr:country":"SG","addr:housenumber":"134B","addr:postcode":"692134","addr:street":"Tengah Garden Avenue","building":"residential","building:levels":"16","residential":"HDB"},"geometry":{"type":"Polygon","coordinates":[[[103.7306449,1.3551983],[103.7306549,1.3551875],[103.730672,1.3552032],[103.7306813,1.3551931],[103.7306934,1.3552043],[103.730759,1.3551335],[103.7307684,1.3551422],[103.7307528,1.3551591],[103.7307884,1.355192],[103.7307721,1.3552095],[103.7307831,1.3552197],[103.7307479,1.3552576],[103.7307622,1.3552707],[103.7307505,1.3552834],[103.7307676,1.3552992],[103.7307616,1.3553057],[103.7307962,1.3553378],[103.7308508,1.355279],[103.7308441,1.3552728],[103.7308819,1.3552319],[103.7308887,1.3552382],[103.7309458,1.3551765],[103.7309114,1.3551447],[103.7309015,1.3551554],[103.7308847,1.3551399],[103.7308767,1.3551487],[103.7308667,1.3551395],[103.7309125,1.35509],[103.7309217,1.3550984],[103.7309101,1.3551111],[103.7309279,1.3551276],[103.7309218,1.3551342],[103.7309575,1.3551672],[103.7310118,1.3551084],[103.731005,1.3551022],[103.731036,1.3550687],[103.7310491,1.3550808],[103.731066,1.3550627],[103.7310754,1.3550713],[103.7311075,1.3550366],[103.7310483,1.3549819],[103.7310441,1.3549864],[103.731003,1.3549484],[103.7309589,1.3549075],[103.7309645,1.3549015],[103.7309029,1.3548445],[103.7308692,1.354881],[103.7308785,1.3548896],[103.7308605,1.3549089],[103.730874,1.3549213],[103.7308646,1.3549316],[103.7309549,1.3550151],[103.7308552,1.3551229],[103.7308356,1.3551048],[103.7308099,1.3551326],[103.7307845,1.3551092],[103.7308445,1.3550442],[103.7308327,1.3550334],[103.730847,1.3550179],[103.7308294,1.3550015],[103.7308361,1.3549942],[103.7308193,1.3549787],[103.7308001,1.3549609],[103.730744,1.3550216],[103.7307487,1.355026],[103.7307143,1.3550632],[103.7306725,1.3551083],[103.7306663,1.3551026],[103.7306088,1.3551648],[103.7306449,1.3551983]]]}},{"type":"Feature","id":"way/1077945429-0","properties":{"addr:city":"Singapore","addr:country":"SG","addr:housenumber":"134C","addr:postcode":"693134","addr:street":"Tengah Garden Avenue","building":"residential","building:levels":"16","residential":"HDB"},"geometry":{"type":"Polygon","coordinates":[[[103.7305159,1.3549544],[103.7305099,1.3549486],[103.7305513,1.3549062],[103.7305883,1.3548683],[103.7305929,1.3548729],[103.7306506,1.3548137],[103.7306155,1.3547795],[103.7306086,1.3547866],[103.7305914,1.3547697],[103.7305766,1.3547848],[103.7305652,1.3547736],[103.7305034,1.3548368],[103.7304786,1.3548126],[103.7305051,1.3547855],[103.7304861,1.3547669],[103.7305886,1.354662],[103.7306766,1.3547479],[103.7306865,1.3547379],[103.7306996,1.3547508],[103.7307181,1.3547319],[103.730727,1.3547408],[103.7307617,1.3547052],[103.7307016,1.3546466],[103.730696,1.3546525],[103.7306557,1.3546132],[103.7306129,1.3545714],[103.7306172,1.354567],[103.7305595,1.3545106],[103.7305409,1.3545297],[103.7305265,1.3545445],[103.7305357,1.3545534],[103.7305184,1.3545712],[103.7305311,1.3545836],[103.7304992,1.3546163],[103.7304927,1.3546098],[103.7304367,1.3546671],[103.7304714,1.3547009],[103.7304777,1.3546946],[103.730495,1.3547116],[103.7305072,1.3546992],[103.730516,1.354708],[103.7304689,1.3547563],[103.7304592,1.3547468],[103.7304676,1.3547383],[103.7304513,1.3547223],[103.7304614,1.3547119],[103.730428,1.3546792],[103.7303692,1.3547393],[103.7303758,1.3547458],[103.7303369,1.3547856],[103.7303304,1.3547792],[103.7302743,1.3548366],[103.7302952,1.354857],[103.7303081,1.3548695],[103.7303142,1.3548632],[103.730331,1.3548796],[103.730343,1.3548673],[103.7303569,1.3548807],[103.730393,1.3548437],[103.7304036,1.3548543],[103.7304204,1.3548371],[103.7304551,1.354871],[103.7304712,1.3548545],[103.7304803,1.3548635],[103.7304129,1.3549326],[103.7304247,1.3549441],[103.7304151,1.3549539],[103.7304317,1.3549701],[103.7304213,1.3549806],[103.7304566,1.3550151],[103.7305159,1.3549544]]]}},{"type":"Feature","id":"way/1482101695-0","properties":{"addr:city":"Singapore","addr:housenumber":"80","addr:postcode":"699915","addr:street":"Tengah Garden Avenue","building":"yes","building:levels":"6","name":"Pioneer Primary School"},"geometry":{"type":"Polygon","coordinates":[[[103.7330906,1.3553288],[103.7331442,1.3552725],[103.7331469,1.3552135],[103.7331979,1.3552135],[103.7332006,1.3551679],[103.7332489,1.3551626],[103.733324,1.3550714],[103.7332891,1.3550446],[103.7329645,1.3550419],[103.7329565,1.3551357],[103.7329324,1.3551894],[103.7328358,1.3550982],[103.7329002,1.3550312],[103.7329055,1.3549105],[103.7334661,1.3549025],[103.7335198,1.3548998],[103.733509,1.3548032],[103.7335788,1.354755],[103.733619,1.3547818],[103.7337129,1.3546692],[103.7336726,1.354645],[103.7336083,1.3546424],[103.7335814,1.3544976],[103.7332354,1.3545029],[103.7332381,1.3544761],[103.7331952,1.3544761],[103.7331952,1.3545029],[103.7331362,1.3545029],[103.7330852,1.3544493],[103.7331469,1.3543715],[103.7331684,1.3543903],[103.7332059,1.3543849],[103.7332757,1.3543045],[103.7329216,1.3539586],[103.7328214,1.3540601],[103.7328424,1.3540764],[103.7327887,1.3541278],[103.73277,1.3541115],[103.7326696,1.3542095],[103.7326883,1.3542328],[103.7325972,1.3543286],[103.7325762,1.3543052],[103.7324781,1.3544009],[103.7327641,1.354687],[103.7326561,1.3547954],[103.7326259,1.3547665],[103.732528,1.3548664],[103.7325582,1.3548959],[103.7324951,1.3549569],[103.732526,1.3549884],[103.7325173,1.3549965],[103.7325425,1.3550193],[103.7325486,1.3550151],[103.7327396,1.3552076],[103.7327412,1.3552245],[103.732763,1.3552422],[103.7328274,1.3551832],[103.732881,1.3552395],[103.7329454,1.3552395],[103.7329454,1.3553226],[103.7330906,1.3553288]]]}},{"type":"Feature","id":"way/22885254-0-1-0","properties":{"destination":"Jurong West Avenue 1;Jurong East Avenue 1","highway":"motorway_link","lanes":"1","maxspeed":"50","oneway":"yes","surface":"asphalt"},"geometry":{"type":"LineString","coordinates":[[103.7317478,1.3512432],[103.7312249,1.3516302]]}},{"type":"Feature","id":"way/22885254-0-2-0","properties":{"destination":"Jurong West Avenue 1;Jurong East Avenue 1","highway":"motorway_link","lanes":"1","maxspeed":"50","oneway":"yes","surface":"asphalt"},"geometry":{"type":"LineString","coordinates":[[103.7312249,1.3516302],[103.7306674,1.3520086]]}},{"type":"Feature","id":"way/22885254-0-3-0","properties":{"destination":"Jurong West Avenue 1;Jurong East Avenue 1","highway":"motorway_link","lanes":"1","maxspeed":"50","oneway":"yes","surface":"asphalt"},"geometry":{"type":"LineString","coordinates":[[103.7306674,1.3520086],[103.7301243,1.3523407]]}},{"type":"Feature","id":"way/22885254-0-4-0","properties":{"destination":"Jurong West Avenue 1;Jurong East Avenue 1","highway":"motorway_link","lanes":"1","maxspeed":"50","oneway":"yes","surface":"asphalt"},"geometry":{"type":"LineString","coordinates":[[103.7301243,1.3523407],[103.7296909,1.3525717]]}},{"type":"Feature","id":"way/479561509-0-0-0","properties":{"highway":"motorway","lanes":"4","maxspeed":"90","name":"Pan-Island Expressway","name:en":"Pan-Island Expressway","name:ms":"Lebuhraya Rentas Pulau","name:ta":"\u0ba4\u0bc0\u0bb5\u0bc1 \u0bb5\u0bbf\u0bb0\u0bc8\u0bb5\u0bc1\u0b9a\u0bcd\u0b9a\u0bbe\u0bb2\u0bc8","name:zh":"\u6cdb\u5c9b\u9ad8\u901f\u516c\u8def","oneway":"yes","ref":"PIE","short_name:ta":"\u0baa\u0bbf\u0b90\u0b87","surface":"asphalt","turn:lanes":"left|through|through|through","wikidata":"Q1585650","wikipedia":"en:Pan Island Expressway"},"geometry":{"type":"LineString","coordinates":[[103.7316068,1.3516044],[103.7312877,1.3519608]]}},{"type":"Feature","id":"way/649563693-0-0-0","properties":{"highway":"motorway","lanes":"3","maxspeed":"90","name":"Pan-Island Expressway","name:en":"Pan-Island Expressway","name:ms":"Lebuhraya Rentas Pulau","name:ta":"\u0ba4\u0bc0\u0bb5\u0bc1 \u0bb5\u0bbf\u0bb0\u0bc8\u0bb5\u0bc1\u0b9a\u0bcd\u0b9a\u0bbe\u0bb2\u0bc8","name:zh":"\u6cdb\u5c9b\u9ad8\u901f\u516c\u8def","oneway":"yes","ref":"PIE","short_name:ta":"\u0baa\u0bbf\u0b90\u0b87","surface":"asphalt","turn:lanes":"through|through|through","wikidata":"Q1585650","wikipedia":"en:Pan Island Expressway"},"geometry":{"type":"LineString","coordinates":[[103.7307281,1.3525457],[103.7304103,1.3528345]]}},{"type":"Feature","id":"way/649563693-0-1-0","properties":{"highway":"motorway","lanes":"3","maxspeed":"90","name":"Pan-Island Expressway","name:en":"Pan-Island Expressway","name:ms":"Lebuhraya Rentas Pulau","name:ta":"\u0ba4\u0bc0\u0bb5\u0bc1 \u0bb5\u0bbf\u0bb0\u0bc8\u0bb5\u0bc1\u0b9a\u0bcd\u0b9a\u0bbe\u0bb2\u0bc8","name:zh":"\u6cdb\u5c9b\u9ad8\u901f\u516c\u8def","oneway":"yes","ref":"PIE","short_name:ta":"\u0baa\u0bbf\u0b90\u0b87","surface":"asphalt","turn:lanes":"through|through|through","wikidata":"Q1585650","wikipedia":"en:Pan Island Expressway"},"geometry":{"type":"LineString","coordinates":[[103.7304103,1.3528345],[103.7297978,1.3532851]]}},{"type":"Feature","id":"way/649563694-0-0-0","properties":{"highway":"motorway","lanes":"4","maxspeed":"90","name":"Pan-Island Expressway","name:en":"Pan-Island Expressway","name:ms":"Lebuhraya Rentas Pulau","name:ta":"\u0ba4\u0bc0\u0bb5\u0bc1 \u0bb5\u0bbf\u0bb0\u0bc8\u0bb5\u0bc1\u0b9a\u0bcd\u0b9a\u0bbe\u0bb2\u0bc8","name:zh":"\u6cdb\u5c9b\u9ad8\u901f\u516c\u8def","oneway":"yes","ref":"PIE","short_name:ta":"\u0baa\u0bbf\u0b90\u0b87","surface":"asphalt","turn:lanes":"left|through|through|through","wikidata":"Q1585650","wikipedia":"en:Pan Island Expressway"},"geometry":{"type":"LineString","coordinates":[[103.7312877,1.3519608],[103.7307281,1.3525457]]}},{"type":"Feature","id":"way/709627194-0-1-0","properties":{"highway":"service","horse":"no","lanes":"1","maxheight":"none","maxspeed":"20","oneway":"no","service":"parking_aisle","surface":"asphalt","wheelchair":"yes"},"geometry":{"type":"LineString","coordinates":[[103.7300697,1.3513569],[103.7301394,1.3513968]]}},{"type":"Feature","id":"way/709627194-0-2-0","properties":{"highway":"service","horse":"no","lanes":"1","maxheight":"none","maxspeed":"20","oneway":"no","service":"parking_aisle","surface":"asphalt","wheelchair":"yes"},"geometry":{"type":"LineString","coordinates":[[103.7301394,1.3513968],[103.7302558,1.3514294]]}},{"type":"Feature","id":"way/709627194-0-3-0","properties":{"highway":"service","horse":"no","lanes":"1","maxheight":"none","maxspeed":"20","oneway":"no","service":"parking_aisle","surface":"asphalt","wheelchair":"yes"},"geometry":{"type":"LineString","coordinates":[[103.7302558,1.3514294],[103.7303476,1.3514304]]}},{"type":"Feature","id":"way/709627194-0-4-0","properties":{"highway":"service","horse":"no","lanes":"1","maxheight":"none","maxspeed":"20","oneway":"no","service":"parking_aisle","surface":"asphalt","wheelchair":"yes"},"geometry":{"type":"LineString","coordinates":[[103.7303476,1.3514304],[103.7303792,1.3514277]]}},{"type":"Feature","id":"way/709627194-0-5-0","properties":{"highway":"service","horse":"no","lanes":"1","maxheight":"none","maxspeed":"20","oneway":"no","service":"parking_aisle","surface":"asphalt","wheelchair":"yes"},"geometry":{"type":"LineString","coordinates":[[103.7303792,1.3514277],[103.730394,1.3514219]]}},{"type":"Feature","id":"way/709627195-0-0-0","properties":{"highway":"service","horse":"no","lanes":"1","maxheight":"none","maxspeed":"20","oneway":"yes","service":"parking_aisle","surface":"asphalt","wheelchair":"yes"},"geometry":{"type":"LineString","coordinates":[[103.730394,1.3514219],[103.7303938,1.3514051]]}},{"type":"Feature","id":"way/709627195-0-1-0","properties":{"highway":"service","horse":"no","lanes":"1","maxheight":"none","maxspeed":"20","oneway":"yes","service":"parking_aisle","surface":"asphalt","wheelchair":"yes"},"geometry":{"type":"LineString","coordinates":[[103.7303938,1.3514051],[103.7303809,1.3513638]]}},{"type":"Feature","id":"way/882665487-0-0-0","properties":{"highway":"service","service":"driveway"},"geometry":{"type":"LineString","coordinates":[[103.7317735,1.3556774],[103.7318481,1.3557469]]}},{"type":"Feature","id":"way/882665487-0-1-0","properties":{"highway":"service","service":"driveway"},"geometry":{"type":"LineString","coordinates":[[103.7318481,1.3557469],[103.7320376,1.3559328]]}},{"type":"Feature","id":"way/882665488-0-0-0","properties":{"highway":"service","service":"driveway"},"geometry":{"type":"LineString","coordinates":[[103.7316468,1.3556685],[103.731624,1.3556504]]}},{"type":"Feature","id":"way/882665488-0-1-0","properties":{"highway":"service","service":"driveway"},"geometry":{"type":"LineString","coordinates":[[103.731624,1.3556504],[103.7315878,1.3556175]]}},{"type":"Feature","id":"way/882665488-0-2-0","properties":{"highway":"service","service":"driveway"},"geometry":{"type":"LineString","coordinates":[[103.7315878,1.3556175],[103.7315418,1.3555786]]}},{"type":"Feature","id":"way/882665488-0-3-0","properties":{"highway":"service","service":"driveway"},"geometry":{"type":"LineString","coordinates":[[103.7315418,1.3555786],[103.7314351,1.3555039]]}},{"type":"Feature","id":"way/882665488-0-4-0","properties":{"highway":"service","service":"driveway"},"geometry":{"type":"LineString","coordinates":[[103.7314351,1.3555039],[103.7313873,1.3555088]]}},{"type":"Feature","id":"way/882665488-0-5-0","properties":{"highway":"service","service":"driveway"},"geometry":{"type":"LineString","coordinates":[[103.7313873,1.3555088],[103.7313641,1.3555259]]}},{"type":"Feature","id":"way/882665488-0-6-0","properties":{"highway":"service","service":"driveway"},"geometry":{"type":"LineString","coordinates":[[103.7313641,1.3555259],[103.730869,1.3560368]]}},{"type":"Feature","id":"way/882665530-0-0-0","properties":{"highway":"service","service":"driveway"},"geometry":{"type":"LineString","coordinates":[[103.7337862,1.3557334],[103.7338704,1.3556437]]}},{"type":"Feature","id":"way/882665530-0-1-0","properties":{"highway":"service","service":"driveway"},"geometry":{"type":"LineString","coordinates":[[103.7338704,1.3556437],[103.7339361,1.3555738]]}},{"type":"Feature","id":"way/882665530-0-2-0","properties":{"highway":"service","service":"driveway"},"geometry":{"type":"LineString","coordinates":[[103.7339361,1.3555738],[103.7341342,1.3557454]]}},{"type":"Feature","id":"way/882665665-0-0-0","properties":{"highway":"residential","name":"Tengah Garden Avenue","name:en":"Tengah Garden Avenue","name:ta":"\u0ba4\u0bc6\u0b99\u0bcd\u0b95\u0bbe \u0b95\u0bbe\u0bb0\u0bcd\u0b9f\u0ba9\u0bcd \u0b85\u0bb5\u0bc6\u0ba9\u0bcd\u0baf\u0bc2","name:zh":"\u767b\u52a0\u7eff\u82d1\u9053","oneway":"yes"},"geometry":{"type":"LineString","coordinates":[[103.7319639,1.3546598],[103.7330342,1.3535429]]}},{"type":"Feature","id":"way/882665665-0-0-1","properties":{"highway":"residential","name":"Tengah Garden Avenue","name:en":"Tengah Garden Avenue","name:ta":"\u0ba4\u0bc6\u0b99\u0bcd\u0b95\u0bbe \u0b95\u0bbe\u0bb0\u0bcd\u0b9f\u0ba9\u0bcd \u0b85\u0bb5\u0bc6\u0ba9\u0bcd\u0baf\u0bc2","name:zh":"\u767b\u52a0\u7eff\u82d1\u9053","oneway":"yes"},"geometry":{"type":"LineString","coordinates":[[103.7330342,1.3535429],[103.7341045,1.3524259]]}},{"type":"Feature","id":"way/1077945413-0-1-0","properties":{"highway":"service","oneway":"yes","service":"driveway"},"geometry":{"type":"LineString","coordinates":[[103.7297191,1.3550118],[103.7297359,1.3549798]]}},{"type":"Feature","id":"way/1077945413-0-2-0","properties":{"highway":"service","oneway":"yes","service":"driveway"},"geometry":{"type":"LineString","coordinates":[[103.7297359,1.3549798],[103.7297312,1.354954]]}},{"type":"Feature","id":"way/1077945413-0-3-0","properties":{"highway":"service","oneway":"yes","service":"driveway"},"geometry":{"type":"LineString","coordinates":[[103.7297312,1.354954],[103.7297115,1.3549221]]}},{"type":"Feature","id":"way/1077945415-0-0-0","properties":{"highway":"service","service":"driveway"},"geometry":{"type":"LineString","coordinates":[[103.7304345,1.3538877],[103.7304105,1.3538904]]}},{"type":"Feature","id":"way/1077945415-0-1-0","properties":{"highway":"service","service":"driveway"},"geometry":{"type":"LineString","coordinates":[[103.7304105,1.3538904],[103.730341,1.3538984]]}},{"type":"Feature","id":"way/1077945415-0-2-0","properties":{"highway":"service","service":"driveway"},"geometry":{"type":"LineString","coordinates":[[103.730341,1.3538984],[103.7301413,1.3539368]]}},{"type":"Feature","id":"way/1077945415-0-3-0","properties":{"highway":"service","service":"driveway"},"geometry":{"type":"LineString","coordinates":[[103.7301413,1.3539368],[103.7300336,1.3539667]]}},{"type":"Feature","id":"way/1077945415-0-4-0","properties":{"highway":"service","service":"driveway"},"geometry":{"type":"LineString","coordinates":[[103.7300336,1.3539667],[103.7299036,1.3540093]]}},{"type":"Feature","id":"way/1077945415-0-5-0","properties":{"highway":"service","service":"driveway"},"geometry":{"type":"LineString","coordinates":[[103.7299036,1.3540093],[103.7298499,1.3540305]]}},{"type":"Feature","id":"way/1077945415-0-6-0","properties":{"highway":"service","service":"driveway"},"geometry":{"type":"LineString","coordinates":[[103.7298499,1.3540305],[103.7297435,1.3540792]]}},{"type":"Feature","id":"way/1077945415-0-19-0","properties":{"highway":"service","service":"driveway"},"geometry":{"type":"LineString","coordinates":[[103.7297197,1.3551351],[103.7298978,1.3553111]]}},{"type":"Feature","id":"way/1077945415-0-20-0","properties":{"highway":"service","service":"driveway"},"geometry":{"type":"LineString","coordinates":[[103.7298978,1.3553111],[103.7303165,1.3557251]]}},{"type":"Feature","id":"way/1077945415-0-21-0","properties":{"highway":"service","service":"driveway"},"geometry":{"type":"LineString","coordinates":[[103.7303165,1.3557251],[103.7303547,1.3557382]]}},{"type":"Feature","id":"way/1077945415-0-22-0","properties":{"highway":"service","service":"driveway"},"geometry":{"type":"LineString","coordinates":[[103.7303547,1.3557382],[103.7303991,1.3557392]]}},{"type":"Feature","id":"way/1077945415-0-23-0","properties":{"highway":"service","service":"driveway"},"geometry":{"type":"LineString","coordinates":[[103.7303991,1.3557392],[103.7304956,1.3557377]]}},{"type":"Feature","id":"way/1077945415-0-24-0","properties":{"highway":"service","service":"driveway"},"geometry":{"type":"LineString","coordinates":[[103.7304956,1.3557377],[103.7305283,1.3557251]]}},{"type":"Feature","id":"way/1077945415-0-25-0","properties":{"highway":"service","service":"driveway"},"geometry":{"type":"LineString","coordinates":[[103.7305283,1.3557251],[103.7305549,1.3556879]]}},{"type":"Feature","id":"way/1077945415-0-26-0","properties":{"highway":"service","service":"driveway"},"geometry":{"type":"LineString","coordinates":[[103.7305549,1.3556879],[103.7308368,1.3554052]]}},{"type":"Feature","id":"way/1077945415-0-27-0","properties":{"highway":"service","service":"driveway"},"geometry":{"type":"LineString","coordinates":[[103.7308368,1.3554052],[103.7309747,1.3553137]]}},{"type":"Feature","id":"way/1077945415-0-28-0","properties":{"highway":"service","service":"driveway"},"geometry":{"type":"LineString","coordinates":[[103.7309747,1.3553137],[103.7310513,1.35525]]}},{"type":"Feature","id":"way/1077945415-0-29-0","properties":{"highway":"service","service":"driveway"},"geometry":{"type":"LineString","coordinates":[[103.7310513,1.35525],[103.7310854,1.3552015]]}},{"type":"Feature","id":"way/1077945415-0-30-0","properties":{"highway":"service","service":"driveway"},"geometry":{"type":"LineString","coordinates":[[103.7310854,1.3552015],[103.7311607,1.3551385]]}},{"type":"Feature","id":"way/1077945415-0-31-0","properties":{"highway":"service","service":"driveway"},"geometry":{"type":"LineString","coordinates":[[103.7311607,1.3551385],[103.7312191,1.3551309]]}},{"type":"Feature","id":"way/1077945415-0-32-0","properties":{"highway":"service","service":"driveway"},"geometry":{"type":"LineString","coordinates":[[103.7312191,1.3551309],[103.7312677,1.3551551]]}},{"type":"Feature","id":"way/1077945415-0-33-0","properties":{"highway":"service","service":"driveway"},"geometry":{"type":"LineString","coordinates":[[103.7312677,1.3551551],[103.7313321,1.3552138]]}},{"type":"Feature","id":"way/1209379204-0-0-0","properties":{"highway":"residential","name":"Tengah Garden Avenue","name:en":"Tengah Garden Avenue","name:ta":"\u0ba4\u0bc6\u0b99\u0bcd\u0b95\u0bbe \u0b95\u0bbe\u0bb0\u0bcd\u0b9f\u0ba9\u0bcd \u0b85\u0bb5\u0bc6\u0ba9\u0bcd\u0baf\u0bc2","name:zh":"\u767b\u52a0\u7eff\u82d1\u9053","oneway":"yes"},"geometry":{"type":"LineString","coordinates":[[103.7307382,1.3559801],[103.7313984,1.3552503]]}},{"type":"Feature","id":"way/1209379206-0-0-0","properties":{"highway":"residential","name":"Tengah Garden Avenue","name:en":"Tengah Garden Avenue","name:ta":"\u0ba4\u0bc6\u0b99\u0bcd\u0b95\u0bbe \u0b95\u0bbe\u0bb0\u0bcd\u0b9f\u0ba9\u0bcd \u0b85\u0bb5\u0bc6\u0ba9\u0bcd\u0baf\u0bc2","name:zh":"\u767b\u52a0\u7eff\u82d1\u9053","oneway":"yes"},"geometry":{"type":"LineString","coordinates":[[103.7313321,1.3552138],[103.7306021,1.3559158]]}},{"type":"Feature","id":"way/1290849502-0-0-0","properties":{"highway":"service","service":"driveway"},"geometry":{"type":"LineString","coordinates":[[103.7313984,1.3552503],[103.7314459,1.3552969]]}},{"type":"Feature","id":"way/1290849502-0-1-0","properties":{"highway":"service","service":"driveway"},"geometry":{"type":"LineString","coordinates":[[103.7314459,1.3552969],[103.7317526,1.3556521]]}},{"type":"Feature","id":"way/1290849502-0-2-0","properties":{"highway":"service","service":"driveway"},"geometry":{"type":"LineString","coordinates":[[103.7317526,1.3556521],[103.7317649,1.3556663]]}},{"type":"Feature","id":"way/1290849502-0-3-0","properties":{"highway":"service","service":"driveway"},"geometry":{"type":"LineString","coordinates":[[103.7317649,1.3556663],[103.7317735,1.3556774]]}},{"type":"Feature","id":"way/1290849503-0-0-0","properties":{"highway":"service","service":"driveway"},"geometry":{"type":"LineString","coordinates":[[103.7316468,1.3556685],[103.7316774,1.3556814]]}},{"type":"Feature","id":"way/1290849503-0-1-0","properties":{"highway":"service","service":"driveway"},"geometry":{"type":"LineString","coordinates":[[103.7316774,1.3556814],[103.7317087,1.3556876]]}},{"type":"Feature","id":"way/1290849503-0-2-0","properties":{"highway":"service","service":"driveway"},"geometry":{"type":"LineString","coordinates":[[103.7317087,1.3556876],[103.7317735,1.3556774]]}},{"type":"Feature","id":"way/1300195609-0-1-0","properties":{"highway":"service","layer":"-1","oneway":"yes","service":"driveway","tunnel":"yes"},"geometry":{"type":"LineString","coordinates":[[103.7323384,1.3557545],[103.7322785,1.3556919]]}},{"type":"Feature","id":"way/1300195609-0-2-0","properties":{"highway":"service","layer":"-1","oneway":"yes","service":"driveway","tunnel":"yes"},"geometry":{"type":"LineString","coordinates":[[103.7322785,1.3556919],[103.7320376,1.3559328]]}},{"type":"Feature","id":"way/1303420391-0-0-0","properties":{"highway":"service","oneway":"yes","service":"driveway"},"geometry":{"type":"LineString","coordinates":[[103.7339361,1.3555738],[103.7338891,1.3555592]]}},{"type":"Feature","id":"way/1303420391-0-1-0","properties":{"highway":"service","oneway":"yes","service":"driveway"},"geometry":{"type":"LineString","coordinates":[[103.7338891,1.3555592],[103.7338542,1.3555939]]}},{"type":"Feature","id":"way/1303420391-0-2-0","properties":{"highway":"service","oneway":"yes","service":"driveway"},"geometry":{"type":"LineString","coordinates":[[103.7338542,1.3555939],[103.7338704,1.3556437]]}},{"type":"Feature","id":"way/1320054268-0-0-0","properties":{"bicycle":"no","highway":"secondary","name":"Tengah Boulevard","name:en":"Tengah Boulevard","name:ta":"\u0ba4\u0bc6\u0b99\u0bcd\u0b95\u0bbe \u0baa\u0bca\u0bb2\u0bbf\u0bb5\u0bbe\u0bb0\u0bcd\u0b9f\u0bcd","name:zh":"\u767b\u52a0\u6797\u836b\u9053","oneway":"yes","proposed":"residential"},"geometry":{"type":"LineString","coordinates":[[103.7298726,1.3557709],[103.7300351,1.3559361]]}},{"type":"Feature","id":"way/1422595591-0-0-0","properties":{"bicycle":"no","highway":"secondary","name":"Tengah Boulevard","name:en":"Tengah Boulevard","name:ta":"\u0ba4\u0bc6\u0b99\u0bcd\u0b95\u0bbe \u0baa\u0bca\u0bb2\u0bbf\u0bb5\u0bbe\u0bb0\u0bcd\u0b9f\u0bcd","name:zh":"\u767b\u52a0\u6797\u836b\u9053","oneway":"yes","proposed":"residential"},"geometry":{"type":"LineString","coordinates":[[103.7302093,1.3559172],[103.7299776,1.355694]]}},{"type":"Feature","id":"way/1451291088-0-0-0","properties":{"highway":"service","oneway":"yes"},"geometry":{"type":"LineString","coordinates":[[103.7341045,1.3524259],[103.7342357,1.3523375]]}},{"type":"Feature","id":"way/1451291101-0-1-0","properties":{"highway":"residential","name":"Tengah Garden Avenue","name:en":"Tengah Garden Avenue","name:ta":"\u0ba4\u0bc6\u0b99\u0bcd\u0b95\u0bbe \u0b95\u0bbe\u0bb0\u0bcd\u0b9f\u0ba9\u0bcd \u0b85\u0bb5\u0bc6\u0ba9\u0bcd\u0baf\u0bc2","name:zh":"\u767b\u52a0\u7eff\u82d1\u9053","oneway":"yes"},"geometry":{"type":"LineString","coordinates":[[103.734289,1.3520926],[103.7336516,1.3527658]]}},{"type":"Feature","id":"way/1451291101-0-1-1","properties":{"highway":"residential","name":"Tengah Garden Avenue","name:en":"Tengah Garden Avenue","name:ta":"\u0ba4\u0bc6\u0b99\u0bcd\u0b95\u0bbe \u0b95\u0bbe\u0bb0\u0bcd\u0b9f\u0ba9\u0bcd \u0b85\u0bb5\u0bc6\u0ba9\u0bcd\u0baf\u0bc2","name:zh":"\u767b\u52a0\u7eff\u82d1\u9053","oneway":"yes"},"geometry":{"type":"LineString","coordinates":[[103.7336516,1.3527658],[103.7330143,1.3534389]]}},{"type":"Feature","id":"way/1451291101-0-2-0","properties":{"highway":"residential","name":"Tengah Garden Avenue","name:en":"Tengah Garden Avenue","name:ta":"\u0ba4\u0bc6\u0b99\u0bcd\u0b95\u0bbe \u0b95\u0bbe\u0bb0\u0bcd\u0b9f\u0ba9\u0bcd \u0b85\u0bb5\u0bc6\u0ba9\u0bcd\u0baf\u0bc2","name:zh":"\u767b\u52a0\u7eff\u82d1\u9053","oneway":"yes"},"geometry":{"type":"LineString","coordinates":[[103.7330143,1.3534389],[103.7328415,1.3536215]]}},{"type":"Feature","id":"way/1451291101-0-3-0","properties":{"highway":"residential","name":"Tengah Garden Avenue","name:en":"Tengah Garden Avenue","name:ta":"\u0ba4\u0bc6\u0b99\u0bcd\u0b95\u0bbe \u0b95\u0bbe\u0bb0\u0bcd\u0b9f\u0ba9\u0bcd \u0b85\u0bb5\u0bc6\u0ba9\u0bcd\u0baf\u0bc2","name:zh":"\u767b\u52a0\u7eff\u82d1\u9053","oneway":"yes"},"geometry":{"type":"LineString","coordinates":[[103.7328415,1.3536215],[103.7319078,1.3546077]]}},{"type":"Feature","id":"way/1497593552-0-0-0","properties":{"highway":"residential","oneway":"yes"},"geometry":{"type":"LineString","coordinates":[[103.7319639,1.3546598],[103.7319078,1.3546077]]}},{"type":"Feature","id":"way/1497593553-0-0-0","properties":{"highway":"residential","name":"Tengah Garden Avenue","name:en":"Tengah Garden Avenue","name:ta":"\u0ba4\u0bc6\u0b99\u0bcd\u0b95\u0bbe \u0b95\u0bbe\u0bb0\u0bcd\u0b9f\u0ba9\u0bcd \u0b85\u0bb5\u0bc6\u0ba9\u0bcd\u0baf\u0bc2","name:zh":"\u767b\u52a0\u7eff\u82d1\u9053","oneway":"yes"},"geometry":{"type":"LineString","coordinates":[[103.7313984,1.3552503],[103.7316093,1.35503]]}},{"type":"Feature","id":"way/1497593553-0-1-0","properties":{"highway":"residential","name":"Tengah Garden Avenue","name:en":"Tengah Garden Avenue","name:ta":"\u0ba4\u0bc6\u0b99\u0bcd\u0b95\u0bbe \u0b95\u0bbe\u0bb0\u0bcd\u0b9f\u0ba9\u0bcd \u0b85\u0bb5\u0bc6\u0ba9\u0bcd\u0baf\u0bc2","name:zh":"\u767b\u52a0\u7eff\u82d1\u9053","oneway":"yes"},"geometry":{"type":"LineString","coordinates":[[103.7316093,1.35503],[103.7319639,1.3546598]]}},{"type":"Feature","id":"way/1497593554-0-0-0","properties":{"highway":"residential","name":"Tengah Garden Avenue","name:en":"Tengah Garden Avenue","name:ta":"\u0ba4\u0bc6\u0b99\u0bcd\u0b95\u0bbe \u0b95\u0bbe\u0bb0\u0bcd\u0b9f\u0ba9\u0bcd \u0b85\u0bb5\u0bc6\u0ba9\u0bcd\u0baf\u0bc2","name:zh":"\u767b\u52a0\u7eff\u82d1\u9053","oneway":"yes"},"geometry":{"type":"LineString","coordinates":[[103.7319078,1.3546077],[103.7315546,1.3549807]]}},{"type":"Feature","id":"way/1497593554-0-1-0","properties":{"highway":"residential","name":"Tengah Garden Avenue","name:en":"Tengah Garden Avenue","name:ta":"\u0ba4\u0bc6\u0b99\u0bcd\u0b95\u0bbe \u0b95\u0bbe\u0bb0\u0bcd\u0b9f\u0ba9\u0bcd \u0b85\u0bb5\u0bc6\u0ba9\u0bcd\u0baf\u0bc2","name:zh":"\u767b\u52a0\u7eff\u82d1\u9053","oneway":"yes"},"geometry":{"type":"LineString","coordinates":[[103.7315546,1.3549807],[103.7313321,1.3552138]]}},{"type":"Feature","id":"way/1528459554-0-0-0","properties":{"highway":"motorway","lanes":"3","maxspeed":"90","name":"Pan-Island Expressway","name:en":"Pan-Island Expressway","name:ms":"Lebuhraya Rentas Pulau","name:ta":"\u0ba4\u0bc0\u0bb5\u0bc1 \u0bb5\u0bbf\u0bb0\u0bc8\u0bb5\u0bc1\u0b9a\u0bcd\u0b9a\u0bbe\u0bb2\u0bc8","name:zh":"\u6cdb\u5c9b\u9ad8\u901f\u516c\u8def","ref":"PIE","short_name:ta":"\u0baa\u0bbf\u0b90\u0b87","surface":"asphalt","wikidata":"Q1585650","wikipedia":"en:Pan Island Expressway"},"geometry":{"type":"LineString","coordinates":[[103.7294417,1.353699],[103.7300289,1.3533284]]}},{"type":"Feature","id":"way/1528459554-0-1-0","properties":{"highway":"motorway","lanes":"3","maxspeed":"90","name":"Pan-Island Expressway","name:en":"Pan-Island Expressway","name:ms":"Lebuhraya Rentas Pulau","name:ta":"\u0ba4\u0bc0\u0bb5\u0bc1 \u0bb5\u0bbf\u0bb0\u0bc8\u0bb5\u0bc1\u0b9a\u0bcd\u0b9a\u0bbe\u0bb2\u0bc8","name:zh":"\u6cdb\u5c9b\u9ad8\u901f\u516c\u8def","ref":"PIE","short_name:ta":"\u0baa\u0bbf\u0b90\u0b87","surface":"asphalt","wikidata":"Q1585650","wikipedia":"en:Pan Island Expressway"},"geometry":{"type":"LineString","coordinates":[[103.7300289,1.3533284],[103.7304969,1.3530107]]}},{"type":"Feature","id":"way/1528459554-0-2-0","properties":{"highway":"motorway","lanes":"3","maxspeed":"90","name":"Pan-Island Expressway","name:en":"Pan-Island Expressway","name:ms":"Lebuhraya Rentas Pulau","name:ta":"\u0ba4\u0bc0\u0bb5\u0bc1 \u0bb5\u0bbf\u0bb0\u0bc8\u0bb5\u0bc1\u0b9a\u0bcd\u0b9a\u0bbe\u0bb2\u0bc8","name:zh":"\u6cdb\u5c9b\u9ad8\u901f\u516c\u8def","ref":"PIE","short_name:ta":"\u0baa\u0bbf\u0b90\u0b87","surface":"asphalt","wikidata":"Q1585650","wikipedia":"en:Pan Island Expressway"},"geometry":{"type":"LineString","coordinates":[[103.7304969,1.3530107],[103.7308494,1.3526988]]}},{"type":"Feature","id":"way/1528459554-0-3-0","properties":{"highway":"motorway","lanes":"3","maxspeed":"90","name":"Pan-Island Expressway","name:en":"Pan-Island Expressway","name:ms":"Lebuhraya Rentas Pulau","name:ta":"\u0ba4\u0bc0\u0bb5\u0bc1 \u0bb5\u0bbf\u0bb0\u0bc8\u0bb5\u0bc1\u0b9a\u0bcd\u0b9a\u0bbe\u0bb2\u0bc8","name:zh":"\u6cdb\u5c9b\u9ad8\u901f\u516c\u8def","ref":"PIE","short_name:ta":"\u0baa\u0bbf\u0b90\u0b87","surface":"asphalt","wikidata":"Q1585650","wikipedia":"en:Pan Island Expressway"},"geometry":{"type":"LineString","coordinates":[[103.7308494,1.3526988],[103.7311443,1.3524036]]}},{"type":"Feature","id":"way/1528459554-0-4-0","properties":{"highway":"motorway","lanes":"3","maxspeed":"90","name":"Pan-Island Expressway","name:en":"Pan-Island Expressway","name:ms":"Lebuhraya Rentas Pulau","name:ta":"\u0ba4\u0bc0\u0bb5\u0bc1 \u0bb5\u0bbf\u0bb0\u0bc8\u0bb5\u0bc1\u0b9a\u0bcd\u0b9a\u0bbe\u0bb2\u0bc8","name:zh":"\u6cdb\u5c9b\u9ad8\u901f\u516c\u8def","ref":"PIE","short_name:ta":"\u0baa\u0bbf\u0b90\u0b87","surface":"asphalt","wikidata":"Q1585650","wikipedia":"en:Pan Island Expressway"},"geometry":{"type":"LineString","coordinates":[[103.7311443,1.3524036],[103.7321552,1.3512634]]}},{"type":"Feature","id":"way/1548575037-0-0-0","properties":{"highway":"service","oneway":"yes","service":"driveway"},"geometry":{"type":"LineString","coordinates":[[103.7299036,1.3540093],[103.7299166,1.3540405]]}},{"type":"Feature","id":"way/1548575037-0-1-0","properties":{"highway":"service","oneway":"yes","service":"driveway"},"geometry":{"type":"LineString","coordinates":[[103.7299166,1.3540405],[103.7299535,1.3540687]]}},{"type":"Feature","id":"way/1548575037-0-2-0","properties":{"highway":"service","oneway":"yes","service":"driveway"},"geometry":{"type":"LineString","coordinates":[[103.7299535,1.3540687],[103.7299894,1.3540684]]}},{"type":"Feature","id":"way/1548575037-0-3-0","properties":{"highway":"service","oneway":"yes","service":"driveway"},"geometry":{"type":"LineString","coordinates":[[103.7299894,1.3540684],[103.7300242,1.3540468]]}},{"type":"Feature","id":"way/1548575037-0-4-0","properties":{"highway":"service","oneway":"yes","service":"driveway"},"geometry":{"type":"LineString","coordinates":[[103.7300242,1.3540468],[103.7300367,1.354006]]}},{"type":"Feature","id":"way/1548575037-0-5-0","properties":{"highway":"service","oneway":"yes","service":"driveway"},"geometry":{"type":"LineString","coordinates":[[103.7300367,1.354006],[103.7300336,1.3539667]]}}]}