{"type":"FeatureCollection","features":[{"type":"Feature","id":"way/97638521-0","properties":{"building":"grandstand"},"geometry":{"type":"Polygon","coordinates":[[[103.7295185,1.3462374],[103.7294581,1.3462736],[103.7293944,1.3462739],[103.7293961,1.3462106],[103.7294635,1.3461342],[103.7294484,1.3461144],[103.729431,1.3460973],[103.7294068,1.3460822],[103.72938,1.3460715],[103.7293522,1.3460695],[103.7293277,1.3460715],[103.7293059,1.3460782],[103.7292831,1.3460886],[103.7292573,1.346107],[103.7292419,1.3461224],[103.7292301,1.3461365],[103.7293062,1.3462129],[103.7293046,1.3462746],[103.7292834,1.3462743],[103.7292848,1.3463741],[103.7293763,1.3463758],[103.729375,1.3464268],[103.7292898,1.3464284],[103.7292348,1.3464355],[103.7291999,1.3464522],[103.7291734,1.3464686],[103.7291671,1.3464724],[103.7291396,1.3464985],[103.7291128,1.3465367],[103.7290933,1.3465816],[103.7290873,1.3466125],[103.7290839,1.3467506],[103.7291792,1.3467497],[103.7291778,1.346705],[103.7291792,1.3466681],[103.7291859,1.3466339],[103.729204,1.3466004],[103.7292227,1.3465769],[103.7292509,1.3465535],[103.729273,1.3465387],[103.7293049,1.3465334],[103.7293046,1.3465575],[103.7293495,1.3465588],[103.7293476,1.34668],[103.7293398,1.3466753],[103.7293277,1.346672],[103.7293114,1.3466756],[103.7292995,1.3466852],[103.7292913,1.3466956],[103.7292888,1.346711],[103.7292895,1.3467241],[103.7292948,1.3467341],[103.7293025,1.3467398],[103.7293146,1.3467439],[103.7293277,1.3467445],[103.7293382,1.3467427],[103.7293461,1.3467368],[103.7293448,1.3468581],[103.7292918,1.3468575],[103.7292925,1.346894],[103.729375,1.346894],[103.7293723,1.3470187],[103.729291,1.3470189],[103.7292908,1.3471152],[103.7294005,1.3471163],[103.729499,1.3471172],[103.7295185,1.3462374]]]}},{"type":"Feature","id":"way/545320590-0","properties":{"building":"yes"},"geometry":{"type":"Polygon","coordinates":[[[103.7270904,1.3449124],[103.7270707,1.3449198],[103.7270428,1.3449279],[103.7270197,1.3449305],[103.7269842,1.3449309],[103.7269502,1.3449289],[103.7269089,1.3449184],[103.7268569,1.344885],[103.7268337,1.3448716],[103.726824,1.3448609],[103.726815,1.3448569],[103.7268062,1.3448579],[103.7267995,1.3448629],[103.7267952,1.344872],[103.7267945,1.3448803],[103.7268173,1.3449416],[103.7267771,1.3449607],[103.7268109,1.3450324],[103.7267828,1.3450448],[103.7268793,1.3452513],[103.726888,1.3452469],[103.7269226,1.345317],[103.7269397,1.3453089],[103.7269551,1.3453405],[103.7269873,1.3453254],[103.7270081,1.3453693],[103.7269876,1.3453793],[103.7269748,1.345355],[103.7268649,1.3454064],[103.7268704,1.3454187],[103.7268031,1.3454524],[103.7268172,1.3454896],[103.7268019,1.3454966],[103.7268018,1.3455233],[103.7268866,1.3457051],[103.7269878,1.3456592],[103.7269758,1.3456317],[103.7272634,1.3454926],[103.7271521,1.345249],[103.7273382,1.3451628],[103.7273556,1.345199],[103.7273382,1.3452067],[103.7273302,1.3451906],[103.7272651,1.3452208],[103.7273546,1.3454072],[103.7273798,1.3453958],[103.7274073,1.3454621],[103.7275876,1.3453803],[103.7276001,1.3454068],[103.7275531,1.3454296],[103.7275598,1.3454427],[103.7269087,1.3457558],[103.7268899,1.3457125],[103.7268044,1.3457514],[103.7268259,1.3457987],[103.7268013,1.3458096],[103.7268414,1.3458883],[103.7269579,1.3461328],[103.7271953,1.3460696],[103.727252,1.3462081],[103.7270091,1.3462064],[103.7270086,1.3466377],[103.7278362,1.3466039],[103.7278384,1.3462099],[103.7273719,1.3462075],[103.7272974,1.3460192],[103.7276503,1.3458013],[103.7276614,1.3458247],[103.7276885,1.3458128],[103.7276767,1.3457892],[103.7277946,1.3457343],[103.7276782,1.3454914],[103.7276185,1.3453669],[103.7276713,1.3453418],[103.7278106,1.3452758],[103.7277804,1.3452087],[103.7278076,1.3451957],[103.7277206,1.3450176],[103.7277171,1.3450103],[103.7277286,1.3450041],[103.7277066,1.3449548],[103.7277782,1.3449232],[103.7276944,1.3447376],[103.7274603,1.3447306],[103.7272302,1.3448453],[103.7271971,1.3448609],[103.7271618,1.3448775],[103.7270904,1.3449124]]]}},{"type":"Feature","id":"way/545323873-0","properties":{"addr:city":"Singapore","addr:country":"SG","addr:housenumber":"9","addr:neighbourhood":"Lakeville","addr:postcode":"648164","addr:street":"Jurong Lake Link","building":"residential","building:levels":"17","residential":"condominium"},"geometry":{"type":"Polygon","coordinates":[[[103.7258207,1.3451878],[103.7258281,1.3451805],[103.7258482,1.3452009],[103.7259279,1.3451221],[103.7259454,1.3451397],[103.7259081,1.3451766],[103.7259647,1.3452337],[103.7259834,1.3452153],[103.726057,1.3452897],[103.7261089,1.3452383],[103.7260726,1.3452017],[103.7261055,1.3451692],[103.7261414,1.3452054],[103.7261659,1.3451811],[103.7261622,1.3451774],[103.7261915,1.3451484],[103.7261528,1.3451093],[103.7261309,1.345131],[103.7261117,1.3451116],[103.7261266,1.3450969],[103.7261147,1.3450848],[103.7261261,1.3450735],[103.7260671,1.3450139],[103.726052,1.3450289],[103.7260577,1.3450346],[103.7260255,1.3450665],[103.7260096,1.3450505],[103.7260508,1.3450097],[103.725978,1.3449361],[103.7259296,1.344984],[103.7259822,1.3450371],[103.7259724,1.3450468],[103.7259937,1.3450683],[103.7259756,1.3450862],[103.7259177,1.3450278],[103.7257887,1.3451554],[103.7258207,1.3451878]]]}},{"type":"Feature","id":"way/545323874-0","properties":{"addr:city":"Singapore","addr:country":"SG","addr:housenumber":"7","addr:neighbourhood":"Lakeville","addr:postcode":"648163","addr:street":"Jurong Lake Link","building":"residential","building:levels":"17","residential":"condominium"},"geometry":{"type":"Polygon","coordinates":[[[103.725833,1.3455514],[103.7258403,1.3455441],[103.7258605,1.3455645],[103.7259401,1.3454857],[103.7259576,1.3455033],[103.7259204,1.3455401],[103.7259769,1.3455973],[103.7259956,1.3455789],[103.7260692,1.3456533],[103.7261211,1.3456019],[103.7260849,1.3455653],[103.7261177,1.3455328],[103.7261536,1.345569],[103.7261781,1.3455447],[103.7261744,1.345541],[103.7262037,1.345512],[103.726165,1.3454729],[103.7261431,1.3454946],[103.7261239,1.3454752],[103.7261388,1.3454604],[103.7261269,1.3454484],[103.7261384,1.3454371],[103.7260794,1.3453775],[103.7260642,1.3453924],[103.7260699,1.3453982],[103.7260377,1.3454301],[103.7260218,1.3454141],[103.7260631,1.3453733],[103.7259902,1.3452997],[103.7259418,1.3453476],[103.7259944,1.3454007],[103.7259846,1.3454104],[103.726006,1.3454319],[103.7259878,1.3454498],[103.72593,1.3453914],[103.7258009,1.345519],[103.725833,1.3455514]]]}},{"type":"Feature","id":"way/545323875-0","properties":{"addr:city":"Singapore","addr:country":"SG","addr:housenumber":"5","addr:neighbourhood":"Lakeville","addr:postcode":"648162","addr:street":"Jurong Lake Link","building":"residential","building:levels":"17","residential":"condominium"},"geometry":{"type":"Polygon","coordinates":[[[103.7258282,1.3459359],[103.7258363,1.345928],[103.7258561,1.3459482],[103.7259328,1.3458731],[103.725949,1.3458897],[103.7259138,1.3459241],[103.7259697,1.3459812],[103.7259879,1.3459634],[103.7260601,1.346037],[103.7261105,1.3459876],[103.7260739,1.3459503],[103.7260882,1.3459363],[103.7260751,1.345923],[103.7260867,1.3459116],[103.7261015,1.3459266],[103.7261119,1.3459164],[103.7261457,1.3459509],[103.7261995,1.3458982],[103.7261576,1.3458554],[103.7261359,1.3458767],[103.7261174,1.3458579],[103.726132,1.3458436],[103.7261206,1.345832],[103.7261297,1.3458231],[103.7260729,1.3457651],[103.7260569,1.3457808],[103.7260617,1.3457857],[103.7260353,1.3458117],[103.7260325,1.3458089],[103.726023,1.3458183],[103.7260096,1.3458046],[103.7260557,1.3457595],[103.7259828,1.3456851],[103.7259316,1.3457352],[103.7259846,1.3457892],[103.7259763,1.3457973],[103.7259976,1.345819],[103.72598,1.3458361],[103.7259235,1.3457785],[103.7257961,1.3459033],[103.7258282,1.3459359]]]}},{"type":"Feature","id":"way/545323876-0","properties":{"addr:city":"Singapore","addr:country":"SG","addr:housenumber":"3","addr:neighbourhood":"Lakeville","addr:postcode":"648161","addr:street":"Jurong Lake Link","building":"residential","building:levels":"17","residential":"condominium"},"geometry":{"type":"Polygon","coordinates":[[[103.7258557,1.3462956],[103.7259105,1.3462413],[103.7259193,1.3462501],[103.725935,1.3462346],[103.7259449,1.3462445],[103.725907,1.3462821],[103.7259623,1.3463378],[103.7259727,1.3463276],[103.7260352,1.3463906],[103.7260909,1.3463354],[103.7260473,1.3462915],[103.7260901,1.346249],[103.7261315,1.3462907],[103.7261823,1.3462403],[103.7260657,1.3461228],[103.7260152,1.3461728],[103.7260026,1.3461601],[103.7260477,1.3461154],[103.7259757,1.3460428],[103.7259272,1.3460909],[103.7259805,1.3461446],[103.7259682,1.3461568],[103.7259904,1.3461792],[103.7259745,1.3461949],[103.7259145,1.3461345],[103.7258043,1.3462437],[103.7258557,1.3462956]]]}},{"type":"Feature","id":"way/545323877-0","properties":{"addr:city":"Singapore","addr:country":"SG","addr:housenumber":"1","addr:neighbourhood":"Lakeville","addr:postcode":"648160","addr:street":"Jurong Lake Link","building":"residential","building:levels":"17","residential":"condominium"},"geometry":{"type":"Polygon","coordinates":[[[103.7252786,1.34605],[103.7253542,1.3459762],[103.7253717,1.3459941],[103.7253216,1.346043],[103.7254614,1.3461859],[103.7255181,1.3461305],[103.72547,1.3460813],[103.7254736,1.3460777],[103.72546,1.3460638],[103.7254805,1.3460437],[103.7254845,1.3460478],[103.725499,1.3460336],[103.7255441,1.3460797],[103.7255995,1.3460256],[103.72547,1.3458932],[103.7254576,1.3459053],[103.7254428,1.3458903],[103.7254678,1.3458659],[103.7254594,1.3458573],[103.7254783,1.3458389],[103.7254598,1.34582],[103.7254728,1.3458073],[103.7254026,1.3457354],[103.7253556,1.3457813],[103.7254007,1.3458274],[103.7253803,1.3458474],[103.7253633,1.3458301],[103.725306,1.3458861],[103.7253196,1.3458999],[103.7252236,1.3459937],[103.7252786,1.34605]]]}},{"type":"Feature","id":"way/545323878-0","properties":{"addr:city":"Singapore","addr:country":"SG","addr:housenumber":"11","addr:neighbourhood":"Lakeville","addr:postcode":"648155","addr:street":"Jurong Lake Link","building":"residential","building:levels":"17","residential":"condominium"},"geometry":{"type":"Polygon","coordinates":[[[103.7252454,1.3454056],[103.7252502,1.345401],[103.7252719,1.3454232],[103.7253162,1.34538],[103.7253334,1.3453977],[103.7253128,1.3454179],[103.7254502,1.3455586],[103.725503,1.345507],[103.7254437,1.3454463],[103.7254683,1.3454222],[103.7254785,1.3454326],[103.7254907,1.3454207],[103.725532,1.3454629],[103.7255834,1.3454128],[103.7255393,1.3453676],[103.7255472,1.34536],[103.7254579,1.3452686],[103.7254493,1.345277],[103.7254308,1.3452581],[103.7254796,1.3452105],[103.7253741,1.3451025],[103.7253216,1.3451537],[103.7253631,1.3451962],[103.7252939,1.3452637],[103.7253084,1.3452786],[103.7252127,1.345372],[103.7252454,1.3454056]]]}},{"type":"Feature","id":"way/686917661-0","properties":{"addr:city":"Singapore","addr:country":"SG","addr:housenumber":"13","addr:neighbourhood":"Lakeville","addr:postcode":"648156","addr:street":"Jurong Lake Link","building":"residential","residential":"condominium"},"geometry":{"type":"Polygon","coordinates":[[[103.7252561,1.3456586],[103.7252645,1.3456726],[103.7252779,1.3456934],[103.7252934,1.3457108],[103.7252974,1.3457269],[103.7252947,1.3457437],[103.7252672,1.3457785],[103.7252457,1.3458208],[103.7252551,1.3458268],[103.7253215,1.3457765],[103.7253691,1.3457377],[103.725404,1.3457216],[103.7254402,1.3457068],[103.7254643,1.3456907],[103.7254731,1.3456733],[103.7254744,1.3456483],[103.7254729,1.3456268],[103.7254645,1.3456093],[103.7254406,1.3455928],[103.7254047,1.3455774],[103.7253701,1.3455607],[103.7253232,1.345521],[103.7252577,1.3454696],[103.7252482,1.3454755],[103.7252689,1.345518],[103.7252958,1.3455534],[103.7252982,1.3455702],[103.7252939,1.3455862],[103.7252781,1.3456034],[103.7252644,1.3456239],[103.7252565,1.3456425],[103.7252561,1.3456586]]]}},{"type":"Feature","id":"way/686917663-0","properties":{"building":"yes"},"geometry":{"type":"Polygon","coordinates":[[[103.7255441,1.3462666],[103.7255198,1.3462905],[103.7255942,1.3463662],[103.7256186,1.3463423],[103.7255441,1.3462666]]]}},{"type":"Feature","id":"way/686917664-0","properties":{"building":"yes"},"geometry":{"type":"Polygon","coordinates":[[[103.7255019,1.3463283],[103.7255057,1.3462753],[103.7254177,1.3462689],[103.7254185,1.3462578],[103.7252933,1.3462486],[103.7252886,1.3463127],[103.7255019,1.3463283]]]}},{"type":"Feature","id":"way/688648949-0","properties":{"building":"school","layer":"1"},"geometry":{"type":"Polygon","coordinates":[[[103.7268414,1.3458883],[103.7268013,1.3458096],[103.7268018,1.3455233],[103.7268019,1.3454966],[103.7268022,1.3452854],[103.7268023,1.3452519],[103.7267252,1.3452529],[103.7267261,1.3452941],[103.7264044,1.3452946],[103.7264044,1.3452512],[103.7263347,1.3452522],[103.7263347,1.3452929],[103.7263088,1.3452931],[103.7263002,1.3452932],[103.7262975,1.3462422],[103.7263055,1.3462422],[103.7263303,1.346242],[103.7263303,1.3462801],[103.7263866,1.3462812],[103.726717,1.3462841],[103.7267165,1.3462434],[103.7268014,1.3462447],[103.7268014,1.3461881],[103.7269579,1.3461328],[103.7268414,1.3458883]]]}},{"type":"Feature","id":"way/688671347-0","properties":{"building":"yes"},"geometry":{"type":"Polygon","coordinates":[[[103.7285685,1.3466525],[103.7285514,1.3466702],[103.7285424,1.3466931],[103.7285428,1.3467177],[103.7285527,1.3467403],[103.7285704,1.3467574],[103.7285933,1.3467664],[103.728618,1.346766],[103.7286405,1.3467562],[103.7286576,1.3467385],[103.7286667,1.3467155],[103.7286662,1.3466909],[103.7286564,1.3466683],[103.7286387,1.3466512],[103.7286158,1.3466422],[103.7285911,1.3466427],[103.7285685,1.3466525]]]}},{"type":"Feature","id":"way/688671349-0","properties":{"building":"yes"},"geometry":{"type":"Polygon","coordinates":[[[103.7292463,1.345953],[103.7293784,1.34595],[103.7293789,1.345973],[103.7295318,1.3459696],[103.72953,1.345893],[103.7292451,1.3458994],[103.7292463,1.345953]]]}},{"type":"Feature","id":"way/879802721-0","properties":{"building":"yes","layer":"1"},"geometry":{"type":"Polygon","coordinates":[[[103.7272004,1.3447783],[103.7271816,1.3447371],[103.7271107,1.344768],[103.72713,1.3448095],[103.7271618,1.3448775],[103.7271971,1.3448609],[103.7272302,1.3448453],[103.7272004,1.3447783]]]}},{"type":"Feature","id":"way/879802725-0","properties":{"building":"yes"},"geometry":{"type":"Polygon","coordinates":[[[103.726971,1.3445947],[103.7269653,1.3445609],[103.7269312,1.3445666],[103.7269369,1.3446004],[103.726971,1.3445947]]]}},{"type":"Feature","id":"way/1159195811-0","properties":{"building":"roof","building:levels":"1","layer":"1","leisure":"pitch","name":"Plaza Pod","roof:colour":"teal","roof:material":"glass","sport":"skateboard"},"geometry":{"type":"Polygon","coordinates":[[[103.7274322,1.3432113],[103.7273307,1.3431688],[103.7271626,1.3431442],[103.7270851,1.3431066],[103.7269838,1.3431044],[103.7269369,1.3433038],[103.7271072,1.3433547],[103.7271662,1.3433592],[103.7272869,1.3433976],[103.7274018,1.3433864],[103.7274322,1.3432113]]]}},{"type":"Feature","id":"way/1159195819-0","properties":{"building":"roof","fixme:zh":"-","name":"Rainforest Pavilion","name:zh":"\u96e8\u6797\u51c9\u4ead","roof:colour":"grey","website":"https://www.nparks.gov.sg/juronglakegardens/explore-our-gardens/attractions/rainforest-pavilion"},"geometry":{"type":"Polygon","coordinates":[[[103.7257021,1.3442123],[103.7257906,1.3442043],[103.7258818,1.3441728],[103.725963,1.3441265],[103.7260247,1.3440749],[103.7260703,1.3440132],[103.7260971,1.343975],[103.725975,1.3439194],[103.7259576,1.3439542],[103.7259227,1.3439897],[103.7258812,1.3440313],[103.7258222,1.3440655],[103.7257551,1.344095],[103.7256941,1.3440977],[103.7256324,1.3440937],[103.725619,1.3442076],[103.7257021,1.3442123]]]}},{"type":"Feature","id":"way/146663347-0-0-0","properties":{"highway":"primary","lanes":"3","maxspeed":"70","name":"Boon Lay Way","name:en":"Boon Lay Way","name:zh":"\u6587\u793c\u5927\u9053","note":"Part of it estimated ???","oneway":"yes","sidewalk":"separate","source":"Yahoo aerial images","surface":"asphalt"},"geometry":{"type":"LineString","coordinates":[[103.7275981,1.3442753],[103.7274098,1.3442739]]}},{"type":"Feature","id":"way/146663347-0-1-0","properties":{"highway":"primary","lanes":"3","maxspeed":"70","name":"Boon Lay Way","name:en":"Boon Lay Way","name:zh":"\u6587\u793c\u5927\u9053","note":"Part of it estimated ???","oneway":"yes","sidewalk":"separate","source":"Yahoo aerial images","surface":"asphalt"},"geometry":{"type":"LineString","coordinates":[[103.7274098,1.3442739],[103.7271251,1.3442961]]}},{"type":"Feature","id":"way/146663348-0-0-0","properties":{"highway":"primary","lanes":"3","maxspeed":"70","name":"Boon Lay Way","name:en":"Boon Lay Way","name:zh":"\u6587\u793c\u5927\u9053","note":"Part of it estimated ???","oneway":"yes","sidewalk":"no","source":"Yahoo aerial images","surface":"asphalt"},"geometry":{"type":"LineString","coordinates":[[103.7280539,1.3443927],[103.7283648,1.3443964]]}},{"type":"Feature","id":"way/146663349-0-0-0","properties":{"highway":"primary","lanes":"3","maxspeed":"70","name":"Boon Lay Way","name:en":"Boon Lay Way","name:zh":"\u6587\u793c\u5927\u9053","note":"Part of it estimated ???","oneway":"yes","sidewalk":"separate","source":"Yahoo aerial images","surface":"asphalt"},"geometry":{"type":"LineString","coordinates":[[103.7283671,1.3442761],[103.728054,1.3442801]]}},{"type":"Feature","id":"way/533892780-0-0-0","properties":{"highway":"residential","lanes":"1","maxspeed":"50","oneway":"yes","turn:lanes":"left"},"geometry":{"type":"LineString","coordinates":[[103.7253163,1.346503],[103.7251391,1.3464275]]}},{"type":"Feature","id":"way/533904325-0-0-0","properties":{"highway":"service","lanes":"1","oneway":"yes","service":"parking_aisle"},"geometry":{"type":"LineString","coordinates":[[103.7296438,1.3459633],[103.7296406,1.3459706]]}},{"type":"Feature","id":"way/533904325-0-1-0","properties":{"highway":"service","lanes":"1","oneway":"yes","service":"parking_aisle"},"geometry":{"type":"LineString","coordinates":[[103.7296406,1.3459706],[103.7296384,1.346055]]}},{"type":"Feature","id":"way/533904325-0-2-0","properties":{"highway":"service","lanes":"1","oneway":"yes","service":"parking_aisle"},"geometry":{"type":"LineString","coordinates":[[103.7296384,1.346055],[103.7296399,1.3460662]]}},{"type":"Feature","id":"way/533904325-0-3-0","properties":{"highway":"service","lanes":"1","oneway":"yes","service":"parking_aisle"},"geometry":{"type":"LineString","coordinates":[[103.7296399,1.3460662],[103.7296428,1.3460708]]}},{"type":"Feature","id":"way/533904325-0-4-0","properties":{"highway":"service","lanes":"1","oneway":"yes","service":"parking_aisle"},"geometry":{"type":"LineString","coordinates":[[103.7296428,1.3460708],[103.7296501,1.3460749]]}},{"type":"Feature","id":"way/533904325-0-5-0","properties":{"highway":"service","lanes":"1","oneway":"yes","service":"parking_aisle"},"geometry":{"type":"LineString","coordinates":[[103.7296501,1.3460749],[103.7296606,1.3460764]]}},{"type":"Feature","id":"way/538208753-0-1-0","properties":{"highway":"primary","lanes":"3","maxspeed":"70","name":"Boon Lay Way","name:en":"Boon Lay Way","name:zh":"\u6587\u793c\u5927\u9053","note":"Part of it estimated ???","oneway":"yes","sidewalk":"no","source":"Yahoo aerial images","surface":"asphalt"},"geometry":{"type":"LineString","coordinates":[[103.7296607,1.3441869],[103.7293708,1.3442308]]}},{"type":"Feature","id":"way/538208753-0-2-0","properties":{"highway":"primary","lanes":"3","maxspeed":"70","name":"Boon Lay Way","name:en":"Boon Lay Way","name:zh":"\u6587\u793c\u5927\u9053","note":"Part of it estimated ???","oneway":"yes","sidewalk":"no","source":"Yahoo aerial images","surface":"asphalt"},"geometry":{"type":"LineString","coordinates":[[103.7293708,1.3442308],[103.7291428,1.3442533]]}},{"type":"Feature","id":"way/538208753-0-3-0","properties":{"highway":"primary","lanes":"3","maxspeed":"70","name":"Boon Lay Way","name:en":"Boon Lay Way","name:zh":"\u6587\u793c\u5927\u9053","note":"Part of it estimated ???","oneway":"yes","sidewalk":"no","source":"Yahoo aerial images","surface":"asphalt"},"geometry":{"type":"LineString","coordinates":[[103.7291428,1.3442533],[103.7289035,1.3442708]]}},{"type":"Feature","id":"way/538208753-0-4-0","properties":{"highway":"primary","lanes":"3","maxspeed":"70","name":"Boon Lay Way","name:en":"Boon Lay Way","name:zh":"\u6587\u793c\u5927\u9053","note":"Part of it estimated ???","oneway":"yes","sidewalk":"no","source":"Yahoo aerial images","surface":"asphalt"},"geometry":{"type":"LineString","coordinates":[[103.7289035,1.3442708],[103.7286309,1.3442791]]}},{"type":"Feature","id":"way/538208753-0-5-0","properties":{"highway":"primary","lanes":"3","maxspeed":"70","name":"Boon Lay Way","name:en":"Boon Lay Way","name:zh":"\u6587\u793c\u5927\u9053","note":"Part of it estimated ???","oneway":"yes","sidewalk":"no","source":"Yahoo aerial images","surface":"asphalt"},"geometry":{"type":"LineString","coordinates":[[103.7286309,1.3442791],[103.7283671,1.3442761]]}},{"type":"Feature","id":"way/538208754-0-0-0","properties":{"highway":"primary","lanes":"3","maxspeed":"70","name":"Boon Lay Way","name:en":"Boon Lay Way","name:zh":"\u6587\u793c\u5927\u9053","note":"Part of it estimated ???","oneway":"yes","sidewalk":"no","source":"Yahoo aerial images","surface":"asphalt"},"geometry":{"type":"LineString","coordinates":[[103.7283648,1.3443964],[103.72846,1.3443983]]}},{"type":"Feature","id":"way/538208754-0-1-0","properties":{"highway":"primary","lanes":"3","maxspeed":"70","name":"Boon Lay Way","name:en":"Boon Lay Way","name:zh":"\u6587\u793c\u5927\u9053","note":"Part of it estimated ???","oneway":"yes","sidewalk":"no","source":"Yahoo aerial images","surface":"asphalt"},"geometry":{"type":"LineString","coordinates":[[103.72846,1.3443983],[103.7286327,1.3444032]]}},{"type":"Feature","id":"way/538208754-0-2-0","properties":{"highway":"primary","lanes":"3","maxspeed":"70","name":"Boon Lay Way","name:en":"Boon Lay Way","name:zh":"\u6587\u793c\u5927\u9053","note":"Part of it estimated ???","oneway":"yes","sidewalk":"no","source":"Yahoo aerial images","surface":"asphalt"},"geometry":{"type":"LineString","coordinates":[[103.7286327,1.3444032],[103.7289099,1.3444044]]}},{"type":"Feature","id":"way/538208754-0-3-0","properties":{"highway":"primary","lanes":"3","maxspeed":"70","name":"Boon Lay Way","name:en":"Boon Lay Way","name:zh":"\u6587\u793c\u5927\u9053","note":"Part of it estimated ???","oneway":"yes","sidewalk":"no","source":"Yahoo aerial images","surface":"asphalt"},"geometry":{"type":"LineString","coordinates":[[103.7289099,1.3444044],[103.7291475,1.3443875]]}},{"type":"Feature","id":"way/538208754-0-4-0","properties":{"highway":"primary","lanes":"3","maxspeed":"70","name":"Boon Lay Way","name:en":"Boon Lay Way","name:zh":"\u6587\u793c\u5927\u9053","note":"Part of it estimated ???","oneway":"yes","sidewalk":"no","source":"Yahoo aerial images","surface":"asphalt"},"geometry":{"type":"LineString","coordinates":[[103.7291475,1.3443875],[103.7293681,1.3443611]]}},{"type":"Feature","id":"way/539519074-0-0-0","properties":{"highway":"primary","lanes":"3","maxspeed":"70","name":"Boon Lay Way","name:en":"Boon Lay Way","name:zh":"\u6587\u793c\u5927\u9053","note":"Part of it estimated ???","oneway":"yes","sidewalk":"no","source":"Yahoo aerial images","surface":"asphalt"},"geometry":{"type":"LineString","coordinates":[[103.7276482,1.3443972],[103.7280539,1.3443927]]}},{"type":"Feature","id":"way/596364385-0-0-0","properties":{"highway":"primary_link","maxspeed":"50","name":"Boon Lay Way","oneway":"yes"},"geometry":{"type":"LineString","coordinates":[[103.726088,1.3446436],[103.7261838,1.3445685]]}},{"type":"Feature","id":"way/596364385-0-1-0","properties":{"highway":"primary_link","maxspeed":"50","name":"Boon Lay Way","oneway":"yes"},"geometry":{"type":"LineString","coordinates":[[103.7261838,1.3445685],[103.7262363,1.3445382]]}},{"type":"Feature","id":"way/596364385-0-2-0","properties":{"highway":"primary_link","maxspeed":"50","name":"Boon Lay Way","oneway":"yes"},"geometry":{"type":"LineString","coordinates":[[103.7262363,1.3445382],[103.7262418,1.3445161]]}},{"type":"Feature","id":"way/596364385-0-3-0","properties":{"highway":"primary_link","maxspeed":"50","name":"Boon Lay Way","oneway":"yes"},"geometry":{"type":"LineString","coordinates":[[103.7262418,1.3445161],[103.7262268,1.3445003]]}},{"type":"Feature","id":"way/596364385-0-4-0","properties":{"highway":"primary_link","maxspeed":"50","name":"Boon Lay Way","oneway":"yes"},"geometry":{"type":"LineString","coordinates":[[103.7262268,1.3445003],[103.726185,1.3444856]]}},{"type":"Feature","id":"way/630800418-0-0-0","properties":{"highway":"primary","lanes":"3","maxspeed":"70","name":"Boon Lay Way","name:en":"Boon Lay Way","name:zh":"\u6587\u793c\u5927\u9053","note":"Part of it estimated ???","oneway":"yes","sidewalk":"no","source":"Yahoo aerial images","surface":"asphalt","turn:lanes":"through|through|through"},"geometry":{"type":"LineString","coordinates":[[103.726088,1.3446436],[103.7264004,1.3445696]]}},{"type":"Feature","id":"way/630800418-0-1-0","properties":{"highway":"primary","lanes":"3","maxspeed":"70","name":"Boon Lay Way","name:en":"Boon Lay Way","name:zh":"\u6587\u793c\u5927\u9053","note":"Part of it estimated ???","oneway":"yes","sidewalk":"no","source":"Yahoo aerial images","surface":"asphalt","turn:lanes":"through|through|through"},"geometry":{"type":"LineString","coordinates":[[103.7264004,1.3445696],[103.7267629,1.344481]]}},{"type":"Feature","id":"way/630800418-0-2-0","properties":{"highway":"primary","lanes":"3","maxspeed":"70","name":"Boon Lay Way","name:en":"Boon Lay Way","name:zh":"\u6587\u793c\u5927\u9053","note":"Part of it estimated ???","oneway":"yes","sidewalk":"no","source":"Yahoo aerial images","surface":"asphalt","turn:lanes":"through|through|through"},"geometry":{"type":"LineString","coordinates":[[103.7267629,1.344481],[103.7268219,1.3444695]]}},{"type":"Feature","id":"way/630800419-0-0-0","properties":{"highway":"primary","lanes":"3","maxspeed":"70","name":"Boon Lay Way","name:en":"Boon Lay Way","name:zh":"\u6587\u793c\u5927\u9053","note":"Part of it estimated ???","oneway":"yes","sidewalk":"separate","source":"Yahoo aerial images","surface":"asphalt"},"geometry":{"type":"LineString","coordinates":[[103.7254666,1.3446785],[103.7249985,1.3447887]]}},{"type":"Feature","id":"way/635323754-0-1-0","properties":{"highway":"primary","lanes":"3","maxspeed":"70","name":"Boon Lay Way","name:en":"Boon Lay Way","name:zh":"\u6587\u793c\u5927\u9053","note":"Part of it estimated ???","oneway":"yes","sidewalk":"no","source":"Yahoo aerial images","surface":"asphalt"},"geometry":{"type":"LineString","coordinates":[[103.725243,1.3448685],[103.7254753,1.3448034]]}},{"type":"Feature","id":"way/635524068-0-0-0","properties":{"cycleway":"lane","highway":"residential","lanes":"2","lanes:backward":"1","lanes:forward":"1","maxspeed":"40","name":"Jurong West Street 41","surface":"asphalt"},"geometry":{"type":"LineString","coordinates":[[103.7253972,1.3465121],[103.7254923,1.3465325]]}},{"type":"Feature","id":"way/635524068-0-1-0","properties":{"cycleway":"lane","highway":"residential","lanes":"2","lanes:backward":"1","lanes:forward":"1","maxspeed":"40","name":"Jurong West Street 41","surface":"asphalt"},"geometry":{"type":"LineString","coordinates":[[103.7254923,1.3465325],[103.725619,1.3465703]]}},{"type":"Feature","id":"way/635524068-0-2-0","properties":{"cycleway":"lane","highway":"residential","lanes":"2","lanes:backward":"1","lanes:forward":"1","maxspeed":"40","name":"Jurong West Street 41","surface":"asphalt"},"geometry":{"type":"LineString","coordinates":[[103.725619,1.3465703],[103.7257431,1.3466504]]}},{"type":"Feature","id":"way/635524068-0-3-0","properties":{"cycleway":"lane","highway":"residential","lanes":"2","lanes:backward":"1","lanes:forward":"1","maxspeed":"40","name":"Jurong West Street 41","surface":"asphalt"},"geometry":{"type":"LineString","coordinates":[[103.7257431,1.3466504],[103.7258096,1.3467034]]}},{"type":"Feature","id":"way/635524605-0-1-0","properties":{"cycleway":"lane","highway":"residential","lanes":"2","lanes:backward":"1","lanes:forward":"1","maxspeed":"40","name":"Jurong West Street 41","surface":"asphalt","turn:lanes:backward":"through"},"geometry":{"type":"LineString","coordinates":[[103.725166,1.3464997],[103.7253163,1.346503]]}},{"type":"Feature","id":"way/641092654-0-0-0","properties":{"cycleway":"lane","highway":"residential","lanes":"2","lanes:backward":"1","lanes:forward":"1","maxspeed":"40","name":"Jurong West Street 41","surface":"asphalt","turn:lanes:backward":"left;through"},"geometry":{"type":"LineString","coordinates":[[103.7258096,1.3467034],[103.7258974,1.3468059]]}},{"type":"Feature","id":"way/641092654-0-1-0","properties":{"cycleway":"lane","highway":"residential","lanes":"2","lanes:backward":"1","lanes:forward":"1","maxspeed":"40","name":"Jurong West Street 41","surface":"asphalt","turn:lanes:backward":"left;through"},"geometry":{"type":"LineString","coordinates":[[103.7258974,1.3468059],[103.7259756,1.3469249]]}},{"type":"Feature","id":"way/641239649-0-0-0","properties":{"highway":"primary","lanes":"3","maxspeed":"70","name":"Boon Lay Way","name:en":"Boon Lay Way","name:zh":"\u6587\u793c\u5927\u9053","note":"Part of it estimated ???","oneway":"yes","sidewalk":"no","source":"Yahoo aerial images","surface":"asphalt","turn:lanes":"through|through|through"},"geometry":{"type":"LineString","coordinates":[[103.7268219,1.3444695],[103.727126,1.3444287]]}},{"type":"Feature","id":"way/641239649-0-1-0","properties":{"highway":"primary","lanes":"3","maxspeed":"70","name":"Boon Lay Way","name:en":"Boon Lay Way","name:zh":"\u6587\u793c\u5927\u9053","note":"Part of it estimated ???","oneway":"yes","sidewalk":"no","source":"Yahoo aerial images","surface":"asphalt","turn:lanes":"through|through|through"},"geometry":{"type":"LineString","coordinates":[[103.727126,1.3444287],[103.7273717,1.3444085]]}},{"type":"Feature","id":"way/641239649-0-2-0","properties":{"highway":"primary","lanes":"3","maxspeed":"70","name":"Boon Lay Way","name:en":"Boon Lay Way","name:zh":"\u6587\u793c\u5927\u9053","note":"Part of it estimated ???","oneway":"yes","sidewalk":"no","source":"Yahoo aerial images","surface":"asphalt","turn:lanes":"through|through|through"},"geometry":{"type":"LineString","coordinates":[[103.7273717,1.3444085],[103.7275404,1.3444017]]}},{"type":"Feature","id":"way/641239649-0-3-0","properties":{"highway":"primary","lanes":"3","maxspeed":"70","name":"Boon Lay Way","name:en":"Boon Lay Way","name:zh":"\u6587\u793c\u5927\u9053","note":"Part of it estimated ???","oneway":"yes","sidewalk":"no","source":"Yahoo aerial images","surface":"asphalt","turn:lanes":"through|through|through"},"geometry":{"type":"LineString","coordinates":[[103.7275404,1.3444017],[103.7276482,1.3443972]]}},{"type":"Feature","id":"way/641239651-0-0-0","properties":{"highway":"primary","lanes":"3","maxspeed":"70","name":"Boon Lay Way","name:en":"Boon Lay Way","name:zh":"\u6587\u793c\u5927\u9053","note":"Part of it estimated ???","oneway":"yes","sidewalk":"separate","source":"Yahoo aerial images","surface":"asphalt"},"geometry":{"type":"LineString","coordinates":[[103.7271251,1.3442961],[103.7267238,1.3443517]]}},{"type":"Feature","id":"way/641239651-0-1-0","properties":{"highway":"primary","lanes":"3","maxspeed":"70","name":"Boon Lay Way","name:en":"Boon Lay Way","name:zh":"\u6587\u793c\u5927\u9053","note":"Part of it estimated ???","oneway":"yes","sidewalk":"separate","source":"Yahoo aerial images","surface":"asphalt"},"geometry":{"type":"LineString","coordinates":[[103.7267238,1.3443517],[103.726185,1.3444856]]}},{"type":"Feature","id":"way/642168301-0-0-0","properties":{"highway":"primary","lanes":"3","maxspeed":"70","name":"Boon Lay Way","name:en":"Boon Lay Way","name:zh":"\u6587\u793c\u5927\u9053","note":"Part of it estimated ???","oneway":"yes","sidewalk":"no","source":"Yahoo aerial images","surface":"asphalt"},"geometry":{"type":"LineString","coordinates":[[103.7257405,1.3447342],[103.726088,1.3446436]]}},{"type":"Feature","id":"way/642168302-0-0-0","properties":{"highway":"primary","lanes":"3","maxspeed":"70","name":"Boon Lay Way","name:en":"Boon Lay Way","name:zh":"\u6587\u793c\u5927\u9053","note":"Part of it estimated ???","oneway":"yes","sidewalk":"no","source":"Yahoo aerial images","surface":"asphalt"},"geometry":{"type":"LineString","coordinates":[[103.7254753,1.3448034],[103.7257405,1.3447342]]}},{"type":"Feature","id":"way/642197536-0-0-0","properties":{"highway":"primary","lanes":"3","maxspeed":"70","name":"Boon Lay Way","name:en":"Boon Lay Way","name:zh":"\u6587\u793c\u5927\u9053","note":"Part of it estimated ???","oneway":"yes","sidewalk":"no","source":"Yahoo aerial images","surface":"asphalt","turn:lanes":"left;through|through|through"},"geometry":{"type":"LineString","coordinates":[[103.7293681,1.3443611],[103.729694,1.3443045]]}},{"type":"Feature","id":"way/656791027-0-0-0","properties":{"highway":"primary","lanes":"3","maxspeed":"70","name":"Boon Lay Way","name:en":"Boon Lay Way","name:zh":"\u6587\u793c\u5927\u9053","note":"Part of it estimated ???","oneway":"yes","sidewalk":"separate","source":"Yahoo aerial images","surface":"asphalt"},"geometry":{"type":"LineString","coordinates":[[103.726185,1.3444856],[103.7259663,1.3445443]]}},{"type":"Feature","id":"way/656791027-0-1-0","properties":{"highway":"primary","lanes":"3","maxspeed":"70","name":"Boon Lay Way","name:en":"Boon Lay Way","name:zh":"\u6587\u793c\u5927\u9053","note":"Part of it estimated ???","oneway":"yes","sidewalk":"separate","source":"Yahoo aerial images","surface":"asphalt"},"geometry":{"type":"LineString","coordinates":[[103.7259663,1.3445443],[103.7254666,1.3446785]]}},{"type":"Feature","id":"way/664041370-0-1-0","properties":{"highway":"service","lanes":"1","oneway":"yes","parking:condition:both:vehicles":"motorcar","parking:lane:both":"perpendicular","service":"parking_aisle","turn:lanes":"right"},"geometry":{"type":"LineString","coordinates":[[103.7296519,1.3459604],[103.7296438,1.3459633]]}},{"type":"Feature","id":"way/679993482-0-0-0","properties":{"cycleway":"lane","highway":"residential","lanes":"2","lanes:backward":"1","lanes:forward":"1","maxspeed":"40","name":"Jurong West Street 41","surface":"asphalt","turn:lanes:backward":"through"},"geometry":{"type":"LineString","coordinates":[[103.7253163,1.346503],[103.7253972,1.3465121]]}},{"type":"Feature","id":"way/709894641-0-0-0","properties":{"highway":"primary","lanes":"3","maxspeed":"70","name":"Boon Lay Way","name:en":"Boon Lay Way","name:zh":"\u6587\u793c\u5927\u9053","note":"Part of it estimated ???","oneway":"yes","sidewalk":"separate","source":"Yahoo aerial images","surface":"asphalt","turn:lanes":"through|through|through"},"geometry":{"type":"LineString","coordinates":[[103.728054,1.3442801],[103.7275981,1.3442753]]}},{"type":"Feature","id":"way/933701309-0-7-0","properties":{"highway":"service"},"geometry":{"type":"LineString","coordinates":[[103.7252022,1.3451216],[103.7252152,1.3451159]]}},{"type":"Feature","id":"way/933701310-0-6-0","properties":{"highway":"service","junction":"roundabout"},"geometry":{"type":"LineString","coordinates":[[103.7252085,1.3456868],[103.7252192,1.3456737]]}},{"type":"Feature","id":"way/933701310-0-7-0","properties":{"highway":"service","junction":"roundabout"},"geometry":{"type":"LineString","coordinates":[[103.7252192,1.3456737],[103.725225,1.3456578]]}},{"type":"Feature","id":"way/933701310-0-8-0","properties":{"highway":"service","junction":"roundabout"},"geometry":{"type":"LineString","coordinates":[[103.725225,1.3456578],[103.7252254,1.3456409]]}},{"type":"Feature","id":"way/933701310-0-9-0","properties":{"highway":"service","junction":"roundabout"},"geometry":{"type":"LineString","coordinates":[[103.7252254,1.3456409],[103.7252203,1.3456247]]}},{"type":"Feature","id":"way/933701310-0-10-0","properties":{"highway":"service","junction":"roundabout"},"geometry":{"type":"LineString","coordinates":[[103.7252203,1.3456247],[103.7252102,1.3456111]]}}]}