{"type":"FeatureCollection","features":[{"type":"Feature","id":"way/933225382-0-0-0","properties":{"highway":"service"},"geometry":{"type":"LineString","coordinates":[[103.7194558,1.2876969],[103.7194026,1.2875679]]}},{"type":"Feature","id":"way/933225382-0-1-0","properties":{"highway":"service"},"geometry":{"type":"LineString","coordinates":[[103.7194026,1.2875679],[103.7193301,1.2874405]]}},{"type":"Feature","id":"way/933225382-0-2-0","properties":{"highway":"service"},"geometry":{"type":"LineString","coordinates":[[103.7193301,1.2874405],[103.7192416,1.2873748]]}},{"type":"Feature","id":"way/933225382-0-3-0","properties":{"highway":"service"},"geometry":{"type":"LineString","coordinates":[[103.7192416,1.2873748],[103.7191652,1.2873533]]}},{"type":"Feature","id":"way/933225382-0-4-0","properties":{"highway":"service"},"geometry":{"type":"LineString","coordinates":[[103.7191652,1.2873533],[103.7189989,1.2873399]]}},{"type":"Feature","id":"way/933225382-0-5-0","properties":{"highway":"service"},"geometry":{"type":"LineString","coordinates":[[103.7189989,1.2873399],[103.7187749,1.2873641]]}},{"type":"Feature","id":"way/933225382-0-6-0","properties":{"highway":"service"},"geometry":{"type":"LineString","coordinates":[[103.7187749,1.2873641],[103.7182626,1.2874231]]}},{"type":"Feature","id":"way/933225382-0-7-0","properties":{"highway":"service"},"geometry":{"type":"LineString","coordinates":[[103.7182626,1.2874231],[103.7172742,1.2874606]]}},{"type":"Feature","id":"way/933225382-0-8-0","properties":{"highway":"service"},"geometry":{"type":"LineString","coordinates":[[103.7172742,1.2874606],[103.7170093,1.2874532]]}},{"type":"Feature","id":"way/933225382-0-9-0","properties":{"highway":"service"},"geometry":{"type":"LineString","coordinates":[[103.7170093,1.2874532],[103.7169289,1.28747]]}},{"type":"Feature","id":"way/933225382-0-10-0","properties":{"highway":"service"},"geometry":{"type":"LineString","coordinates":[[103.7169289,1.28747],[103.716898,1.2874827]]}},{"type":"Feature","id":"way/933225382-0-11-0","properties":{"highway":"service"},"geometry":{"type":"LineString","coordinates":[[103.716898,1.2874827],[103.7168645,1.2875216]]}},{"type":"Feature","id":"way/933225382-0-12-0","properties":{"highway":"service"},"geometry":{"type":"LineString","coordinates":[[103.7168645,1.2875216],[103.7168464,1.2875786]]}},{"type":"Feature","id":"way/933225382-0-13-0","properties":{"highway":"service"},"geometry":{"type":"LineString","coordinates":[[103.7168464,1.2875786],[103.7168511,1.2876342]]}},{"type":"Feature","id":"way/933225382-0-14-0","properties":{"highway":"service"},"geometry":{"type":"LineString","coordinates":[[103.7168511,1.2876342],[103.7168987,1.28772]]}},{"type":"Feature","id":"way/933225382-0-15-0","properties":{"highway":"service"},"geometry":{"type":"LineString","coordinates":[[103.7168987,1.28772],[103.7169765,1.2877817]]}},{"type":"Feature","id":"way/933225382-0-16-0","properties":{"highway":"service"},"geometry":{"type":"LineString","coordinates":[[103.7169765,1.2877817],[103.7171381,1.2879493]]}},{"type":"Feature","id":"way/933225382-0-17-0","properties":{"highway":"service"},"geometry":{"type":"LineString","coordinates":[[103.7171381,1.2879493],[103.7181667,1.2889629]]}},{"type":"Feature","id":"way/933225563-0-0-0","properties":{"highway":"service"},"geometry":{"type":"LineString","coordinates":[[103.7203764,1.2867973],[103.7200382,1.286864]]}},{"type":"Feature","id":"way/933225563-0-1-0","properties":{"highway":"service"},"geometry":{"type":"LineString","coordinates":[[103.7200382,1.286864],[103.7195501,1.2870584]]}},{"type":"Feature","id":"way/933225563-0-2-0","properties":{"highway":"service"},"geometry":{"type":"LineString","coordinates":[[103.7195501,1.2870584],[103.719357,1.287226]]}},{"type":"Feature","id":"way/933225563-0-3-0","properties":{"highway":"service"},"geometry":{"type":"LineString","coordinates":[[103.719357,1.287226],[103.7192416,1.2873748]]}}]}