{"type":"FeatureCollection","features":[{"type":"Feature","id":"way/453259508-0","properties":{"building":"yes"},"geometry":{"type":"Polygon","coordinates":[[[103.7149856,1.394853],[103.7149711,1.3948342],[103.7150876,1.3947269],[103.714999,1.3946307],[103.7149906,1.3946216],[103.71492,1.3946867],[103.714907,1.3946726],[103.7147737,1.3947954],[103.7148837,1.3949147],[103.7149323,1.39487],[103.7149441,1.3948852],[103.7149856,1.394853]]]}},{"type":"Feature","id":"way/453259515-0","properties":{"building":"yes"},"geometry":{"type":"Polygon","coordinates":[[[103.7152218,1.3946223],[103.715309,1.394499],[103.7150795,1.3943369],[103.7149923,1.3944602],[103.7152218,1.3946223]]]}},{"type":"Feature","id":"way/453259520-0","properties":{"building":"yes"},"geometry":{"type":"Polygon","coordinates":[[[103.7153062,1.3946922],[103.7153967,1.3945659],[103.7153256,1.394515],[103.7152351,1.3946412],[103.7153062,1.3946922]]]}},{"type":"Feature","id":"way/454845998-0","properties":{"building":"yes"},"geometry":{"type":"Polygon","coordinates":[[[103.7133951,1.3944935],[103.7133838,1.3945011],[103.7133763,1.3945124],[103.7133736,1.3945257],[103.7133763,1.3945391],[103.7133838,1.3945504],[103.7133951,1.3945579],[103.7134085,1.3945606],[103.7134218,1.3945579],[103.7134331,1.3945504],[103.7134407,1.3945391],[103.7134434,1.3945257],[103.7134407,1.3945124],[103.7134331,1.3945011],[103.7134218,1.3944935],[103.7134085,1.3944909],[103.7133951,1.3944935]]]}},{"type":"Feature","id":"way/454845999-0","properties":{"building":"yes"},"geometry":{"type":"Polygon","coordinates":[[[103.7133147,1.3945031],[103.7133034,1.3945106],[103.7132958,1.394522],[103.7132932,1.3945353],[103.7132958,1.3945486],[103.7133034,1.3945599],[103.7133147,1.3945675],[103.713328,1.3945702],[103.7133414,1.3945675],[103.7133527,1.3945599],[103.7133602,1.3945486],[103.7133629,1.3945353],[103.7133602,1.394522],[103.7133527,1.3945106],[103.7133414,1.3945031],[103.713328,1.3945004],[103.7133147,1.3945031]]]}},{"type":"Feature","id":"way/1243202489-0","properties":{"aeroway":"hangar","building":"hangar"},"geometry":{"type":"Polygon","coordinates":[[[103.7144087,1.3923344],[103.7145266,1.3920742],[103.7135184,1.3916109],[103.7134249,1.3918548],[103.7144087,1.3923344]]]}}]}