{"type":"FeatureCollection","features":[{"type":"Feature","id":"way/135511492-0","properties":{"building":"yes","man_made":"storage_tank"},"geometry":{"type":"Polygon","coordinates":[[[103.7051703,1.2886477],[103.7051514,1.2886351],[103.7051292,1.2886307],[103.705107,1.2886351],[103.7050881,1.2886477],[103.7050755,1.2886665],[103.7050711,1.2886888],[103.7050755,1.288711],[103.7050881,1.2887298],[103.705107,1.2887424],[103.7051292,1.2887468],[103.7051514,1.2887424],[103.7051703,1.2887298],[103.7051829,1.288711],[103.7051873,1.2886888],[103.7051829,1.2886665],[103.7051703,1.2886477]]]}},{"type":"Feature","id":"way/135511493-0","properties":{"building":"yes","man_made":"storage_tank"},"geometry":{"type":"Polygon","coordinates":[[[103.7069458,1.2889408],[103.7068657,1.2888873],[103.7067711,1.2888685],[103.7066765,1.2888873],[103.7065964,1.2889408],[103.7065428,1.289021],[103.706524,1.2891155],[103.7065428,1.28921],[103.7065964,1.2892902],[103.7066765,1.2893437],[103.7067711,1.2893625],[103.7068657,1.2893437],[103.7069458,1.2892902],[103.7069994,1.28921],[103.7070182,1.2891155],[103.7069994,1.289021],[103.7069458,1.2889408]]]}},{"type":"Feature","id":"way/135511496-0","properties":{"building":"yes","man_made":"storage_tank"},"geometry":{"type":"Polygon","coordinates":[[[103.7061522,1.2898289],[103.7060932,1.2897895],[103.7060237,1.2897756],[103.7059542,1.2897895],[103.7058952,1.2898288],[103.7058558,1.2898877],[103.705842,1.2899573],[103.7058558,1.2900268],[103.7058952,1.2900857],[103.7059541,1.2901251],[103.7060236,1.2901389],[103.7060932,1.2901251],[103.7061521,1.2900857],[103.7061915,1.2900268],[103.7062053,1.2899573],[103.7061915,1.2898878],[103.7061522,1.2898289]]]}},{"type":"Feature","id":"way/135511511-0","properties":{"building":"yes","man_made":"storage_tank"},"geometry":{"type":"Polygon","coordinates":[[[103.704253,1.2894044],[103.7042407,1.2893962],[103.7042262,1.2893933],[103.7042117,1.2893962],[103.7041994,1.2894044],[103.7041912,1.2894167],[103.7041883,1.2894312],[103.7041912,1.2894456],[103.7041994,1.2894579],[103.7042117,1.2894661],[103.7042262,1.289469],[103.7042407,1.2894661],[103.704253,1.2894579],[103.7042612,1.2894456],[103.7042641,1.2894312],[103.7042612,1.2894167],[103.704253,1.2894044]]]}},{"type":"Feature","id":"way/135511516-0","properties":{"building":"yes","man_made":"storage_tank"},"geometry":{"type":"Polygon","coordinates":[[[103.7052678,1.2890118],[103.705249,1.2889992],[103.7052268,1.2889948],[103.7052045,1.2889992],[103.7051857,1.2890118],[103.7051731,1.2890306],[103.7051687,1.2890528],[103.7051731,1.2890751],[103.7051857,1.2890939],[103.7052045,1.2891065],[103.7052268,1.2891109],[103.705249,1.2891065],[103.7052678,1.2890939],[103.7052804,1.2890751],[103.7052848,1.2890528],[103.7052804,1.2890306],[103.7052678,1.2890118]]]}},{"type":"Feature","id":"way/135511517-0","properties":{"building":"yes","man_made":"storage_tank"},"geometry":{"type":"Polygon","coordinates":[[[103.7069084,1.2909539],[103.7068513,1.2909157],[103.706784,1.2909023],[103.7067167,1.2909157],[103.7066596,1.2909539],[103.7066215,1.2910109],[103.7066081,1.2910782],[103.7066215,1.2911455],[103.7066596,1.2912026],[103.7067167,1.2912407],[103.706784,1.2912541],[103.7068513,1.2912407],[103.7069084,1.2912026],[103.7069465,1.2911455],[103.7069599,1.2910782],[103.7069465,1.2910109],[103.7069084,1.2909539]]]}},{"type":"Feature","id":"way/135511526-0","properties":{"building":"yes","man_made":"storage_tank"},"geometry":{"type":"Polygon","coordinates":[[[103.7068018,1.2883794],[103.7067216,1.2883258],[103.7066271,1.288307],[103.7065325,1.2883258],[103.7064523,1.2883793],[103.7063987,1.2884595],[103.7063799,1.288554],[103.7063987,1.2886485],[103.7064523,1.2887287],[103.7065324,1.2887823],[103.706627,1.2888011],[103.7067215,1.2887823],[103.7068017,1.2887288],[103.7068553,1.2886486],[103.7068741,1.2885541],[103.7068553,1.2884596],[103.7068018,1.2883794]]]}},{"type":"Feature","id":"way/135511531-0","properties":{"building":"yes","man_made":"storage_tank"},"geometry":{"type":"Polygon","coordinates":[[[103.7069666,1.2916997],[103.7069095,1.2916616],[103.7068422,1.2916482],[103.7067749,1.2916616],[103.7067178,1.2916997],[103.7066797,1.2917568],[103.7066663,1.2918241],[103.7066797,1.2918914],[103.7067178,1.2919484],[103.7067749,1.2919865],[103.7068422,1.2919999],[103.7069095,1.2919865],[103.7069666,1.2919484],[103.7070047,1.2918914],[103.7070181,1.2918241],[103.7070047,1.2917568],[103.7069666,1.2916997]]]}},{"type":"Feature","id":"way/135511533-0","properties":{"building":"yes","man_made":"storage_tank"},"geometry":{"type":"Polygon","coordinates":[[[103.7047669,1.2889114],[103.7047445,1.2888964],[103.704718,1.2888912],[103.7046915,1.2888964],[103.704669,1.2889114],[103.704654,1.2889339],[103.7046487,1.2889604],[103.704654,1.2889869],[103.704669,1.2890093],[103.7046915,1.2890243],[103.704718,1.2890296],[103.7047445,1.2890243],[103.7047669,1.2890093],[103.7047819,1.2889869],[103.7047872,1.2889604],[103.7047819,1.2889339],[103.7047669,1.2889114]]]}},{"type":"Feature","id":"way/135511540-0","properties":{"building":"yes","man_made":"storage_tank"},"geometry":{"type":"Polygon","coordinates":[[[103.7058227,1.2886463],[103.7057723,1.2886126],[103.7057128,1.2886008],[103.7056534,1.2886126],[103.7056029,1.2886462],[103.7055692,1.2886966],[103.7055574,1.2887561],[103.7055692,1.2888156],[103.7056029,1.288866],[103.7056533,1.2888997],[103.7057128,1.2889115],[103.7057722,1.2888997],[103.7058227,1.2888661],[103.7058564,1.2888157],[103.7058682,1.2887562],[103.7058564,1.2886967],[103.7058227,1.2886463]]]}},{"type":"Feature","id":"way/135511545-0","properties":{"building":"yes","man_made":"storage_tank"},"geometry":{"type":"Polygon","coordinates":[[[103.7052202,1.2888088],[103.7052013,1.2887962],[103.7051791,1.2887917],[103.7051569,1.2887962],[103.705138,1.2888088],[103.7051254,1.2888276],[103.705121,1.2888498],[103.7051254,1.288872],[103.705138,1.2888909],[103.7051569,1.2889035],[103.7051791,1.2889079],[103.7052013,1.2889035],[103.7052202,1.2888909],[103.7052328,1.288872],[103.7052372,1.2888498],[103.7052328,1.2888276],[103.7052202,1.2888088]]]}},{"type":"Feature","id":"way/135511546-0","properties":{"building":"yes","man_made":"storage_tank"},"geometry":{"type":"Polygon","coordinates":[[[103.7070843,1.2895034],[103.7070041,1.2894498],[103.7069096,1.289431],[103.706815,1.2894498],[103.7067348,1.2895033],[103.7066812,1.2895835],[103.7066624,1.289678],[103.7066812,1.2897726],[103.7067348,1.2898527],[103.7068149,1.2899063],[103.7069095,1.2899251],[103.707004,1.2899063],[103.7070842,1.2898528],[103.7071378,1.2897726],[103.7071566,1.2896781],[103.7071378,1.2895836],[103.7070843,1.2895034]]]}},{"type":"Feature","id":"way/135511548-0","properties":{"building":"yes","man_made":"storage_tank"},"geometry":{"type":"Polygon","coordinates":[[[103.7060114,1.2893128],[103.7059525,1.2892734],[103.705883,1.2892596],[103.7058134,1.2892734],[103.7057545,1.2893128],[103.7057151,1.2893717],[103.7057013,1.2894413],[103.7057151,1.2895108],[103.7057545,1.2895697],[103.7058135,1.2896091],[103.705883,1.2896229],[103.7059525,1.289609],[103.7060115,1.2895697],[103.7060508,1.2895107],[103.7060647,1.2894412],[103.7060508,1.2893717],[103.7060114,1.2893128]]]}},{"type":"Feature","id":"way/135511562-0","properties":{"building":"yes","man_made":"storage_tank"},"geometry":{"type":"Polygon","coordinates":[[[103.704163,1.2895081],[103.7041507,1.2894999],[103.7041363,1.289497],[103.7041218,1.2894999],[103.7041095,1.2895081],[103.7041013,1.2895204],[103.7040984,1.2895349],[103.7041013,1.2895494],[103.7041095,1.2895617],[103.7041218,1.2895699],[103.7041363,1.2895727],[103.7041507,1.2895699],[103.704163,1.2895617],[103.7041712,1.2895494],[103.7041741,1.2895349],[103.7041712,1.2895204],[103.704163,1.2895081]]]}},{"type":"Feature","id":"way/135511567-0","properties":{"building":"yes","man_made":"storage_tank"},"geometry":{"type":"Polygon","coordinates":[[[103.7053291,1.2892182],[103.7053103,1.2892056],[103.705288,1.2892012],[103.7052658,1.2892056],[103.705247,1.2892182],[103.7052344,1.2892371],[103.7052299,1.2892593],[103.7052344,1.2892815],[103.705247,1.2893003],[103.7052658,1.2893129],[103.705288,1.2893173],[103.7053103,1.2893129],[103.7053291,1.2893003],[103.7053417,1.2892815],[103.7053461,1.2892593],[103.7053417,1.2892371],[103.7053291,1.2892182]]]}},{"type":"Feature","id":"way/135511568-0","properties":{"building":"yes","man_made":"storage_tank"},"geometry":{"type":"Polygon","coordinates":[[[103.7045808,1.289164],[103.704551,1.2891441],[103.7045158,1.2891371],[103.7044806,1.2891441],[103.7044507,1.2891641],[103.7044308,1.2891939],[103.7044238,1.2892291],[103.7044308,1.2892643],[103.7044508,1.2892941],[103.7044807,1.289314],[103.7045159,1.289321],[103.7045511,1.289314],[103.7045809,1.289294],[103.7046008,1.2892642],[103.7046078,1.289229],[103.7046008,1.2891938],[103.7045808,1.289164]]]}},{"type":"Feature","id":"way/135511573-0","properties":{"building":"yes"},"geometry":{"type":"Polygon","coordinates":[[[103.7039407,1.2900389],[103.7040419,1.2899146],[103.7039127,1.2898096],[103.7038116,1.2899339],[103.7039407,1.2900389]]]}},{"type":"Feature","id":"way/135511574-0","properties":{"building":"yes"},"geometry":{"type":"Polygon","coordinates":[[[103.7038013,1.2901426],[103.7038942,1.2900285],[103.7037421,1.2899049],[103.7036493,1.290019],[103.7038013,1.2901426]]]}},{"type":"Feature","id":"way/135511575-0","properties":{"building":"yes"},"geometry":{"type":"Polygon","coordinates":[[[103.7063192,1.2921253],[103.7064437,1.2920922],[103.7062508,1.2913686],[103.7061264,1.2914017],[103.7063192,1.2921253]]]}},{"type":"Feature","id":"way/135511576-0","properties":{"building":"yes"},"geometry":{"type":"Polygon","coordinates":[[[103.7052295,1.2909989],[103.7054525,1.2909716],[103.7054364,1.2908396],[103.7052133,1.2908668],[103.7052295,1.2909989]]]}},{"type":"Feature","id":"way/135511584-0","properties":{"building":"yes"},"geometry":{"type":"Polygon","coordinates":[[[103.7058305,1.2915611],[103.7058582,1.2916648],[103.7060901,1.2919824],[103.7061849,1.2919572],[103.7060628,1.2914992],[103.7058305,1.2915611]]]}},{"type":"Feature","id":"way/135511586-0","properties":{"building":"yes"},"geometry":{"type":"Polygon","coordinates":[[[103.7052549,1.2901613],[103.7054717,1.2901049],[103.7054656,1.2900816],[103.7055454,1.2900608],[103.7055184,1.2899573],[103.7054386,1.2899781],[103.7054269,1.289933],[103.7052101,1.2899894],[103.7052549,1.2901613]]]}},{"type":"Feature","id":"way/565463717-0","properties":{"building":"yes","man_made":"storage_tank"},"geometry":{"type":"Polygon","coordinates":[[[103.7047422,1.289941],[103.7047124,1.2899211],[103.7046772,1.2899141],[103.704642,1.2899211],[103.7046121,1.289941],[103.7045922,1.2899709],[103.7045852,1.2900061],[103.7045923,1.2900413],[103.7046122,1.2900711],[103.7046421,1.290091],[103.7046773,1.290098],[103.7047125,1.290091],[103.7047423,1.290071],[103.7047622,1.2900412],[103.7047692,1.290006],[103.7047622,1.2899708],[103.7047422,1.289941]]]}},{"type":"Feature","id":"way/565463718-0","properties":{"building":"yes","man_made":"storage_tank"},"geometry":{"type":"Polygon","coordinates":[[[103.7048703,1.2897043],[103.7048405,1.2896844],[103.7048052,1.2896774],[103.7047701,1.2896845],[103.7047402,1.2897044],[103.7047203,1.2897343],[103.7047133,1.2897694],[103.7047203,1.2898046],[103.7047403,1.2898345],[103.7047701,1.2898544],[103.7048053,1.2898614],[103.7048405,1.2898543],[103.7048704,1.2898344],[103.7048903,1.2898045],[103.7048973,1.2897693],[103.7048903,1.2897342],[103.7048703,1.2897043]]]}},{"type":"Feature","id":"way/565463719-0","properties":{"building":"yes","man_made":"storage_tank"},"geometry":{"type":"Polygon","coordinates":[[[103.7046343,1.2896004],[103.7046044,1.2895805],[103.7045692,1.2895735],[103.704534,1.2895805],[103.7045042,1.2896005],[103.7044843,1.2896303],[103.7044773,1.2896655],[103.7044843,1.2897007],[103.7045043,1.2897306],[103.7045341,1.2897505],[103.7045693,1.2897575],[103.7046045,1.2897504],[103.7046343,1.2897305],[103.7046543,1.2897006],[103.7046613,1.2896654],[103.7046542,1.2896302],[103.7046343,1.2896004]]]}},{"type":"Feature","id":"way/591618876-0","properties":{"building":"yes","man_made":"storage_tank"},"geometry":{"type":"Polygon","coordinates":[[[103.7040815,1.2896085],[103.7040701,1.2895971],[103.7040557,1.2895898],[103.7040398,1.2895874],[103.7040239,1.2895899],[103.7040096,1.2895972],[103.7039983,1.2896086],[103.703991,1.289623],[103.7039885,1.2896389],[103.703991,1.2896548],[103.7039984,1.2896691],[103.7040098,1.2896805],[103.7040241,1.2896877],[103.70404,1.2896902],[103.7040559,1.2896877],[103.7040703,1.2896804],[103.7040816,1.289669],[103.7040889,1.2896546],[103.7040914,1.2896387],[103.7040888,1.2896228],[103.7040815,1.2896085]]]}}]}