{"type":"FeatureCollection","features":[{"type":"Feature","id":"way/117858212-0","properties":{"addr:housenumber":"4","addr:street":"Jalan Samulun","building":"yes"},"geometry":{"type":"Polygon","coordinates":[[[103.6970319,1.3061063],[103.6966864,1.3058423],[103.6965338,1.3060419],[103.6968793,1.3063059],[103.6970319,1.3061063]]]}},{"type":"Feature","id":"way/117916934-0","properties":{"building":"yes"},"geometry":{"type":"Polygon","coordinates":[[[103.6963647,1.306158],[103.6963737,1.3061451],[103.6964603,1.3062057],[103.6965128,1.3061306],[103.6963405,1.3060101],[103.6962789,1.306098],[103.6963647,1.306158]]]}},{"type":"Feature","id":"way/117916935-0","properties":{"addr:housenumber":"6","addr:street":"Jalan Samulun","building":"yes"},"geometry":{"type":"Polygon","coordinates":[[[103.6969513,1.3056418],[103.6970449,1.3055256],[103.6968588,1.3053757],[103.6967652,1.3054919],[103.6969513,1.3056418]]]}},{"type":"Feature","id":"way/117916936-0","properties":{"building":"yes"},"geometry":{"type":"Polygon","coordinates":[[[103.6969412,1.303034],[103.6969337,1.3028429],[103.6959018,1.3028836],[103.6959093,1.3030747],[103.6969412,1.303034]]]}},{"type":"Feature","id":"way/117916937-0","properties":{"building":"yes"},"geometry":{"type":"Polygon","coordinates":[[[103.6986495,1.3024137],[103.6986454,1.3020276],[103.6977683,1.3020369],[103.6977724,1.302423],[103.6986495,1.3024137]]]}},{"type":"Feature","id":"way/117916938-0","properties":{"building":"yes"},"geometry":{"type":"Polygon","coordinates":[[[103.6969537,1.3027031],[103.6969446,1.3024668],[103.6962047,1.3024953],[103.6962138,1.3027316],[103.6969537,1.3027031]]]}},{"type":"Feature","id":"way/117916940-0","properties":{"building":"yes"},"geometry":{"type":"Polygon","coordinates":[[[103.6976054,1.3027054],[103.6975947,1.3023002],[103.6971899,1.302311],[103.6972006,1.3027161],[103.6976054,1.3027054]]]}},{"type":"Feature","id":"way/117916941-0","properties":{"addr:housenumber":"30","addr:street":"Jalan Samulun","building":"yes"},"geometry":{"type":"Polygon","coordinates":[[[103.6978285,1.3032708],[103.6978224,1.3029035],[103.6973465,1.3029114],[103.6973526,1.3032787],[103.6978285,1.3032708]]]}},{"type":"Feature","id":"way/117916944-0","properties":{"addr:housenumber":"3","addr:street":"Jalan Samulun","building":"yes"},"geometry":{"type":"Polygon","coordinates":[[[103.6966054,1.303663],[103.6966019,1.3034859],[103.6958269,1.3035011],[103.6958304,1.3036782],[103.6966054,1.303663]]]}},{"type":"Feature","id":"way/117916945-0","properties":{"addr:housenumber":"10","addr:street":"Jalan Samulun","building":"yes"},"geometry":{"type":"Polygon","coordinates":[[[103.6972857,1.3055604],[103.6974584,1.3053275],[103.6970185,1.3050016],[103.6968458,1.3052345],[103.6972857,1.3055604]]]}},{"type":"Feature","id":"way/117916946-0","properties":{"addr:housenumber":"20","addr:street":"Jalan Samulun","building":"yes"},"geometry":{"type":"Polygon","coordinates":[[[103.698194,1.3042001],[103.6981864,1.3036185],[103.6979476,1.3036216],[103.6979552,1.3042032],[103.698194,1.3042001]]]}},{"type":"Feature","id":"way/454858515-0","properties":{"building":"yes"},"geometry":{"type":"Polygon","coordinates":[[[103.6968263,1.3039411],[103.6966356,1.3039528],[103.696649,1.3041726],[103.6968398,1.304161],[103.6968339,1.3040654],[103.6968744,1.3040654],[103.6968744,1.3040278],[103.6968316,1.3040278],[103.6968263,1.3039411]]]}},{"type":"Feature","id":"way/173896207-0-0-0","properties":{"highway":"residential","lanes":"2","lanes:backward":"1","lanes:forward":"1","lit":"yes","maxspeed":"50","name":"Jalan Samulun"},"geometry":{"type":"LineString","coordinates":[[103.6970978,1.303928],[103.6971062,1.3042434]]}},{"type":"Feature","id":"way/173896295-0-0-0","properties":{"highway":"service","name":"Jalan Samulun","oneway":"yes"},"geometry":{"type":"LineString","coordinates":[[103.6971062,1.3042434],[103.6971395,1.3042402]]}},{"type":"Feature","id":"way/173896295-0-1-0","properties":{"highway":"service","name":"Jalan Samulun","oneway":"yes"},"geometry":{"type":"LineString","coordinates":[[103.6971395,1.3042402],[103.6971711,1.3042295]]}},{"type":"Feature","id":"way/173896295-0-2-0","properties":{"highway":"service","name":"Jalan Samulun","oneway":"yes"},"geometry":{"type":"LineString","coordinates":[[103.6971711,1.3042295],[103.6972032,1.304204]]}},{"type":"Feature","id":"way/173896295-0-3-0","properties":{"highway":"service","name":"Jalan Samulun","oneway":"yes"},"geometry":{"type":"LineString","coordinates":[[103.6972032,1.304204],[103.697236,1.3041636]]}},{"type":"Feature","id":"way/173896295-0-4-0","properties":{"highway":"service","name":"Jalan Samulun","oneway":"yes"},"geometry":{"type":"LineString","coordinates":[[103.697236,1.3041636],[103.6972532,1.3041222]]}},{"type":"Feature","id":"way/173896295-0-5-0","properties":{"highway":"service","name":"Jalan Samulun","oneway":"yes"},"geometry":{"type":"LineString","coordinates":[[103.6972532,1.3041222],[103.6972609,1.304082]]}},{"type":"Feature","id":"way/173896295-0-6-0","properties":{"highway":"service","name":"Jalan Samulun","oneway":"yes"},"geometry":{"type":"LineString","coordinates":[[103.6972609,1.304082],[103.6972553,1.3040141]]}},{"type":"Feature","id":"way/173896295-0-7-0","properties":{"highway":"service","name":"Jalan Samulun","oneway":"yes"},"geometry":{"type":"LineString","coordinates":[[103.6972553,1.3040141],[103.6972502,1.3039781]]}},{"type":"Feature","id":"way/173896295-0-8-0","properties":{"highway":"service","name":"Jalan Samulun","oneway":"yes"},"geometry":{"type":"LineString","coordinates":[[103.6972502,1.3039781],[103.6972262,1.3039412]]}},{"type":"Feature","id":"way/173896295-0-9-0","properties":{"highway":"service","name":"Jalan Samulun","oneway":"yes"},"geometry":{"type":"LineString","coordinates":[[103.6972262,1.3039412],[103.6971932,1.3039267]]}},{"type":"Feature","id":"way/173896295-0-10-0","properties":{"highway":"service","name":"Jalan Samulun","oneway":"yes"},"geometry":{"type":"LineString","coordinates":[[103.6971932,1.3039267],[103.6971449,1.3039238]]}},{"type":"Feature","id":"way/173896295-0-11-0","properties":{"highway":"service","name":"Jalan Samulun","oneway":"yes"},"geometry":{"type":"LineString","coordinates":[[103.6971449,1.3039238],[103.6970978,1.303928]]}},{"type":"Feature","id":"way/251582023-0-0-0","properties":{"highway":"residential","lanes":"2","lanes:backward":"1","lanes:forward":"1","lit":"yes","maxspeed":"50","name":"Jalan Samulun","sidewalk":"right"},"geometry":{"type":"LineString","coordinates":[[103.6970974,1.3045395],[103.6970879,1.3046022]]}},{"type":"Feature","id":"way/251582023-0-1-0","properties":{"highway":"residential","lanes":"2","lanes:backward":"1","lanes:forward":"1","lit":"yes","maxspeed":"50","name":"Jalan Samulun","sidewalk":"right"},"geometry":{"type":"LineString","coordinates":[[103.6970879,1.3046022],[103.6970343,1.3047265]]}},{"type":"Feature","id":"way/251582023-0-2-0","properties":{"highway":"residential","lanes":"2","lanes:backward":"1","lanes:forward":"1","lit":"yes","maxspeed":"50","name":"Jalan Samulun","sidewalk":"right"},"geometry":{"type":"LineString","coordinates":[[103.6970343,1.3047265],[103.6969123,1.3048934]]}},{"type":"Feature","id":"way/465523275-0-0-0","properties":{"highway":"service"},"geometry":{"type":"LineString","coordinates":[[103.6970814,1.3034489],[103.6971154,1.30345]]}},{"type":"Feature","id":"way/465523275-0-1-0","properties":{"highway":"service"},"geometry":{"type":"LineString","coordinates":[[103.6971154,1.30345],[103.6981639,1.3034383]]}},{"type":"Feature","id":"way/465523275-0-2-0","properties":{"highway":"service"},"geometry":{"type":"LineString","coordinates":[[103.6981639,1.3034383],[103.6982149,1.3034543]]}},{"type":"Feature","id":"way/465523275-0-3-0","properties":{"highway":"service"},"geometry":{"type":"LineString","coordinates":[[103.6982149,1.3034543],[103.6982471,1.3034999]]}},{"type":"Feature","id":"way/544790046-0-0-0","properties":{"highway":"service"},"geometry":{"type":"LineString","coordinates":[[103.6961859,1.3062328],[103.6959846,1.3065731]]}},{"type":"Feature","id":"way/544790047-0-0-0","properties":{"highway":"service"},"geometry":{"type":"LineString","coordinates":[[103.6960059,1.3061335],[103.6961859,1.3062328]]}},{"type":"Feature","id":"way/544790057-0-0-0","properties":{"highway":"service","oneway":"yes"},"geometry":{"type":"LineString","coordinates":[[103.697108,1.3043752],[103.697081,1.3043721]]}},{"type":"Feature","id":"way/544790057-0-1-0","properties":{"highway":"service","oneway":"yes"},"geometry":{"type":"LineString","coordinates":[[103.697081,1.3043721],[103.6966408,1.3042747]]}},{"type":"Feature","id":"way/544790057-0-2-0","properties":{"highway":"service","oneway":"yes"},"geometry":{"type":"LineString","coordinates":[[103.6966408,1.3042747],[103.6966279,1.3042748]]}},{"type":"Feature","id":"way/544790057-0-3-0","properties":{"highway":"service","oneway":"yes"},"geometry":{"type":"LineString","coordinates":[[103.6966279,1.3042748],[103.6966215,1.3042764]]}},{"type":"Feature","id":"way/544790057-0-4-0","properties":{"highway":"service","oneway":"yes"},"geometry":{"type":"LineString","coordinates":[[103.6966215,1.3042764],[103.6966182,1.3042801]]}},{"type":"Feature","id":"way/544790057-0-5-0","properties":{"highway":"service","oneway":"yes"},"geometry":{"type":"LineString","coordinates":[[103.6966182,1.3042801],[103.6966158,1.3042828]]}},{"type":"Feature","id":"way/544790057-0-6-0","properties":{"highway":"service","oneway":"yes"},"geometry":{"type":"LineString","coordinates":[[103.6966158,1.3042828],[103.6965914,1.3044068]]}},{"type":"Feature","id":"way/544790057-0-7-0","properties":{"highway":"service","oneway":"yes"},"geometry":{"type":"LineString","coordinates":[[103.6965914,1.3044068],[103.696591,1.3044152]]}},{"type":"Feature","id":"way/544790057-0-8-0","properties":{"highway":"service","oneway":"yes"},"geometry":{"type":"LineString","coordinates":[[103.696591,1.3044152],[103.6965941,1.3044212]]}},{"type":"Feature","id":"way/544790057-0-9-0","properties":{"highway":"service","oneway":"yes"},"geometry":{"type":"LineString","coordinates":[[103.6965941,1.3044212],[103.6966004,1.3044253]]}},{"type":"Feature","id":"way/544790057-0-10-0","properties":{"highway":"service","oneway":"yes"},"geometry":{"type":"LineString","coordinates":[[103.6966004,1.3044253],[103.6966055,1.3044276]]}},{"type":"Feature","id":"way/544790057-0-11-0","properties":{"highway":"service","oneway":"yes"},"geometry":{"type":"LineString","coordinates":[[103.6966055,1.3044276],[103.6970618,1.3045314]]}},{"type":"Feature","id":"way/544790057-0-12-0","properties":{"highway":"service","oneway":"yes"},"geometry":{"type":"LineString","coordinates":[[103.6970618,1.3045314],[103.6970974,1.3045395]]}},{"type":"Feature","id":"way/644882379-0-0-0","properties":{"highway":"residential","lanes":"2","lanes:backward":"1","lanes:forward":"1","lit":"yes","maxspeed":"50","name":"Jalan Samulun"},"geometry":{"type":"LineString","coordinates":[[103.6970956,1.3038643],[103.6970978,1.303928]]}},{"type":"Feature","id":"way/644883054-0-0-0","properties":{"highway":"residential","lanes":"2","lanes:backward":"1","lanes:forward":"1","lit":"yes","maxspeed":"50","name":"Jalan Samulun","sidewalk":"right","turn:lanes:backward":"left;through"},"geometry":{"type":"LineString","coordinates":[[103.6971062,1.3042434],[103.6971067,1.3042791]]}},{"type":"Feature","id":"way/644883054-0-1-0","properties":{"highway":"residential","lanes":"2","lanes:backward":"1","lanes:forward":"1","lit":"yes","maxspeed":"50","name":"Jalan Samulun","sidewalk":"right","turn:lanes:backward":"left;through"},"geometry":{"type":"LineString","coordinates":[[103.6971067,1.3042791],[103.697108,1.3043752]]}},{"type":"Feature","id":"way/645135867-0-0-0","properties":{"highway":"service"},"geometry":{"type":"LineString","coordinates":[[103.6969123,1.3048934],[103.6975452,1.3053289]]}},{"type":"Feature","id":"way/645135867-0-1-0","properties":{"highway":"service"},"geometry":{"type":"LineString","coordinates":[[103.6975452,1.3053289],[103.6976552,1.3052378]]}},{"type":"Feature","id":"way/645135867-0-2-0","properties":{"highway":"service"},"geometry":{"type":"LineString","coordinates":[[103.6976552,1.3052378],[103.6978376,1.3047873]]}},{"type":"Feature","id":"way/645251710-0-0-0","properties":{"highway":"service"},"geometry":{"type":"LineString","coordinates":[[103.6961859,1.3062328],[103.696509,1.3064111]]}},{"type":"Feature","id":"way/645252436-0-0-0","properties":{"highway":"residential","lanes":"2","lanes:backward":"1","lanes:forward":"1","lit":"yes","maxspeed":"50","name":"Jalan Samulun","sidewalk":"right"},"geometry":{"type":"LineString","coordinates":[[103.6961935,1.3058768],[103.6960059,1.3061335]]}},{"type":"Feature","id":"way/645252438-0-0-0","properties":{"highway":"residential","lanes":"2","lanes:backward":"1","lanes:forward":"1","lit":"yes","maxspeed":"50","name":"Jalan Samulun","sidewalk":"right"},"geometry":{"type":"LineString","coordinates":[[103.6960059,1.3061335],[103.6957664,1.3064611]]}},{"type":"Feature","id":"way/645255413-0-0-0","properties":{"highway":"residential","lanes":"2","lanes:backward":"1","lanes:forward":"1","lit":"yes","maxspeed":"50","name":"Jalan Samulun","sidewalk":"right"},"geometry":{"type":"LineString","coordinates":[[103.6965366,1.3054074],[103.6961935,1.3058768]]}},{"type":"Feature","id":"way/645255414-0-0-0","properties":{"highway":"residential","lanes":"2","lanes:backward":"1","lanes:forward":"1","lit":"yes","maxspeed":"50","name":"Jalan Samulun","sidewalk":"right"},"geometry":{"type":"LineString","coordinates":[[103.6967043,1.305178],[103.6965366,1.3054074]]}},{"type":"Feature","id":"way/646468264-0-0-0","properties":{"highway":"residential","lanes":"2","lanes:backward":"1","lanes:forward":"1","lit":"yes","maxspeed":"50","name":"Jalan Samulun"},"geometry":{"type":"LineString","coordinates":[[103.6970814,1.3034489],[103.6970956,1.3038643]]}},{"type":"Feature","id":"way/646831488-0-0-0","properties":{"highway":"residential","lanes":"2","lanes:backward":"1","lanes:forward":"1","lit":"yes","maxspeed":"50","name":"Jalan Samulun","sidewalk":"right"},"geometry":{"type":"LineString","coordinates":[[103.6969123,1.3048934],[103.6967043,1.305178]]}},{"type":"Feature","id":"way/646831489-0-0-0","properties":{"highway":"residential","lanes":"2","lanes:backward":"1","lanes:forward":"1","lit":"yes","maxspeed":"50","name":"Jalan Samulun","sidewalk":"right"},"geometry":{"type":"LineString","coordinates":[[103.697108,1.3043752],[103.6971098,1.3044571]]}},{"type":"Feature","id":"way/646831489-0-1-0","properties":{"highway":"residential","lanes":"2","lanes:backward":"1","lanes:forward":"1","lit":"yes","maxspeed":"50","name":"Jalan Samulun","sidewalk":"right"},"geometry":{"type":"LineString","coordinates":[[103.6971098,1.3044571],[103.6970974,1.3045395]]}},{"type":"Feature","id":"way/906065769-0-0-0","properties":{"highway":"residential","lanes":"2","lanes:backward":"1","lanes:forward":"1","lit":"yes","maxspeed":"50","name":"Jalan Samulun"},"geometry":{"type":"LineString","coordinates":[[103.6970701,1.3031193],[103.6970814,1.3034489]]}}]}