{"type":"FeatureCollection","features":[{"type":"Feature","id":"way/117847306-0","properties":{"building":"yes"},"geometry":{"type":"Polygon","coordinates":[[[103.6595674,1.3101022],[103.6592726,1.3098041],[103.6586457,1.3104236],[103.6589404,1.3107218],[103.6595674,1.3101022]]]}},{"type":"Feature","id":"way/117847349-0","properties":{"building":"yes"},"geometry":{"type":"Polygon","coordinates":[[[103.6586779,1.310247],[103.6584647,1.3100325],[103.6585162,1.3099813],[103.658613,1.3100787],[103.6587188,1.3099735],[103.6583822,1.3096349],[103.6582791,1.3097373],[103.6583854,1.3098442],[103.6583386,1.3098907],[103.6582426,1.3097942],[103.6581162,1.3099199],[103.6585589,1.3103652],[103.6586779,1.310247]]]}},{"type":"Feature","id":"way/117847374-0","properties":{"building":"yes"},"geometry":{"type":"Polygon","coordinates":[[[103.659886,1.3103382],[103.6596965,1.3101416],[103.6591529,1.3106653],[103.6593424,1.3108619],[103.659886,1.3103382]]]}},{"type":"Feature","id":"way/117847386-0","properties":{"building":"yes"},"geometry":{"type":"Polygon","coordinates":[[[103.6598063,1.3099628],[103.6594872,1.3096437],[103.6593988,1.3097321],[103.6597179,1.3100511],[103.6598063,1.3099628]]]}},{"type":"Feature","id":"way/117847389-0","properties":{"building":"yes"},"geometry":{"type":"Polygon","coordinates":[[[103.6587588,1.3087295],[103.6585432,1.3085139],[103.6584348,1.3086223],[103.6586504,1.3088378],[103.6587588,1.3087295]]]}},{"type":"Feature","id":"way/117847394-0","properties":{"addr:housenumber":"24","addr:street":"Pioneer Sector 1","building":"yes"},"geometry":{"type":"Polygon","coordinates":[[[103.6586074,1.3088965],[103.6583716,1.3086716],[103.6582754,1.3087723],[103.6583769,1.3088691],[103.658142,1.3091152],[103.6582763,1.3092434],[103.6586074,1.3088965]]]}},{"type":"Feature","id":"way/117847401-0","properties":{"building":"yes"},"geometry":{"type":"Polygon","coordinates":[[[103.6590807,1.3098028],[103.6589776,1.3096995],[103.6587942,1.3098826],[103.6588974,1.3099859],[103.6590807,1.3098028]]]}},{"type":"Feature","id":"way/117847409-0","properties":{"addr:city":"Singapore","addr:country":"SG","addr:housenumber":"2","addr:street":"Pioneer Sector 1","building":"yes"},"geometry":{"type":"Polygon","coordinates":[[[103.659426,1.3093396],[103.6590902,1.3089841],[103.6587579,1.3092978],[103.6590937,1.3096533],[103.659426,1.3093396]]]}},{"type":"Feature","id":"way/117847433-0","properties":{"addr:housenumber":"4","addr:street":"Pioneer Sector 1","building":"yes"},"geometry":{"type":"Polygon","coordinates":[[[103.6583462,1.308279],[103.6582208,1.3081527],[103.657688,1.3086811],[103.6578133,1.3088074],[103.6583462,1.308279]]]}},{"type":"Feature","id":"way/117847441-0","properties":{"building":"yes"},"geometry":{"type":"Polygon","coordinates":[[[103.6588269,1.309752],[103.6589412,1.3096461],[103.6585697,1.3092455],[103.6584555,1.3093514],[103.6588269,1.309752]]]}},{"type":"Feature","id":"way/117847442-0","properties":{"building":"yes"},"geometry":{"type":"Polygon","coordinates":[[[103.6576729,1.3105949],[103.6583124,1.3112613],[103.6585816,1.3110031],[103.6583335,1.3107446],[103.658248,1.3108267],[103.6578566,1.3104187],[103.6576729,1.3105949]]]}},{"type":"Feature","id":"way/117848651-0","properties":{"addr:housenumber":"15","addr:street":"Pioneer Sector 3","building":"yes"},"geometry":{"type":"Polygon","coordinates":[[[103.6589007,1.3074912],[103.6588364,1.3075549],[103.6594281,1.3081515],[103.6597215,1.3078607],[103.6591603,1.3072948],[103.6591117,1.307343],[103.6590367,1.3072674],[103.6588562,1.3074463],[103.6589007,1.3074912]]]}},{"type":"Feature","id":"way/117848660-0","properties":{"addr:housenumber":"5","addr:street":"Pioneer Sector 1","building":"yes"},"geometry":{"type":"Polygon","coordinates":[[[103.6588435,1.3080696],[103.6589998,1.3079189],[103.6587093,1.307618],[103.6585531,1.3077687],[103.6588435,1.3080696]]]}},{"type":"Feature","id":"way/117848661-0","properties":{"addr:housenumber":"13","addr:street":"Pioneer Sector 3","building":"yes"},"geometry":{"type":"Polygon","coordinates":[[[103.659891,1.3076407],[103.659562,1.3073157],[103.6594317,1.3074475],[103.6597606,1.3077726],[103.659891,1.3076407]]]}},{"type":"Feature","id":"way/117848664-0","properties":{"building":"yes"},"geometry":{"type":"Polygon","coordinates":[[[103.6600454,1.3075267],[103.6601485,1.307426],[103.6595575,1.3068214],[103.6594544,1.3069221],[103.6600454,1.3075267]]]}},{"type":"Feature","id":"way/117848669-0","properties":{"addr:housenumber":"28D","addr:street":"Pioneer Sector 2","building":"yes"},"geometry":{"type":"Polygon","coordinates":[[[103.6581429,1.3071747],[103.6580667,1.3070963],[103.6581219,1.3070426],[103.6577019,1.3066109],[103.6575212,1.3067867],[103.6580174,1.3072967],[103.6581429,1.3071747]]]}},{"type":"Feature","id":"way/117848676-0","properties":{"addr:housenumber":"7","addr:street":"Pioneer Sector 1","building":"yes"},"geometry":{"type":"Polygon","coordinates":[[[103.6589453,1.3070345],[103.6581683,1.3062299],[103.6580398,1.3063539],[103.6588169,1.3071585],[103.6589453,1.3070345]]]}},{"type":"Feature","id":"way/117848677-0","properties":{"building":"yes"},"geometry":{"type":"Polygon","coordinates":[[[103.6586665,1.3074851],[103.6585914,1.3073993],[103.6584143,1.3075816],[103.6585002,1.3076406],[103.6586665,1.3074851]]]}},{"type":"Feature","id":"way/117848678-0","properties":{"addr:housenumber":"11","addr:street":"Pioneer Sector 3","building":"yes"},"geometry":{"type":"Polygon","coordinates":[[[103.6603671,1.3073056],[103.6606349,1.3070559],[103.660292,1.3066882],[103.6600241,1.3069379],[103.6603671,1.3073056]]]}},{"type":"Feature","id":"way/117848681-0","properties":{"addr:housenumber":"28","addr:street":"Pioneer Sector 2","building":"yes"},"geometry":{"type":"Polygon","coordinates":[[[103.6590633,1.3070401],[103.6593339,1.3067829],[103.6585228,1.3059302],[103.65841,1.3060374],[103.6584812,1.3061122],[103.6583234,1.3062622],[103.6590633,1.3070401]]]}},{"type":"Feature","id":"way/117849319-0","properties":{"building":"yes"},"geometry":{"type":"Polygon","coordinates":[[[103.6623422,1.3069059],[103.6622077,1.3065568],[103.6619374,1.3066609],[103.6620719,1.30701],[103.6623422,1.3069059]]]}},{"type":"Feature","id":"way/117849321-0","properties":{"building":"yes"},"geometry":{"type":"Polygon","coordinates":[[[103.6605555,1.3081336],[103.660324,1.3078723],[103.6602099,1.3079733],[103.6604414,1.3082346],[103.6605555,1.3081336]]]}},{"type":"Feature","id":"way/117849322-0","properties":{"building":"yes"},"geometry":{"type":"Polygon","coordinates":[[[103.6596957,1.3089371],[103.6596763,1.3089158],[103.6598657,1.3087433],[103.6598851,1.3087646],[103.6599342,1.3087199],[103.659875,1.308655],[103.659851,1.3086768],[103.6597443,1.3085596],[103.6597683,1.3085378],[103.6597092,1.3084729],[103.659655,1.3085222],[103.6596761,1.3085454],[103.6594816,1.3087225],[103.6594606,1.3086993],[103.6594146,1.3087412],[103.6594642,1.3087957],[103.6594876,1.3087744],[103.6596211,1.3089208],[103.6595977,1.3089422],[103.6596396,1.3089881],[103.6596957,1.3089371]]]}},{"type":"Feature","id":"way/117849324-0","properties":{"building":"yes"},"geometry":{"type":"Polygon","coordinates":[[[103.6608755,1.3078015],[103.6606463,1.3075754],[103.6604704,1.3077536],[103.6606996,1.3079798],[103.6608755,1.3078015]]]}},{"type":"Feature","id":"way/117849325-0","properties":{"building":"yes"},"geometry":{"type":"Polygon","coordinates":[[[103.6602516,1.3092698],[103.6601726,1.3093482],[103.6605065,1.3096849],[103.6605832,1.3096088],[103.6605095,1.3095345],[103.6605767,1.3094678],[103.6601855,1.3090733],[103.6601206,1.3091377],[103.6602516,1.3092698]]]}},{"type":"Feature","id":"way/117849326-0","properties":{"addr:city":"Singapore","addr:country":"SG","addr:housenumber":"1","addr:street":"Pioneer Sector 3","building":"yes"},"geometry":{"type":"Polygon","coordinates":[[[103.6603445,1.3082889],[103.6601255,1.3080583],[103.6598254,1.3083432],[103.6600444,1.3085738],[103.6603445,1.3082889]]]}},{"type":"Feature","id":"way/117849328-0","properties":{"addr:housenumber":"1","addr:street":"Pioneer Sector 1","building":"yes"},"geometry":{"type":"Polygon","coordinates":[[[103.6616123,1.3085846],[103.6611349,1.3080701],[103.6603139,1.3088315],[103.6607914,1.309346],[103.6616123,1.3085846]]]}},{"type":"Feature","id":"way/118607684-0","properties":{"addr:housenumber":"17","building":"yes"},"geometry":{"type":"Polygon","coordinates":[[[103.6617435,1.3105463],[103.6613193,1.3100801],[103.6610132,1.3103585],[103.6614373,1.3108247],[103.6617435,1.3105463]]]}},{"type":"Feature","id":"way/118607690-0","properties":{"addr:housenumber":"35","addr:street":"Gul Crescent","building":"yes"},"geometry":{"type":"Polygon","coordinates":[[[103.6624988,1.3102665],[103.6617271,1.3094661],[103.661425,1.3097572],[103.6616215,1.3099611],[103.6615548,1.3100254],[103.6621299,1.3106219],[103.6624988,1.3102665]]]}},{"type":"Feature","id":"way/453471046-0","properties":{"building":"yes"},"geometry":{"type":"Polygon","coordinates":[[[103.6609823,1.3076753],[103.6610183,1.307718],[103.6610854,1.3076616],[103.6611425,1.3077295],[103.661231,1.3076552],[103.6612034,1.3076224],[103.6612778,1.3075578],[103.6610501,1.30733],[103.6609959,1.3073755],[103.6609891,1.3073675],[103.6609823,1.3073732],[103.6609589,1.3073454],[103.6608582,1.30743],[103.660844,1.3074131],[103.6608276,1.3074269],[103.660822,1.3074202],[103.6607733,1.3074612],[103.6608273,1.3075254],[103.6609229,1.307445],[103.661061,1.3076092],[103.6609823,1.3076753]]]}},{"type":"Feature","id":"way/453471058-0","properties":{"building":"yes"},"geometry":{"type":"Polygon","coordinates":[[[103.6617742,1.3093011],[103.6619392,1.3094652],[103.6620881,1.3093154],[103.6619231,1.3091514],[103.6617742,1.3093011]]]}},{"type":"Feature","id":"way/453471092-0","properties":{"building":"yes"},"geometry":{"type":"Polygon","coordinates":[[[103.6597187,1.309095],[103.6598448,1.3092197],[103.6599953,1.3090676],[103.6598692,1.3089429],[103.6597187,1.309095]]]}},{"type":"Feature","id":"way/453471101-0","properties":{"building":"yes"},"geometry":{"type":"Polygon","coordinates":[[[103.6599362,1.308955],[103.6600233,1.3090509],[103.6600782,1.3090012],[103.6600434,1.3089629],[103.6601334,1.3088813],[103.6600811,1.3088236],[103.6599362,1.308955]]]}},{"type":"Feature","id":"way/32631143-0-0-0","properties":{"highway":"residential","lanes":"2","lanes:backward":"1","lanes:forward":"1","maxspeed":"50","name":"Gul Lane","surface":"asphalt"},"geometry":{"type":"LineString","coordinates":[[103.660989,1.3106959],[103.6611806,1.3108919]]}},{"type":"Feature","id":"way/452030811-0-0-0","properties":{"highway":"service","surface":"asphalt"},"geometry":{"type":"LineString","coordinates":[[103.6583509,1.3094718],[103.6589286,1.3100687]]}},{"type":"Feature","id":"way/452030812-0-0-0","properties":{"highway":"service","surface":"asphalt"},"geometry":{"type":"LineString","coordinates":[[103.658622,1.3091976],[103.659201,1.3098079]]}},{"type":"Feature","id":"way/452030813-0-0-0","properties":{"highway":"service","surface":"asphalt"},"geometry":{"type":"LineString","coordinates":[[103.6596541,1.3100755],[103.6597188,1.3100971]]}},{"type":"Feature","id":"way/452030813-0-1-0","properties":{"highway":"service","surface":"asphalt"},"geometry":{"type":"LineString","coordinates":[[103.6597188,1.3100971],[103.6597959,1.3101002]]}},{"type":"Feature","id":"way/452030813-0-2-0","properties":{"highway":"service","surface":"asphalt"},"geometry":{"type":"LineString","coordinates":[[103.6597959,1.3101002],[103.6599399,1.3099479]]}},{"type":"Feature","id":"way/452030814-0-0-0","properties":{"highway":"service","surface":"asphalt"},"geometry":{"type":"LineString","coordinates":[[103.6595256,1.3094972],[103.6599399,1.3099479]]}},{"type":"Feature","id":"way/452030815-0-0-0","properties":{"highway":"service","surface":"asphalt"},"geometry":{"type":"LineString","coordinates":[[103.6593086,1.3097049],[103.6595256,1.3094972]]}},{"type":"Feature","id":"way/452030816-0-0-0","properties":{"highway":"service","lanes":"2","lanes:backward":"1","lanes:forward":"1","surface":"asphalt","turn:lanes:backward":"left;right","turn:lanes:forward":"left;through"},"geometry":{"type":"LineString","coordinates":[[103.6597719,1.3093745],[103.6598325,1.309319]]}},{"type":"Feature","id":"way/452030816-0-1-0","properties":{"highway":"service","lanes":"2","lanes:backward":"1","lanes:forward":"1","surface":"asphalt","turn:lanes:backward":"left;right","turn:lanes:forward":"left;through"},"geometry":{"type":"LineString","coordinates":[[103.6598325,1.309319],[103.6599336,1.3092263]]}},{"type":"Feature","id":"way/452030817-0-0-0","properties":{"highway":"service","surface":"asphalt"},"geometry":{"type":"LineString","coordinates":[[103.6597618,1.3083455],[103.6602799,1.3089071]]}},{"type":"Feature","id":"way/452030819-0-0-0","properties":{"highway":"service","noname":"yes","oneway":"yes","service":"parking_aisle","surface":"asphalt"},"geometry":{"type":"LineString","coordinates":[[103.6604717,1.310582],[103.6604315,1.3106289]]}},{"type":"Feature","id":"way/452030819-0-1-0","properties":{"highway":"service","noname":"yes","oneway":"yes","service":"parking_aisle","surface":"asphalt"},"geometry":{"type":"LineString","coordinates":[[103.6604315,1.3106289],[103.6604221,1.3106678]]}},{"type":"Feature","id":"way/452030819-0-2-0","properties":{"highway":"service","noname":"yes","oneway":"yes","service":"parking_aisle","surface":"asphalt"},"geometry":{"type":"LineString","coordinates":[[103.6604221,1.3106678],[103.6604382,1.3107201]]}},{"type":"Feature","id":"way/452030819-0-3-0","properties":{"highway":"service","noname":"yes","oneway":"yes","service":"parking_aisle","surface":"asphalt"},"geometry":{"type":"LineString","coordinates":[[103.6604382,1.3107201],[103.6608811,1.3111664]]}},{"type":"Feature","id":"way/465675023-0-0-0","properties":{"highway":"service","surface":"asphalt"},"geometry":{"type":"LineString","coordinates":[[103.6596541,1.3100755],[103.658635,1.3110374]]}},{"type":"Feature","id":"way/480879227-0-0-0","properties":{"highway":"primary","lanes":"5","lanes:backward":"2","lanes:forward":"3","lit":"yes","maxspeed":"60","name":"Pioneer Road","name:en":"Pioneer Road","name:zh":"\u5148\u9a71\u8def","oneway":"no","surface":"asphalt","turn:lanes:forward":"left;through|through|right"},"geometry":{"type":"LineString","coordinates":[[103.6597876,1.3108287],[103.6604189,1.3102625]]}},{"type":"Feature","id":"way/480879227-0-1-0","properties":{"highway":"primary","lanes":"5","lanes:backward":"2","lanes:forward":"3","lit":"yes","maxspeed":"60","name":"Pioneer Road","name:en":"Pioneer Road","name:zh":"\u5148\u9a71\u8def","oneway":"no","surface":"asphalt","turn:lanes:forward":"left;through|through|right"},"geometry":{"type":"LineString","coordinates":[[103.6604189,1.3102625],[103.6604406,1.310243]]}},{"type":"Feature","id":"way/480879227-0-2-0","properties":{"highway":"primary","lanes":"5","lanes:backward":"2","lanes:forward":"3","lit":"yes","maxspeed":"60","name":"Pioneer Road","name:en":"Pioneer Road","name:zh":"\u5148\u9a71\u8def","oneway":"no","surface":"asphalt","turn:lanes:forward":"left;through|through|right"},"geometry":{"type":"LineString","coordinates":[[103.6604406,1.310243],[103.6604939,1.3101939]]}},{"type":"Feature","id":"way/480879228-0-0-0","properties":{"highway":"primary","lanes":"4","lanes:backward":"2","lanes:forward":"2","maxspeed":"60","name":"Pioneer Road","name:en":"Pioneer Road","name:zh":"\u5148\u9a71\u8def","oneway":"no","surface":"asphalt"},"geometry":{"type":"LineString","coordinates":[[103.6619965,1.3087351],[103.6621883,1.3085682]]}},{"type":"Feature","id":"way/480879228-0-1-0","properties":{"highway":"primary","lanes":"4","lanes:backward":"2","lanes:forward":"2","maxspeed":"60","name":"Pioneer Road","name:en":"Pioneer Road","name:zh":"\u5148\u9a71\u8def","oneway":"no","surface":"asphalt"},"geometry":{"type":"LineString","coordinates":[[103.6621883,1.3085682],[103.6622956,1.3084877]]}},{"type":"Feature","id":"way/526612782-0-0-0","properties":{"highway":"service","noname":"yes","oneway":"yes","service":"parking_aisle","surface":"asphalt"},"geometry":{"type":"LineString","coordinates":[[103.6610214,1.3110379],[103.6605629,1.3105726]]}},{"type":"Feature","id":"way/526612782-0-1-0","properties":{"highway":"service","noname":"yes","oneway":"yes","service":"parking_aisle","surface":"asphalt"},"geometry":{"type":"LineString","coordinates":[[103.6605629,1.3105726],[103.6605214,1.3105632]]}},{"type":"Feature","id":"way/526612782-0-2-0","properties":{"highway":"service","noname":"yes","oneway":"yes","service":"parking_aisle","surface":"asphalt"},"geometry":{"type":"LineString","coordinates":[[103.6605214,1.3105632],[103.6604717,1.310582]]}},{"type":"Feature","id":"way/539076186-0-0-0","properties":{"highway":"service","service":"parking_aisle"},"geometry":{"type":"LineString","coordinates":[[103.6599336,1.3092263],[103.6604127,1.3097695]]}},{"type":"Feature","id":"way/539076186-0-1-0","properties":{"highway":"service","service":"parking_aisle"},"geometry":{"type":"LineString","coordinates":[[103.6604127,1.3097695],[103.6604302,1.3097735]]}},{"type":"Feature","id":"way/539076186-0-2-0","properties":{"highway":"service","service":"parking_aisle"},"geometry":{"type":"LineString","coordinates":[[103.6604302,1.3097735],[103.6605448,1.3096724]]}},{"type":"Feature","id":"way/539076187-0-0-0","properties":{"highway":"residential","maxspeed":"50"},"geometry":{"type":"LineString","coordinates":[[103.6582154,1.3077062],[103.6582259,1.3076966]]}},{"type":"Feature","id":"way/539076188-0-0-0","properties":{"highway":"service","service":"parking_aisle"},"geometry":{"type":"LineString","coordinates":[[103.6578404,1.3076509],[103.6581342,1.3079581]]}},{"type":"Feature","id":"way/545099359-0-0-0","properties":{"highway":"service"},"geometry":{"type":"LineString","coordinates":[[103.6597294,1.3079354],[103.6597382,1.307936]]}},{"type":"Feature","id":"way/545099359-0-1-0","properties":{"highway":"service"},"geometry":{"type":"LineString","coordinates":[[103.6597382,1.307936],[103.6597455,1.3079394]]}},{"type":"Feature","id":"way/545099359-0-2-0","properties":{"highway":"service"},"geometry":{"type":"LineString","coordinates":[[103.6597455,1.3079394],[103.6597846,1.307982]]}},{"type":"Feature","id":"way/545099359-0-3-0","properties":{"highway":"service"},"geometry":{"type":"LineString","coordinates":[[103.6597846,1.307982],[103.659848,1.3080437]]}},{"type":"Feature","id":"way/545099360-0-0-0","properties":{"highway":"service"},"geometry":{"type":"LineString","coordinates":[[103.659523,1.3081205],[103.6597174,1.3079414]]}},{"type":"Feature","id":"way/545099360-0-1-0","properties":{"highway":"service"},"geometry":{"type":"LineString","coordinates":[[103.6597174,1.3079414],[103.6597294,1.3079354]]}},{"type":"Feature","id":"way/545099361-0-0-0","properties":{"highway":"service"},"geometry":{"type":"LineString","coordinates":[[103.6596581,1.3082631],[103.6596517,1.3082574]]}},{"type":"Feature","id":"way/545099362-0-0-0","properties":{"highway":"service"},"geometry":{"type":"LineString","coordinates":[[103.6597703,1.30782],[103.6597891,1.3078214]]}},{"type":"Feature","id":"way/545099362-0-1-0","properties":{"highway":"service"},"geometry":{"type":"LineString","coordinates":[[103.6597891,1.3078214],[103.6598039,1.3078133]]}},{"type":"Feature","id":"way/545099362-0-2-0","properties":{"highway":"service"},"geometry":{"type":"LineString","coordinates":[[103.6598039,1.3078133],[103.6599931,1.3076365]]}},{"type":"Feature","id":"way/545099363-0-0-0","properties":{"highway":"service"},"geometry":{"type":"LineString","coordinates":[[103.65955,1.3071832],[103.6595362,1.307187]]}},{"type":"Feature","id":"way/545099363-0-1-0","properties":{"highway":"service"},"geometry":{"type":"LineString","coordinates":[[103.6595362,1.307187],[103.659368,1.3073401]]}},{"type":"Feature","id":"way/545099363-0-2-0","properties":{"highway":"service"},"geometry":{"type":"LineString","coordinates":[[103.659368,1.3073401],[103.6593613,1.3073561]]}},{"type":"Feature","id":"way/545099364-0-0-0","properties":{"highway":"service"},"geometry":{"type":"LineString","coordinates":[[103.6599931,1.3076365],[103.6595706,1.3071893]]}},{"type":"Feature","id":"way/545099364-0-1-0","properties":{"highway":"service"},"geometry":{"type":"LineString","coordinates":[[103.6595706,1.3071893],[103.6595607,1.3071831]]}},{"type":"Feature","id":"way/545099364-0-2-0","properties":{"highway":"service"},"geometry":{"type":"LineString","coordinates":[[103.6595607,1.3071831],[103.65955,1.3071832]]}},{"type":"Feature","id":"way/545099365-0-0-0","properties":{"highway":"service"},"geometry":{"type":"LineString","coordinates":[[103.6593613,1.3073561],[103.6593626,1.3073722]]}},{"type":"Feature","id":"way/545099365-0-1-0","properties":{"highway":"service"},"geometry":{"type":"LineString","coordinates":[[103.6593626,1.3073722],[103.6593693,1.3073897]]}},{"type":"Feature","id":"way/545099365-0-2-0","properties":{"highway":"service"},"geometry":{"type":"LineString","coordinates":[[103.6593693,1.3073897],[103.6597575,1.3078121]]}},{"type":"Feature","id":"way/545099365-0-3-0","properties":{"highway":"service"},"geometry":{"type":"LineString","coordinates":[[103.6597575,1.3078121],[103.6597703,1.30782]]}},{"type":"Feature","id":"way/545099366-0-0-0","properties":{"highway":"service"},"geometry":{"type":"LineString","coordinates":[[103.6582756,1.3071211],[103.6578451,1.3066552]]}},{"type":"Feature","id":"way/545099366-0-1-0","properties":{"highway":"service"},"geometry":{"type":"LineString","coordinates":[[103.6578451,1.3066552],[103.6578433,1.3066446]]}},{"type":"Feature","id":"way/545099366-0-2-0","properties":{"highway":"service"},"geometry":{"type":"LineString","coordinates":[[103.6578433,1.3066446],[103.657846,1.3066322]]}},{"type":"Feature","id":"way/545099366-0-3-0","properties":{"highway":"service"},"geometry":{"type":"LineString","coordinates":[[103.657846,1.3066322],[103.6579052,1.3065765]]}},{"type":"Feature","id":"way/545099366-0-4-0","properties":{"highway":"service"},"geometry":{"type":"LineString","coordinates":[[103.6579052,1.3065765],[103.6579132,1.3065659]]}},{"type":"Feature","id":"way/545099366-0-5-0","properties":{"highway":"service"},"geometry":{"type":"LineString","coordinates":[[103.6579132,1.3065659],[103.6579114,1.3065561]]}},{"type":"Feature","id":"way/545099366-0-6-0","properties":{"highway":"service"},"geometry":{"type":"LineString","coordinates":[[103.6579114,1.3065561],[103.6579052,1.3065455]]}},{"type":"Feature","id":"way/545099366-0-7-0","properties":{"highway":"service"},"geometry":{"type":"LineString","coordinates":[[103.6579052,1.3065455],[103.6577419,1.3064119]]}},{"type":"Feature","id":"way/545099367-0-0-0","properties":{"highway":"service"},"geometry":{"type":"LineString","coordinates":[[103.6582756,1.3071211],[103.6584052,1.3070025]]}},{"type":"Feature","id":"way/545099367-0-1-0","properties":{"highway":"service"},"geometry":{"type":"LineString","coordinates":[[103.6584052,1.3070025],[103.6584105,1.3069922]]}},{"type":"Feature","id":"way/545099367-0-2-0","properties":{"highway":"service"},"geometry":{"type":"LineString","coordinates":[[103.6584105,1.3069922],[103.6584113,1.3069834]]}},{"type":"Feature","id":"way/545099367-0-3-0","properties":{"highway":"service"},"geometry":{"type":"LineString","coordinates":[[103.6584113,1.3069834],[103.6584087,1.3069728]]}},{"type":"Feature","id":"way/545099367-0-4-0","properties":{"highway":"service"},"geometry":{"type":"LineString","coordinates":[[103.6584087,1.3069728],[103.6580583,1.3065933]]}},{"type":"Feature","id":"way/545099373-0-0-0","properties":{"highway":"service"},"geometry":{"type":"LineString","coordinates":[[103.660781,1.3094315],[103.6607972,1.3094482]]}},{"type":"Feature","id":"way/545099373-0-1-0","properties":{"highway":"service"},"geometry":{"type":"LineString","coordinates":[[103.6607972,1.3094482],[103.6608073,1.3094512]]}},{"type":"Feature","id":"way/545099373-0-2-0","properties":{"highway":"service"},"geometry":{"type":"LineString","coordinates":[[103.6608073,1.3094512],[103.6608188,1.3094497]]}},{"type":"Feature","id":"way/545099373-0-3-0","properties":{"highway":"service"},"geometry":{"type":"LineString","coordinates":[[103.6608188,1.3094497],[103.6608296,1.3094435]]}},{"type":"Feature","id":"way/545099373-0-4-0","properties":{"highway":"service"},"geometry":{"type":"LineString","coordinates":[[103.6608296,1.3094435],[103.6619103,1.3084371]]}},{"type":"Feature","id":"way/545099373-0-5-0","properties":{"highway":"service"},"geometry":{"type":"LineString","coordinates":[[103.6619103,1.3084371],[103.6620894,1.3082782]]}},{"type":"Feature","id":"way/545099373-0-6-0","properties":{"highway":"service"},"geometry":{"type":"LineString","coordinates":[[103.6620894,1.3082782],[103.6622542,1.3081631]]}},{"type":"Feature","id":"way/545099374-0-0-0","properties":{"highway":"service"},"geometry":{"type":"LineString","coordinates":[[103.6597618,1.3083455],[103.6594874,1.3085803]]}},{"type":"Feature","id":"way/545099374-0-1-0","properties":{"highway":"service"},"geometry":{"type":"LineString","coordinates":[[103.6594874,1.3085803],[103.6594284,1.3086433]]}},{"type":"Feature","id":"way/545099374-0-2-0","properties":{"highway":"service"},"geometry":{"type":"LineString","coordinates":[[103.6594284,1.3086433],[103.6593975,1.3086781]]}},{"type":"Feature","id":"way/545099375-0-3-0","properties":{"highway":"service"},"geometry":{"type":"LineString","coordinates":[[103.6622569,1.3064534],[103.661787,1.3066713]]}},{"type":"Feature","id":"way/545099375-0-4-0","properties":{"highway":"service"},"geometry":{"type":"LineString","coordinates":[[103.661787,1.3066713],[103.6614127,1.3068908]]}},{"type":"Feature","id":"way/545099375-0-5-0","properties":{"highway":"service"},"geometry":{"type":"LineString","coordinates":[[103.6614127,1.3068908],[103.6611053,1.3071064]]}},{"type":"Feature","id":"way/545099375-0-6-0","properties":{"highway":"service"},"geometry":{"type":"LineString","coordinates":[[103.6611053,1.3071064],[103.660902,1.3072789]]}},{"type":"Feature","id":"way/545099375-0-7-0","properties":{"highway":"service"},"geometry":{"type":"LineString","coordinates":[[103.660902,1.3072789],[103.6597618,1.3083455]]}},{"type":"Feature","id":"way/545099376-0-0-0","properties":{"highway":"service","service":"parking_aisle"},"geometry":{"type":"LineString","coordinates":[[103.6605803,1.3094338],[103.6606549,1.3095186]]}},{"type":"Feature","id":"way/545099376-0-1-0","properties":{"highway":"service","service":"parking_aisle"},"geometry":{"type":"LineString","coordinates":[[103.6606549,1.3095186],[103.6606654,1.3095256]]}},{"type":"Feature","id":"way/545099376-0-2-0","properties":{"highway":"service","service":"parking_aisle"},"geometry":{"type":"LineString","coordinates":[[103.6606654,1.3095256],[103.6606772,1.3095248]]}},{"type":"Feature","id":"way/545099376-0-3-0","properties":{"highway":"service","service":"parking_aisle"},"geometry":{"type":"LineString","coordinates":[[103.6606772,1.3095248],[103.6606866,1.3095201]]}},{"type":"Feature","id":"way/545099376-0-4-0","properties":{"highway":"service","service":"parking_aisle"},"geometry":{"type":"LineString","coordinates":[[103.6606866,1.3095201],[103.660781,1.3094315]]}},{"type":"Feature","id":"way/545121159-0-0-0","properties":{"highway":"service"},"geometry":{"type":"LineString","coordinates":[[103.66138,1.3108426],[103.6611295,1.310576]]}},{"type":"Feature","id":"way/545121160-0-0-0","properties":{"highway":"service"},"geometry":{"type":"LineString","coordinates":[[103.660989,1.3106959],[103.6610008,1.3106858]]}},{"type":"Feature","id":"way/545121161-0-0-0","properties":{"highway":"service"},"geometry":{"type":"LineString","coordinates":[[103.6613257,1.3100128],[103.6614956,1.3101936]]}},{"type":"Feature","id":"way/545121162-0-0-0","properties":{"highway":"service"},"geometry":{"type":"LineString","coordinates":[[103.6609445,1.3103792],[103.660941,1.3103675]]}},{"type":"Feature","id":"way/545121162-0-1-0","properties":{"highway":"service"},"geometry":{"type":"LineString","coordinates":[[103.660941,1.3103675],[103.6609434,1.3103547]]}},{"type":"Feature","id":"way/545121162-0-2-0","properties":{"highway":"service"},"geometry":{"type":"LineString","coordinates":[[103.6609434,1.3103547],[103.6609515,1.3103442]]}},{"type":"Feature","id":"way/545121162-0-3-0","properties":{"highway":"service"},"geometry":{"type":"LineString","coordinates":[[103.6609515,1.3103442],[103.6613257,1.3100128]]}},{"type":"Feature","id":"way/545121164-0-2-0","properties":{"highway":"service"},"geometry":{"type":"LineString","coordinates":[[103.6625674,1.3102214],[103.6618001,1.3094048]]}},{"type":"Feature","id":"way/545121165-0-0-0","properties":{"highway":"service"},"geometry":{"type":"LineString","coordinates":[[103.6622599,1.3108172],[103.6622417,1.3107987]]}},{"type":"Feature","id":"way/545121172-0-0-0","properties":{"highway":"service"},"geometry":{"type":"LineString","coordinates":[[103.6585959,1.3084352],[103.6588337,1.3087043]]}},{"type":"Feature","id":"way/545121173-0-0-0","properties":{"highway":"service"},"geometry":{"type":"LineString","coordinates":[[103.6578798,1.3090999],[103.6585959,1.3084352]]}},{"type":"Feature","id":"way/545121174-0-0-0","properties":{"highway":"service"},"geometry":{"type":"LineString","coordinates":[[103.6583398,1.3084358],[103.6584516,1.3083448]]}},{"type":"Feature","id":"way/545121175-0-0-0","properties":{"highway":"service"},"geometry":{"type":"LineString","coordinates":[[103.6582777,1.3081599],[103.6584516,1.3083448]]}},{"type":"Feature","id":"way/580518704-0-0-0","properties":{"highway":"residential","lanes":"4","lanes:backward":"2","lanes:forward":"2","lit":"yes","maxspeed":"50","name":"Pioneer Sector 1","surface":"asphalt","turn:lanes:backward":"left;through|through"},"geometry":{"type":"LineString","coordinates":[[103.6591791,1.3087157],[103.6594257,1.309016]]}},{"type":"Feature","id":"way/580518708-0-0-0","properties":{"highway":"residential","lanes":"4","lanes:backward":"2","lanes:forward":"2","lit":"yes","maxspeed":"50","name":"Pioneer Sector 1","surface":"asphalt"},"geometry":{"type":"LineString","coordinates":[[103.6580096,1.3074935],[103.6582154,1.3077062]]}},{"type":"Feature","id":"way/580557710-0-0-0","properties":{"highway":"residential","lanes":"3","lit":"yes","maxspeed":"50","name":"Gul Lane","surface":"asphalt"},"geometry":{"type":"LineString","coordinates":[[103.6604341,1.3101301],[103.6604939,1.3101939]]}},{"type":"Feature","id":"way/633311054-0-0-0","properties":{"highway":"service","surface":"asphalt"},"geometry":{"type":"LineString","coordinates":[[103.6600566,1.3091129],[103.6602799,1.3089071]]}},{"type":"Feature","id":"way/633311883-0-0-0","properties":{"highway":"residential","lanes":"4","lanes:backward":"2","lanes:forward":"2","lit":"yes","maxspeed":"50","name":"Pioneer Sector 1","surface":"asphalt","turn:lanes:backward":"none|none","turn:lanes:forward":"left;through|right"},"geometry":{"type":"LineString","coordinates":[[103.6597616,1.3093841],[103.6603926,1.3100863]]}},{"type":"Feature","id":"way/633311883-0-1-0","properties":{"highway":"residential","lanes":"4","lanes:backward":"2","lanes:forward":"2","lit":"yes","maxspeed":"50","name":"Pioneer Sector 1","surface":"asphalt","turn:lanes:backward":"none|none","turn:lanes:forward":"left;through|right"},"geometry":{"type":"LineString","coordinates":[[103.6603926,1.3100863],[103.6604341,1.3101301]]}},{"type":"Feature","id":"way/633311884-0-0-0","properties":{"highway":"service","lanes":"2","lanes:backward":"1","lanes:forward":"1","surface":"asphalt","turn:lanes:backward":"left;right","turn:lanes:forward":"left;through"},"geometry":{"type":"LineString","coordinates":[[103.6597616,1.3093841],[103.6597719,1.3093745]]}},{"type":"Feature","id":"way/633314346-0-0-0","properties":{"highway":"service","noname":"yes","surface":"asphalt"},"geometry":{"type":"LineString","coordinates":[[103.6611237,1.3109441],[103.6611806,1.3108919]]}},{"type":"Feature","id":"way/643262697-0-9-0","properties":{"highway":"service"},"geometry":{"type":"LineString","coordinates":[[103.6593533,1.3066161],[103.6594015,1.3067555]]}},{"type":"Feature","id":"way/643262697-0-10-0","properties":{"highway":"service"},"geometry":{"type":"LineString","coordinates":[[103.6594015,1.3067555],[103.6591762,1.3069968]]}},{"type":"Feature","id":"way/644498110-0-0-0","properties":{"highway":"service","surface":"asphalt"},"geometry":{"type":"LineString","coordinates":[[103.6589286,1.3100687],[103.659201,1.3098079]]}},{"type":"Feature","id":"way/644498111-0-0-0","properties":{"highway":"service","surface":"asphalt"},"geometry":{"type":"LineString","coordinates":[[103.6586158,1.3103681],[103.6589286,1.3100687]]}},{"type":"Feature","id":"way/644498894-0-0-0","properties":{"highway":"service","surface":"asphalt"},"geometry":{"type":"LineString","coordinates":[[103.659201,1.3098079],[103.6593086,1.3097049]]}},{"type":"Feature","id":"way/644499648-0-0-0","properties":{"highway":"service","surface":"asphalt"},"geometry":{"type":"LineString","coordinates":[[103.6599399,1.3099479],[103.6600516,1.3100693]]}},{"type":"Feature","id":"way/644499649-0-0-0","properties":{"highway":"service","surface":"asphalt"},"geometry":{"type":"LineString","coordinates":[[103.6595256,1.3094972],[103.6596345,1.3093929]]}},{"type":"Feature","id":"way/644499649-0-1-0","properties":{"highway":"service","surface":"asphalt"},"geometry":{"type":"LineString","coordinates":[[103.6596345,1.3093929],[103.6597066,1.3093238]]}},{"type":"Feature","id":"way/644499650-0-0-0","properties":{"highway":"service","surface":"asphalt"},"geometry":{"type":"LineString","coordinates":[[103.6593086,1.3097049],[103.6596541,1.3100755]]}},{"type":"Feature","id":"way/644503669-0-0-0","properties":{"highway":"service","surface":"asphalt"},"geometry":{"type":"LineString","coordinates":[[103.6602799,1.3089071],[103.660781,1.3094315]]}},{"type":"Feature","id":"way/644504187-0-0-0","properties":{"highway":"service","lanes":"2","lanes:backward":"1","lanes:forward":"1","surface":"asphalt","turn:lanes:backward":"through","turn:lanes:forward":"through"},"geometry":{"type":"LineString","coordinates":[[103.6599336,1.3092263],[103.6600566,1.3091129]]}},{"type":"Feature","id":"way/645283729-0-0-0","properties":{"highway":"service"},"geometry":{"type":"LineString","coordinates":[[103.6585959,1.3084352],[103.6586708,1.3083618]]}},{"type":"Feature","id":"way/645283729-0-1-0","properties":{"highway":"service"},"geometry":{"type":"LineString","coordinates":[[103.6586708,1.3083618],[103.6587425,1.3082988]]}},{"type":"Feature","id":"way/645284178-0-0-0","properties":{"highway":"service"},"geometry":{"type":"LineString","coordinates":[[103.6584516,1.3083448],[103.6585679,1.3082491]]}},{"type":"Feature","id":"way/645284178-0-1-0","properties":{"highway":"service"},"geometry":{"type":"LineString","coordinates":[[103.6585679,1.3082491],[103.658643,1.3081872]]}},{"type":"Feature","id":"way/645284349-0-0-0","properties":{"highway":"service"},"geometry":{"type":"LineString","coordinates":[[103.6580096,1.3074935],[103.6579376,1.3075568]]}},{"type":"Feature","id":"way/645284349-0-1-0","properties":{"highway":"service"},"geometry":{"type":"LineString","coordinates":[[103.6579376,1.3075568],[103.6578404,1.3076509]]}},{"type":"Feature","id":"way/645302056-0-0-0","properties":{"highway":"residential","lanes":"4","lanes:backward":"2","lanes:forward":"2","lit":"yes","maxspeed":"50","name":"Pioneer Sector 1","surface":"asphalt"},"geometry":{"type":"LineString","coordinates":[[103.6597066,1.3093238],[103.6597616,1.3093841]]}},{"type":"Feature","id":"way/645302582-0-0-0","properties":{"highway":"residential","lanes":"4","lanes:backward":"2","lanes:forward":"2","lit":"yes","maxspeed":"50","name":"Pioneer Sector 1","surface":"asphalt","turn:lanes:forward":"through|through;right"},"geometry":{"type":"LineString","coordinates":[[103.6587425,1.3082988],[103.6591791,1.3087157]]}},{"type":"Feature","id":"way/645302881-0-0-0","properties":{"highway":"residential","lanes":"4","lanes:backward":"2","lanes:forward":"2","lit":"yes","maxspeed":"50","name":"Pioneer Sector 1","surface":"asphalt"},"geometry":{"type":"LineString","coordinates":[[103.658643,1.3081872],[103.6587425,1.3082988]]}},{"type":"Feature","id":"way/645303513-0-0-0","properties":{"highway":"residential","lanes":"4","lanes:backward":"2","lanes:forward":"2","lit":"yes","maxspeed":"50","name":"Pioneer Sector 1","surface":"asphalt"},"geometry":{"type":"LineString","coordinates":[[103.6582154,1.3077062],[103.658643,1.3081872]]}},{"type":"Feature","id":"way/646189707-0-0-0","properties":{"highway":"service"},"geometry":{"type":"LineString","coordinates":[[103.6610008,1.3106858],[103.6610477,1.3106458]]}},{"type":"Feature","id":"way/646189707-0-1-0","properties":{"highway":"service"},"geometry":{"type":"LineString","coordinates":[[103.6610477,1.3106458],[103.6611295,1.310576]]}},{"type":"Feature","id":"way/646189708-0-0-0","properties":{"highway":"service"},"geometry":{"type":"LineString","coordinates":[[103.6611295,1.310576],[103.6609445,1.3103792]]}},{"type":"Feature","id":"way/646193036-0-0-0","properties":{"highway":"residential","lanes":"3","lanes:backward":"2","lanes:forward":"1","maxspeed":"50","name":"Gul Lane","surface":"asphalt","turn:lanes:backward":"left;through|right","turn:lanes:forward":"through"},"geometry":{"type":"LineString","coordinates":[[103.6604939,1.3101939],[103.6605504,1.3102499]]}},{"type":"Feature","id":"way/646193036-0-1-0","properties":{"highway":"residential","lanes":"3","lanes:backward":"2","lanes:forward":"1","maxspeed":"50","name":"Gul Lane","surface":"asphalt","turn:lanes:backward":"left;through|right","turn:lanes:forward":"through"},"geometry":{"type":"LineString","coordinates":[[103.6605504,1.3102499],[103.660989,1.3106959]]}},{"type":"Feature","id":"way/646193519-0-0-0","properties":{"highway":"service"},"geometry":{"type":"LineString","coordinates":[[103.6613257,1.3100128],[103.6614115,1.3099368]]}},{"type":"Feature","id":"way/646193851-0-0-0","properties":{"highway":"service"},"geometry":{"type":"LineString","coordinates":[[103.6622417,1.3107987],[103.6622132,1.3107689]]}},{"type":"Feature","id":"way/646193851-0-1-0","properties":{"highway":"service"},"geometry":{"type":"LineString","coordinates":[[103.6622132,1.3107689],[103.6621229,1.3106701]]}},{"type":"Feature","id":"way/646193853-0-0-0","properties":{"highway":"service"},"geometry":{"type":"LineString","coordinates":[[103.6621229,1.3106701],[103.6615258,1.3100578]]}},{"type":"Feature","id":"way/646194179-0-0-0","properties":{"highway":"residential","lanes":"2","lanes:backward":"1","lanes:forward":"1","maxspeed":"50","name":"Gul Crescent","surface":"asphalt"},"geometry":{"type":"LineString","coordinates":[[103.6621263,1.3109441],[103.6622599,1.3108172]]}},{"type":"Feature","id":"way/646216445-0-0-0","properties":{"highway":"residential","lanes":"2","lanes:backward":"1","lanes:forward":"1","lit":"yes","maxspeed":"50","name":"Pioneer Sector 3","parking:condition:left:vehicles":"motorcar","parking:lane:left":"parallel","surface":"asphalt"},"geometry":{"type":"LineString","coordinates":[[103.6594029,1.3085105],[103.6596581,1.3082631]]}},{"type":"Feature","id":"way/646315247-0-0-0","properties":{"highway":"service"},"geometry":{"type":"LineString","coordinates":[[103.6596517,1.3082574],[103.6595734,1.3081775]]}},{"type":"Feature","id":"way/646315247-0-1-0","properties":{"highway":"service"},"geometry":{"type":"LineString","coordinates":[[103.6595734,1.3081775],[103.659523,1.3081205]]}},{"type":"Feature","id":"way/646316049-0-0-0","properties":{"highway":"service"},"geometry":{"type":"LineString","coordinates":[[103.659848,1.3080437],[103.6598584,1.3080556]]}},{"type":"Feature","id":"way/646692406-0-0-0","properties":{"highway":"service"},"geometry":{"type":"LineString","coordinates":[[103.6601251,1.3077735],[103.6600653,1.3077129]]}},{"type":"Feature","id":"way/646692406-0-1-0","properties":{"highway":"service"},"geometry":{"type":"LineString","coordinates":[[103.6600653,1.3077129],[103.6599931,1.3076365]]}},{"type":"Feature","id":"way/646692409-0-0-0","properties":{"highway":"service"},"geometry":{"type":"LineString","coordinates":[[103.6601396,1.3077872],[103.6601251,1.3077735]]}},{"type":"Feature","id":"way/646854695-0-0-0","properties":{"highway":"residential","lanes":"2","lanes:backward":"1","lanes:forward":"1","lit":"yes","maxspeed":"50","name":"Pioneer Sector 3","parking:condition:left:vehicles":"motorcar","parking:lane:left":"parallel","surface":"asphalt"},"geometry":{"type":"LineString","coordinates":[[103.6596581,1.3082631],[103.6598584,1.3080556]]}},{"type":"Feature","id":"way/646854697-0-0-0","properties":{"highway":"residential","lanes":"2","lanes:backward":"1","lanes:forward":"1","lit":"yes","maxspeed":"50","name":"Pioneer Sector 3","surface":"asphalt"},"geometry":{"type":"LineString","coordinates":[[103.6598584,1.3080556],[103.6601396,1.3077872]]}},{"type":"Feature","id":"way/646855571-0-0-0","properties":{"highway":"service"},"geometry":{"type":"LineString","coordinates":[[103.659478,1.3081619],[103.659523,1.3081205]]}},{"type":"Feature","id":"way/646856641-0-0-0","properties":{"highway":"service"},"geometry":{"type":"LineString","coordinates":[[103.6581285,1.3072558],[103.6582756,1.3071211]]}},{"type":"Feature","id":"way/663701164-0-0-0","properties":{"highway":"residential","lanes":"4","lanes:backward":"2","lanes:forward":"2","lit":"yes","maxspeed":"50","name":"Pioneer Sector 1","surface":"asphalt"},"geometry":{"type":"LineString","coordinates":[[103.6579062,1.3073776],[103.6580096,1.3074935]]}},{"type":"Feature","id":"way/663702094-0-0-0","properties":{"highway":"residential","lanes":"4","lanes:backward":"2","lanes:forward":"2","lit":"yes","maxspeed":"50","name":"Pioneer Sector 1","parking:condition:right:vehicles":"motorcar","parking:lane:right":"parallel","surface":"asphalt","turn:lanes:backward":"left;through|through"},"geometry":{"type":"LineString","coordinates":[[103.6594257,1.309016],[103.6595145,1.3091142]]}},{"type":"Feature","id":"way/663702224-0-0-0","properties":{"highway":"residential","lanes":"2","lanes:backward":"1","lanes:forward":"1","lit":"yes","maxspeed":"50","name":"Pioneer Sector 3","parking:condition:left:vehicles":"hgv_articulated","parking:lane:left":"parallel","surface":"asphalt"},"geometry":{"type":"LineString","coordinates":[[103.660799,1.3071752],[103.6610688,1.3069521]]}},{"type":"Feature","id":"way/663702225-0-0-0","properties":{"highway":"residential","lanes":"2","lanes:backward":"1","lanes:forward":"1","lit":"yes","maxspeed":"50","name":"Pioneer Sector 3","surface":"asphalt"},"geometry":{"type":"LineString","coordinates":[[103.6601396,1.3077872],[103.660799,1.3071752]]}},{"type":"Feature","id":"way/663706846-0-0-0","properties":{"highway":"residential","lanes":"2","lanes:backward":"1","lanes:forward":"1","lit":"yes","maxspeed":"50","name":"Pioneer Sector 3","parking:condition:left:vehicles":"hgv_articulated","parking:lane:left":"parallel","surface":"asphalt"},"geometry":{"type":"LineString","coordinates":[[103.6614253,1.3067113],[103.6616648,1.3065612]]}},{"type":"Feature","id":"way/663706847-0-0-0","properties":{"highway":"residential","lanes":"2","lanes:backward":"1","lanes:forward":"1","lit":"yes","maxspeed":"50","name":"Pioneer Sector 3","surface":"asphalt"},"geometry":{"type":"LineString","coordinates":[[103.6610688,1.3069521],[103.6614253,1.3067113]]}},{"type":"Feature","id":"way/674600735-0-0-0","properties":{"highway":"residential","lanes":"4","lanes:backward":"2","lanes:forward":"2","lit":"yes","maxspeed":"50","name":"Pioneer Sector 1","parking:condition:right:vehicles":"motorcar","parking:lane:right":"parallel","surface":"asphalt"},"geometry":{"type":"LineString","coordinates":[[103.6595145,1.3091142],[103.6597066,1.3093238]]}},{"type":"Feature","id":"way/710068678-0-0-0","properties":{"highway":"primary","lanes":"4","lanes:backward":"2","lanes:forward":"2","lit":"yes","maxspeed":"60","name":"Pioneer Road","name:en":"Pioneer Road","name:zh":"\u5148\u9a71\u8def","oneway":"no","surface":"asphalt","turn:lanes:backward":"left;through|through"},"geometry":{"type":"LineString","coordinates":[[103.6610337,1.3096596],[103.6611772,1.3095161]]}},{"type":"Feature","id":"way/710068679-0-0-0","properties":{"highway":"primary","lanes":"5","lanes:backward":"3","lanes:forward":"2","lit":"yes","maxspeed":"60","name":"Pioneer Road","name:en":"Pioneer Road","name:zh":"\u5148\u9a71\u8def","oneway":"no","surface":"asphalt","turn:lanes:backward":"left;through|through|right"},"geometry":{"type":"LineString","coordinates":[[103.6604939,1.3101939],[103.660585,1.3101037]]}},{"type":"Feature","id":"way/710068679-0-1-0","properties":{"highway":"primary","lanes":"5","lanes:backward":"3","lanes:forward":"2","lit":"yes","maxspeed":"60","name":"Pioneer Road","name:en":"Pioneer Road","name:zh":"\u5148\u9a71\u8def","oneway":"no","surface":"asphalt","turn:lanes:backward":"left;through|through|right"},"geometry":{"type":"LineString","coordinates":[[103.660585,1.3101037],[103.6606085,1.3100805]]}},{"type":"Feature","id":"way/710068679-0-2-0","properties":{"highway":"primary","lanes":"5","lanes:backward":"3","lanes:forward":"2","lit":"yes","maxspeed":"60","name":"Pioneer Road","name:en":"Pioneer Road","name:zh":"\u5148\u9a71\u8def","oneway":"no","surface":"asphalt","turn:lanes:backward":"left;through|through|right"},"geometry":{"type":"LineString","coordinates":[[103.6606085,1.3100805],[103.6610337,1.3096596]]}},{"type":"Feature","id":"way/737251124-0-0-0","properties":{"highway":"residential","lanes":"2","lanes:backward":"1","lanes:forward":"1","lit":"yes","maxspeed":"50","name":"Pioneer Sector 3","parking:condition:left:vehicles":"motorcar","parking:lane:left":"parallel","surface":"asphalt","turn:lanes:backward":"left;right"},"geometry":{"type":"LineString","coordinates":[[103.6591791,1.3087157],[103.6592264,1.3086723]]}},{"type":"Feature","id":"way/737251124-0-1-0","properties":{"highway":"residential","lanes":"2","lanes:backward":"1","lanes:forward":"1","lit":"yes","maxspeed":"50","name":"Pioneer Sector 3","parking:condition:left:vehicles":"motorcar","parking:lane:left":"parallel","surface":"asphalt","turn:lanes:backward":"left;right"},"geometry":{"type":"LineString","coordinates":[[103.6592264,1.3086723],[103.6594029,1.3085105]]}},{"type":"Feature","id":"way/737895307-0-0-0","properties":{"highway":"primary","lanes":"4","lanes:backward":"2","lanes:forward":"2","lit":"yes","maxspeed":"60","name":"Pioneer Road","name:en":"Pioneer Road","name:zh":"\u5148\u9a71\u8def","oneway":"no","surface":"asphalt"},"geometry":{"type":"LineString","coordinates":[[103.6611772,1.3095161],[103.6612301,1.3094657]]}},{"type":"Feature","id":"way/737895307-0-1-0","properties":{"highway":"primary","lanes":"4","lanes:backward":"2","lanes:forward":"2","lit":"yes","maxspeed":"60","name":"Pioneer Road","name:en":"Pioneer Road","name:zh":"\u5148\u9a71\u8def","oneway":"no","surface":"asphalt"},"geometry":{"type":"LineString","coordinates":[[103.6612301,1.3094657],[103.6615347,1.3091753]]}},{"type":"Feature","id":"way/737895307-0-2-0","properties":{"highway":"primary","lanes":"4","lanes:backward":"2","lanes:forward":"2","lit":"yes","maxspeed":"60","name":"Pioneer Road","name:en":"Pioneer Road","name:zh":"\u5148\u9a71\u8def","oneway":"no","surface":"asphalt"},"geometry":{"type":"LineString","coordinates":[[103.6615347,1.3091753],[103.6619965,1.3087351]]}}]}