{"type":"FeatureCollection","features":[{"type":"Feature","id":"relation/7784994-0","properties":{"addr:housenumber":"76","addr:street":"Pioneer Road","building":"industrial","type":"multipolygon"},"geometry":{"type":"Polygon","coordinates":[[[103.6538494,1.3184737],[103.6538343,1.3184579],[103.6538923,1.3184026],[103.6538287,1.318336],[103.6538694,1.3182972],[103.6538776,1.3183027],[103.6539142,1.3183161],[103.653953,1.3183204],[103.6539917,1.3183153],[103.654028,1.3183011],[103.6540599,1.3182786],[103.6540615,1.3182804],[103.6545132,1.3178717],[103.6545388,1.3178422],[103.6545565,1.3178075],[103.6545655,1.3177695],[103.6545651,1.3177305],[103.6545553,1.3176927],[103.6545368,1.3176583],[103.6545106,1.3176294],[103.6544783,1.3176076],[103.6544417,1.3175941],[103.6544029,1.3175898],[103.6543642,1.317595],[103.6543278,1.3176092],[103.6542959,1.3176317],[103.6542765,1.3176102],[103.6543669,1.3175239],[103.6538138,1.3169441],[103.6526701,1.3180348],[103.6530745,1.3184587],[103.6532232,1.3186146],[103.6534511,1.3188534],[103.6538494,1.3184737]],[[103.6540827,1.3181356],[103.6540602,1.3181391],[103.6540381,1.3181338],[103.6540197,1.3181204],[103.6540078,1.318101],[103.6540043,1.3180785],[103.6540096,1.3180563],[103.654023,1.3180379],[103.6543134,1.317759],[103.6543328,1.3177472],[103.6543553,1.3177436],[103.6543775,1.317749],[103.6543959,1.3177624],[103.6544077,1.3177818],[103.6544113,1.3178043],[103.6544059,1.3178265],[103.6543925,1.3178449],[103.6543918,1.3178453],[103.6541022,1.3181237],[103.654102,1.3181239],[103.6540827,1.3181356]]]}},{"type":"Feature","id":"way/117701625-0","properties":{"addr:city":"Singapore","addr:country":"SG","addr:housenumber":"11","addr:street":"Tuas Avenue 5","building":"yes"},"geometry":{"type":"Polygon","coordinates":[[[103.6544282,1.3193021],[103.6538874,1.3187287],[103.6536403,1.3189616],[103.6541811,1.319535],[103.6544282,1.3193021]]]}},{"type":"Feature","id":"way/117701633-0","properties":{"addr:city":"Singapore","addr:country":"SG","addr:housenumber":"5","addr:street":"Tuas Avenue 3","building":"yes"},"geometry":{"type":"Polygon","coordinates":[[[103.6565641,1.3190209],[103.6567855,1.3188182],[103.6562406,1.3182232],[103.6559692,1.3184717],[103.6564708,1.3190194],[103.6565641,1.3190209]]]}},{"type":"Feature","id":"way/117701634-0","properties":{"addr:city":"Singapore","addr:country":"SG","addr:housenumber":"8","addr:street":"Tuas Avenue 5","building":"yes"},"geometry":{"type":"Polygon","coordinates":[[[103.6561162,1.3194446],[103.6557964,1.3191181],[103.6550854,1.3198142],[103.6554052,1.3201407],[103.6561162,1.3194446]]]}},{"type":"Feature","id":"way/117701643-0","properties":{"addr:city":"Singapore","addr:country":"SG","addr:housenumber":"9","addr:street":"Tuas Avenue 5","building":"yes"},"geometry":{"type":"Polygon","coordinates":[[[103.6548542,1.3188971],[103.6543146,1.3183262],[103.6540694,1.3185578],[103.654609,1.3191288],[103.6548542,1.3188971]]]}},{"type":"Feature","id":"way/117701647-0","properties":{"addr:city":"Singapore","addr:housenumber":"5","addr:postcode":"639344","addr:street":"Tuas Avenue 5","building":"industrial","building:levels":"7","name":"Hup Hin Building"},"geometry":{"type":"Polygon","coordinates":[[[103.6549807,1.3174758],[103.6549944,1.3174903],[103.6548558,1.3176212],[103.6548315,1.3176694],[103.6548242,1.3177294],[103.6548385,1.3177926],[103.6549942,1.3179505],[103.6550441,1.3179617],[103.6550906,1.317959],[103.6551424,1.3179399],[103.6553086,1.3177769],[103.6553347,1.3177333],[103.6553447,1.3176454],[103.6553207,1.3175836],[103.6551228,1.3173725],[103.6551275,1.3173636],[103.6543139,1.3165059],[103.6541977,1.316616],[103.6542203,1.3166398],[103.6539771,1.3168702],[103.6540472,1.3169441],[103.6540296,1.3169608],[103.6541015,1.3170368],[103.654118,1.3170213],[103.6546589,1.3175937],[103.6546448,1.317607],[103.6547376,1.3177053],[103.6549807,1.3174758]]]}},{"type":"Feature","id":"way/117701648-0","properties":{"addr:city":"Singapore","addr:country":"SG","addr:housenumber":"4","addr:street":"Tuas Avenue 5","building":"yes"},"geometry":{"type":"Polygon","coordinates":[[[103.6573013,1.3179428],[103.6569423,1.317564],[103.6563246,1.3181493],[103.6564621,1.3182943],[103.6564947,1.3182634],[103.6567162,1.3184971],[103.6573013,1.3179428]]]}},{"type":"Feature","id":"way/117701654-0","properties":{"addr:city":"Singapore","addr:country":"SG","addr:housenumber":"7","addr:street":"Tuas Avenue 5","building":"yes"},"geometry":{"type":"Polygon","coordinates":[[[103.6552484,1.3185484],[103.6546691,1.3179321],[103.6543892,1.3181951],[103.6545835,1.3184019],[103.6546385,1.3183503],[103.6550234,1.3187598],[103.6552484,1.3185484]]]}},{"type":"Feature","id":"way/117701657-0","properties":{"building":"yes"},"geometry":{"type":"Polygon","coordinates":[[[103.6568372,1.3187743],[103.6575463,1.3181113],[103.6573692,1.317922],[103.6566601,1.318585],[103.6568372,1.3187743]]]}},{"type":"Feature","id":"way/117828042-0","properties":{"addr:city":"Singapore","addr:country":"SG","addr:housenumber":"29","addr:street":"Tuas Basin Link","building":"yes"},"geometry":{"type":"Polygon","coordinates":[[[103.6536891,1.3161033],[103.6533771,1.3157746],[103.6531832,1.3159585],[103.6534951,1.3162873],[103.6536891,1.3161033]]]}},{"type":"Feature","id":"way/117828051-0","properties":{"addr:city":"Singapore","addr:country":"SG","addr:housenumber":"31","addr:street":"Tuas Basin Link","building":"yes"},"geometry":{"type":"Polygon","coordinates":[[[103.654052,1.3157546],[103.6536507,1.3153247],[103.6534372,1.3155239],[103.6538385,1.3159538],[103.654052,1.3157546]]]}},{"type":"Feature","id":"way/451976680-0","properties":{"building":"industrial","building:levels":"5"},"geometry":{"type":"Polygon","coordinates":[[[103.658032,1.3196313],[103.6577833,1.3193704],[103.6571776,1.3199475],[103.6574262,1.3202084],[103.658032,1.3196313]]]}},{"type":"Feature","id":"way/470533689-0","properties":{"building":"service"},"geometry":{"type":"Polygon","coordinates":[[[103.6560634,1.3157756],[103.6555761,1.3152634],[103.6554211,1.3154109],[103.6558129,1.3158228],[103.6558995,1.3157405],[103.6559948,1.3158408],[103.6560634,1.3157756]]]}},{"type":"Feature","id":"way/22906722-0-0-0","properties":{"highway":"primary","lanes":"4","maxheight":"4.5","maxspeed":"70","name":"Pioneer Road","name:en":"Pioneer Road","name:zh":"\u5148\u9a71\u8def","oneway":"yes","surface":"asphalt","turn:lanes":"left|none|none|none"},"geometry":{"type":"LineString","coordinates":[[103.6534671,1.3169895],[103.6537111,1.3167658]]}},{"type":"Feature","id":"way/28247101-0-0-0","properties":{"highway":"unclassified","lanes":"3","lanes:backward":"1","lanes:forward":"2","maxspeed":"50","name":"Tuas Avenue 5","surface":"asphalt","turn:lanes:forward":"left|through"},"geometry":{"type":"LineString","coordinates":[[103.6568329,1.3173887],[103.6570117,1.317214]]}},{"type":"Feature","id":"way/75423511-0-0-0","properties":{"highway":"primary","lanes":"4","maxspeed":"60","name":"Tuas Road","name:en":"Tuas Road","name:zh":"\u5927\u58eb\u8def","oneway":"yes","surface":"asphalt","turn:lanes":"through|through|through|through"},"geometry":{"type":"LineString","coordinates":[[103.6564852,1.3155978],[103.6565077,1.3156256]]}},{"type":"Feature","id":"way/75423511-0-1-0","properties":{"highway":"primary","lanes":"4","maxspeed":"60","name":"Tuas Road","name:en":"Tuas Road","name:zh":"\u5927\u58eb\u8def","oneway":"yes","surface":"asphalt","turn:lanes":"through|through|through|through"},"geometry":{"type":"LineString","coordinates":[[103.6565077,1.3156256],[103.6565833,1.3157135]]}},{"type":"Feature","id":"way/75423511-0-2-0","properties":{"highway":"primary","lanes":"4","maxspeed":"60","name":"Tuas Road","name:en":"Tuas Road","name:zh":"\u5927\u58eb\u8def","oneway":"yes","surface":"asphalt","turn:lanes":"through|through|through|through"},"geometry":{"type":"LineString","coordinates":[[103.6565833,1.3157135],[103.6566209,1.315752]]}},{"type":"Feature","id":"way/175879007-0-0-0","properties":{"highway":"primary","lanes":"3","maxspeed":"60","name":"Tuas Road","name:en":"Tuas Road","name:zh":"\u5927\u58eb\u8def","oneway":"yes","surface":"asphalt"},"geometry":{"type":"LineString","coordinates":[[103.6579589,1.3165105],[103.6574736,1.3159912]]}},{"type":"Feature","id":"way/175879007-0-1-0","properties":{"highway":"primary","lanes":"3","maxspeed":"60","name":"Tuas Road","name:en":"Tuas Road","name:zh":"\u5927\u58eb\u8def","oneway":"yes","surface":"asphalt"},"geometry":{"type":"LineString","coordinates":[[103.6574736,1.3159912],[103.6571899,1.31568]]}},{"type":"Feature","id":"way/452033704-0-0-0","properties":{"highway":"service","surface":"asphalt"},"geometry":{"type":"LineString","coordinates":[[103.653317,1.3154603],[103.6533494,1.3154957]]}},{"type":"Feature","id":"way/452033704-0-1-0","properties":{"highway":"service","surface":"asphalt"},"geometry":{"type":"LineString","coordinates":[[103.6533494,1.3154957],[103.6538057,1.3159934]]}},{"type":"Feature","id":"way/452033704-0-2-0","properties":{"highway":"service","surface":"asphalt"},"geometry":{"type":"LineString","coordinates":[[103.6538057,1.3159934],[103.6538175,1.3160024]]}},{"type":"Feature","id":"way/452033704-0-3-0","properties":{"highway":"service","surface":"asphalt"},"geometry":{"type":"LineString","coordinates":[[103.6538175,1.3160024],[103.6538304,1.3160068]]}},{"type":"Feature","id":"way/452033704-0-4-0","properties":{"highway":"service","surface":"asphalt"},"geometry":{"type":"LineString","coordinates":[[103.6538304,1.3160068],[103.6538449,1.3160069]]}},{"type":"Feature","id":"way/452033704-0-5-0","properties":{"highway":"service","surface":"asphalt"},"geometry":{"type":"LineString","coordinates":[[103.6538449,1.3160069],[103.6538612,1.3160016]]}},{"type":"Feature","id":"way/452033704-0-6-0","properties":{"highway":"service","surface":"asphalt"},"geometry":{"type":"LineString","coordinates":[[103.6538612,1.3160016],[103.6540411,1.3158438]]}},{"type":"Feature","id":"way/452050141-0-0-0","properties":{"highway":"service","surface":"asphalt"},"geometry":{"type":"LineString","coordinates":[[103.6546336,1.3194779],[103.6546791,1.3195263]]}},{"type":"Feature","id":"way/452050141-0-1-0","properties":{"highway":"service","surface":"asphalt"},"geometry":{"type":"LineString","coordinates":[[103.6546791,1.3195263],[103.6554292,1.3203239]]}},{"type":"Feature","id":"way/452050142-0-0-0","properties":{"highway":"service","surface":"asphalt"},"geometry":{"type":"LineString","coordinates":[[103.6540545,1.3185219],[103.6543255,1.3182525]]}},{"type":"Feature","id":"way/467880096-0-0-0","properties":{"bicycle":"no","expressway":"yes","highway":"primary","lanes":"3","maxspeed":"50","name":"Tuas Viaduct","name:ms":"Jejambat Tuas","name:ta":"\u0ba4\u0bc1\u0bb5\u0bbe\u0bb8\u0bcd \u0bae\u0bc7\u0bae\u0bcd\u0baa\u0bbe\u0bb2\u0bae\u0bcd","name:zh":"\u5927\u58eb\u9ad8\u67b6\u6865","oneway":"yes","surface":"asphalt"},"geometry":{"type":"LineString","coordinates":[[103.6577633,1.3164575],[103.6574123,1.3160874]]}},{"type":"Feature","id":"way/467880097-0-0-0","properties":{"bicycle":"no","bridge":"yes","expressway":"yes","highway":"primary","lanes":"2","layer":"1","maxspeed":"50","name":"Tuas Viaduct","name:ms":"Jejambat Tuas","name:ta":"\u0ba4\u0bc1\u0bb5\u0bbe\u0bb8\u0bcd \u0bae\u0bc7\u0bae\u0bcd\u0baa\u0bbe\u0bb2\u0bae\u0bcd","name:zh":"\u5927\u58eb\u9ad8\u67b6\u6865","oneway":"yes","surface":"asphalt"},"geometry":{"type":"LineString","coordinates":[[103.6574123,1.3160874],[103.6566928,1.3153317]]}},{"type":"Feature","id":"way/470533681-0-0-0","properties":{"bicycle":"no","bridge":"viaduct","expressway":"yes","highway":"primary","lanes":"2","layer":"1","maxspeed":"70","name":"Tuas Viaduct","name:ms":"Jejambat Tuas","name:ta":"\u0ba4\u0bc1\u0bb5\u0bbe\u0bb8\u0bcd \u0bae\u0bc7\u0bae\u0bcd\u0baa\u0bbe\u0bb2\u0bae\u0bcd","name:zh":"\u5927\u58eb\u9ad8\u67b6\u6865","oneway":"yes","surface":"asphalt"},"geometry":{"type":"LineString","coordinates":[[103.6546867,1.3154593],[103.6538704,1.3162445]]}},{"type":"Feature","id":"way/470533681-0-1-0","properties":{"bicycle":"no","bridge":"viaduct","expressway":"yes","highway":"primary","lanes":"2","layer":"1","maxspeed":"70","name":"Tuas Viaduct","name:ms":"Jejambat Tuas","name:ta":"\u0ba4\u0bc1\u0bb5\u0bbe\u0bb8\u0bcd \u0bae\u0bc7\u0bae\u0bcd\u0baa\u0bbe\u0bb2\u0bae\u0bcd","name:zh":"\u5927\u58eb\u9ad8\u67b6\u6865","oneway":"yes","surface":"asphalt"},"geometry":{"type":"LineString","coordinates":[[103.6538704,1.3162445],[103.653614,1.3165522]]}},{"type":"Feature","id":"way/479569352-0-0-0","properties":{"bicycle":"no","highway":"primary","lanes":"2","maxspeed":"60","name":"Tuas Road","name:en":"Tuas Road","name:zh":"\u5927\u58eb\u8def","oneway":"yes","surface":"asphalt","turn:lanes":"through|through"},"geometry":{"type":"LineString","coordinates":[[103.6574194,1.3162776],[103.6565493,1.31531]]}},{"type":"Feature","id":"way/479575738-0-0-0","properties":{"highway":"primary","lanes":"2","maxspeed":"60","name":"Tuas Road","name:en":"Tuas Road","name:zh":"\u5927\u58eb\u8def","oneway":"yes","surface":"asphalt"},"geometry":{"type":"LineString","coordinates":[[103.6566209,1.315752],[103.6567314,1.3159156]]}},{"type":"Feature","id":"way/479575738-0-1-0","properties":{"highway":"primary","lanes":"2","maxspeed":"60","name":"Tuas Road","name:en":"Tuas Road","name:zh":"\u5927\u58eb\u8def","oneway":"yes","surface":"asphalt"},"geometry":{"type":"LineString","coordinates":[[103.6567314,1.3159156],[103.6568596,1.3160801]]}},{"type":"Feature","id":"way/479575738-0-2-0","properties":{"highway":"primary","lanes":"2","maxspeed":"60","name":"Tuas Road","name:en":"Tuas Road","name:zh":"\u5927\u58eb\u8def","oneway":"yes","surface":"asphalt"},"geometry":{"type":"LineString","coordinates":[[103.6568596,1.3160801],[103.6571031,1.3163652]]}},{"type":"Feature","id":"way/479575739-0-0-0","properties":{"highway":"primary_link","lanes":"1","maxspeed":"50","oneway":"yes","surface":"asphalt"},"geometry":{"type":"LineString","coordinates":[[103.6573463,1.3165973],[103.6573507,1.3166914]]}},{"type":"Feature","id":"way/479575739-0-1-0","properties":{"highway":"primary_link","lanes":"1","maxspeed":"50","oneway":"yes","surface":"asphalt"},"geometry":{"type":"LineString","coordinates":[[103.6573507,1.3166914],[103.6573534,1.3167533]]}},{"type":"Feature","id":"way/479575739-0-2-0","properties":{"highway":"primary_link","lanes":"1","maxspeed":"50","oneway":"yes","surface":"asphalt"},"geometry":{"type":"LineString","coordinates":[[103.6573534,1.3167533],[103.6573483,1.3167798]]}},{"type":"Feature","id":"way/479575739-0-3-0","properties":{"highway":"primary_link","lanes":"1","maxspeed":"50","oneway":"yes","surface":"asphalt"},"geometry":{"type":"LineString","coordinates":[[103.6573483,1.3167798],[103.6573418,1.3168234]]}},{"type":"Feature","id":"way/479575739-0-4-0","properties":{"highway":"primary_link","lanes":"1","maxspeed":"50","oneway":"yes","surface":"asphalt"},"geometry":{"type":"LineString","coordinates":[[103.6573418,1.3168234],[103.6572837,1.3169213]]}},{"type":"Feature","id":"way/479575740-0-0-0","properties":{"highway":"primary_link","lanes":"1","maxspeed":"50","oneway":"yes","surface":"asphalt","turn:lanes":"left"},"geometry":{"type":"LineString","coordinates":[[103.6571409,1.3170848],[103.6572939,1.3169718]]}},{"type":"Feature","id":"way/479575740-0-1-0","properties":{"highway":"primary_link","lanes":"1","maxspeed":"50","oneway":"yes","surface":"asphalt","turn:lanes":"left"},"geometry":{"type":"LineString","coordinates":[[103.6572939,1.3169718],[103.6573859,1.316888]]}},{"type":"Feature","id":"way/479575740-0-2-0","properties":{"highway":"primary_link","lanes":"1","maxspeed":"50","oneway":"yes","surface":"asphalt","turn:lanes":"left"},"geometry":{"type":"LineString","coordinates":[[103.6573859,1.316888],[103.6574272,1.3168614]]}},{"type":"Feature","id":"way/479575740-0-3-0","properties":{"highway":"primary_link","lanes":"1","maxspeed":"50","oneway":"yes","surface":"asphalt","turn:lanes":"left"},"geometry":{"type":"LineString","coordinates":[[103.6574272,1.3168614],[103.657468,1.3168427]]}},{"type":"Feature","id":"way/479575740-0-4-0","properties":{"highway":"primary_link","lanes":"1","maxspeed":"50","oneway":"yes","surface":"asphalt","turn:lanes":"left"},"geometry":{"type":"LineString","coordinates":[[103.657468,1.3168427],[103.6575282,1.3168379]]}},{"type":"Feature","id":"way/479575740-0-5-0","properties":{"highway":"primary_link","lanes":"1","maxspeed":"50","oneway":"yes","surface":"asphalt","turn:lanes":"left"},"geometry":{"type":"LineString","coordinates":[[103.6575282,1.3168379],[103.6575919,1.3168421]]}},{"type":"Feature","id":"way/479575741-0-0-0","properties":{"highway":"unclassified","lanes":"1","maxspeed":"50","name":"Tuas Avenue 5","oneway":"yes","surface":"asphalt"},"geometry":{"type":"LineString","coordinates":[[103.6572837,1.3169213],[103.657427,1.3167883]]}},{"type":"Feature","id":"way/479575741-0-1-0","properties":{"highway":"unclassified","lanes":"1","maxspeed":"50","name":"Tuas Avenue 5","oneway":"yes","surface":"asphalt"},"geometry":{"type":"LineString","coordinates":[[103.657427,1.3167883],[103.6575045,1.3167621]]}},{"type":"Feature","id":"way/479575742-0-0-0","properties":{"highway":"unclassified","lanes":"1","maxspeed":"50","name":"Tuas Avenue 5","oneway":"yes","surface":"asphalt"},"geometry":{"type":"LineString","coordinates":[[103.6575045,1.3167621],[103.6576246,1.3167593]]}},{"type":"Feature","id":"way/479575742-0-1-0","properties":{"highway":"unclassified","lanes":"1","maxspeed":"50","name":"Tuas Avenue 5","oneway":"yes","surface":"asphalt"},"geometry":{"type":"LineString","coordinates":[[103.6576246,1.3167593],[103.6577099,1.3168108]]}},{"type":"Feature","id":"way/479575742-0-2-0","properties":{"highway":"unclassified","lanes":"1","maxspeed":"50","name":"Tuas Avenue 5","oneway":"yes","surface":"asphalt"},"geometry":{"type":"LineString","coordinates":[[103.6577099,1.3168108],[103.657794,1.316881]]}},{"type":"Feature","id":"way/479575743-0-0-0","properties":{"highway":"primary","lanes":"3","maxspeed":"60","name":"Tuas Road","name:en":"Tuas Road","name:zh":"\u5927\u58eb\u8def","oneway":"yes","surface":"asphalt","turn:lanes":"through|through|through"},"geometry":{"type":"LineString","coordinates":[[103.6575045,1.3167621],[103.6575919,1.3168421]]}},{"type":"Feature","id":"way/480879223-0-0-0","properties":{"highway":"primary","lanes":"4","maxspeed":"70","name":"Pioneer Road","name:en":"Pioneer Road","name:zh":"\u5148\u9a71\u8def","oneway":"yes","surface":"asphalt"},"geometry":{"type":"LineString","coordinates":[[103.6546536,1.3158658],[103.6549918,1.3155347]]}},{"type":"Feature","id":"way/480879224-0-0-0","properties":{"highway":"primary","lanes":"4","maxspeed":"70","name":"Pioneer Road","name:en":"Pioneer Road","name:zh":"\u5148\u9a71\u8def","oneway":"yes","surface":"asphalt","turn:lanes":"left|through|through|through"},"geometry":{"type":"LineString","coordinates":[[103.6549918,1.3155347],[103.6551342,1.3154047]]}},{"type":"Feature","id":"way/538853894-0-0-0","properties":{"highway":"service","service":"parking_aisle"},"geometry":{"type":"LineString","coordinates":[[103.6553424,1.3185236],[103.6550751,1.3187753]]}},{"type":"Feature","id":"way/538853895-0-0-0","properties":{"highway":"service","service":"parking_aisle"},"geometry":{"type":"LineString","coordinates":[[103.6549533,1.3188837],[103.6546433,1.3191869]]}},{"type":"Feature","id":"way/538853896-0-2-0","properties":{"highway":"service"},"geometry":{"type":"LineString","coordinates":[[103.6561534,1.3196428],[103.6562352,1.3194457]]}},{"type":"Feature","id":"way/538853896-0-3-0","properties":{"highway":"service"},"geometry":{"type":"LineString","coordinates":[[103.6562352,1.3194457],[103.6562379,1.3193961]]}},{"type":"Feature","id":"way/538853896-0-4-0","properties":{"highway":"service"},"geometry":{"type":"LineString","coordinates":[[103.6562379,1.3193961],[103.6562258,1.3193478]]}},{"type":"Feature","id":"way/538853896-0-5-0","properties":{"highway":"service"},"geometry":{"type":"LineString","coordinates":[[103.6562258,1.3193478],[103.655967,1.3190958]]}},{"type":"Feature","id":"way/538853896-0-6-0","properties":{"highway":"service"},"geometry":{"type":"LineString","coordinates":[[103.655967,1.3190958],[103.6557099,1.3189471]]}},{"type":"Feature","id":"way/538854953-0-0-0","properties":{"highway":"service","service":"parking_aisle"},"geometry":{"type":"LineString","coordinates":[[103.654489,1.3193212],[103.6542074,1.3196012]]}},{"type":"Feature","id":"way/538854954-0-0-0","properties":{"highway":"service"},"geometry":{"type":"LineString","coordinates":[[103.6539231,1.3187083],[103.654489,1.3193212]]}},{"type":"Feature","id":"way/539467911-0-0-0","properties":{"bicycle":"no","expressway":"yes","highway":"primary_link","lanes":"2","maxspeed":"50","oneway":"yes","turn:lanes":"right|right"},"geometry":{"type":"LineString","coordinates":[[103.6574194,1.3162776],[103.6570996,1.3160269]]}},{"type":"Feature","id":"way/539467911-0-1-0","properties":{"bicycle":"no","expressway":"yes","highway":"primary_link","lanes":"2","maxspeed":"50","oneway":"yes","turn:lanes":"right|right"},"geometry":{"type":"LineString","coordinates":[[103.6570996,1.3160269],[103.6568477,1.3157188]]}},{"type":"Feature","id":"way/539467912-0-0-0","properties":{"bicycle":"no","expressway":"yes","highway":"primary_link","lanes":"1","maxspeed":"50","oneway":"yes"},"geometry":{"type":"LineString","coordinates":[[103.6568477,1.3157188],[103.6567809,1.3156622]]}},{"type":"Feature","id":"way/539467912-0-1-0","properties":{"bicycle":"no","expressway":"yes","highway":"primary_link","lanes":"1","maxspeed":"50","oneway":"yes"},"geometry":{"type":"LineString","coordinates":[[103.6567809,1.3156622],[103.6567442,1.315648]]}},{"type":"Feature","id":"way/539467912-0-2-0","properties":{"bicycle":"no","expressway":"yes","highway":"primary_link","lanes":"1","maxspeed":"50","oneway":"yes"},"geometry":{"type":"LineString","coordinates":[[103.6567442,1.315648],[103.6567192,1.3156434]]}},{"type":"Feature","id":"way/539467912-0-3-0","properties":{"bicycle":"no","expressway":"yes","highway":"primary_link","lanes":"1","maxspeed":"50","oneway":"yes"},"geometry":{"type":"LineString","coordinates":[[103.6567192,1.3156434],[103.6566819,1.3156452]]}},{"type":"Feature","id":"way/539467912-0-4-0","properties":{"bicycle":"no","expressway":"yes","highway":"primary_link","lanes":"1","maxspeed":"50","oneway":"yes"},"geometry":{"type":"LineString","coordinates":[[103.6566819,1.3156452],[103.6566401,1.3156653]]}},{"type":"Feature","id":"way/539467912-0-5-0","properties":{"bicycle":"no","expressway":"yes","highway":"primary_link","lanes":"1","maxspeed":"50","oneway":"yes"},"geometry":{"type":"LineString","coordinates":[[103.6566401,1.3156653],[103.6565833,1.3157135]]}},{"type":"Feature","id":"way/539467913-0-0-0","properties":{"bicycle":"no","expressway":"yes","highway":"primary_link","lanes":"1","maxspeed":"50","oneway":"yes"},"geometry":{"type":"LineString","coordinates":[[103.6568477,1.3157188],[103.6567385,1.3155982]]}},{"type":"Feature","id":"way/539467913-0-1-0","properties":{"bicycle":"no","expressway":"yes","highway":"primary_link","lanes":"1","maxspeed":"50","oneway":"yes"},"geometry":{"type":"LineString","coordinates":[[103.6567385,1.3155982],[103.6566906,1.315557]]}},{"type":"Feature","id":"way/539467913-0-2-0","properties":{"bicycle":"no","expressway":"yes","highway":"primary_link","lanes":"1","maxspeed":"50","oneway":"yes"},"geometry":{"type":"LineString","coordinates":[[103.6566906,1.315557],[103.6566437,1.3155503]]}},{"type":"Feature","id":"way/539467913-0-3-0","properties":{"bicycle":"no","expressway":"yes","highway":"primary_link","lanes":"1","maxspeed":"50","oneway":"yes"},"geometry":{"type":"LineString","coordinates":[[103.6566437,1.3155503],[103.6566086,1.3155495]]}},{"type":"Feature","id":"way/539467913-0-4-0","properties":{"bicycle":"no","expressway":"yes","highway":"primary_link","lanes":"1","maxspeed":"50","oneway":"yes"},"geometry":{"type":"LineString","coordinates":[[103.6566086,1.3155495],[103.6565609,1.3155754]]}},{"type":"Feature","id":"way/539467913-0-5-0","properties":{"bicycle":"no","expressway":"yes","highway":"primary_link","lanes":"1","maxspeed":"50","oneway":"yes"},"geometry":{"type":"LineString","coordinates":[[103.6565609,1.3155754],[103.6565077,1.3156256]]}},{"type":"Feature","id":"way/545121166-0-1-0","properties":{"highway":"service"},"geometry":{"type":"LineString","coordinates":[[103.6555614,1.3151903],[103.6560861,1.3157503]]}},{"type":"Feature","id":"way/545121170-0-0-0","properties":{"highway":"service","service":"driveway"},"geometry":{"type":"LineString","coordinates":[[103.6537111,1.3167658],[103.6537708,1.3168332]]}},{"type":"Feature","id":"way/545121170-0-1-0","properties":{"highway":"service","service":"driveway"},"geometry":{"type":"LineString","coordinates":[[103.6537708,1.3168332],[103.6538165,1.3168793]]}},{"type":"Feature","id":"way/545121170-0-2-0","properties":{"highway":"service","service":"driveway"},"geometry":{"type":"LineString","coordinates":[[103.6538165,1.3168793],[103.6545904,1.3176607]]}},{"type":"Feature","id":"way/545122785-0-0-0","properties":{"highway":"service"},"geometry":{"type":"LineString","coordinates":[[103.6569654,1.3175296],[103.6569048,1.3174651]]}},{"type":"Feature","id":"way/545122785-0-1-0","properties":{"highway":"service"},"geometry":{"type":"LineString","coordinates":[[103.6569048,1.3174651],[103.6568329,1.3173887]]}},{"type":"Feature","id":"way/545128655-0-0-0","properties":{"highway":"service"},"geometry":{"type":"LineString","coordinates":[[103.6559581,1.318469],[103.6558717,1.3185528]]}},{"type":"Feature","id":"way/545128655-0-1-0","properties":{"highway":"service"},"geometry":{"type":"LineString","coordinates":[[103.6558717,1.3185528],[103.655853,1.3185742]]}},{"type":"Feature","id":"way/545128655-0-2-0","properties":{"highway":"service"},"geometry":{"type":"LineString","coordinates":[[103.655853,1.3185742],[103.655853,1.3185957]]}},{"type":"Feature","id":"way/545128655-0-3-0","properties":{"highway":"service"},"geometry":{"type":"LineString","coordinates":[[103.655853,1.3185957],[103.6558597,1.3186118]]}},{"type":"Feature","id":"way/545128655-0-4-0","properties":{"highway":"service"},"geometry":{"type":"LineString","coordinates":[[103.6558597,1.3186118],[103.6565091,1.319236]]}},{"type":"Feature","id":"way/545128655-0-5-0","properties":{"highway":"service"},"geometry":{"type":"LineString","coordinates":[[103.6565091,1.319236],[103.6565557,1.3192728]]}},{"type":"Feature","id":"way/545128655-0-6-0","properties":{"highway":"service"},"geometry":{"type":"LineString","coordinates":[[103.6565557,1.3192728],[103.6566094,1.319262]]}},{"type":"Feature","id":"way/545128655-0-7-0","properties":{"highway":"service"},"geometry":{"type":"LineString","coordinates":[[103.6566094,1.319262],[103.657068,1.3188839]]}},{"type":"Feature","id":"way/545128655-0-8-0","properties":{"highway":"service"},"geometry":{"type":"LineString","coordinates":[[103.657068,1.3188839],[103.6571243,1.3188491]]}},{"type":"Feature","id":"way/545128655-0-9-0","properties":{"highway":"service"},"geometry":{"type":"LineString","coordinates":[[103.6571243,1.3188491],[103.657178,1.3188598]]}},{"type":"Feature","id":"way/597199435-0-0-0","properties":{"highway":"service"},"geometry":{"type":"LineString","coordinates":[[103.654232,1.319858],[103.6542801,1.3199096]]}},{"type":"Feature","id":"way/644424068-0-0-0","properties":{"highway":"unclassified","lanes":"2","lanes:backward":"1","lanes:forward":"1","maxspeed":"50","name":"Tuas Avenue 5","surface":"asphalt"},"geometry":{"type":"LineString","coordinates":[[103.6546336,1.3194779],[103.6547339,1.3193741]]}},{"type":"Feature","id":"way/644424068-0-1-0","properties":{"highway":"unclassified","lanes":"2","lanes:backward":"1","lanes:forward":"1","maxspeed":"50","name":"Tuas Avenue 5","surface":"asphalt"},"geometry":{"type":"LineString","coordinates":[[103.6547339,1.3193741],[103.6547774,1.3193291]]}},{"type":"Feature","id":"way/644424070-0-0-0","properties":{"highway":"unclassified","lanes":"2","lanes:backward":"1","lanes:forward":"1","maxspeed":"50","name":"Tuas Avenue 5","surface":"asphalt"},"geometry":{"type":"LineString","coordinates":[[103.654232,1.319858],[103.654295,1.3197974]]}},{"type":"Feature","id":"way/644424070-0-1-0","properties":{"highway":"unclassified","lanes":"2","lanes:backward":"1","lanes:forward":"1","maxspeed":"50","name":"Tuas Avenue 5","surface":"asphalt"},"geometry":{"type":"LineString","coordinates":[[103.654295,1.3197974],[103.6543804,1.3197152]]}},{"type":"Feature","id":"way/644424071-0-0-0","properties":{"highway":"service"},"geometry":{"type":"LineString","coordinates":[[103.654489,1.3193212],[103.6545918,1.3194329]]}},{"type":"Feature","id":"way/644424071-0-1-0","properties":{"highway":"service"},"geometry":{"type":"LineString","coordinates":[[103.6545918,1.3194329],[103.6546336,1.3194779]]}},{"type":"Feature","id":"way/644424765-0-0-0","properties":{"highway":"unclassified","lanes":"2","lanes:backward":"1","lanes:forward":"1","maxspeed":"50","name":"Tuas Avenue 5","surface":"asphalt"},"geometry":{"type":"LineString","coordinates":[[103.6551028,1.3190347],[103.6551963,1.31894]]}},{"type":"Feature","id":"way/644424765-0-1-0","properties":{"highway":"unclassified","lanes":"2","lanes:backward":"1","lanes:forward":"1","maxspeed":"50","name":"Tuas Avenue 5","surface":"asphalt"},"geometry":{"type":"LineString","coordinates":[[103.6551963,1.31894],[103.6552113,1.3189248]]}},{"type":"Feature","id":"way/644424766-0-0-0","properties":{"highway":"service","surface":"asphalt"},"geometry":{"type":"LineString","coordinates":[[103.6549533,1.3188837],[103.6550487,1.3189801]]}},{"type":"Feature","id":"way/644424766-0-1-0","properties":{"highway":"service","surface":"asphalt"},"geometry":{"type":"LineString","coordinates":[[103.6550487,1.3189801],[103.6551028,1.3190347]]}},{"type":"Feature","id":"way/645381750-0-0-0","properties":{"highway":"unclassified","lanes":"2","lanes:backward":"1","lanes:forward":"1","maxspeed":"50","name":"Tuas Avenue 5","surface":"asphalt"},"geometry":{"type":"LineString","coordinates":[[103.6557315,1.318439],[103.6558354,1.3183406]]}},{"type":"Feature","id":"way/645381751-0-0-0","properties":{"highway":"unclassified","lanes":"2","lanes:backward":"1","lanes:forward":"1","maxspeed":"50","name":"Tuas Avenue 5","surface":"asphalt"},"geometry":{"type":"LineString","coordinates":[[103.6554812,1.3186758],[103.6557315,1.318439]]}},{"type":"Feature","id":"way/645390363-0-0-0","properties":{"highway":"unclassified","lanes":"2","lanes:backward":"1","lanes:forward":"1","maxspeed":"50","name":"Tuas Avenue 5","surface":"asphalt"},"geometry":{"type":"LineString","coordinates":[[103.6558354,1.3183406],[103.6559538,1.3182268]]}},{"type":"Feature","id":"way/645390363-0-1-0","properties":{"highway":"unclassified","lanes":"2","lanes:backward":"1","lanes:forward":"1","maxspeed":"50","name":"Tuas Avenue 5","surface":"asphalt"},"geometry":{"type":"LineString","coordinates":[[103.6559538,1.3182268],[103.6564516,1.3177526]]}},{"type":"Feature","id":"way/645390363-0-2-0","properties":{"highway":"unclassified","lanes":"2","lanes:backward":"1","lanes:forward":"1","maxspeed":"50","name":"Tuas Avenue 5","surface":"asphalt"},"geometry":{"type":"LineString","coordinates":[[103.6564516,1.3177526],[103.6564818,1.3177238]]}},{"type":"Feature","id":"way/645390363-0-3-0","properties":{"highway":"unclassified","lanes":"2","lanes:backward":"1","lanes:forward":"1","maxspeed":"50","name":"Tuas Avenue 5","surface":"asphalt"},"geometry":{"type":"LineString","coordinates":[[103.6564818,1.3177238],[103.6568329,1.3173887]]}},{"type":"Feature","id":"way/645394318-0-0-0","properties":{"highway":"service","noname":"yes","surface":"asphalt"},"geometry":{"type":"LineString","coordinates":[[103.6554812,1.3186758],[103.6555112,1.3187114]]}},{"type":"Feature","id":"way/645394318-0-1-0","properties":{"highway":"service","noname":"yes","surface":"asphalt"},"geometry":{"type":"LineString","coordinates":[[103.6555112,1.3187114],[103.6557099,1.3189471]]}},{"type":"Feature","id":"way/645394320-0-0-0","properties":{"highway":"service"},"geometry":{"type":"LineString","coordinates":[[103.6557099,1.3189471],[103.6549799,1.3196602]]}},{"type":"Feature","id":"way/645394320-0-1-0","properties":{"highway":"service"},"geometry":{"type":"LineString","coordinates":[[103.6549799,1.3196602],[103.6549745,1.3197018]]}},{"type":"Feature","id":"way/645394320-0-2-0","properties":{"highway":"service"},"geometry":{"type":"LineString","coordinates":[[103.6549745,1.3197018],[103.654996,1.3197568]]}},{"type":"Feature","id":"way/646139150-0-1-0","properties":{"highway":"service","noname":"yes","surface":"asphalt"},"geometry":{"type":"LineString","coordinates":[[103.6577884,1.3193258],[103.657178,1.3188598]]}},{"type":"Feature","id":"way/646139450-0-0-0","properties":{"highway":"unclassified","lanes":"2","lanes:backward":"1","lanes:forward":"1","maxspeed":"50","name":"Tuas Avenue 5","surface":"asphalt","turn:lanes:forward":"left"},"geometry":{"type":"LineString","coordinates":[[103.6571409,1.3170848],[103.6572837,1.3169213]]}},{"type":"Feature","id":"way/646356783-0-0-0","properties":{"highway":"service","noname":"yes","surface":"asphalt"},"geometry":{"type":"LineString","coordinates":[[103.6553424,1.3185236],[103.6554329,1.3186264]]}},{"type":"Feature","id":"way/646356783-0-1-0","properties":{"highway":"service","noname":"yes","surface":"asphalt"},"geometry":{"type":"LineString","coordinates":[[103.6554329,1.3186264],[103.6554812,1.3186758]]}},{"type":"Feature","id":"way/655191866-0-0-0","properties":{"highway":"primary","lanes":"3","maxspeed":"60","name":"Tuas Road","name:en":"Tuas Road","name:zh":"\u5927\u58eb\u8def","oneway":"yes","surface":"asphalt","turn:lanes":"left;through|through|through"},"geometry":{"type":"LineString","coordinates":[[103.6571031,1.3163652],[103.6573463,1.3165973]]}},{"type":"Feature","id":"way/655191866-0-1-0","properties":{"highway":"primary","lanes":"3","maxspeed":"60","name":"Tuas Road","name:en":"Tuas Road","name:zh":"\u5927\u58eb\u8def","oneway":"yes","surface":"asphalt","turn:lanes":"left;through|through|through"},"geometry":{"type":"LineString","coordinates":[[103.6573463,1.3165973],[103.6575045,1.3167621]]}},{"type":"Feature","id":"way/655800694-0-0-0","properties":{"highway":"primary","lanes":"3","maxspeed":"70","name":"Pioneer Road","name:en":"Pioneer Road","name:zh":"\u5148\u9a71\u8def","oneway":"yes","surface":"asphalt"},"geometry":{"type":"LineString","coordinates":[[103.6549705,1.3153015],[103.6543345,1.3158904]]}},{"type":"Feature","id":"way/655800694-0-1-0","properties":{"highway":"primary","lanes":"3","maxspeed":"70","name":"Pioneer Road","name:en":"Pioneer Road","name:zh":"\u5148\u9a71\u8def","oneway":"yes","surface":"asphalt"},"geometry":{"type":"LineString","coordinates":[[103.6543345,1.3158904],[103.6537208,1.316486]]}},{"type":"Feature","id":"way/655800694-0-1-1","properties":{"highway":"primary","lanes":"3","maxspeed":"70","name":"Pioneer Road","name:en":"Pioneer Road","name:zh":"\u5148\u9a71\u8def","oneway":"yes","surface":"asphalt"},"geometry":{"type":"LineString","coordinates":[[103.6537208,1.316486],[103.6531071,1.3170816]]}},{"type":"Feature","id":"way/655811137-0-0-0","properties":{"highway":"primary","lanes":"3","maxheight":"4.5","maxspeed":"70","name":"Pioneer Road","name:en":"Pioneer Road","name:zh":"\u5148\u9a71\u8def","oneway":"yes","surface":"asphalt"},"geometry":{"type":"LineString","coordinates":[[103.6544848,1.3160295],[103.6546536,1.3158658]]}},{"type":"Feature","id":"way/655811138-0-0-0","properties":{"highway":"primary_link","lanes":"1","maxspeed":"50","name":"Pionner Road","oneway":"yes","turn:lanes":"right"},"geometry":{"type":"LineString","coordinates":[[103.6544848,1.3160295],[103.6544267,1.3159531]]}},{"type":"Feature","id":"way/655811138-0-1-0","properties":{"highway":"primary_link","lanes":"1","maxspeed":"50","name":"Pionner Road","oneway":"yes","turn:lanes":"right"},"geometry":{"type":"LineString","coordinates":[[103.6544267,1.3159531],[103.6543932,1.3159169]]}},{"type":"Feature","id":"way/655811138-0-2-0","properties":{"highway":"primary_link","lanes":"1","maxspeed":"50","name":"Pionner Road","oneway":"yes","turn:lanes":"right"},"geometry":{"type":"LineString","coordinates":[[103.6543932,1.3159169],[103.6543345,1.3158904]]}},{"type":"Feature","id":"way/655811139-0-0-0","properties":{"highway":"primary","lanes":"3","maxheight":"4.5","maxspeed":"70","name":"Pioneer Road","name:en":"Pioneer Road","name:zh":"\u5148\u9a71\u8def","oneway":"yes","surface":"asphalt"},"geometry":{"type":"LineString","coordinates":[[103.6537111,1.3167658],[103.6537817,1.3166945]]}},{"type":"Feature","id":"way/655811139-0-1-0","properties":{"highway":"primary","lanes":"3","maxheight":"4.5","maxspeed":"70","name":"Pioneer Road","name:en":"Pioneer Road","name:zh":"\u5148\u9a71\u8def","oneway":"yes","surface":"asphalt"},"geometry":{"type":"LineString","coordinates":[[103.6537817,1.3166945],[103.6540116,1.3164827]]}},{"type":"Feature","id":"way/655821616-0-0-0","properties":{"highway":"primary","lanes":"3","maxspeed":"60","name":"Tuas Road","name:en":"Tuas Road","name:zh":"\u5927\u58eb\u8def","oneway":"yes","surface":"asphalt","turn:lanes":"through|through|right"},"geometry":{"type":"LineString","coordinates":[[103.6571899,1.31568],[103.6570211,1.315499]]}},{"type":"Feature","id":"way/655831001-0-0-0","properties":{"bicycle":"no","expressway":"yes","highway":"primary","lanes":"4","maxspeed":"60","name":"Tuas Road","name:en":"Tuas Road","name:zh":"\u5927\u58eb\u8def","oneway":"yes","surface":"asphalt","turn:lanes":"through|through|right|right"},"geometry":{"type":"LineString","coordinates":[[103.6576969,1.3165552],[103.6574194,1.3162776]]}},{"type":"Feature","id":"way/663680624-0-0-0","properties":{"highway":"unclassified","lanes":"2","lanes:backward":"1","lanes:forward":"1","maxspeed":"50","name":"Tuas Avenue 5","surface":"asphalt"},"geometry":{"type":"LineString","coordinates":[[103.6545186,1.3195838],[103.6546336,1.3194779]]}},{"type":"Feature","id":"way/663680625-0-0-0","properties":{"highway":"unclassified","lanes":"2","lanes:backward":"1","lanes:forward":"1","maxspeed":"50","name":"Tuas Avenue 5","parking:condition:right:vehicles":"hgv_articulated","parking:lane:right":"parallel","surface":"asphalt"},"geometry":{"type":"LineString","coordinates":[[103.6543804,1.3197152],[103.6545186,1.3195838]]}},{"type":"Feature","id":"way/663680626-0-0-0","properties":{"highway":"unclassified","lanes":"2","lanes:backward":"1","lanes:forward":"1","maxspeed":"50","name":"Tuas Avenue 5","surface":"asphalt"},"geometry":{"type":"LineString","coordinates":[[103.6549424,1.3191716],[103.6551028,1.3190347]]}},{"type":"Feature","id":"way/663680627-0-0-0","properties":{"highway":"unclassified","lanes":"2","lanes:backward":"1","lanes:forward":"1","maxspeed":"50","name":"Tuas Avenue 5","parking:condition:right:vehicles":"motorcar","parking:lane:right":"parallel","surface":"asphalt"},"geometry":{"type":"LineString","coordinates":[[103.6547774,1.3193291],[103.6549424,1.3191716]]}},{"type":"Feature","id":"way/663680628-0-0-0","properties":{"highway":"unclassified","lanes":"2","lanes:backward":"1","lanes:forward":"1","maxspeed":"50","name":"Tuas Avenue 5","surface":"asphalt"},"geometry":{"type":"LineString","coordinates":[[103.65534,1.3188035],[103.6554812,1.3186758]]}},{"type":"Feature","id":"way/663680629-0-0-0","properties":{"highway":"unclassified","lanes":"2","lanes:backward":"1","lanes:forward":"1","maxspeed":"50","name":"Tuas Avenue 5","parking:condition:right:vehicles":"motorcar","parking:lane:right":"parallel","surface":"asphalt"},"geometry":{"type":"LineString","coordinates":[[103.6552113,1.3189248],[103.65534,1.3188035]]}},{"type":"Feature","id":"way/671819150-0-0-0","properties":{"highway":"unclassified","lanes":"3","lanes:backward":"1","lanes:forward":"2","maxspeed":"50","name":"Tuas Avenue 5","surface":"asphalt","turn:lanes:forward":"left|left"},"geometry":{"type":"LineString","coordinates":[[103.6570117,1.317214],[103.6571409,1.3170848]]}},{"type":"Feature","id":"way/708435336-0-0-0","properties":{"bicycle":"no","expressway":"yes","highway":"primary","lanes":"2","maxspeed":"60","name":"Tuas Road","name:en":"Tuas Road","name:zh":"\u5927\u58eb\u8def","oneway":"yes","surface":"asphalt"},"geometry":{"type":"LineString","coordinates":[[103.6566209,1.315752],[103.6567838,1.3158807]]}},{"type":"Feature","id":"way/708435336-0-1-0","properties":{"bicycle":"no","expressway":"yes","highway":"primary","lanes":"2","maxspeed":"60","name":"Tuas Road","name:en":"Tuas Road","name:zh":"\u5927\u58eb\u8def","oneway":"yes","surface":"asphalt"},"geometry":{"type":"LineString","coordinates":[[103.6567838,1.3158807],[103.6571733,1.3162539]]}},{"type":"Feature","id":"way/708435336-0-2-0","properties":{"bicycle":"no","expressway":"yes","highway":"primary","lanes":"2","maxspeed":"60","name":"Tuas Road","name:en":"Tuas Road","name:zh":"\u5927\u58eb\u8def","oneway":"yes","surface":"asphalt"},"geometry":{"type":"LineString","coordinates":[[103.6571733,1.3162539],[103.657796,1.3168414]]}},{"type":"Feature","id":"way/737895305-0-0-0","properties":{"highway":"primary","lanes":"3","maxheight":"4.5","maxspeed":"70","name":"Pioneer Road","name:en":"Pioneer Road","name:zh":"\u5148\u9a71\u8def","oneway":"yes","surface":"asphalt","turn:lanes":"none|none|through;right"},"geometry":{"type":"LineString","coordinates":[[103.6540116,1.3164827],[103.6544848,1.3160295]]}},{"type":"Feature","id":"way/1163837152-0-0-0","properties":{"highway":"service","service":"driveway"},"geometry":{"type":"LineString","coordinates":[[103.6538165,1.3168793],[103.653218,1.3174371]]}},{"type":"Feature","id":"way/1163837152-0-4-0","properties":{"highway":"service","service":"driveway"},"geometry":{"type":"LineString","coordinates":[[103.6534175,1.3188886],[103.6534604,1.3189027]]}},{"type":"Feature","id":"way/1163837152-0-5-0","properties":{"highway":"service","service":"driveway"},"geometry":{"type":"LineString","coordinates":[[103.6534604,1.3189027],[103.653494,1.3188947]]}},{"type":"Feature","id":"way/1163837152-0-6-0","properties":{"highway":"service","service":"driveway"},"geometry":{"type":"LineString","coordinates":[[103.653494,1.3188947],[103.6546004,1.3178636]]}},{"type":"Feature","id":"way/1163837152-0-7-0","properties":{"highway":"service","service":"driveway"},"geometry":{"type":"LineString","coordinates":[[103.6546004,1.3178636],[103.6546245,1.3177611]]}},{"type":"Feature","id":"way/1163837152-0-8-0","properties":{"highway":"service","service":"driveway"},"geometry":{"type":"LineString","coordinates":[[103.6546245,1.3177611],[103.6545904,1.3176607]]}}]}