{"type":"FeatureCollection","features":[{"type":"Feature","id":"way/160827385-0","properties":{"building":"yes"},"geometry":{"type":"Polygon","coordinates":[[[103.8368543,1.2319733],[103.8369163,1.2317585],[103.8367986,1.2317245],[103.8367366,1.2319394],[103.8368543,1.2319733]]]}},{"type":"Feature","id":"way/160827388-0","properties":{"building":"yes"},"geometry":{"type":"Polygon","coordinates":[[[103.8365466,1.2332746],[103.8366322,1.2332022],[103.8364803,1.2330225],[103.8363946,1.233095],[103.8365466,1.2332746]]]}}]}