{"type":"FeatureCollection","features":[{"type":"Feature","id":"way/252391097-0","properties":{"addr:city":"Singapore","addr:country":"SG","addr:housenumber":"1","addr:street":"Tuas South Street 5","building":"yes","source":"Bing"},"geometry":{"type":"Polygon","coordinates":[[[103.6275361,1.297178],[103.6274653,1.2969904],[103.6269687,1.2971774],[103.6270394,1.297365],[103.6275361,1.297178]]]}},{"type":"Feature","id":"way/252391206-0","properties":{"addr:city":"Singapore","addr:country":"SG","addr:housenumber":"13","addr:street":"Tuas South Street 5","building":"yes","source":"Bing"},"geometry":{"type":"Polygon","coordinates":[[[103.6269671,1.2952573],[103.6268399,1.2949198],[103.6265667,1.2950227],[103.6266939,1.2953602],[103.6269671,1.2952573]]]}},{"type":"Feature","id":"way/252391241-0","properties":{"addr:city":"Singapore","addr:country":"SG","addr:housenumber":"15","addr:street":"Tuas South Street 5","building":"yes","source":"Bing"},"geometry":{"type":"Polygon","coordinates":[[[103.6266023,1.2946271],[103.6266866,1.2944855],[103.626556,1.2941113],[103.6261285,1.2942723],[103.6263054,1.2947415],[103.6266023,1.2946271]]]}},{"type":"Feature","id":"way/252391569-0","properties":{"addr:city":"Singapore","addr:country":"SG","addr:housenumber":"7","addr:street":"Tuas South Street 5","building":"yes","source":"Bing"},"geometry":{"type":"Polygon","coordinates":[[[103.6267283,1.2967804],[103.6275157,1.2964838],[103.6270765,1.2953185],[103.6262891,1.2956152],[103.6267283,1.2967804]]]}},{"type":"Feature","id":"way/252391751-0","properties":{"addr:city":"Singapore","addr:country":"SG","addr:housenumber":"10","addr:street":"Tuas South Avenue 8","building":"yes","source":"Bing"},"geometry":{"type":"Polygon","coordinates":[[[103.6292401,1.2968626],[103.6298079,1.2966631],[103.6296658,1.2962587],[103.6299479,1.2961596],[103.6298132,1.2957701],[103.6289565,1.2960717],[103.6290862,1.2964536],[103.6289707,1.2964928],[103.6287422,1.2958198],[103.6285109,1.2958893],[103.6284525,1.2959338],[103.6284392,1.2959151],[103.6283713,1.295963],[103.6285167,1.296166],[103.6286095,1.2961446],[103.6286221,1.2961994],[103.6286656,1.2961894],[103.6288156,1.2966384],[103.6291232,1.2965303],[103.6292401,1.2968626]]]}},{"type":"Feature","id":"way/252391785-0","properties":{"building":"yes","source":"Bing"},"geometry":{"type":"Polygon","coordinates":[[[103.6307769,1.2951983],[103.6306959,1.2949836],[103.6303459,1.2951155],[103.6304269,1.2953302],[103.6307769,1.2951983]]]}},{"type":"Feature","id":"way/252391955-0","properties":{"building":"yes","source":"Bing"},"geometry":{"type":"Polygon","coordinates":[[[103.6306399,1.295887],[103.6305092,1.2955026],[103.6300236,1.2956676],[103.6301543,1.296052],[103.6306399,1.295887]]]}},{"type":"Feature","id":"way/451925679-0","properties":{"building":"yes"},"geometry":{"type":"Polygon","coordinates":[[[103.6282758,1.2957029],[103.6284577,1.2956423],[103.6284174,1.2955217],[103.6282356,1.2955823],[103.6282758,1.2957029]]]}},{"type":"Feature","id":"way/451925730-0","properties":{"building":"yes"},"geometry":{"type":"Polygon","coordinates":[[[103.6290617,1.2955608],[103.629222,1.2954972],[103.6291803,1.2953922],[103.6292512,1.295364],[103.6291897,1.2952089],[103.6289584,1.2953007],[103.6290617,1.2955608]]]}},{"type":"Feature","id":"way/70588259-0-0-0","properties":{"highway":"unclassified","lanes":"2","lanes:backward":"1","lanes:forward":"1","maxspeed":"50","name":"Tuas View Crescent","parking:condition:right:vehicles":"hgv_articulated","parking:lane:right":"parallel","surface":"asphalt"},"geometry":{"type":"LineString","coordinates":[[103.6284985,1.2935557],[103.6283862,1.2932624]]}},{"type":"Feature","id":"way/123890033-0-0-0","properties":{"highway":"secondary","lanes":"4","maxspeed":"70","name":"Tuas South Avenue 5","oneway":"yes","surface":"asphalt","turn:lanes":"through|through|through;right|right"},"geometry":{"type":"LineString","coordinates":[[103.627988,1.297261],[103.6280872,1.2975197]]}},{"type":"Feature","id":"way/252391698-0-0-0","properties":{"highway":"unclassified","lanes":"2","lanes:backward":"1","lanes:forward":"1","maxspeed":"50","name":"Tuas View Crescent","surface":"asphalt","turn:lanes:backward":"left;through","turn:lanes:forward":"through;right"},"geometry":{"type":"LineString","coordinates":[[103.6301475,1.2935153],[103.6302459,1.2934833]]}},{"type":"Feature","id":"way/252391698-0-1-0","properties":{"highway":"unclassified","lanes":"2","lanes:backward":"1","lanes:forward":"1","maxspeed":"50","name":"Tuas View Crescent","surface":"asphalt","turn:lanes:backward":"left;through","turn:lanes:forward":"through;right"},"geometry":{"type":"LineString","coordinates":[[103.6302459,1.2934833],[103.6305565,1.2933822]]}},{"type":"Feature","id":"way/252391698-0-2-0","properties":{"highway":"unclassified","lanes":"2","lanes:backward":"1","lanes:forward":"1","maxspeed":"50","name":"Tuas View Crescent","surface":"asphalt","turn:lanes:backward":"left;through","turn:lanes:forward":"through;right"},"geometry":{"type":"LineString","coordinates":[[103.6305565,1.2933822],[103.6309357,1.2933132]]}},{"type":"Feature","id":"way/453259845-0-0-0","properties":{"highway":"service","lanes":"1","oneway":"yes","turn:lanes":"through"},"geometry":{"type":"LineString","coordinates":[[103.6301212,1.2971744],[103.6293594,1.2974581]]}},{"type":"Feature","id":"way/465708973-0-0-0","properties":{"highway":"secondary_link","lanes":"1","maxspeed":"50","oneway":"yes"},"geometry":{"type":"LineString","coordinates":[[103.627988,1.297261],[103.6280012,1.2973708]]}},{"type":"Feature","id":"way/465708973-0-1-0","properties":{"highway":"secondary_link","lanes":"1","maxspeed":"50","oneway":"yes"},"geometry":{"type":"LineString","coordinates":[[103.6280012,1.2973708],[103.6280046,1.2974941]]}},{"type":"Feature","id":"way/465708974-0-0-0","properties":{"highway":"secondary_link","lanes":"1","maxspeed":"50","oneway":"yes"},"geometry":{"type":"LineString","coordinates":[[103.6285595,1.2974667],[103.6284144,1.2974432]]}},{"type":"Feature","id":"way/465708974-0-1-0","properties":{"highway":"secondary_link","lanes":"1","maxspeed":"50","oneway":"yes"},"geometry":{"type":"LineString","coordinates":[[103.6284144,1.2974432],[103.628348,1.2974192]]}},{"type":"Feature","id":"way/465708974-0-2-0","properties":{"highway":"secondary_link","lanes":"1","maxspeed":"50","oneway":"yes"},"geometry":{"type":"LineString","coordinates":[[103.628348,1.2974192],[103.6283049,1.2973973]]}},{"type":"Feature","id":"way/465708974-0-3-0","properties":{"highway":"secondary_link","lanes":"1","maxspeed":"50","oneway":"yes"},"geometry":{"type":"LineString","coordinates":[[103.6283049,1.2973973],[103.6282864,1.2973879]]}},{"type":"Feature","id":"way/465708974-0-4-0","properties":{"highway":"secondary_link","lanes":"1","maxspeed":"50","oneway":"yes"},"geometry":{"type":"LineString","coordinates":[[103.6282864,1.2973879],[103.6282147,1.2973383]]}},{"type":"Feature","id":"way/465708974-0-5-0","properties":{"highway":"secondary_link","lanes":"1","maxspeed":"50","oneway":"yes"},"geometry":{"type":"LineString","coordinates":[[103.6282147,1.2973383],[103.6281411,1.2972754]]}},{"type":"Feature","id":"way/465721507-0-0-0","properties":{"highway":"service","lanes":"2","lanes:backward":"1","lanes:forward":"1","turn:lanes:backward":"through","turn:lanes:forward":"through"},"geometry":{"type":"LineString","coordinates":[[103.6281096,1.2962531],[103.6280989,1.2962425]]}},{"type":"Feature","id":"way/465721507-0-1-0","properties":{"highway":"service","lanes":"2","lanes:backward":"1","lanes:forward":"1","turn:lanes:backward":"through","turn:lanes:forward":"through"},"geometry":{"type":"LineString","coordinates":[[103.6280989,1.2962425],[103.6280484,1.2961945]]}},{"type":"Feature","id":"way/465721507-0-2-0","properties":{"highway":"service","lanes":"2","lanes:backward":"1","lanes:forward":"1","turn:lanes:backward":"through","turn:lanes:forward":"through"},"geometry":{"type":"LineString","coordinates":[[103.6280484,1.2961945],[103.6280293,1.296171]]}},{"type":"Feature","id":"way/465721507-0-3-0","properties":{"highway":"service","lanes":"2","lanes:backward":"1","lanes:forward":"1","turn:lanes:backward":"through","turn:lanes:forward":"through"},"geometry":{"type":"LineString","coordinates":[[103.6280293,1.296171],[103.6280002,1.2961305]]}},{"type":"Feature","id":"way/465721507-0-4-0","properties":{"highway":"service","lanes":"2","lanes:backward":"1","lanes:forward":"1","turn:lanes:backward":"through","turn:lanes:forward":"through"},"geometry":{"type":"LineString","coordinates":[[103.6280002,1.2961305],[103.6279839,1.2960865]]}},{"type":"Feature","id":"way/465721507-0-5-0","properties":{"highway":"service","lanes":"2","lanes:backward":"1","lanes:forward":"1","turn:lanes:backward":"through","turn:lanes:forward":"through"},"geometry":{"type":"LineString","coordinates":[[103.6279839,1.2960865],[103.6279781,1.2960297]]}},{"type":"Feature","id":"way/465721507-0-6-0","properties":{"highway":"service","lanes":"2","lanes:backward":"1","lanes:forward":"1","turn:lanes:backward":"through","turn:lanes:forward":"through"},"geometry":{"type":"LineString","coordinates":[[103.6279781,1.2960297],[103.6279963,1.2959763]]}},{"type":"Feature","id":"way/465721507-0-7-0","properties":{"highway":"service","lanes":"2","lanes:backward":"1","lanes:forward":"1","turn:lanes:backward":"through","turn:lanes:forward":"through"},"geometry":{"type":"LineString","coordinates":[[103.6279963,1.2959763],[103.6280186,1.2959422]]}},{"type":"Feature","id":"way/465721507-0-8-0","properties":{"highway":"service","lanes":"2","lanes:backward":"1","lanes:forward":"1","turn:lanes:backward":"through","turn:lanes:forward":"through"},"geometry":{"type":"LineString","coordinates":[[103.6280186,1.2959422],[103.6280519,1.2959108]]}},{"type":"Feature","id":"way/465721507-0-9-0","properties":{"highway":"service","lanes":"2","lanes:backward":"1","lanes:forward":"1","turn:lanes:backward":"through","turn:lanes:forward":"through"},"geometry":{"type":"LineString","coordinates":[[103.6280519,1.2959108],[103.6287258,1.2956553]]}},{"type":"Feature","id":"way/465721507-0-10-0","properties":{"highway":"service","lanes":"2","lanes:backward":"1","lanes:forward":"1","turn:lanes:backward":"through","turn:lanes:forward":"through"},"geometry":{"type":"LineString","coordinates":[[103.6287258,1.2956553],[103.628768,1.295646]]}},{"type":"Feature","id":"way/465721507-0-11-0","properties":{"highway":"service","lanes":"2","lanes:backward":"1","lanes:forward":"1","turn:lanes:backward":"through","turn:lanes:forward":"through"},"geometry":{"type":"LineString","coordinates":[[103.628768,1.295646],[103.6288324,1.29565]]}},{"type":"Feature","id":"way/465766667-0-0-0","properties":{"highway":"secondary_link","lanes":"1","maxspeed":"50","oneway":"yes"},"geometry":{"type":"LineString","coordinates":[[103.6272375,1.2948111],[103.627275,1.2947513]]}},{"type":"Feature","id":"way/465766667-0-1-0","properties":{"highway":"secondary_link","lanes":"1","maxspeed":"50","oneway":"yes"},"geometry":{"type":"LineString","coordinates":[[103.627275,1.2947513],[103.6273058,1.2946835]]}},{"type":"Feature","id":"way/465766667-0-2-0","properties":{"highway":"secondary_link","lanes":"1","maxspeed":"50","oneway":"yes"},"geometry":{"type":"LineString","coordinates":[[103.6273058,1.2946835],[103.6273114,1.2946764]]}},{"type":"Feature","id":"way/465766667-0-3-0","properties":{"highway":"secondary_link","lanes":"1","maxspeed":"50","oneway":"yes"},"geometry":{"type":"LineString","coordinates":[[103.6273114,1.2946764],[103.627344,1.2946349]]}},{"type":"Feature","id":"way/465766667-0-4-0","properties":{"highway":"secondary_link","lanes":"1","maxspeed":"50","oneway":"yes"},"geometry":{"type":"LineString","coordinates":[[103.627344,1.2946349],[103.627394,1.2945626]]}},{"type":"Feature","id":"way/465766667-0-5-0","properties":{"highway":"secondary_link","lanes":"1","maxspeed":"50","oneway":"yes"},"geometry":{"type":"LineString","coordinates":[[103.627394,1.2945626],[103.6274534,1.2945054]]}},{"type":"Feature","id":"way/465766668-0-0-0","properties":{"highway":"secondary_link","lanes":"1","maxspeed":"50","oneway":"yes","turn:lanes":"left"},"geometry":{"type":"LineString","coordinates":[[103.6274534,1.2945054],[103.627344,1.2945042]]}},{"type":"Feature","id":"way/465766668-0-1-0","properties":{"highway":"secondary_link","lanes":"1","maxspeed":"50","oneway":"yes","turn:lanes":"left"},"geometry":{"type":"LineString","coordinates":[[103.627344,1.2945042],[103.6272926,1.2944988]]}},{"type":"Feature","id":"way/465766668-0-2-0","properties":{"highway":"secondary_link","lanes":"1","maxspeed":"50","oneway":"yes","turn:lanes":"left"},"geometry":{"type":"LineString","coordinates":[[103.6272926,1.2944988],[103.6272238,1.2944809]]}},{"type":"Feature","id":"way/465766668-0-3-0","properties":{"highway":"secondary_link","lanes":"1","maxspeed":"50","oneway":"yes","turn:lanes":"left"},"geometry":{"type":"LineString","coordinates":[[103.6272238,1.2944809],[103.6272057,1.2944762]]}},{"type":"Feature","id":"way/465766668-0-4-0","properties":{"highway":"secondary_link","lanes":"1","maxspeed":"50","oneway":"yes","turn:lanes":"left"},"geometry":{"type":"LineString","coordinates":[[103.6272057,1.2944762],[103.6271376,1.2944251]]}},{"type":"Feature","id":"way/465766668-0-5-0","properties":{"highway":"secondary_link","lanes":"1","maxspeed":"50","oneway":"yes","turn:lanes":"left"},"geometry":{"type":"LineString","coordinates":[[103.6271376,1.2944251],[103.6270588,1.2943367]]}},{"type":"Feature","id":"way/465766669-0-0-0","properties":{"highway":"secondary_link","lanes":"1","maxspeed":"50","oneway":"yes"},"geometry":{"type":"LineString","coordinates":[[103.6269868,1.294425],[103.6269595,1.2945256]]}},{"type":"Feature","id":"way/465766669-0-1-0","properties":{"highway":"secondary_link","lanes":"1","maxspeed":"50","oneway":"yes"},"geometry":{"type":"LineString","coordinates":[[103.6269595,1.2945256],[103.6269347,1.2945889]]}},{"type":"Feature","id":"way/465766669-0-2-0","properties":{"highway":"secondary_link","lanes":"1","maxspeed":"50","oneway":"yes"},"geometry":{"type":"LineString","coordinates":[[103.6269347,1.2945889],[103.6269236,1.2946157]]}},{"type":"Feature","id":"way/465766669-0-3-0","properties":{"highway":"secondary_link","lanes":"1","maxspeed":"50","oneway":"yes"},"geometry":{"type":"LineString","coordinates":[[103.6269236,1.2946157],[103.626904,1.294675]]}},{"type":"Feature","id":"way/465766669-0-4-0","properties":{"highway":"secondary_link","lanes":"1","maxspeed":"50","oneway":"yes"},"geometry":{"type":"LineString","coordinates":[[103.626904,1.294675],[103.6268869,1.2947272]]}},{"type":"Feature","id":"way/465766670-0-0-0","properties":{"highway":"secondary_link","lanes":"1","maxspeed":"50","oneway":"yes"},"geometry":{"type":"LineString","coordinates":[[103.6268585,1.2947393],[103.6269137,1.2947552]]}},{"type":"Feature","id":"way/465766670-0-1-0","properties":{"highway":"secondary_link","lanes":"1","maxspeed":"50","oneway":"yes"},"geometry":{"type":"LineString","coordinates":[[103.6269137,1.2947552],[103.6269543,1.2947685]]}},{"type":"Feature","id":"way/465766670-0-2-0","properties":{"highway":"secondary_link","lanes":"1","maxspeed":"50","oneway":"yes"},"geometry":{"type":"LineString","coordinates":[[103.6269543,1.2947685],[103.6269747,1.294776]]}},{"type":"Feature","id":"way/465766670-0-3-0","properties":{"highway":"secondary_link","lanes":"1","maxspeed":"50","oneway":"yes"},"geometry":{"type":"LineString","coordinates":[[103.6269747,1.294776],[103.6270413,1.2948008]]}},{"type":"Feature","id":"way/465766670-0-4-0","properties":{"highway":"secondary_link","lanes":"1","maxspeed":"50","oneway":"yes"},"geometry":{"type":"LineString","coordinates":[[103.6270413,1.2948008],[103.6271429,1.2948494]]}},{"type":"Feature","id":"way/465766731-0-0-0","properties":{"highway":"service"},"geometry":{"type":"LineString","coordinates":[[103.6264706,1.2948787],[103.6264998,1.2949589]]}},{"type":"Feature","id":"way/465766731-0-1-0","properties":{"highway":"service"},"geometry":{"type":"LineString","coordinates":[[103.6264998,1.2949589],[103.6266378,1.2953571]]}},{"type":"Feature","id":"way/478173999-0-0-1","properties":{"highway":"tertiary","lanes":"3","maxspeed":"70","name":"Tuas South Avenue 8","oneway":"yes","surface":"asphalt"},"geometry":{"type":"LineString","coordinates":[[103.6305351,1.2967147],[103.6291308,1.2972432]]}},{"type":"Feature","id":"way/526612453-0-0-0","properties":{"highway":"service","lanes":"2","lanes:backward":"1","lanes:forward":"1"},"geometry":{"type":"LineString","coordinates":[[103.6283346,1.2970118],[103.6285947,1.2967324]]}},{"type":"Feature","id":"way/526612454-0-0-0","properties":{"highway":"service","lanes":"2","lanes:backward":"1","lanes:forward":"1"},"geometry":{"type":"LineString","coordinates":[[103.6282602,1.2968264],[103.6284691,1.2966055]]}},{"type":"Feature","id":"way/526612455-0-0-0","properties":{"highway":"service","lanes":"2","lanes:backward":"1","lanes:forward":"1"},"geometry":{"type":"LineString","coordinates":[[103.6281906,1.296653],[103.6283441,1.296483]]}},{"type":"Feature","id":"way/526612456-0-0-0","properties":{"highway":"service","lanes":"2","lanes:backward":"1","lanes:forward":"1","service":"parking_aisle"},"geometry":{"type":"LineString","coordinates":[[103.6284402,1.2971623],[103.6287246,1.296856]]}},{"type":"Feature","id":"way/526612457-0-0-0","properties":{"highway":"service","lanes":"2","lanes:backward":"1","lanes:forward":"1","service":"parking_aisle"},"geometry":{"type":"LineString","coordinates":[[103.6288774,1.2969654],[103.6286715,1.2971664]]}},{"type":"Feature","id":"way/526612457-0-1-0","properties":{"highway":"service","lanes":"2","lanes:backward":"1","lanes:forward":"1","service":"parking_aisle"},"geometry":{"type":"LineString","coordinates":[[103.6286715,1.2971664],[103.6286205,1.2971919]]}},{"type":"Feature","id":"way/526612457-0-2-0","properties":{"highway":"service","lanes":"2","lanes:backward":"1","lanes:forward":"1","service":"parking_aisle"},"geometry":{"type":"LineString","coordinates":[[103.6286205,1.2971919],[103.6285669,1.2971986]]}},{"type":"Feature","id":"way/526612458-0-0-0","properties":{"highway":"service","lanes":"2","lanes:backward":"1","lanes:forward":"1","turn:lanes:forward":"through;right"},"geometry":{"type":"LineString","coordinates":[[103.6281906,1.296653],[103.6280867,1.2963941]]}},{"type":"Feature","id":"way/526612458-0-1-0","properties":{"highway":"service","lanes":"2","lanes:backward":"1","lanes:forward":"1","turn:lanes:forward":"through;right"},"geometry":{"type":"LineString","coordinates":[[103.6280867,1.2963941],[103.6280747,1.296315]]}},{"type":"Feature","id":"way/526612458-0-2-0","properties":{"highway":"service","lanes":"2","lanes:backward":"1","lanes:forward":"1","turn:lanes:forward":"through;right"},"geometry":{"type":"LineString","coordinates":[[103.6280747,1.296315],[103.6280881,1.2962775]]}},{"type":"Feature","id":"way/526612458-0-3-0","properties":{"highway":"service","lanes":"2","lanes:backward":"1","lanes:forward":"1","turn:lanes:forward":"through;right"},"geometry":{"type":"LineString","coordinates":[[103.6280881,1.2962775],[103.6281096,1.2962531]]}},{"type":"Feature","id":"way/526612459-0-0-0","properties":{"highway":"service","oneway":"yes"},"geometry":{"type":"LineString","coordinates":[[103.6291386,1.2970552],[103.6290938,1.2970092]]}},{"type":"Feature","id":"way/526612459-0-1-0","properties":{"highway":"service","oneway":"yes"},"geometry":{"type":"LineString","coordinates":[[103.6290938,1.2970092],[103.6290502,1.2969672]]}},{"type":"Feature","id":"way/526612459-0-2-0","properties":{"highway":"service","oneway":"yes"},"geometry":{"type":"LineString","coordinates":[[103.6290502,1.2969672],[103.628964,1.2968906]]}},{"type":"Feature","id":"way/526612459-0-3-0","properties":{"highway":"service","oneway":"yes"},"geometry":{"type":"LineString","coordinates":[[103.628964,1.2968906],[103.6288751,1.2968076]]}},{"type":"Feature","id":"way/526612459-0-4-0","properties":{"highway":"service","oneway":"yes"},"geometry":{"type":"LineString","coordinates":[[103.6288751,1.2968076],[103.6286599,1.2966226]]}},{"type":"Feature","id":"way/526612459-0-5-0","properties":{"highway":"service","oneway":"yes"},"geometry":{"type":"LineString","coordinates":[[103.6286599,1.2966226],[103.6286227,1.2965981]]}},{"type":"Feature","id":"way/526612459-0-6-0","properties":{"highway":"service","oneway":"yes"},"geometry":{"type":"LineString","coordinates":[[103.6286227,1.2965981],[103.6285737,1.2965804]]}},{"type":"Feature","id":"way/526612459-0-7-0","properties":{"highway":"service","oneway":"yes"},"geometry":{"type":"LineString","coordinates":[[103.6285737,1.2965804],[103.6285128,1.2965753]]}},{"type":"Feature","id":"way/526612459-0-8-0","properties":{"highway":"service","oneway":"yes"},"geometry":{"type":"LineString","coordinates":[[103.6285128,1.2965753],[103.6284444,1.2965813]]}},{"type":"Feature","id":"way/545353042-0-0-0","properties":{"highway":"service","lanes":"1","oneway":"yes"},"geometry":{"type":"LineString","coordinates":[[103.6284444,1.2965813],[103.6284691,1.2966055]]}},{"type":"Feature","id":"way/545353042-0-1-0","properties":{"highway":"service","lanes":"1","oneway":"yes"},"geometry":{"type":"LineString","coordinates":[[103.6284691,1.2966055],[103.6285947,1.2967324]]}},{"type":"Feature","id":"way/545353042-0-2-0","properties":{"highway":"service","lanes":"1","oneway":"yes"},"geometry":{"type":"LineString","coordinates":[[103.6285947,1.2967324],[103.6287246,1.296856]]}},{"type":"Feature","id":"way/545353042-0-3-0","properties":{"highway":"service","lanes":"1","oneway":"yes"},"geometry":{"type":"LineString","coordinates":[[103.6287246,1.296856],[103.6287962,1.2969128]]}},{"type":"Feature","id":"way/545353042-0-4-0","properties":{"highway":"service","lanes":"1","oneway":"yes"},"geometry":{"type":"LineString","coordinates":[[103.6287962,1.2969128],[103.6288774,1.2969654]]}},{"type":"Feature","id":"way/545353042-0-5-0","properties":{"highway":"service","lanes":"1","oneway":"yes"},"geometry":{"type":"LineString","coordinates":[[103.6288774,1.2969654],[103.628952,1.2970082]]}},{"type":"Feature","id":"way/545353042-0-6-0","properties":{"highway":"service","lanes":"1","oneway":"yes"},"geometry":{"type":"LineString","coordinates":[[103.628952,1.2970082],[103.6290033,1.2970342]]}},{"type":"Feature","id":"way/545353042-0-7-0","properties":{"highway":"service","lanes":"1","oneway":"yes"},"geometry":{"type":"LineString","coordinates":[[103.6290033,1.2970342],[103.6290782,1.2970713]]}},{"type":"Feature","id":"way/545353043-0-0-0","properties":{"highway":"service"},"geometry":{"type":"LineString","coordinates":[[103.6291308,1.2972432],[103.6290932,1.2971179]]}},{"type":"Feature","id":"way/545353043-0-1-0","properties":{"highway":"service"},"geometry":{"type":"LineString","coordinates":[[103.6290932,1.2971179],[103.6290782,1.2970713]]}},{"type":"Feature","id":"way/584211033-0-3-0","properties":{"highway":"secondary","lanes":"3","maxspeed":"70","name":"Tuas South Avenue 5","oneway":"yes","surface":"asphalt"},"geometry":{"type":"LineString","coordinates":[[103.6262258,1.2924546],[103.6267097,1.2937701]]}},{"type":"Feature","id":"way/584211036-0-0-0","properties":{"highway":"secondary","lanes":"3","maxspeed":"70","name":"Tuas South Avenue 5","oneway":"yes","surface":"asphalt"},"geometry":{"type":"LineString","coordinates":[[103.6270588,1.2943367],[103.6266719,1.2932725]]}},{"type":"Feature","id":"way/584211037-0-0-0","properties":{"highway":"residential","lanes":"4","lanes:backward":"1","lanes:forward":"3","maxspeed":"50","name":"Tuas South Street 5","surface":"asphalt","turn:lanes:forward":"left|through|right"},"geometry":{"type":"LineString","coordinates":[[103.6268084,1.2947543],[103.6268585,1.2947393]]}},{"type":"Feature","id":"way/584211038-0-0-0","properties":{"highway":"residential","lanes":"4","lanes:backward":"1","lanes:forward":"3","maxspeed":"50","name":"Tuas South Street 5","surface":"asphalt","turn:lanes:forward":"left|through|right"},"geometry":{"type":"LineString","coordinates":[[103.6266734,1.2947962],[103.6268084,1.2947543]]}},{"type":"Feature","id":"way/584211039-0-0-0","properties":{"highway":"secondary","lanes":"3","maxspeed":"70","name":"Tuas South Avenue 5","oneway":"yes","surface":"asphalt"},"geometry":{"type":"LineString","coordinates":[[103.6271564,1.2946052],[103.627135,1.2945463]]}},{"type":"Feature","id":"way/584211039-0-1-0","properties":{"highway":"secondary","lanes":"3","maxspeed":"70","name":"Tuas South Avenue 5","oneway":"yes","surface":"asphalt"},"geometry":{"type":"LineString","coordinates":[[103.627135,1.2945463],[103.6270588,1.2943367]]}},{"type":"Feature","id":"way/584211040-0-0-0","properties":{"highway":"secondary","lanes":"4","maxspeed":"70","name":"Tuas South Avenue 5","oneway":"yes","surface":"asphalt"},"geometry":{"type":"LineString","coordinates":[[103.6272375,1.2948111],[103.6272002,1.2947175]]}},{"type":"Feature","id":"way/584211041-0-0-0","properties":{"highway":"secondary","lanes":"4","maxspeed":"70","name":"Tuas South Avenue 5","oneway":"yes","surface":"asphalt"},"geometry":{"type":"LineString","coordinates":[[103.6281411,1.2972754],[103.6278054,1.2963708]]}},{"type":"Feature","id":"way/584211041-0-0-1","properties":{"highway":"secondary","lanes":"4","maxspeed":"70","name":"Tuas South Avenue 5","oneway":"yes","surface":"asphalt"},"geometry":{"type":"LineString","coordinates":[[103.6278054,1.2963708],[103.6274698,1.2954663]]}},{"type":"Feature","id":"way/584211042-0-0-0","properties":{"highway":"secondary","lanes":"4","maxspeed":"70","name":"Tuas South Avenue 5","oneway":"yes","surface":"asphalt","turn:lanes":"through|through|through|right"},"geometry":{"type":"LineString","coordinates":[[103.6269868,1.294425],[103.6270219,1.2945197]]}},{"type":"Feature","id":"way/584211043-0-0-0","properties":{"highway":"secondary","lanes":"3","maxspeed":"70","name":"Tuas South Avenue 5","oneway":"yes","surface":"asphalt"},"geometry":{"type":"LineString","coordinates":[[103.6270682,1.2946547],[103.6270896,1.2947104]]}},{"type":"Feature","id":"way/584211043-0-1-0","properties":{"highway":"secondary","lanes":"3","maxspeed":"70","name":"Tuas South Avenue 5","oneway":"yes","surface":"asphalt"},"geometry":{"type":"LineString","coordinates":[[103.6270896,1.2947104],[103.6271429,1.2948494]]}},{"type":"Feature","id":"way/584211044-0-0-0","properties":{"highway":"secondary","lanes":"4","maxspeed":"70","name":"Tuas South Avenue 5","oneway":"yes","surface":"asphalt"},"geometry":{"type":"LineString","coordinates":[[103.6271429,1.2948494],[103.6274807,1.2958336]]}},{"type":"Feature","id":"way/584211044-0-0-1","properties":{"highway":"secondary","lanes":"4","maxspeed":"70","name":"Tuas South Avenue 5","oneway":"yes","surface":"asphalt"},"geometry":{"type":"LineString","coordinates":[[103.6274807,1.2958336],[103.6278185,1.2968178]]}},{"type":"Feature","id":"way/584211045-0-1-0","properties":{"highway":"secondary","lanes":"3","maxspeed":"70","name":"Tuas South Avenue 5","oneway":"yes","surface":"asphalt"},"geometry":{"type":"LineString","coordinates":[[103.6282153,1.2974712],[103.6281411,1.2972754]]}},{"type":"Feature","id":"way/635327380-0-0-0","properties":{"highway":"unclassified","lanes":"3","lanes:backward":"2","lanes:forward":"1","maxspeed":"50","name":"Tuas View Crescent","surface":"asphalt","turn:lanes:backward":"through|right"},"geometry":{"type":"LineString","coordinates":[[103.6271564,1.2946052],[103.6272287,1.2945809]]}},{"type":"Feature","id":"way/635327380-0-1-0","properties":{"highway":"unclassified","lanes":"3","lanes:backward":"2","lanes:forward":"1","maxspeed":"50","name":"Tuas View Crescent","surface":"asphalt","turn:lanes:backward":"through|right"},"geometry":{"type":"LineString","coordinates":[[103.6272287,1.2945809],[103.6274534,1.2945054]]}},{"type":"Feature","id":"way/635327381-0-0-0","properties":{"highway":"unclassified","maxspeed":"50","name":"Tuas View Crescent","surface":"asphalt"},"geometry":{"type":"LineString","coordinates":[[103.6270682,1.2946547],[103.6271564,1.2946052]]}},{"type":"Feature","id":"way/635691997-0-1-0","properties":{"highway":"tertiary","lanes":"3","maxspeed":"70","name":"Tuas South Avenue 8","oneway":"yes","surface":"asphalt"},"geometry":{"type":"LineString","coordinates":[[103.6291048,1.2973859],[103.6301487,1.297002]]}},{"type":"Feature","id":"way/635691997-0-1-1","properties":{"highway":"tertiary","lanes":"3","maxspeed":"70","name":"Tuas South Avenue 8","oneway":"yes","surface":"asphalt"},"geometry":{"type":"LineString","coordinates":[[103.6301487,1.297002],[103.6311927,1.296618]]}},{"type":"Feature","id":"way/640291831-0-0-0","properties":{"highway":"unclassified","lanes":"3","lanes:backward":"2","lanes:forward":"1","maxspeed":"50","name":"Tuas View Crescent","surface":"asphalt","turn:lanes:backward":"left|right"},"geometry":{"type":"LineString","coordinates":[[103.6301475,1.2935153],[103.6301385,1.2934]]}},{"type":"Feature","id":"way/640291831-0-1-0","properties":{"highway":"unclassified","lanes":"3","lanes:backward":"2","lanes:forward":"1","maxspeed":"50","name":"Tuas View Crescent","surface":"asphalt","turn:lanes:backward":"left|right"},"geometry":{"type":"LineString","coordinates":[[103.6301385,1.2934],[103.6300743,1.2926427]]}},{"type":"Feature","id":"way/641059454-0-0-0","properties":{"highway":"unclassified","lanes":"2","lanes:backward":"1","lanes:forward":"1","maxspeed":"50","name":"Tuas View Crescent","surface":"asphalt","turn:lanes:forward":"through;right"},"geometry":{"type":"LineString","coordinates":[[103.6295191,1.2937327],[103.6300419,1.2935475]]}},{"type":"Feature","id":"way/641059454-0-1-0","properties":{"highway":"unclassified","lanes":"2","lanes:backward":"1","lanes:forward":"1","maxspeed":"50","name":"Tuas View Crescent","surface":"asphalt","turn:lanes:forward":"through;right"},"geometry":{"type":"LineString","coordinates":[[103.6300419,1.2935475],[103.6301475,1.2935153]]}},{"type":"Feature","id":"way/641059455-0-0-0","properties":{"highway":"unclassified","lanes":"2","lanes:backward":"1","lanes:forward":"1","maxspeed":"50","name":"Tuas View Crescent","parking:condition:left:vehicles":"hgv_articulated","parking:lane:left":"parallel","surface":"asphalt","turn:lanes:backward":"through;right"},"geometry":{"type":"LineString","coordinates":[[103.6278386,1.2943602],[103.6280572,1.2942811]]}},{"type":"Feature","id":"way/641060636-0-0-0","properties":{"highway":"unclassified","lanes":"2","lanes:backward":"1","lanes:forward":"1","maxspeed":"50","name":"Tuas View Crescent","surface":"asphalt","turn:lanes:backward":"left;through"},"geometry":{"type":"LineString","coordinates":[[103.6286567,1.2940502],[103.6287289,1.2940217]]}},{"type":"Feature","id":"way/641060636-0-1-0","properties":{"highway":"unclassified","lanes":"2","lanes:backward":"1","lanes:forward":"1","maxspeed":"50","name":"Tuas View Crescent","surface":"asphalt","turn:lanes:backward":"left;through"},"geometry":{"type":"LineString","coordinates":[[103.6287289,1.2940217],[103.6288632,1.2939687]]}},{"type":"Feature","id":"way/641060637-0-0-0","properties":{"highway":"unclassified","lanes":"3","lanes:backward":"2","lanes:forward":"1","maxspeed":"50","name":"Tuas View Crescent","surface":"asphalt","turn:lanes:backward":"left|right"},"geometry":{"type":"LineString","coordinates":[[103.6286567,1.2940502],[103.6286303,1.2939676]]}},{"type":"Feature","id":"way/641060637-0-1-0","properties":{"highway":"unclassified","lanes":"3","lanes:backward":"2","lanes:forward":"1","maxspeed":"50","name":"Tuas View Crescent","surface":"asphalt","turn:lanes:backward":"left|right"},"geometry":{"type":"LineString","coordinates":[[103.6286303,1.2939676],[103.6284985,1.2935557]]}},{"type":"Feature","id":"way/641060638-0-0-0","properties":{"highway":"unclassified","lanes":"4","lanes:backward":"3","lanes:forward":"1","maxspeed":"50","name":"Tuas View Crescent","surface":"asphalt","turn:lanes:backward":"left|through"},"geometry":{"type":"LineString","coordinates":[[103.6274534,1.2945054],[103.6276656,1.2944299]]}},{"type":"Feature","id":"way/641060639-0-0-0","properties":{"highway":"unclassified","lanes":"2","lanes:backward":"1","lanes:forward":"1","maxspeed":"50","name":"Tuas View Crescent","parking:condition:left:vehicles":"hgv_articulated","parking:lane:left":"parallel","surface":"asphalt","turn:lanes:backward":"left;through"},"geometry":{"type":"LineString","coordinates":[[103.6288632,1.2939687],[103.6295191,1.2937327]]}},{"type":"Feature","id":"way/644104642-0-0-0","properties":{"highway":"service","lanes":"2","lanes:backward":"1","lanes:forward":"1"},"geometry":{"type":"LineString","coordinates":[[103.6269414,1.2972307],[103.6268368,1.2968875]]}},{"type":"Feature","id":"way/644104643-0-0-0","properties":{"highway":"service","lanes":"2","lanes:backward":"1","lanes:forward":"1"},"geometry":{"type":"LineString","coordinates":[[103.6265905,1.29735],[103.6266821,1.2973189]]}},{"type":"Feature","id":"way/644104643-0-1-0","properties":{"highway":"service","lanes":"2","lanes:backward":"1","lanes:forward":"1"},"geometry":{"type":"LineString","coordinates":[[103.6266821,1.2973189],[103.6269414,1.2972307]]}},{"type":"Feature","id":"way/644104643-0-2-0","properties":{"highway":"service","lanes":"2","lanes:backward":"1","lanes:forward":"1"},"geometry":{"type":"LineString","coordinates":[[103.6269414,1.2972307],[103.6270192,1.297389]]}},{"type":"Feature","id":"way/644104643-0-3-0","properties":{"highway":"service","lanes":"2","lanes:backward":"1","lanes:forward":"1"},"geometry":{"type":"LineString","coordinates":[[103.6270192,1.297389],[103.6270702,1.2975043]]}},{"type":"Feature","id":"way/644104643-0-6-0","properties":{"highway":"service","lanes":"2","lanes:backward":"1","lanes:forward":"1"},"geometry":{"type":"LineString","coordinates":[[103.6271802,1.2975418],[103.6276469,1.2973487]]}},{"type":"Feature","id":"way/644104643-0-7-0","properties":{"highway":"service","lanes":"2","lanes:backward":"1","lanes:forward":"1"},"geometry":{"type":"LineString","coordinates":[[103.6276469,1.2973487],[103.627663,1.2973139]]}},{"type":"Feature","id":"way/644104643-0-8-0","properties":{"highway":"service","lanes":"2","lanes:backward":"1","lanes:forward":"1"},"geometry":{"type":"LineString","coordinates":[[103.627663,1.2973139],[103.6276469,1.2972576]]}},{"type":"Feature","id":"way/644104643-0-9-0","properties":{"highway":"service","lanes":"2","lanes:backward":"1","lanes:forward":"1"},"geometry":{"type":"LineString","coordinates":[[103.6276469,1.2972576],[103.6274564,1.2967052]]}},{"type":"Feature","id":"way/644104678-0-0-0","properties":{"highway":"service"},"geometry":{"type":"LineString","coordinates":[[103.6306654,1.2953852],[103.6307663,1.2957237]]}},{"type":"Feature","id":"way/644148852-0-0-0","properties":{"highway":"service"},"geometry":{"type":"LineString","coordinates":[[103.6283862,1.2932624],[103.628438,1.2932395]]}},{"type":"Feature","id":"way/644148852-0-1-0","properties":{"highway":"service"},"geometry":{"type":"LineString","coordinates":[[103.628438,1.2932395],[103.6287627,1.2930958]]}},{"type":"Feature","id":"way/644148852-0-2-0","properties":{"highway":"service"},"geometry":{"type":"LineString","coordinates":[[103.6287627,1.2930958],[103.6289826,1.2930073]]}},{"type":"Feature","id":"way/644148852-0-3-0","properties":{"highway":"service"},"geometry":{"type":"LineString","coordinates":[[103.6289826,1.2930073],[103.629047,1.2930502]]}},{"type":"Feature","id":"way/644148852-0-4-0","properties":{"highway":"service"},"geometry":{"type":"LineString","coordinates":[[103.629047,1.2930502],[103.6290684,1.2931441]]}},{"type":"Feature","id":"way/644148852-0-5-0","properties":{"highway":"service"},"geometry":{"type":"LineString","coordinates":[[103.6290684,1.2931441],[103.6291891,1.2935356]]}},{"type":"Feature","id":"way/644867314-0-0-0","properties":{"highway":"service","lanes":"2","lanes:backward":"1","lanes:forward":"1","turn:lanes:forward":"through;right"},"geometry":{"type":"LineString","coordinates":[[103.6283346,1.2970118],[103.6282602,1.2968264]]}},{"type":"Feature","id":"way/644867315-0-0-0","properties":{"highway":"service","lanes":"2","lanes:backward":"1","lanes:forward":"1"},"geometry":{"type":"LineString","coordinates":[[103.6284402,1.2971623],[103.6284059,1.2971302]]}},{"type":"Feature","id":"way/644867315-0-1-0","properties":{"highway":"service","lanes":"2","lanes:backward":"1","lanes:forward":"1"},"geometry":{"type":"LineString","coordinates":[[103.6284059,1.2971302],[103.6283536,1.2970591]]}},{"type":"Feature","id":"way/644867315-0-2-0","properties":{"highway":"service","lanes":"2","lanes:backward":"1","lanes:forward":"1"},"geometry":{"type":"LineString","coordinates":[[103.6283536,1.2970591],[103.6283346,1.2970118]]}},{"type":"Feature","id":"way/644867318-0-0-0","properties":{"highway":"service","lanes":"2","lanes:backward":"1","lanes:forward":"1"},"geometry":{"type":"LineString","coordinates":[[103.6285669,1.2971986],[103.6284891,1.2971825]]}},{"type":"Feature","id":"way/644867318-0-1-0","properties":{"highway":"service","lanes":"2","lanes:backward":"1","lanes:forward":"1"},"geometry":{"type":"LineString","coordinates":[[103.6284891,1.2971825],[103.6284402,1.2971623]]}},{"type":"Feature","id":"way/644869129-0-0-0","properties":{"highway":"service","lanes":"2","lanes:backward":"1","lanes:forward":"1"},"geometry":{"type":"LineString","coordinates":[[103.6282602,1.2968264],[103.6281906,1.296653]]}},{"type":"Feature","id":"way/644869308-0-0-0","properties":{"highway":"service","lanes":"2","lanes:backward":"1","lanes:forward":"1"},"geometry":{"type":"LineString","coordinates":[[103.6283441,1.296483],[103.6281096,1.2962531]]}},{"type":"Feature","id":"way/644869309-0-0-0","properties":{"highway":"service","lanes":"2","lanes:backward":"1","lanes:forward":"1","turn:lanes:backward":"through","turn:lanes:forward":"through"},"geometry":{"type":"LineString","coordinates":[[103.6284444,1.2965813],[103.6283441,1.296483]]}},{"type":"Feature","id":"way/646243586-0-0-0","properties":{"highway":"residential","lanes":"3","lanes:backward":"1","lanes:forward":"2","maxspeed":"50","name":"Tuas South Street 5","surface":"asphalt"},"geometry":{"type":"LineString","coordinates":[[103.6264706,1.2948787],[103.6266734,1.2947962]]}},{"type":"Feature","id":"way/646243588-0-1-0","properties":{"highway":"residential","lanes":"2","lanes:backward":"1","lanes:forward":"1","maxspeed":"50","name":"Tuas South Street 5","surface":"asphalt"},"geometry":{"type":"LineString","coordinates":[[103.6263459,1.2949277],[103.6264706,1.2948787]]}},{"type":"Feature","id":"way/646841938-0-0-0","properties":{"highway":"residential","lanes":"2","lanes:backward":"1","lanes:forward":"1","maxspeed":"50","name":"Tuas South Street 5","surface":"asphalt","turn:lanes:forward":"left"},"geometry":{"type":"LineString","coordinates":[[103.6265905,1.29735],[103.6266477,1.2975066]]}},{"type":"Feature","id":"way/646842464-0-0-0","properties":{"highway":"residential","lanes":"2","lanes:backward":"1","lanes:forward":"1","maxspeed":"50","name":"Tuas South Street 5","surface":"asphalt"},"geometry":{"type":"LineString","coordinates":[[103.6263982,1.296815],[103.6265129,1.297134]]}},{"type":"Feature","id":"way/646842464-0-1-0","properties":{"highway":"residential","lanes":"2","lanes:backward":"1","lanes:forward":"1","maxspeed":"50","name":"Tuas South Street 5","surface":"asphalt"},"geometry":{"type":"LineString","coordinates":[[103.6265129,1.297134],[103.6265905,1.29735]]}},{"type":"Feature","id":"way/646842465-0-0-0","properties":{"highway":"residential","lanes":"2","lanes:backward":"1","lanes:forward":"1","maxspeed":"50","name":"Tuas South Street 5","surface":"asphalt"},"geometry":{"type":"LineString","coordinates":[[103.6263642,1.2967219],[103.6263982,1.296815]]}},{"type":"Feature","id":"way/652319816-0-0-0","properties":{"highway":"secondary","lanes":"4","maxspeed":"70","name":"Tuas South Avenue 5","oneway":"yes","surface":"asphalt"},"geometry":{"type":"LineString","coordinates":[[103.6272002,1.2947175],[103.6271837,1.2946753]]}},{"type":"Feature","id":"way/652319816-0-1-0","properties":{"highway":"secondary","lanes":"4","maxspeed":"70","name":"Tuas South Avenue 5","oneway":"yes","surface":"asphalt"},"geometry":{"type":"LineString","coordinates":[[103.6271837,1.2946753],[103.6271564,1.2946052]]}},{"type":"Feature","id":"way/652320379-0-0-0","properties":{"highway":"secondary","lanes":"3","maxspeed":"70","name":"Tuas South Avenue 5","oneway":"yes","surface":"asphalt","turn:lanes":"through|through|through"},"geometry":{"type":"LineString","coordinates":[[103.6274698,1.2954663],[103.6273907,1.2952236]]}},{"type":"Feature","id":"way/652320596-0-0-0","properties":{"highway":"secondary","lanes":"4","maxspeed":"70","name":"Tuas South Avenue 5","oneway":"yes","surface":"asphalt","turn:lanes":"through|through|through|right"},"geometry":{"type":"LineString","coordinates":[[103.6270219,1.2945197],[103.6270417,1.2945774]]}},{"type":"Feature","id":"way/652320596-0-1-0","properties":{"highway":"secondary","lanes":"4","maxspeed":"70","name":"Tuas South Avenue 5","oneway":"yes","surface":"asphalt","turn:lanes":"through|through|through|right"},"geometry":{"type":"LineString","coordinates":[[103.6270417,1.2945774],[103.6270682,1.2946547]]}},{"type":"Feature","id":"way/652321893-0-0-0","properties":{"highway":"secondary","lanes":"5","maxspeed":"70","name":"Tuas South Avenue 5","oneway":"yes","surface":"asphalt","turn:lanes":"left|through|through|through;right|right"},"geometry":{"type":"LineString","coordinates":[[103.6278883,1.2969787],[103.627988,1.297261]]}},{"type":"Feature","id":"way/652321895-0-0-0","properties":{"highway":"secondary","lanes":"3","maxspeed":"70","name":"Tuas South Avenue 5","oneway":"yes","surface":"asphalt","turn:lanes":"left;through|through|through;right"},"geometry":{"type":"LineString","coordinates":[[103.6278185,1.2968178],[103.6278883,1.2969787]]}},{"type":"Feature","id":"way/652550632-0-0-0","properties":{"highway":"secondary","lanes":"3","maxspeed":"70","name":"Tuas South Avenue 5","oneway":"yes","surface":"asphalt","turn:lanes":"through|through|through"},"geometry":{"type":"LineString","coordinates":[[103.6267097,1.2937701],[103.626819,1.2940524]]}},{"type":"Feature","id":"way/652550633-0-0-0","properties":{"highway":"secondary","lanes":"5","maxspeed":"70","name":"Tuas South Avenue 5","oneway":"yes","surface":"asphalt","turn:lanes":"left|through|through|through|right"},"geometry":{"type":"LineString","coordinates":[[103.626819,1.2940524],[103.6269868,1.294425]]}},{"type":"Feature","id":"way/655144951-0-0-0","properties":{"highway":"tertiary","lanes":"5","maxspeed":"70","name":"Tuas South Avenue 8","oneway":"yes","surface":"asphalt","turn:lanes":"left|through|through|through|right"},"geometry":{"type":"LineString","coordinates":[[103.6288292,1.2973621],[103.6285595,1.2974667]]}},{"type":"Feature","id":"way/655144952-0-0-0","properties":{"highway":"tertiary","lanes":"3","maxspeed":"70","name":"Tuas South Avenue 8","oneway":"yes","surface":"asphalt","turn:lanes":"through|through|through"},"geometry":{"type":"LineString","coordinates":[[103.6291308,1.2972432],[103.6290469,1.2972763]]}},{"type":"Feature","id":"way/655144952-0-1-0","properties":{"highway":"tertiary","lanes":"3","maxspeed":"70","name":"Tuas South Avenue 8","oneway":"yes","surface":"asphalt","turn:lanes":"through|through|through"},"geometry":{"type":"LineString","coordinates":[[103.6290469,1.2972763],[103.6288292,1.2973621]]}},{"type":"Feature","id":"way/655147256-0-1-0","properties":{"highway":"unclassified","lanes":"2","maxspeed":"50","name":"Tuas View Place","oneway":"yes","turn:lanes":"left|left"},"geometry":{"type":"LineString","coordinates":[[103.6291336,1.2974635],[103.6291048,1.2973859]]}},{"type":"Feature","id":"way/655800803-0-0-0","properties":{"highway":"unclassified","lanes":"2","lanes:backward":"1","lanes:forward":"1","maxspeed":"50","name":"Tuas View Crescent","surface":"asphalt","turn:lanes:forward":"through;right"},"geometry":{"type":"LineString","coordinates":[[103.6280572,1.2942811],[103.6285601,1.2940836]]}},{"type":"Feature","id":"way/655800803-0-1-0","properties":{"highway":"unclassified","lanes":"2","lanes:backward":"1","lanes:forward":"1","maxspeed":"50","name":"Tuas View Crescent","surface":"asphalt","turn:lanes:forward":"through;right"},"geometry":{"type":"LineString","coordinates":[[103.6285601,1.2940836],[103.6286567,1.2940502]]}},{"type":"Feature","id":"way/655800804-0-0-0","properties":{"highway":"unclassified","lanes":"3","lanes:backward":"2","lanes:forward":"1","maxspeed":"50","name":"Tuas View Crescent","surface":"asphalt"},"geometry":{"type":"LineString","coordinates":[[103.6276656,1.2944299],[103.6278386,1.2943602]]}},{"type":"Feature","id":"way/655800805-0-0-0","properties":{"highway":"secondary","lanes":"5","maxspeed":"70","name":"Tuas South Avenue 5","oneway":"yes","surface":"asphalt","turn:lanes":"left|through|through|through|right"},"geometry":{"type":"LineString","coordinates":[[103.6273907,1.2952236],[103.6273022,1.294985]]}},{"type":"Feature","id":"way/655800806-0-0-0","properties":{"highway":"secondary","lanes":"5","maxspeed":"70","name":"Tuas South Avenue 5","oneway":"yes","surface":"asphalt","turn:lanes":"left|through|through|through|right"},"geometry":{"type":"LineString","coordinates":[[103.6273022,1.294985],[103.6272375,1.2948111]]}},{"type":"Feature","id":"way/673015573-0-0-0","properties":{"highway":"service","lanes":"2","lanes:backward":"1","lanes:forward":"1","turn:lanes:backward":"through;right","turn:lanes:forward":"through"},"geometry":{"type":"LineString","coordinates":[[103.6301212,1.2971744],[103.6304712,1.2970377]]}},{"type":"Feature","id":"way/673015574-0-0-0","properties":{"highway":"service"},"geometry":{"type":"LineString","coordinates":[[103.6301212,1.2971744],[103.6301493,1.2972522]]}},{"type":"Feature","id":"way/690360684-0-0-0","properties":{"highway":"service","lanes":"2","lanes:backward":"1","lanes:forward":"1"},"geometry":{"type":"LineString","coordinates":[[103.6300743,1.2960321],[103.6299364,1.2956556]]}},{"type":"Feature","id":"way/696176977-0-1-0","properties":{"highway":"service"},"geometry":{"type":"LineString","coordinates":[[103.6263916,1.293604],[103.6264023,1.2935906]]}},{"type":"Feature","id":"way/696176977-0-2-0","properties":{"highway":"service"},"geometry":{"type":"LineString","coordinates":[[103.6264023,1.2935906],[103.6264023,1.2935597]]}},{"type":"Feature","id":"way/696176977-0-3-0","properties":{"highway":"service"},"geometry":{"type":"LineString","coordinates":[[103.6264023,1.2935597],[103.6263889,1.2935195]]}},{"type":"Feature","id":"way/696176978-0-1-0","properties":{"highway":"service"},"geometry":{"type":"LineString","coordinates":[[103.6264707,1.2954381],[103.6264853,1.2954208]]}},{"type":"Feature","id":"way/696176978-0-2-0","properties":{"highway":"service"},"geometry":{"type":"LineString","coordinates":[[103.6264853,1.2954208],[103.6264945,1.2953934]]}},{"type":"Feature","id":"way/696176978-0-3-0","properties":{"highway":"service"},"geometry":{"type":"LineString","coordinates":[[103.6264945,1.2953934],[103.6264761,1.2953054]]}},{"type":"Feature","id":"way/696176978-0-4-0","properties":{"highway":"service"},"geometry":{"type":"LineString","coordinates":[[103.6264761,1.2953054],[103.6263719,1.2950031]]}},{"type":"Feature","id":"way/708707845-0-0-0","properties":{"highway":"residential","lanes":"3","lanes:backward":"1","lanes:forward":"2","maxspeed":"50","name":"Tuas South Street 5","surface":"asphalt","turn:lanes:forward":"through|right"},"geometry":{"type":"LineString","coordinates":[[103.6268869,1.2947272],[103.6269664,1.2946973]]}},{"type":"Feature","id":"way/708707845-0-1-0","properties":{"highway":"residential","lanes":"3","lanes:backward":"1","lanes:forward":"2","maxspeed":"50","name":"Tuas South Street 5","surface":"asphalt","turn:lanes:forward":"through|right"},"geometry":{"type":"LineString","coordinates":[[103.6269664,1.2946973],[103.6270682,1.2946547]]}},{"type":"Feature","id":"way/708707846-0-0-0","properties":{"highway":"residential","lanes":"3","lanes:backward":"1","lanes:forward":"2","maxspeed":"50","name":"Tuas South Street 5","surface":"asphalt","turn:lanes:forward":"through|right"},"geometry":{"type":"LineString","coordinates":[[103.6268585,1.2947393],[103.6268869,1.2947272]]}},{"type":"Feature","id":"way/716593868-0-0-0","properties":{"highway":"service","lanes":"2","lanes:backward":"1","lanes:forward":"1"},"geometry":{"type":"LineString","coordinates":[[103.6295016,1.2969049],[103.6291386,1.2970552]]}},{"type":"Feature","id":"way/716593868-0-1-0","properties":{"highway":"service","lanes":"2","lanes:backward":"1","lanes:forward":"1"},"geometry":{"type":"LineString","coordinates":[[103.6291386,1.2970552],[103.6290782,1.2970713]]}},{"type":"Feature","id":"way/716593872-0-0-0","properties":{"highway":"service","lanes":"2","lanes:backward":"1","lanes:forward":"1","turn:lanes:backward":"through","turn:lanes:forward":"left;through"},"geometry":{"type":"LineString","coordinates":[[103.6302848,1.295524],[103.6306654,1.2953852]]}},{"type":"Feature","id":"way/716593873-0-0-0","properties":{"highway":"service","lanes":"2","lanes:backward":"1","lanes:forward":"1","turn:lanes:backward":"through","turn:lanes:forward":"left;through"},"geometry":{"type":"LineString","coordinates":[[103.6294211,1.2958457],[103.6299364,1.2956556]]}},{"type":"Feature","id":"way/716593874-0-0-0","properties":{"highway":"service","lanes":"2","lanes:backward":"1","lanes:forward":"1","turn:lanes:backward":"through;right","turn:lanes:forward":"through"},"geometry":{"type":"LineString","coordinates":[[103.6299364,1.2956556],[103.6302848,1.295524]]}},{"type":"Feature","id":"way/716593875-0-0-0","properties":{"highway":"service","lanes":"2","lanes:backward":"1","lanes:forward":"1","turn:lanes:backward":"through","turn:lanes:forward":"through;right"},"geometry":{"type":"LineString","coordinates":[[103.6288324,1.29565],[103.628882,1.2956694]]}},{"type":"Feature","id":"way/716593875-0-1-0","properties":{"highway":"service","lanes":"2","lanes:backward":"1","lanes:forward":"1","turn:lanes:backward":"through","turn:lanes:forward":"through;right"},"geometry":{"type":"LineString","coordinates":[[103.628882,1.2956694],[103.6289068,1.2956996]]}},{"type":"Feature","id":"way/716593875-0-2-0","properties":{"highway":"service","lanes":"2","lanes:backward":"1","lanes:forward":"1","turn:lanes:backward":"through","turn:lanes:forward":"through;right"},"geometry":{"type":"LineString","coordinates":[[103.6289068,1.2956996],[103.6289886,1.2959235]]}},{"type":"Feature","id":"way/716593876-0-0-0","properties":{"highway":"service","lanes":"2","lanes:backward":"1","lanes:forward":"1","turn:lanes:backward":"left;right"},"geometry":{"type":"LineString","coordinates":[[103.6289886,1.2959235],[103.6290074,1.2959503]]}},{"type":"Feature","id":"way/716593876-0-1-0","properties":{"highway":"service","lanes":"2","lanes:backward":"1","lanes:forward":"1","turn:lanes:backward":"left;right"},"geometry":{"type":"LineString","coordinates":[[103.6290074,1.2959503],[103.6290362,1.2959637]]}},{"type":"Feature","id":"way/716593876-0-2-0","properties":{"highway":"service","lanes":"2","lanes:backward":"1","lanes:forward":"1","turn:lanes:backward":"left;right"},"geometry":{"type":"LineString","coordinates":[[103.6290362,1.2959637],[103.6290691,1.2959671]]}},{"type":"Feature","id":"way/716593876-0-3-0","properties":{"highway":"service","lanes":"2","lanes:backward":"1","lanes:forward":"1","turn:lanes:backward":"left;right"},"geometry":{"type":"LineString","coordinates":[[103.6290691,1.2959671],[103.629104,1.2959644]]}},{"type":"Feature","id":"way/716593876-0-4-0","properties":{"highway":"service","lanes":"2","lanes:backward":"1","lanes:forward":"1","turn:lanes:backward":"left;right"},"geometry":{"type":"LineString","coordinates":[[103.629104,1.2959644],[103.6294211,1.2958457]]}},{"type":"Feature","id":"way/716593877-0-0-0","properties":{"highway":"service","lanes":"1","oneway":"yes","service":"parking_aisle","turn:lanes":"through;right"},"geometry":{"type":"LineString","coordinates":[[103.628964,1.2968906],[103.6288774,1.2969654]]}},{"type":"Feature","id":"way/717003193-0-0-0","properties":{"highway":"service"},"geometry":{"type":"LineString","coordinates":[[103.6299428,1.2967226],[103.6298141,1.2963485]]}},{"type":"Feature","id":"way/717003203-0-0-0","properties":{"highway":"service","lanes":"2","lanes:backward":"1","lanes:forward":"1","turn:lanes:backward":"through","turn:lanes:forward":"through"},"geometry":{"type":"LineString","coordinates":[[103.6311337,1.2962775],[103.6302848,1.2965979]]}},{"type":"Feature","id":"way/717003204-0-0-0","properties":{"highway":"service","lanes":"2","lanes:backward":"1","lanes:forward":"1","turn:lanes:backward":"through","turn:lanes:forward":"left;through"},"geometry":{"type":"LineString","coordinates":[[103.6302848,1.2965979],[103.6299428,1.2967226]]}},{"type":"Feature","id":"way/717003205-0-0-0","properties":{"highway":"service","lanes":"2","lanes:backward":"1","lanes:forward":"1"},"geometry":{"type":"LineString","coordinates":[[103.6299428,1.2967226],[103.6295016,1.2969049]]}}]}