{"type":"FeatureCollection","features":[{"type":"Feature","id":"way/1051476522-0","properties":{"building":"yes"},"geometry":{"type":"Polygon","coordinates":[[[103.8551004,1.2750202],[103.8551552,1.2751062],[103.8553845,1.2749602],[103.8553297,1.2748742],[103.8551004,1.2750202]]]}},{"type":"Feature","id":"way/1051476524-0","properties":{"building":"train_station"},"geometry":{"type":"Polygon","coordinates":[[[103.8541202,1.2745807],[103.8543872,1.2749974],[103.8544202,1.2749763],[103.8544022,1.2749483],[103.8544422,1.2749227],[103.8541931,1.274534],[103.8541202,1.2745807]]]}},{"type":"Feature","id":"way/140564538-0-0-0","properties":{"bridge":"viaduct","highway":"motorway","lanes":"5","layer":"1","lit":"yes","maxspeed":"80","name":"Marina Coastal Expressway","name:ms":"Lebuhraya Pantai Marina","name:ta":"\u0bae\u0bb0\u0bbf\u0ba9\u0bbe \u0b95\u0bb0\u0bc8\u0baf\u0bcb\u0bb0 \u0bb5\u0bbf\u0bb0\u0bc8\u0bb5\u0bc1\u0b9a\u0bcd\u0b9a\u0bbe\u0bb2\u0bc8","name:zh":"\u6ee8\u6d77\u9ad8\u901f\u516c\u8def","oneway":"yes","ref":"MCE","ref:ta":"\u0b8e\u0bae\u0bcd\u0b9a\u0bbf\u0b87","short_name:ta":"\u0b8e\u0bae\u0bcd\u0b9a\u0bbf\u0b87","surface":"asphalt","turn:lanes":"through|through|through|through|through"},"geometry":{"type":"LineString","coordinates":[[103.8519394,1.2736969],[103.8521738,1.2736326]]}},{"type":"Feature","id":"way/140564538-0-1-0","properties":{"bridge":"viaduct","highway":"motorway","lanes":"5","layer":"1","lit":"yes","maxspeed":"80","name":"Marina Coastal Expressway","name:ms":"Lebuhraya Pantai Marina","name:ta":"\u0bae\u0bb0\u0bbf\u0ba9\u0bbe \u0b95\u0bb0\u0bc8\u0baf\u0bcb\u0bb0 \u0bb5\u0bbf\u0bb0\u0bc8\u0bb5\u0bc1\u0b9a\u0bcd\u0b9a\u0bbe\u0bb2\u0bc8","name:zh":"\u6ee8\u6d77\u9ad8\u901f\u516c\u8def","oneway":"yes","ref":"MCE","ref:ta":"\u0b8e\u0bae\u0bcd\u0b9a\u0bbf\u0b87","short_name:ta":"\u0b8e\u0bae\u0bcd\u0b9a\u0bbf\u0b87","surface":"asphalt","turn:lanes":"through|through|through|through|through"},"geometry":{"type":"LineString","coordinates":[[103.8521738,1.2736326],[103.8524315,1.273548]]}},{"type":"Feature","id":"way/140564538-0-2-0","properties":{"bridge":"viaduct","highway":"motorway","lanes":"5","layer":"1","lit":"yes","maxspeed":"80","name":"Marina Coastal Expressway","name:ms":"Lebuhraya Pantai Marina","name:ta":"\u0bae\u0bb0\u0bbf\u0ba9\u0bbe \u0b95\u0bb0\u0bc8\u0baf\u0bcb\u0bb0 \u0bb5\u0bbf\u0bb0\u0bc8\u0bb5\u0bc1\u0b9a\u0bcd\u0b9a\u0bbe\u0bb2\u0bc8","name:zh":"\u6ee8\u6d77\u9ad8\u901f\u516c\u8def","oneway":"yes","ref":"MCE","ref:ta":"\u0b8e\u0bae\u0bcd\u0b9a\u0bbf\u0b87","short_name:ta":"\u0b8e\u0bae\u0bcd\u0b9a\u0bbf\u0b87","surface":"asphalt","turn:lanes":"through|through|through|through|through"},"geometry":{"type":"LineString","coordinates":[[103.8524315,1.273548],[103.8526282,1.2734674]]}},{"type":"Feature","id":"way/140564538-0-3-0","properties":{"bridge":"viaduct","highway":"motorway","lanes":"5","layer":"1","lit":"yes","maxspeed":"80","name":"Marina Coastal Expressway","name:ms":"Lebuhraya Pantai Marina","name:ta":"\u0bae\u0bb0\u0bbf\u0ba9\u0bbe \u0b95\u0bb0\u0bc8\u0baf\u0bcb\u0bb0 \u0bb5\u0bbf\u0bb0\u0bc8\u0bb5\u0bc1\u0b9a\u0bcd\u0b9a\u0bbe\u0bb2\u0bc8","name:zh":"\u6ee8\u6d77\u9ad8\u901f\u516c\u8def","oneway":"yes","ref":"MCE","ref:ta":"\u0b8e\u0bae\u0bcd\u0b9a\u0bbf\u0b87","short_name:ta":"\u0b8e\u0bae\u0bcd\u0b9a\u0bbf\u0b87","surface":"asphalt","turn:lanes":"through|through|through|through|through"},"geometry":{"type":"LineString","coordinates":[[103.8526282,1.2734674],[103.8527955,1.2733887]]}},{"type":"Feature","id":"way/140564538-0-4-0","properties":{"bridge":"viaduct","highway":"motorway","lanes":"5","layer":"1","lit":"yes","maxspeed":"80","name":"Marina Coastal Expressway","name:ms":"Lebuhraya Pantai Marina","name:ta":"\u0bae\u0bb0\u0bbf\u0ba9\u0bbe \u0b95\u0bb0\u0bc8\u0baf\u0bcb\u0bb0 \u0bb5\u0bbf\u0bb0\u0bc8\u0bb5\u0bc1\u0b9a\u0bcd\u0b9a\u0bbe\u0bb2\u0bc8","name:zh":"\u6ee8\u6d77\u9ad8\u901f\u516c\u8def","oneway":"yes","ref":"MCE","ref:ta":"\u0b8e\u0bae\u0bcd\u0b9a\u0bbf\u0b87","short_name:ta":"\u0b8e\u0bae\u0bcd\u0b9a\u0bbf\u0b87","surface":"asphalt","turn:lanes":"through|through|through|through|through"},"geometry":{"type":"LineString","coordinates":[[103.8527955,1.2733887],[103.8530198,1.2732628]]}},{"type":"Feature","id":"way/140564538-0-5-0","properties":{"bridge":"viaduct","highway":"motorway","lanes":"5","layer":"1","lit":"yes","maxspeed":"80","name":"Marina Coastal Expressway","name:ms":"Lebuhraya Pantai Marina","name:ta":"\u0bae\u0bb0\u0bbf\u0ba9\u0bbe \u0b95\u0bb0\u0bc8\u0baf\u0bcb\u0bb0 \u0bb5\u0bbf\u0bb0\u0bc8\u0bb5\u0bc1\u0b9a\u0bcd\u0b9a\u0bbe\u0bb2\u0bc8","name:zh":"\u6ee8\u6d77\u9ad8\u901f\u516c\u8def","oneway":"yes","ref":"MCE","ref:ta":"\u0b8e\u0bae\u0bcd\u0b9a\u0bbf\u0b87","short_name:ta":"\u0b8e\u0bae\u0bcd\u0b9a\u0bbf\u0b87","surface":"asphalt","turn:lanes":"through|through|through|through|through"},"geometry":{"type":"LineString","coordinates":[[103.8530198,1.2732628],[103.8538209,1.2727429]]}},{"type":"Feature","id":"way/140564541-0-6-0","properties":{"bridge":"viaduct","highway":"motorway","lanes":"5","layer":"1","lit":"yes","maxspeed":"80","name":"Marina Coastal Expressway","name:ms":"Lebuhraya Pantai Marina","name:ta":"\u0bae\u0bb0\u0bbf\u0ba9\u0bbe \u0b95\u0bb0\u0bc8\u0baf\u0bcb\u0bb0 \u0bb5\u0bbf\u0bb0\u0bc8\u0bb5\u0bc1\u0b9a\u0bcd\u0b9a\u0bbe\u0bb2\u0bc8","name:zh":"\u6ee8\u6d77\u9ad8\u901f\u516c\u8def","oneway":"yes","ref":"MCE","ref:ta":"\u0b8e\u0bae\u0bcd\u0b9a\u0bbf\u0b87","short_name:ta":"\u0b8e\u0bae\u0bcd\u0b9a\u0bbf\u0b87","surface":"asphalt","turn:lanes":"through|through|through|through|through"},"geometry":{"type":"LineString","coordinates":[[103.851017,1.2737647],[103.8512166,1.2737744]]}},{"type":"Feature","id":"way/140564541-0-7-0","properties":{"bridge":"viaduct","highway":"motorway","lanes":"5","layer":"1","lit":"yes","maxspeed":"80","name":"Marina Coastal Expressway","name:ms":"Lebuhraya Pantai Marina","name:ta":"\u0bae\u0bb0\u0bbf\u0ba9\u0bbe \u0b95\u0bb0\u0bc8\u0baf\u0bcb\u0bb0 \u0bb5\u0bbf\u0bb0\u0bc8\u0bb5\u0bc1\u0b9a\u0bcd\u0b9a\u0bbe\u0bb2\u0bc8","name:zh":"\u6ee8\u6d77\u9ad8\u901f\u516c\u8def","oneway":"yes","ref":"MCE","ref:ta":"\u0b8e\u0bae\u0bcd\u0b9a\u0bbf\u0b87","short_name:ta":"\u0b8e\u0bae\u0bcd\u0b9a\u0bbf\u0b87","surface":"asphalt","turn:lanes":"through|through|through|through|through"},"geometry":{"type":"LineString","coordinates":[[103.8512166,1.2737744],[103.8514104,1.2737705]]}},{"type":"Feature","id":"way/140564541-0-8-0","properties":{"bridge":"viaduct","highway":"motorway","lanes":"5","layer":"1","lit":"yes","maxspeed":"80","name":"Marina Coastal Expressway","name:ms":"Lebuhraya Pantai Marina","name:ta":"\u0bae\u0bb0\u0bbf\u0ba9\u0bbe \u0b95\u0bb0\u0bc8\u0baf\u0bcb\u0bb0 \u0bb5\u0bbf\u0bb0\u0bc8\u0bb5\u0bc1\u0b9a\u0bcd\u0b9a\u0bbe\u0bb2\u0bc8","name:zh":"\u6ee8\u6d77\u9ad8\u901f\u516c\u8def","oneway":"yes","ref":"MCE","ref:ta":"\u0b8e\u0bae\u0bcd\u0b9a\u0bbf\u0b87","short_name:ta":"\u0b8e\u0bae\u0bcd\u0b9a\u0bbf\u0b87","surface":"asphalt","turn:lanes":"through|through|through|through|through"},"geometry":{"type":"LineString","coordinates":[[103.8514104,1.2737705],[103.851639,1.2737531]]}},{"type":"Feature","id":"way/140564541-0-9-0","properties":{"bridge":"viaduct","highway":"motorway","lanes":"5","layer":"1","lit":"yes","maxspeed":"80","name":"Marina Coastal Expressway","name:ms":"Lebuhraya Pantai Marina","name:ta":"\u0bae\u0bb0\u0bbf\u0ba9\u0bbe \u0b95\u0bb0\u0bc8\u0baf\u0bcb\u0bb0 \u0bb5\u0bbf\u0bb0\u0bc8\u0bb5\u0bc1\u0b9a\u0bcd\u0b9a\u0bbe\u0bb2\u0bc8","name:zh":"\u6ee8\u6d77\u9ad8\u901f\u516c\u8def","oneway":"yes","ref":"MCE","ref:ta":"\u0b8e\u0bae\u0bcd\u0b9a\u0bbf\u0b87","short_name:ta":"\u0b8e\u0bae\u0bcd\u0b9a\u0bbf\u0b87","surface":"asphalt","turn:lanes":"through|through|through|through|through"},"geometry":{"type":"LineString","coordinates":[[103.851639,1.2737531],[103.8519394,1.2736969]]}},{"type":"Feature","id":"way/140564547-0-0-0","properties":{"bridge":"viaduct","highway":"motorway","lanes":"5","layer":"1","lit":"yes","maxspeed":"80","name":"Marina Coastal Expressway","name:ms":"Lebuhraya Pantai Marina","name:ta":"\u0bae\u0bb0\u0bbf\u0ba9\u0bbe \u0b95\u0bb0\u0bc8\u0baf\u0bcb\u0bb0 \u0bb5\u0bbf\u0bb0\u0bc8\u0bb5\u0bc1\u0b9a\u0bcd\u0b9a\u0bbe\u0bb2\u0bc8","name:zh":"\u6ee8\u6d77\u9ad8\u901f\u516c\u8def","oneway":"yes","ref":"MCE","ref:ta":"\u0b8e\u0bae\u0bcd\u0b9a\u0bbf\u0b87","short_name:ta":"\u0b8e\u0bae\u0bcd\u0b9a\u0bbf\u0b87","surface":"asphalt","turn:lanes":"left|left|through|through|through"},"geometry":{"type":"LineString","coordinates":[[103.8519238,1.2734686],[103.85173,1.2735071]]}},{"type":"Feature","id":"way/140564547-0-1-0","properties":{"bridge":"viaduct","highway":"motorway","lanes":"5","layer":"1","lit":"yes","maxspeed":"80","name":"Marina Coastal Expressway","name:ms":"Lebuhraya Pantai Marina","name:ta":"\u0bae\u0bb0\u0bbf\u0ba9\u0bbe \u0b95\u0bb0\u0bc8\u0baf\u0bcb\u0bb0 \u0bb5\u0bbf\u0bb0\u0bc8\u0bb5\u0bc1\u0b9a\u0bcd\u0b9a\u0bbe\u0bb2\u0bc8","name:zh":"\u6ee8\u6d77\u9ad8\u901f\u516c\u8def","oneway":"yes","ref":"MCE","ref:ta":"\u0b8e\u0bae\u0bcd\u0b9a\u0bbf\u0b87","short_name:ta":"\u0b8e\u0bae\u0bcd\u0b9a\u0bbf\u0b87","surface":"asphalt","turn:lanes":"left|left|through|through|through"},"geometry":{"type":"LineString","coordinates":[[103.85173,1.2735071],[103.8515131,1.2735332]]}},{"type":"Feature","id":"way/140564547-0-2-0","properties":{"bridge":"viaduct","highway":"motorway","lanes":"5","layer":"1","lit":"yes","maxspeed":"80","name":"Marina Coastal Expressway","name:ms":"Lebuhraya Pantai Marina","name:ta":"\u0bae\u0bb0\u0bbf\u0ba9\u0bbe \u0b95\u0bb0\u0bc8\u0baf\u0bcb\u0bb0 \u0bb5\u0bbf\u0bb0\u0bc8\u0bb5\u0bc1\u0b9a\u0bcd\u0b9a\u0bbe\u0bb2\u0bc8","name:zh":"\u6ee8\u6d77\u9ad8\u901f\u516c\u8def","oneway":"yes","ref":"MCE","ref:ta":"\u0b8e\u0bae\u0bcd\u0b9a\u0bbf\u0b87","short_name:ta":"\u0b8e\u0bae\u0bcd\u0b9a\u0bbf\u0b87","surface":"asphalt","turn:lanes":"left|left|through|through|through"},"geometry":{"type":"LineString","coordinates":[[103.8515131,1.2735332],[103.8512886,1.2735471]]}},{"type":"Feature","id":"way/140564547-0-3-0","properties":{"bridge":"viaduct","highway":"motorway","lanes":"5","layer":"1","lit":"yes","maxspeed":"80","name":"Marina Coastal Expressway","name:ms":"Lebuhraya Pantai Marina","name:ta":"\u0bae\u0bb0\u0bbf\u0ba9\u0bbe \u0b95\u0bb0\u0bc8\u0baf\u0bcb\u0bb0 \u0bb5\u0bbf\u0bb0\u0bc8\u0bb5\u0bc1\u0b9a\u0bcd\u0b9a\u0bbe\u0bb2\u0bc8","name:zh":"\u6ee8\u6d77\u9ad8\u901f\u516c\u8def","oneway":"yes","ref":"MCE","ref:ta":"\u0b8e\u0bae\u0bcd\u0b9a\u0bbf\u0b87","short_name:ta":"\u0b8e\u0bae\u0bcd\u0b9a\u0bbf\u0b87","surface":"asphalt","turn:lanes":"left|left|through|through|through"},"geometry":{"type":"LineString","coordinates":[[103.8512886,1.2735471],[103.8510563,1.2735425]]}},{"type":"Feature","id":"way/140566301-0-0-0","properties":{"destination":"Shenton Way;Maxwell Road","highway":"motorway_link","lanes":"2","lit":"yes","maxspeed":"50","oneway":"yes","surface":"asphalt","toll":"yes","turn:lanes":"through|through"},"geometry":{"type":"LineString","coordinates":[[103.8515886,1.2732735],[103.8513812,1.2732781]]}},{"type":"Feature","id":"way/140566301-0-1-0","properties":{"destination":"Shenton Way;Maxwell Road","highway":"motorway_link","lanes":"2","lit":"yes","maxspeed":"50","oneway":"yes","surface":"asphalt","toll":"yes","turn:lanes":"through|through"},"geometry":{"type":"LineString","coordinates":[[103.8513812,1.2732781],[103.8512766,1.2732906]]}},{"type":"Feature","id":"way/140566301-0-2-0","properties":{"destination":"Shenton Way;Maxwell Road","highway":"motorway_link","lanes":"2","lit":"yes","maxspeed":"50","oneway":"yes","surface":"asphalt","toll":"yes","turn:lanes":"through|through"},"geometry":{"type":"LineString","coordinates":[[103.8512766,1.2732906],[103.8511517,1.2733187]]}},{"type":"Feature","id":"way/140566301-0-3-0","properties":{"destination":"Shenton Way;Maxwell Road","highway":"motorway_link","lanes":"2","lit":"yes","maxspeed":"50","oneway":"yes","surface":"asphalt","toll":"yes","turn:lanes":"through|through"},"geometry":{"type":"LineString","coordinates":[[103.8511517,1.2733187],[103.8510299,1.2733608]]}},{"type":"Feature","id":"way/150051422-0-0-0","properties":{"highway":"secondary","lanes":"2","lit":"yes","maxspeed":"50","name":"Straits Boulevard","note":"Approximate position - needs survey when complete","oneway":"yes","surface":"asphalt"},"geometry":{"type":"LineString","coordinates":[[103.8522042,1.2739257],[103.8523508,1.2738627]]}},{"type":"Feature","id":"way/150051422-0-1-0","properties":{"highway":"secondary","lanes":"2","lit":"yes","maxspeed":"50","name":"Straits Boulevard","note":"Approximate position - needs survey when complete","oneway":"yes","surface":"asphalt"},"geometry":{"type":"LineString","coordinates":[[103.8523508,1.2738627],[103.8524759,1.2738045]]}},{"type":"Feature","id":"way/150051422-0-2-0","properties":{"highway":"secondary","lanes":"2","lit":"yes","maxspeed":"50","name":"Straits Boulevard","note":"Approximate position - needs survey when complete","oneway":"yes","surface":"asphalt"},"geometry":{"type":"LineString","coordinates":[[103.8524759,1.2738045],[103.8525702,1.2737621]]}},{"type":"Feature","id":"way/150051422-0-3-0","properties":{"highway":"secondary","lanes":"2","lit":"yes","maxspeed":"50","name":"Straits Boulevard","note":"Approximate position - needs survey when complete","oneway":"yes","surface":"asphalt"},"geometry":{"type":"LineString","coordinates":[[103.8525702,1.2737621],[103.8528602,1.2735883]]}},{"type":"Feature","id":"way/150051422-0-4-0","properties":{"highway":"secondary","lanes":"2","lit":"yes","maxspeed":"50","name":"Straits Boulevard","note":"Approximate position - needs survey when complete","oneway":"yes","surface":"asphalt"},"geometry":{"type":"LineString","coordinates":[[103.8528602,1.2735883],[103.8531127,1.2734406]]}},{"type":"Feature","id":"way/150051422-0-5-0","properties":{"highway":"secondary","lanes":"2","lit":"yes","maxspeed":"50","name":"Straits Boulevard","note":"Approximate position - needs survey when complete","oneway":"yes","surface":"asphalt"},"geometry":{"type":"LineString","coordinates":[[103.8531127,1.2734406],[103.8533764,1.2732639]]}},{"type":"Feature","id":"way/150051422-0-6-0","properties":{"highway":"secondary","lanes":"2","lit":"yes","maxspeed":"50","name":"Straits Boulevard","note":"Approximate position - needs survey when complete","oneway":"yes","surface":"asphalt"},"geometry":{"type":"LineString","coordinates":[[103.8533764,1.2732639],[103.8541779,1.2727525]]}},{"type":"Feature","id":"way/150051422-0-7-0","properties":{"highway":"secondary","lanes":"2","lit":"yes","maxspeed":"50","name":"Straits Boulevard","note":"Approximate position - needs survey when complete","oneway":"yes","surface":"asphalt"},"geometry":{"type":"LineString","coordinates":[[103.8541779,1.2727525],[103.8542212,1.2727287]]}},{"type":"Feature","id":"way/150051422-0-8-0","properties":{"highway":"secondary","lanes":"2","lit":"yes","maxspeed":"50","name":"Straits Boulevard","note":"Approximate position - needs survey when complete","oneway":"yes","surface":"asphalt"},"geometry":{"type":"LineString","coordinates":[[103.8542212,1.2727287],[103.8542946,1.2726944]]}},{"type":"Feature","id":"way/150051422-0-9-0","properties":{"highway":"secondary","lanes":"2","lit":"yes","maxspeed":"50","name":"Straits Boulevard","note":"Approximate position - needs survey when complete","oneway":"yes","surface":"asphalt"},"geometry":{"type":"LineString","coordinates":[[103.8542946,1.2726944],[103.854376,1.2726581]]}},{"type":"Feature","id":"way/429060639-0-0-0","properties":{"highway":"secondary","lanes":"4","lit":"yes","maxspeed":"50","name":"Straits Boulevard","oneway":"yes","surface":"asphalt","turn:lanes":"left;through|through|through|through"},"geometry":{"type":"LineString","coordinates":[[103.8551389,1.2729834],[103.8554241,1.2733982]]}},{"type":"Feature","id":"way/489499533-0-0-0","properties":{"highway":"motorway_link","lanes":"1","lit":"yes","maxspeed":"50","oneway":"yes","surface":"asphalt"},"geometry":{"type":"LineString","coordinates":[[103.8522042,1.2739257],[103.8523775,1.2738158]]}},{"type":"Feature","id":"way/489499533-0-1-0","properties":{"highway":"motorway_link","lanes":"1","lit":"yes","maxspeed":"50","oneway":"yes","surface":"asphalt"},"geometry":{"type":"LineString","coordinates":[[103.8523775,1.2738158],[103.8525351,1.2737191]]}},{"type":"Feature","id":"way/489499533-0-2-0","properties":{"highway":"motorway_link","lanes":"1","lit":"yes","maxspeed":"50","oneway":"yes","surface":"asphalt"},"geometry":{"type":"LineString","coordinates":[[103.8525351,1.2737191],[103.8527364,1.273585]]}},{"type":"Feature","id":"way/489499533-0-3-0","properties":{"highway":"motorway_link","lanes":"1","lit":"yes","maxspeed":"50","oneway":"yes","surface":"asphalt"},"geometry":{"type":"LineString","coordinates":[[103.8527364,1.273585],[103.8530807,1.2733716]]}},{"type":"Feature","id":"way/489499533-0-4-0","properties":{"highway":"motorway_link","lanes":"1","lit":"yes","maxspeed":"50","oneway":"yes","surface":"asphalt"},"geometry":{"type":"LineString","coordinates":[[103.8530807,1.2733716],[103.8533469,1.2731798]]}},{"type":"Feature","id":"way/489499533-0-5-0","properties":{"highway":"motorway_link","lanes":"1","lit":"yes","maxspeed":"50","oneway":"yes","surface":"asphalt"},"geometry":{"type":"LineString","coordinates":[[103.8533469,1.2731798],[103.8538209,1.2727429]]}},{"type":"Feature","id":"way/603138985-0-0-0","properties":{"bridge":"viaduct","highway":"motorway","lanes":"5","layer":"1","lit":"yes","maxspeed":"80","name":"Marina Coastal Expressway","name:ms":"Lebuhraya Pantai Marina","name:ta":"\u0bae\u0bb0\u0bbf\u0ba9\u0bbe \u0b95\u0bb0\u0bc8\u0baf\u0bcb\u0bb0 \u0bb5\u0bbf\u0bb0\u0bc8\u0bb5\u0bc1\u0b9a\u0bcd\u0b9a\u0bbe\u0bb2\u0bc8","name:zh":"\u6ee8\u6d77\u9ad8\u901f\u516c\u8def","oneway":"yes","ref":"MCE","ref:ta":"\u0b8e\u0bae\u0bcd\u0b9a\u0bbf\u0b87","short_name:ta":"\u0b8e\u0bae\u0bcd\u0b9a\u0bbf\u0b87","surface":"asphalt","turn:lanes":"through|through|through|through|through"},"geometry":{"type":"LineString","coordinates":[[103.8530199,1.2730183],[103.8528277,1.2731284]]}},{"type":"Feature","id":"way/603138985-0-1-0","properties":{"bridge":"viaduct","highway":"motorway","lanes":"5","layer":"1","lit":"yes","maxspeed":"80","name":"Marina Coastal Expressway","name:ms":"Lebuhraya Pantai Marina","name:ta":"\u0bae\u0bb0\u0bbf\u0ba9\u0bbe \u0b95\u0bb0\u0bc8\u0baf\u0bcb\u0bb0 \u0bb5\u0bbf\u0bb0\u0bc8\u0bb5\u0bc1\u0b9a\u0bcd\u0b9a\u0bbe\u0bb2\u0bc8","name:zh":"\u6ee8\u6d77\u9ad8\u901f\u516c\u8def","oneway":"yes","ref":"MCE","ref:ta":"\u0b8e\u0bae\u0bcd\u0b9a\u0bbf\u0b87","short_name:ta":"\u0b8e\u0bae\u0bcd\u0b9a\u0bbf\u0b87","surface":"asphalt","turn:lanes":"through|through|through|through|through"},"geometry":{"type":"LineString","coordinates":[[103.8528277,1.2731284],[103.8526891,1.273195]]}},{"type":"Feature","id":"way/603138985-0-2-0","properties":{"bridge":"viaduct","highway":"motorway","lanes":"5","layer":"1","lit":"yes","maxspeed":"80","name":"Marina Coastal Expressway","name:ms":"Lebuhraya Pantai Marina","name:ta":"\u0bae\u0bb0\u0bbf\u0ba9\u0bbe \u0b95\u0bb0\u0bc8\u0baf\u0bcb\u0bb0 \u0bb5\u0bbf\u0bb0\u0bc8\u0bb5\u0bc1\u0b9a\u0bcd\u0b9a\u0bbe\u0bb2\u0bc8","name:zh":"\u6ee8\u6d77\u9ad8\u901f\u516c\u8def","oneway":"yes","ref":"MCE","ref:ta":"\u0b8e\u0bae\u0bcd\u0b9a\u0bbf\u0b87","short_name:ta":"\u0b8e\u0bae\u0bcd\u0b9a\u0bbf\u0b87","surface":"asphalt","turn:lanes":"through|through|through|through|through"},"geometry":{"type":"LineString","coordinates":[[103.8526891,1.273195],[103.8525993,1.2732395]]}},{"type":"Feature","id":"way/627327941-0-0-0","properties":{"highway":"motorway","lanes":"6","lit":"yes","maxspeed":"80","name":"Marina Coastal Expressway","name:ms":"Lebuhraya Pantai Marina","name:ta":"\u0bae\u0bb0\u0bbf\u0ba9\u0bbe \u0b95\u0bb0\u0bc8\u0baf\u0bcb\u0bb0 \u0bb5\u0bbf\u0bb0\u0bc8\u0bb5\u0bc1\u0b9a\u0bcd\u0b9a\u0bbe\u0bb2\u0bc8","name:zh":"\u6ee8\u6d77\u9ad8\u901f\u516c\u8def","oneway":"yes","ref":"MCE","ref:ta":"\u0b8e\u0bae\u0bcd\u0b9a\u0bbf\u0b87","short_name:ta":"\u0b8e\u0bae\u0bcd\u0b9a\u0bbf\u0b87","surface":"asphalt","toll":"yes","turn:lanes":"left|left;through|through|through|through|through"},"geometry":{"type":"LineString","coordinates":[[103.8547909,1.2721126],[103.855554,1.2716253]]}},{"type":"Feature","id":"way/627327943-0-0-0","properties":{"highway":"motorway","lanes":"6","lit":"yes","maxspeed":"80","name":"Marina Coastal Expressway","name:ms":"Lebuhraya Pantai Marina","name:ta":"\u0bae\u0bb0\u0bbf\u0ba9\u0bbe \u0b95\u0bb0\u0bc8\u0baf\u0bcb\u0bb0 \u0bb5\u0bbf\u0bb0\u0bc8\u0bb5\u0bc1\u0b9a\u0bcd\u0b9a\u0bbe\u0bb2\u0bc8","name:zh":"\u6ee8\u6d77\u9ad8\u901f\u516c\u8def","oneway":"yes","ref":"MCE","ref:ta":"\u0b8e\u0bae\u0bcd\u0b9a\u0bbf\u0b87","short_name:ta":"\u0b8e\u0bae\u0bcd\u0b9a\u0bbf\u0b87","surface":"asphalt","turn:lanes":"left|left;through|through|through|through|through"},"geometry":{"type":"LineString","coordinates":[[103.854383,1.2721078],[103.8535343,1.2726697]]}},{"type":"Feature","id":"way/634864008-0-0-0","properties":{"highway":"secondary","lanes":"2","lit":"yes","maxspeed":"50","name":"Straits Boulevard","oneway":"yes","surface":"asphalt"},"geometry":{"type":"LineString","coordinates":[[103.8546804,1.272628],[103.8551389,1.2729834]]}},{"type":"Feature","id":"way/634864009-0-1-0","properties":{"highway":"secondary","lanes":"3","maxspeed":"50","name":"Straits Boulevard","oneway":"yes","surface":"asphalt","turn:lanes":"through|through|right"},"geometry":{"type":"LineString","coordinates":[[103.8509431,1.274384],[103.8516197,1.2741266]]}},{"type":"Feature","id":"way/634864009-0-2-0","properties":{"highway":"secondary","lanes":"3","maxspeed":"50","name":"Straits Boulevard","oneway":"yes","surface":"asphalt","turn:lanes":"through|through|right"},"geometry":{"type":"LineString","coordinates":[[103.8516197,1.2741266],[103.8520354,1.2739855]]}},{"type":"Feature","id":"way/634864009-0-3-0","properties":{"highway":"secondary","lanes":"3","maxspeed":"50","name":"Straits Boulevard","oneway":"yes","surface":"asphalt","turn:lanes":"through|through|right"},"geometry":{"type":"LineString","coordinates":[[103.8520354,1.2739855],[103.8522042,1.2739257]]}},{"type":"Feature","id":"way/649594111-0-0-0","properties":{"bridge":"viaduct","highway":"motorway","lanes":"5","layer":"1","lit":"yes","maxspeed":"80","name":"Marina Coastal Expressway","name:ms":"Lebuhraya Pantai Marina","name:ta":"\u0bae\u0bb0\u0bbf\u0ba9\u0bbe \u0b95\u0bb0\u0bc8\u0baf\u0bcb\u0bb0 \u0bb5\u0bbf\u0bb0\u0bc8\u0bb5\u0bc1\u0b9a\u0bcd\u0b9a\u0bbe\u0bb2\u0bc8","name:zh":"\u6ee8\u6d77\u9ad8\u901f\u516c\u8def","oneway":"yes","ref":"MCE","ref:ta":"\u0b8e\u0bae\u0bcd\u0b9a\u0bbf\u0b87","short_name:ta":"\u0b8e\u0bae\u0bcd\u0b9a\u0bbf\u0b87","surface":"asphalt","turn:lanes":"left|left|through|through|through"},"geometry":{"type":"LineString","coordinates":[[103.8525993,1.2732395],[103.8524071,1.2733244]]}},{"type":"Feature","id":"way/649594111-0-1-0","properties":{"bridge":"viaduct","highway":"motorway","lanes":"5","layer":"1","lit":"yes","maxspeed":"80","name":"Marina Coastal Expressway","name:ms":"Lebuhraya Pantai Marina","name:ta":"\u0bae\u0bb0\u0bbf\u0ba9\u0bbe \u0b95\u0bb0\u0bc8\u0baf\u0bcb\u0bb0 \u0bb5\u0bbf\u0bb0\u0bc8\u0bb5\u0bc1\u0b9a\u0bcd\u0b9a\u0bbe\u0bb2\u0bc8","name:zh":"\u6ee8\u6d77\u9ad8\u901f\u516c\u8def","oneway":"yes","ref":"MCE","ref:ta":"\u0b8e\u0bae\u0bcd\u0b9a\u0bbf\u0b87","short_name:ta":"\u0b8e\u0bae\u0bcd\u0b9a\u0bbf\u0b87","surface":"asphalt","turn:lanes":"left|left|through|through|through"},"geometry":{"type":"LineString","coordinates":[[103.8524071,1.2733244],[103.8521758,1.2733926]]}},{"type":"Feature","id":"way/649594111-0-2-0","properties":{"bridge":"viaduct","highway":"motorway","lanes":"5","layer":"1","lit":"yes","maxspeed":"80","name":"Marina Coastal Expressway","name:ms":"Lebuhraya Pantai Marina","name:ta":"\u0bae\u0bb0\u0bbf\u0ba9\u0bbe \u0b95\u0bb0\u0bc8\u0baf\u0bcb\u0bb0 \u0bb5\u0bbf\u0bb0\u0bc8\u0bb5\u0bc1\u0b9a\u0bcd\u0b9a\u0bbe\u0bb2\u0bc8","name:zh":"\u6ee8\u6d77\u9ad8\u901f\u516c\u8def","oneway":"yes","ref":"MCE","ref:ta":"\u0b8e\u0bae\u0bcd\u0b9a\u0bbf\u0b87","short_name:ta":"\u0b8e\u0bae\u0bcd\u0b9a\u0bbf\u0b87","surface":"asphalt","turn:lanes":"left|left|through|through|through"},"geometry":{"type":"LineString","coordinates":[[103.8521758,1.2733926],[103.8519238,1.2734686]]}},{"type":"Feature","id":"way/649594112-0-0-1","properties":{"highway":"motorway","lanes":"6","lit":"yes","maxspeed":"80","name":"Marina Coastal Expressway","name:ms":"Lebuhraya Pantai Marina","name:ta":"\u0bae\u0bb0\u0bbf\u0ba9\u0bbe \u0b95\u0bb0\u0bc8\u0baf\u0bcb\u0bb0 \u0bb5\u0bbf\u0bb0\u0bc8\u0bb5\u0bc1\u0b9a\u0bcd\u0b9a\u0bbe\u0bb2\u0bc8","name:zh":"\u6ee8\u6d77\u9ad8\u901f\u516c\u8def","oneway":"yes","ref":"MCE","ref:ta":"\u0b8e\u0bae\u0bcd\u0b9a\u0bbf\u0b87","short_name:ta":"\u0b8e\u0bae\u0bcd\u0b9a\u0bbf\u0b87","surface":"asphalt","toll":"yes"},"geometry":{"type":"LineString","coordinates":[[103.8555006,1.2713786],[103.854383,1.2721078]]}},{"type":"Feature","id":"way/649597125-0-0-0","properties":{"highway":"motorway","lanes":"6","lit":"yes","maxspeed":"80","name":"Marina Coastal Expressway","name:ms":"Lebuhraya Pantai Marina","name:ta":"\u0bae\u0bb0\u0bbf\u0ba9\u0bbe \u0b95\u0bb0\u0bc8\u0baf\u0bcb\u0bb0 \u0bb5\u0bbf\u0bb0\u0bc8\u0bb5\u0bc1\u0b9a\u0bcd\u0b9a\u0bbe\u0bb2\u0bc8","name:zh":"\u6ee8\u6d77\u9ad8\u901f\u516c\u8def","oneway":"yes","ref":"MCE","ref:ta":"\u0b8e\u0bae\u0bcd\u0b9a\u0bbf\u0b87","short_name:ta":"\u0b8e\u0bae\u0bcd\u0b9a\u0bbf\u0b87","surface":"asphalt","toll":"yes"},"geometry":{"type":"LineString","coordinates":[[103.8538209,1.2727429],[103.8547909,1.2721126]]}},{"type":"Feature","id":"way/700835843-0-0-0","properties":{"highway":"secondary","lanes":"2","lit":"yes","maxspeed":"50","name":"Straits Boulevard","note":"Approximate position - needs survey when complete","oneway":"yes","surface":"asphalt","turn:lanes":"through|through"},"geometry":{"type":"LineString","coordinates":[[103.854376,1.2726581],[103.8544953,1.2726279]]}},{"type":"Feature","id":"way/700835843-0-1-0","properties":{"highway":"secondary","lanes":"2","lit":"yes","maxspeed":"50","name":"Straits Boulevard","note":"Approximate position - needs survey when complete","oneway":"yes","surface":"asphalt","turn:lanes":"through|through"},"geometry":{"type":"LineString","coordinates":[[103.8544953,1.2726279],[103.8545646,1.2726217]]}},{"type":"Feature","id":"way/700835843-0-2-0","properties":{"highway":"secondary","lanes":"2","lit":"yes","maxspeed":"50","name":"Straits Boulevard","note":"Approximate position - needs survey when complete","oneway":"yes","surface":"asphalt","turn:lanes":"through|through"},"geometry":{"type":"LineString","coordinates":[[103.8545646,1.2726217],[103.8546034,1.2726224]]}},{"type":"Feature","id":"way/700835843-0-3-0","properties":{"highway":"secondary","lanes":"2","lit":"yes","maxspeed":"50","name":"Straits Boulevard","note":"Approximate position - needs survey when complete","oneway":"yes","surface":"asphalt","turn:lanes":"through|through"},"geometry":{"type":"LineString","coordinates":[[103.8546034,1.2726224],[103.8546804,1.272628]]}},{"type":"Feature","id":"way/1280746585-0-1-0","properties":{"highway":"secondary","lit":"yes","maxspeed":"50","name":"Park Street","oneway":"yes"},"geometry":{"type":"LineString","coordinates":[[103.8548567,1.2750422],[103.8559611,1.2743549]]}},{"type":"Feature","id":"way/1280746587-0-1-0","properties":{"highway":"secondary","lit":"yes","maxspeed":"50","name":"Park Street","oneway":"yes","proposed":"primary"},"geometry":{"type":"LineString","coordinates":[[103.8559067,1.274267],[103.8548123,1.2749653]]}},{"type":"Feature","id":"way/1280746587-0-2-0","properties":{"highway":"secondary","lit":"yes","maxspeed":"50","name":"Park Street","oneway":"yes","proposed":"primary"},"geometry":{"type":"LineString","coordinates":[[103.8548123,1.2749653],[103.8547625,1.2749971]]}},{"type":"Feature","id":"way/1331066373-0-0-0","properties":{"bridge":"viaduct","highway":"motorway","lanes":"6","layer":"1","lit":"yes","maxspeed":"80","name":"Marina Coastal Expressway","name:ms":"Lebuhraya Pantai Marina","name:ta":"\u0bae\u0bb0\u0bbf\u0ba9\u0bbe \u0b95\u0bb0\u0bc8\u0baf\u0bcb\u0bb0 \u0bb5\u0bbf\u0bb0\u0bc8\u0bb5\u0bc1\u0b9a\u0bcd\u0b9a\u0bbe\u0bb2\u0bc8","name:zh":"\u6ee8\u6d77\u9ad8\u901f\u516c\u8def","oneway":"yes","ref":"MCE","ref:ta":"\u0b8e\u0bae\u0bcd\u0b9a\u0bbf\u0b87","short_name:ta":"\u0b8e\u0bae\u0bcd\u0b9a\u0bbf\u0b87","surface":"asphalt","turn:lanes":"left|left;through|through|through|through|through"},"geometry":{"type":"LineString","coordinates":[[103.8535343,1.2726697],[103.8532475,1.2728596]]}},{"type":"Feature","id":"way/1331066373-0-1-0","properties":{"bridge":"viaduct","highway":"motorway","lanes":"6","layer":"1","lit":"yes","maxspeed":"80","name":"Marina Coastal Expressway","name:ms":"Lebuhraya Pantai Marina","name:ta":"\u0bae\u0bb0\u0bbf\u0ba9\u0bbe \u0b95\u0bb0\u0bc8\u0baf\u0bcb\u0bb0 \u0bb5\u0bbf\u0bb0\u0bc8\u0bb5\u0bc1\u0b9a\u0bcd\u0b9a\u0bbe\u0bb2\u0bc8","name:zh":"\u6ee8\u6d77\u9ad8\u901f\u516c\u8def","oneway":"yes","ref":"MCE","ref:ta":"\u0b8e\u0bae\u0bcd\u0b9a\u0bbf\u0b87","short_name:ta":"\u0b8e\u0bae\u0bcd\u0b9a\u0bbf\u0b87","surface":"asphalt","turn:lanes":"left|left;through|through|through|through|through"},"geometry":{"type":"LineString","coordinates":[[103.8532475,1.2728596],[103.8530199,1.2730183]]}},{"type":"Feature","id":"way/1331066374-0-0-0","properties":{"bridge":"viaduct","destination":"Shenton Way;Maxwell Road","highway":"motorway_link","lanes":"2","layer":"1","lit":"yes","maxspeed":"50","oneway":"yes","surface":"asphalt","toll":"yes","turn:lanes":"through|through"},"geometry":{"type":"LineString","coordinates":[[103.8530199,1.2730183],[103.852878,1.2730038]]}},{"type":"Feature","id":"way/1331066374-0-1-0","properties":{"bridge":"viaduct","destination":"Shenton Way;Maxwell Road","highway":"motorway_link","lanes":"2","layer":"1","lit":"yes","maxspeed":"50","oneway":"yes","surface":"asphalt","toll":"yes","turn:lanes":"through|through"},"geometry":{"type":"LineString","coordinates":[[103.852878,1.2730038],[103.8528216,1.2730124]]}},{"type":"Feature","id":"way/1331066374-0-2-0","properties":{"bridge":"viaduct","destination":"Shenton Way;Maxwell Road","highway":"motorway_link","lanes":"2","layer":"1","lit":"yes","maxspeed":"50","oneway":"yes","surface":"asphalt","toll":"yes","turn:lanes":"through|through"},"geometry":{"type":"LineString","coordinates":[[103.8528216,1.2730124],[103.8527063,1.2730493]]}},{"type":"Feature","id":"way/1331066374-0-3-0","properties":{"bridge":"viaduct","destination":"Shenton Way;Maxwell Road","highway":"motorway_link","lanes":"2","layer":"1","lit":"yes","maxspeed":"50","oneway":"yes","surface":"asphalt","toll":"yes","turn:lanes":"through|through"},"geometry":{"type":"LineString","coordinates":[[103.8527063,1.2730493],[103.8526243,1.2730787]]}},{"type":"Feature","id":"way/1331066374-0-4-0","properties":{"bridge":"viaduct","destination":"Shenton Way;Maxwell Road","highway":"motorway_link","lanes":"2","layer":"1","lit":"yes","maxspeed":"50","oneway":"yes","surface":"asphalt","toll":"yes","turn:lanes":"through|through"},"geometry":{"type":"LineString","coordinates":[[103.8526243,1.2730787],[103.8525411,1.2731075]]}},{"type":"Feature","id":"way/1331066374-0-5-0","properties":{"bridge":"viaduct","destination":"Shenton Way;Maxwell Road","highway":"motorway_link","lanes":"2","layer":"1","lit":"yes","maxspeed":"50","oneway":"yes","surface":"asphalt","toll":"yes","turn:lanes":"through|through"},"geometry":{"type":"LineString","coordinates":[[103.8525411,1.2731075],[103.852468,1.2731344]]}},{"type":"Feature","id":"way/1331066374-0-6-0","properties":{"bridge":"viaduct","destination":"Shenton Way;Maxwell Road","highway":"motorway_link","lanes":"2","layer":"1","lit":"yes","maxspeed":"50","oneway":"yes","surface":"asphalt","toll":"yes","turn:lanes":"through|through"},"geometry":{"type":"LineString","coordinates":[[103.852468,1.2731344],[103.8523041,1.2731844]]}},{"type":"Feature","id":"way/1331066374-0-7-0","properties":{"bridge":"viaduct","destination":"Shenton Way;Maxwell Road","highway":"motorway_link","lanes":"2","layer":"1","lit":"yes","maxspeed":"50","oneway":"yes","surface":"asphalt","toll":"yes","turn:lanes":"through|through"},"geometry":{"type":"LineString","coordinates":[[103.8523041,1.2731844],[103.8521214,1.2732266]]}},{"type":"Feature","id":"way/1331066374-0-8-0","properties":{"bridge":"viaduct","destination":"Shenton Way;Maxwell Road","highway":"motorway_link","lanes":"2","layer":"1","lit":"yes","maxspeed":"50","oneway":"yes","surface":"asphalt","toll":"yes","turn:lanes":"through|through"},"geometry":{"type":"LineString","coordinates":[[103.8521214,1.2732266],[103.8519278,1.2732562]]}},{"type":"Feature","id":"way/1331066374-0-9-0","properties":{"bridge":"viaduct","destination":"Shenton Way;Maxwell Road","highway":"motorway_link","lanes":"2","layer":"1","lit":"yes","maxspeed":"50","oneway":"yes","surface":"asphalt","toll":"yes","turn:lanes":"through|through"},"geometry":{"type":"LineString","coordinates":[[103.8519278,1.2732562],[103.8517435,1.2732703]]}},{"type":"Feature","id":"way/1331066374-0-10-0","properties":{"bridge":"viaduct","destination":"Shenton Way;Maxwell Road","highway":"motorway_link","lanes":"2","layer":"1","lit":"yes","maxspeed":"50","oneway":"yes","surface":"asphalt","toll":"yes","turn:lanes":"through|through"},"geometry":{"type":"LineString","coordinates":[[103.8517435,1.2732703],[103.8515886,1.2732735]]}}]}