{"type":"FeatureCollection","features":[{"type":"Feature","id":"way/122670665-0","properties":{"addr:housenumber":"27","building":"yes"},"geometry":{"type":"Polygon","coordinates":[[[103.9089473,1.3381802],[103.9090094,1.3381923],[103.9089929,1.3382768],[103.9092012,1.3383176],[103.9092179,1.3382323],[103.9092648,1.3382415],[103.9092849,1.338139],[103.9089675,1.3380769],[103.9089473,1.3381802]]]}},{"type":"Feature","id":"way/122670668-0","properties":{"addr:housenumber":"23","building":"yes"},"geometry":{"type":"Polygon","coordinates":[[[103.9085471,1.3381382],[103.908568,1.3380282],[103.9088031,1.3380728],[103.9087852,1.3381672],[103.9088691,1.3381831],[103.9089011,1.3380143],[103.9085042,1.3379391],[103.9084693,1.3381235],[103.9085471,1.3381382]]]}},{"type":"Feature","id":"way/122670669-0","properties":{"addr:housenumber":"25","building":"yes"},"geometry":{"type":"Polygon","coordinates":[[[103.9087631,1.3381985],[103.9087504,1.3382939],[103.9086939,1.3382864],[103.9087069,1.3381885],[103.9085662,1.3381698],[103.908554,1.3382614],[103.9086115,1.3382691],[103.9085988,1.338365],[103.9087891,1.3383903],[103.9088001,1.3383071],[103.9088675,1.3383161],[103.9088811,1.3382142],[103.9087631,1.3381985]]]}},{"type":"Feature","id":"way/122670670-0","properties":{"addr:housenumber":"29","building":"yes"},"geometry":{"type":"Polygon","coordinates":[[[103.9093285,1.3380121],[103.9092651,1.337999],[103.9092889,1.3378841],[103.9090518,1.3378349],[103.9090437,1.337874],[103.9090288,1.3379462],[103.90899,1.3379382],[103.9089627,1.3380702],[103.9093019,1.3381405],[103.9093285,1.3380121]]]}},{"type":"Feature","id":"way/122671872-0","properties":{"addr:housenumber":"23","amenity":"vehicle_inspection","building":"yes","name":"Vicom Kaki Bukit Inspection Ctr"},"geometry":{"type":"Polygon","coordinates":[[[103.9085117,1.338411],[103.9085116,1.3383356],[103.9082589,1.3383361],[103.9082581,1.3379883],[103.907693,1.3379895],[103.907694,1.3384128],[103.9085117,1.338411]]]}},{"type":"Feature","id":"way/256629849-0","properties":{"building":"industrial"},"geometry":{"type":"Polygon","coordinates":[[[103.9087048,1.3388119],[103.9079909,1.3395315],[103.9082408,1.3397792],[103.9089547,1.3390596],[103.9087048,1.3388119]]]}},{"type":"Feature","id":"way/256629852-0","properties":{"building":"yes","man_made":"water_tower"},"geometry":{"type":"Polygon","coordinates":[[[103.9079168,1.3392534],[103.9079046,1.3392736],[103.9079,1.3392967],[103.9079036,1.33932],[103.9079149,1.3393407],[103.9079326,1.3393563],[103.9079645,1.339366],[103.9079879,1.3393631],[103.9080089,1.3393523],[103.9080249,1.3393351],[103.9080347,1.3393105],[103.9080349,1.3392869],[103.908027,1.3392647],[103.9080119,1.3392465],[103.9079916,1.3392346],[103.9079684,1.3392303],[103.9079451,1.3392342],[103.9079168,1.3392534]]]}},{"type":"Feature","id":"way/256629853-0","properties":{"building":"industrial"},"geometry":{"type":"Polygon","coordinates":[[[103.908298,1.3398182],[103.9087749,1.3403069],[103.9094929,1.3396066],[103.909016,1.3391179],[103.908298,1.3398182]]]}},{"type":"Feature","id":"way/271380363-0","properties":{"building":"industrial"},"geometry":{"type":"Polygon","coordinates":[[[103.9079574,1.3389156],[103.908037,1.3388721],[103.9080153,1.3386298],[103.9074653,1.3386442],[103.9074653,1.3388432],[103.9074327,1.3388396],[103.9074327,1.33893],[103.9079574,1.3389156]]]}},{"type":"Feature","id":"way/453418226-0","properties":{"building":"yes"},"geometry":{"type":"Polygon","coordinates":[[[103.9052472,1.3406603],[103.9052526,1.3407756],[103.9055303,1.3407627],[103.905525,1.3406474],[103.9052472,1.3406603]]]}},{"type":"Feature","id":"way/453418227-0","properties":{"building":"yes"},"geometry":{"type":"Polygon","coordinates":[[[103.9065979,1.341354],[103.9060907,1.3413589],[103.9060934,1.3416324],[103.9066005,1.3416275],[103.9065979,1.341354]]]}},{"type":"Feature","id":"way/453418228-0","properties":{"building":"yes"},"geometry":{"type":"Polygon","coordinates":[[[103.9062201,1.3418543],[103.9059736,1.3418587],[103.9059745,1.3419088],[103.906221,1.3419043],[103.9062201,1.3418543]]]}},{"type":"Feature","id":"way/453418229-0","properties":{"building":"yes"},"geometry":{"type":"Polygon","coordinates":[[[103.9059447,1.3417052],[103.9059474,1.3418519],[103.906252,1.3418464],[103.9062499,1.3417312],[103.9060928,1.3417341],[103.9060923,1.3417025],[103.9059447,1.3417052]]]}},{"type":"Feature","id":"way/453503315-0","properties":{"building":"yes"},"geometry":{"type":"Polygon","coordinates":[[[103.9075109,1.3397692],[103.9075895,1.3397697],[103.9075903,1.3396464],[103.9075117,1.3396459],[103.9075109,1.3397692]]]}},{"type":"Feature","id":"way/453503316-0","properties":{"building":"yes"},"geometry":{"type":"Polygon","coordinates":[[[103.9075054,1.3395842],[103.9075895,1.3395847],[103.9075904,1.3394373],[103.9075063,1.3394368],[103.9075054,1.3395842]]]}},{"type":"Feature","id":"way/453503317-0","properties":{"building":"yes"},"geometry":{"type":"Polygon","coordinates":[[[103.9066937,1.3394221],[103.9066924,1.3396374],[103.9073226,1.3396413],[103.9073239,1.339426],[103.9066937,1.3394221]]]}},{"type":"Feature","id":"way/453503318-0","properties":{"building":"yes"},"geometry":{"type":"Polygon","coordinates":[[[103.9074851,1.3401956],[103.9074862,1.340023],[103.907444,1.3400227],[103.9074447,1.3399322],[103.9073743,1.3399316],[103.9073745,1.3398936],[103.9074297,1.3398939],[103.9074299,1.3398663],[103.9073747,1.3398659],[103.9073748,1.3398465],[103.9072461,1.3398457],[103.9068426,1.3398432],[103.9068423,1.3398849],[103.9068085,1.3398847],[103.9068076,1.340024],[103.9068293,1.3400241],[103.9068291,1.3400562],[103.906955,1.340057],[103.9069552,1.3400249],[103.907245,1.3400267],[103.907244,1.3401902],[103.9068946,1.340188],[103.9068948,1.3401586],[103.9068304,1.3401581],[103.9068302,1.3401892],[103.9068019,1.340189],[103.9068009,1.3403418],[103.90684,1.340342],[103.9068398,1.3403726],[103.9072428,1.3403751],[103.9072428,1.3403758],[103.9073638,1.3403766],[103.9073638,1.3403785],[103.9075006,1.3403793],[103.9075009,1.3403212],[103.9073718,1.3403204],[103.9073721,1.3402837],[103.9074419,1.3402842],[103.9074426,1.3401953],[103.9074851,1.3401956]]]}},{"type":"Feature","id":"way/453503319-0","properties":{"building":"yes"},"geometry":{"type":"Polygon","coordinates":[[[103.906778,1.3404279],[103.9067773,1.3405178],[103.9069839,1.3405194],[103.9069846,1.3404296],[103.906778,1.3404279]]]}},{"type":"Feature","id":"way/453503320-0","properties":{"building":"yes"},"geometry":{"type":"Polygon","coordinates":[[[103.9071769,1.3408169],[103.9073596,1.3408184],[103.9073605,1.3407152],[103.9071777,1.3407138],[103.9071769,1.3408169]]]}},{"type":"Feature","id":"way/453503321-0","properties":{"building":"yes"},"geometry":{"type":"Polygon","coordinates":[[[103.9083901,1.340569],[103.908391,1.3404509],[103.9083817,1.3404509],[103.908382,1.340392],[103.9079529,1.3403894],[103.9079525,1.3404475],[103.9077097,1.3404456],[103.9077088,1.3405636],[103.9083901,1.340569]]]}},{"type":"Feature","id":"way/453503322-0","properties":{"building":"yes"},"geometry":{"type":"Polygon","coordinates":[[[103.907652,1.340762],[103.9083709,1.3407647],[103.9083713,1.3406495],[103.9076525,1.3406468],[103.907652,1.340762]]]}},{"type":"Feature","id":"way/455261256-0","properties":{"building":"yes"},"geometry":{"type":"Polygon","coordinates":[[[103.9089926,1.3388893],[103.9090767,1.3388005],[103.9089875,1.338716],[103.9090145,1.3386874],[103.9089839,1.3386584],[103.9090265,1.3386134],[103.9089316,1.3385236],[103.9087779,1.3386861],[103.9089926,1.3388893]]]}},{"type":"Feature","id":"way/1004334184-0","properties":{"building":"yes","name":"8"},"geometry":{"type":"Polygon","coordinates":[[[103.9045845,1.3387864],[103.9046592,1.3387715],[103.9046705,1.3388068],[103.9047313,1.3387899],[103.90476,1.3388741],[103.9056873,1.3386846],[103.9057078,1.3387668],[103.9057142,1.3387923],[103.9057659,1.3388494],[103.9058561,1.3388731],[103.9059413,1.3388409],[103.9059812,1.3387831],[103.9059887,1.3387084],[103.905972,1.3386216],[103.9071279,1.338343],[103.9070619,1.3380874],[103.907233,1.3380484],[103.9071916,1.3378679],[103.9044855,1.3384854],[103.9045845,1.3387864]]]}},{"type":"Feature","id":"way/1004334185-0","properties":{"building":"yes","name":"10"},"geometry":{"type":"Polygon","coordinates":[[[103.9064759,1.3388892],[103.9071223,1.3387337],[103.907066,1.3384789],[103.9064196,1.3386478],[103.9064759,1.3388892]]]}},{"type":"Feature","id":"way/33281765-0-0-0","properties":{"expressway":"yes","highway":"trunk_link","lanes":"2","maxspeed":"50","name":"Kaki Bukit Avenue 4","oneway":"yes","surface":"asphalt","turn:lanes":"through|through;right"},"geometry":{"type":"LineString","coordinates":[[103.9051114,1.3391057],[103.9053728,1.3391076]]}},{"type":"Feature","id":"way/49834684-0-0-0","properties":{"expressway":"yes","highway":"trunk","lanes":"3","maxspeed":"70","name":"Bartley Road East","name:en":"Bartley Road East","name:zh":"\u5df4\u7279\u91cc\u4e1c\u8def","oneway":"yes","surface":"asphalt","turn:lanes":"through|through|through"},"geometry":{"type":"LineString","coordinates":[[103.905702,1.3378529],[103.9048641,1.3380437]]}},{"type":"Feature","id":"way/49834685-0-0-0","properties":{"expressway":"yes","highway":"trunk_link","lanes":"2","maxspeed":"50","name":"Kaki Bukit Avenue 4","oneway":"yes","surface":"asphalt"},"geometry":{"type":"LineString","coordinates":[[103.9053701,1.339042],[103.9052153,1.339046]]}},{"type":"Feature","id":"way/49834685-0-1-0","properties":{"expressway":"yes","highway":"trunk_link","lanes":"2","maxspeed":"50","name":"Kaki Bukit Avenue 4","oneway":"yes","surface":"asphalt"},"geometry":{"type":"LineString","coordinates":[[103.9052153,1.339046],[103.9049873,1.339046]]}},{"type":"Feature","id":"way/293116056-0-0-0","properties":{"highway":"service","lanes":"2","lanes:backward":"1","lanes:forward":"1","turn:lanes:backward":"through","turn:lanes:forward":"left;through;right"},"geometry":{"type":"LineString","coordinates":[[103.9076015,1.3392309],[103.9076271,1.3392572]]}},{"type":"Feature","id":"way/293116056-0-1-0","properties":{"highway":"service","lanes":"2","lanes:backward":"1","lanes:forward":"1","turn:lanes:backward":"through","turn:lanes:forward":"left;through;right"},"geometry":{"type":"LineString","coordinates":[[103.9076271,1.3392572],[103.9076445,1.3392765]]}},{"type":"Feature","id":"way/293116056-0-2-0","properties":{"highway":"service","lanes":"2","lanes:backward":"1","lanes:forward":"1","turn:lanes:backward":"through","turn:lanes:forward":"left;through;right"},"geometry":{"type":"LineString","coordinates":[[103.9076445,1.3392765],[103.9076622,1.3392971]]}},{"type":"Feature","id":"way/293116056-0-3-0","properties":{"highway":"service","lanes":"2","lanes:backward":"1","lanes:forward":"1","turn:lanes:backward":"through","turn:lanes:forward":"left;through;right"},"geometry":{"type":"LineString","coordinates":[[103.9076622,1.3392971],[103.9076685,1.3393212]]}},{"type":"Feature","id":"way/293116056-0-4-0","properties":{"highway":"service","lanes":"2","lanes:backward":"1","lanes:forward":"1","turn:lanes:backward":"through","turn:lanes:forward":"left;through;right"},"geometry":{"type":"LineString","coordinates":[[103.9076685,1.3393212],[103.9076775,1.3397982]]}},{"type":"Feature","id":"way/452358366-0-0-0","properties":{"highway":"service","lanes":"2","lanes:backward":"1","lanes:forward":"1","turn:lanes:forward":"left;right"},"geometry":{"type":"LineString","coordinates":[[103.9058686,1.3424188],[103.9052513,1.3418417]]}},{"type":"Feature","id":"way/452358366-0-1-0","properties":{"highway":"service","lanes":"2","lanes:backward":"1","lanes:forward":"1","turn:lanes:forward":"left;right"},"geometry":{"type":"LineString","coordinates":[[103.9052513,1.3418417],[103.9047953,1.3414958]]}},{"type":"Feature","id":"way/465523889-0-0-0","properties":{"highway":"unclassified","lanes":"2","maxspeed":"50","name":"Kaki Bukit Avenue 4","oneway":"yes","surface":"asphalt","turn:lanes":"through|through"},"geometry":{"type":"LineString","coordinates":[[103.9074223,1.3384473],[103.9074641,1.3382533]]}},{"type":"Feature","id":"way/465523889-0-1-0","properties":{"highway":"unclassified","lanes":"2","maxspeed":"50","name":"Kaki Bukit Avenue 4","oneway":"yes","surface":"asphalt","turn:lanes":"through|through"},"geometry":{"type":"LineString","coordinates":[[103.9074641,1.3382533],[103.9074854,1.338165]]}},{"type":"Feature","id":"way/526313804-0-0-0","properties":{"highway":"unclassified","maxspeed":"50","name":"Kaki Bukit Avenue 4","oneway":"yes","surface":"asphalt"},"geometry":{"type":"LineString","coordinates":[[103.9073248,1.3390856],[103.9073369,1.339028]]}},{"type":"Feature","id":"way/526313807-0-0-0","properties":{"highway":"unclassified","maxspeed":"50","name":"Kaki Bukit Avenue 4","oneway":"yes","surface":"asphalt"},"geometry":{"type":"LineString","coordinates":[[103.9072429,1.3390904],[103.9073248,1.3390856]]}},{"type":"Feature","id":"way/526313809-0-0-0","properties":{"highway":"unclassified","lanes":"2","maxspeed":"50","name":"Kaki Bukit Avenue 4","oneway":"yes","surface":"asphalt","turn:lanes":"left|left"},"geometry":{"type":"LineString","coordinates":[[103.907293,1.3387711],[103.9072175,1.3388597]]}},{"type":"Feature","id":"way/526313809-0-1-0","properties":{"highway":"unclassified","lanes":"2","maxspeed":"50","name":"Kaki Bukit Avenue 4","oneway":"yes","surface":"asphalt","turn:lanes":"left|left"},"geometry":{"type":"LineString","coordinates":[[103.9072175,1.3388597],[103.9071371,1.3389388]]}},{"type":"Feature","id":"way/526313809-0-2-0","properties":{"highway":"unclassified","lanes":"2","maxspeed":"50","name":"Kaki Bukit Avenue 4","oneway":"yes","surface":"asphalt","turn:lanes":"left|left"},"geometry":{"type":"LineString","coordinates":[[103.9071371,1.3389388],[103.9071243,1.3389465]]}},{"type":"Feature","id":"way/526313809-0-3-0","properties":{"highway":"unclassified","lanes":"2","maxspeed":"50","name":"Kaki Bukit Avenue 4","oneway":"yes","surface":"asphalt","turn:lanes":"left|left"},"geometry":{"type":"LineString","coordinates":[[103.9071243,1.3389465],[103.90707,1.338979]]}},{"type":"Feature","id":"way/526313809-0-4-0","properties":{"highway":"unclassified","lanes":"2","maxspeed":"50","name":"Kaki Bukit Avenue 4","oneway":"yes","surface":"asphalt","turn:lanes":"left|left"},"geometry":{"type":"LineString","coordinates":[[103.90707,1.338979],[103.9069627,1.3390273]]}},{"type":"Feature","id":"way/526328869-0-0-0","properties":{"highway":"service","lanes":"2","lanes:backward":"1","lanes:forward":"1","service":"parking_aisle"},"geometry":{"type":"LineString","coordinates":[[103.9074223,1.3384473],[103.9075019,1.3384479]]}},{"type":"Feature","id":"way/526328869-0-1-0","properties":{"highway":"service","lanes":"2","lanes:backward":"1","lanes:forward":"1","service":"parking_aisle"},"geometry":{"type":"LineString","coordinates":[[103.9075019,1.3384479],[103.9080524,1.338452]]}},{"type":"Feature","id":"way/526328869-0-2-0","properties":{"highway":"service","lanes":"2","lanes:backward":"1","lanes:forward":"1","service":"parking_aisle"},"geometry":{"type":"LineString","coordinates":[[103.9080524,1.338452],[103.9080926,1.3384605]]}},{"type":"Feature","id":"way/526328869-0-3-0","properties":{"highway":"service","lanes":"2","lanes:backward":"1","lanes:forward":"1","service":"parking_aisle"},"geometry":{"type":"LineString","coordinates":[[103.9080926,1.3384605],[103.9081191,1.3384762]]}},{"type":"Feature","id":"way/526328869-0-4-0","properties":{"highway":"service","lanes":"2","lanes:backward":"1","lanes:forward":"1","service":"parking_aisle"},"geometry":{"type":"LineString","coordinates":[[103.9081191,1.3384762],[103.9082228,1.3386488]]}},{"type":"Feature","id":"way/526328869-0-5-0","properties":{"highway":"service","lanes":"2","lanes:backward":"1","lanes:forward":"1","service":"parking_aisle"},"geometry":{"type":"LineString","coordinates":[[103.9082228,1.3386488],[103.9082336,1.3386614]]}},{"type":"Feature","id":"way/526328869-0-6-0","properties":{"highway":"service","lanes":"2","lanes:backward":"1","lanes:forward":"1","service":"parking_aisle"},"geometry":{"type":"LineString","coordinates":[[103.9082336,1.3386614],[103.9082463,1.3386655]]}},{"type":"Feature","id":"way/526328869-0-7-0","properties":{"highway":"service","lanes":"2","lanes:backward":"1","lanes:forward":"1","service":"parking_aisle"},"geometry":{"type":"LineString","coordinates":[[103.9082463,1.3386655],[103.9082615,1.3386639]]}},{"type":"Feature","id":"way/526328869-0-8-0","properties":{"highway":"service","lanes":"2","lanes:backward":"1","lanes:forward":"1","service":"parking_aisle"},"geometry":{"type":"LineString","coordinates":[[103.9082615,1.3386639],[103.9085204,1.3385171]]}},{"type":"Feature","id":"way/526328870-0-2-0","properties":{"highway":"service","oneway":"yes","service":"parking_aisle"},"geometry":{"type":"LineString","coordinates":[[103.9082395,1.3378917],[103.9082234,1.3379225]]}},{"type":"Feature","id":"way/526328870-0-3-0","properties":{"highway":"service","oneway":"yes","service":"parking_aisle"},"geometry":{"type":"LineString","coordinates":[[103.9082234,1.3379225],[103.9081912,1.3379346]]}},{"type":"Feature","id":"way/526328870-0-4-0","properties":{"highway":"service","oneway":"yes","service":"parking_aisle"},"geometry":{"type":"LineString","coordinates":[[103.9081912,1.3379346],[103.9077312,1.3379292]]}},{"type":"Feature","id":"way/526328870-0-5-0","properties":{"highway":"service","oneway":"yes","service":"parking_aisle"},"geometry":{"type":"LineString","coordinates":[[103.9077312,1.3379292],[103.9076976,1.337948]]}},{"type":"Feature","id":"way/526328870-0-6-0","properties":{"highway":"service","oneway":"yes","service":"parking_aisle"},"geometry":{"type":"LineString","coordinates":[[103.9076976,1.337948],[103.9076842,1.3379694]]}},{"type":"Feature","id":"way/526328870-0-7-0","properties":{"highway":"service","oneway":"yes","service":"parking_aisle"},"geometry":{"type":"LineString","coordinates":[[103.9076842,1.3379694],[103.907652,1.3381317]]}},{"type":"Feature","id":"way/526328870-0-8-0","properties":{"highway":"service","oneway":"yes","service":"parking_aisle"},"geometry":{"type":"LineString","coordinates":[[103.907652,1.3381317],[103.9076293,1.3381638]]}},{"type":"Feature","id":"way/526328870-0-9-0","properties":{"highway":"service","oneway":"yes","service":"parking_aisle"},"geometry":{"type":"LineString","coordinates":[[103.9076293,1.3381638],[103.9075917,1.3381732]]}},{"type":"Feature","id":"way/526328870-0-10-0","properties":{"highway":"service","oneway":"yes","service":"parking_aisle"},"geometry":{"type":"LineString","coordinates":[[103.9075917,1.3381732],[103.9075559,1.3381704]]}},{"type":"Feature","id":"way/526328870-0-11-0","properties":{"highway":"service","oneway":"yes","service":"parking_aisle"},"geometry":{"type":"LineString","coordinates":[[103.9075559,1.3381704],[103.9074854,1.338165]]}},{"type":"Feature","id":"way/541968308-0-0-0","properties":{"highway":"service"},"geometry":{"type":"LineString","coordinates":[[103.9062467,1.3386314],[103.9071612,1.3383971]]}},{"type":"Feature","id":"way/541968308-0-1-0","properties":{"highway":"service"},"geometry":{"type":"LineString","coordinates":[[103.9071612,1.3383971],[103.907188,1.338377]]}},{"type":"Feature","id":"way/541968308-0-2-0","properties":{"highway":"service"},"geometry":{"type":"LineString","coordinates":[[103.907188,1.338377],[103.9072122,1.3383354]]}},{"type":"Feature","id":"way/541968308-0-3-0","properties":{"highway":"service"},"geometry":{"type":"LineString","coordinates":[[103.9072122,1.3383354],[103.907298,1.3379118]]}},{"type":"Feature","id":"way/541968308-0-7-0","properties":{"highway":"service"},"geometry":{"type":"LineString","coordinates":[[103.9072242,1.3377992],[103.9058583,1.3381129]]}},{"type":"Feature","id":"way/541968308-0-7-1","properties":{"highway":"service"},"geometry":{"type":"LineString","coordinates":[[103.9058583,1.3381129],[103.9044924,1.3384266]]}},{"type":"Feature","id":"way/541968308-0-16-0","properties":{"highway":"service"},"geometry":{"type":"LineString","coordinates":[[103.9048666,1.3388932],[103.9051616,1.3388932]]}},{"type":"Feature","id":"way/541968308-0-17-0","properties":{"highway":"service"},"geometry":{"type":"LineString","coordinates":[[103.9051616,1.3388932],[103.9053681,1.3388449]]}},{"type":"Feature","id":"way/541968309-0-0-0","properties":{"highway":"service"},"geometry":{"type":"LineString","coordinates":[[103.9062943,1.3390245],[103.9062849,1.3389352]]}},{"type":"Feature","id":"way/541968309-0-1-0","properties":{"highway":"service"},"geometry":{"type":"LineString","coordinates":[[103.9062849,1.3389352],[103.9062707,1.3387993]]}},{"type":"Feature","id":"way/541968309-0-2-0","properties":{"highway":"service"},"geometry":{"type":"LineString","coordinates":[[103.9062707,1.3387993],[103.9062467,1.3386314]]}},{"type":"Feature","id":"way/541968310-0-0-0","properties":{"highway":"service","lanes":"2","lanes:backward":"1","lanes:forward":"1"},"geometry":{"type":"LineString","coordinates":[[103.9053681,1.3388449],[103.9053691,1.3389427]]}},{"type":"Feature","id":"way/541968310-0-1-0","properties":{"highway":"service","lanes":"2","lanes:backward":"1","lanes:forward":"1"},"geometry":{"type":"LineString","coordinates":[[103.9053691,1.3389427],[103.9053701,1.339042]]}},{"type":"Feature","id":"way/542300480-0-3-0","properties":{"highway":"service"},"geometry":{"type":"LineString","coordinates":[[103.9095591,1.3402701],[103.9090723,1.3408453]]}},{"type":"Feature","id":"way/542300480-0-4-0","properties":{"highway":"service"},"geometry":{"type":"LineString","coordinates":[[103.9090723,1.3408453],[103.9090669,1.3408761]]}},{"type":"Feature","id":"way/542300480-0-5-0","properties":{"highway":"service"},"geometry":{"type":"LineString","coordinates":[[103.9090669,1.3408761],[103.909079,1.3409097]]}},{"type":"Feature","id":"way/542300480-0-6-0","properties":{"highway":"service"},"geometry":{"type":"LineString","coordinates":[[103.909079,1.3409097],[103.9095403,1.3412851]]}},{"type":"Feature","id":"way/542310674-0-0-0","properties":{"highway":"service","service":"parking_aisle"},"geometry":{"type":"LineString","coordinates":[[103.9059211,1.3413736],[103.9060172,1.3413682]]}},{"type":"Feature","id":"way/542310674-0-1-0","properties":{"highway":"service","service":"parking_aisle"},"geometry":{"type":"LineString","coordinates":[[103.9060172,1.3413682],[103.9060628,1.3413655]]}},{"type":"Feature","id":"way/542310674-0-2-0","properties":{"highway":"service","service":"parking_aisle"},"geometry":{"type":"LineString","coordinates":[[103.9060628,1.3413655],[103.9060843,1.341328]]}},{"type":"Feature","id":"way/542310674-0-3-0","properties":{"highway":"service","service":"parking_aisle"},"geometry":{"type":"LineString","coordinates":[[103.9060843,1.341328],[103.9061192,1.3412824]]}},{"type":"Feature","id":"way/542310674-0-4-0","properties":{"highway":"service","service":"parking_aisle"},"geometry":{"type":"LineString","coordinates":[[103.9061192,1.3412824],[103.9066905,1.3412985]]}},{"type":"Feature","id":"way/542310675-0-0-0","properties":{"highway":"service","service":"parking_aisle"},"geometry":{"type":"LineString","coordinates":[[103.9059211,1.3413736],[103.905922,1.3415479]]}},{"type":"Feature","id":"way/542310675-0-1-0","properties":{"highway":"service","service":"parking_aisle"},"geometry":{"type":"LineString","coordinates":[[103.905922,1.3415479],[103.9059059,1.3415774]]}},{"type":"Feature","id":"way/542310675-0-2-0","properties":{"highway":"service","service":"parking_aisle"},"geometry":{"type":"LineString","coordinates":[[103.9059059,1.3415774],[103.905859,1.3415961]]}},{"type":"Feature","id":"way/542310675-0-3-0","properties":{"highway":"service","service":"parking_aisle"},"geometry":{"type":"LineString","coordinates":[[103.905859,1.3415961],[103.9058214,1.3415948]]}},{"type":"Feature","id":"way/542310675-0-4-0","properties":{"highway":"service","service":"parking_aisle"},"geometry":{"type":"LineString","coordinates":[[103.9058214,1.3415948],[103.9057893,1.3415841]]}},{"type":"Feature","id":"way/542310675-0-5-0","properties":{"highway":"service","service":"parking_aisle"},"geometry":{"type":"LineString","coordinates":[[103.9057893,1.3415841],[103.9057611,1.3415666]]}},{"type":"Feature","id":"way/542310675-0-6-0","properties":{"highway":"service","service":"parking_aisle"},"geometry":{"type":"LineString","coordinates":[[103.9057611,1.3415666],[103.9057101,1.3415452]]}},{"type":"Feature","id":"way/542310675-0-7-0","properties":{"highway":"service","service":"parking_aisle"},"geometry":{"type":"LineString","coordinates":[[103.9057101,1.3415452],[103.9054164,1.3415385]]}},{"type":"Feature","id":"way/598685711-0-0-0","properties":{"highway":"service","lanes":"1","oneway":"yes"},"geometry":{"type":"LineString","coordinates":[[103.9073248,1.3390856],[103.9074913,1.3390673]]}},{"type":"Feature","id":"way/598685712-0-0-0","properties":{"highway":"service","lanes":"1","oneway":"yes","turn:lanes":"left;through"},"geometry":{"type":"LineString","coordinates":[[103.9074913,1.3390673],[103.9073369,1.339028]]}},{"type":"Feature","id":"way/598685713-0-0-0","properties":{"highway":"unclassified","lanes":"2","maxspeed":"50","name":"Kaki Bukit Avenue 4","oneway":"yes","surface":"asphalt","turn:lanes":"left;through|through"},"geometry":{"type":"LineString","coordinates":[[103.9073369,1.339028],[103.9073415,1.338975]]}},{"type":"Feature","id":"way/598685713-0-1-0","properties":{"highway":"unclassified","lanes":"2","maxspeed":"50","name":"Kaki Bukit Avenue 4","oneway":"yes","surface":"asphalt","turn:lanes":"left;through|through"},"geometry":{"type":"LineString","coordinates":[[103.9073415,1.338975],[103.9073614,1.3387449]]}},{"type":"Feature","id":"way/598685714-0-0-0","properties":{"highway":"service"},"geometry":{"type":"LineString","coordinates":[[103.9076894,1.3405864],[103.9076963,1.3405986]]}},{"type":"Feature","id":"way/598685714-0-1-0","properties":{"highway":"service"},"geometry":{"type":"LineString","coordinates":[[103.9076963,1.3405986],[103.9077085,1.3406062]]}},{"type":"Feature","id":"way/598685714-0-2-0","properties":{"highway":"service"},"geometry":{"type":"LineString","coordinates":[[103.9077085,1.3406062],[103.9077258,1.3406067]]}},{"type":"Feature","id":"way/598685714-0-3-0","properties":{"highway":"service"},"geometry":{"type":"LineString","coordinates":[[103.9077258,1.3406067],[103.9084017,1.3406147]]}},{"type":"Feature","id":"way/598685715-0-0-0","properties":{"highway":"service"},"geometry":{"type":"LineString","coordinates":[[103.907686,1.3403448],[103.9083829,1.3403573]]}},{"type":"Feature","id":"way/598685717-0-0-0","properties":{"highway":"service"},"geometry":{"type":"LineString","coordinates":[[103.9076015,1.3392309],[103.907872,1.3390608]]}},{"type":"Feature","id":"way/598685717-0-1-0","properties":{"highway":"service"},"geometry":{"type":"LineString","coordinates":[[103.907872,1.3390608],[103.9085613,1.3386639]]}},{"type":"Feature","id":"way/598685717-0-2-0","properties":{"highway":"service"},"geometry":{"type":"LineString","coordinates":[[103.9085613,1.3386639],[103.9086927,1.3385848]]}},{"type":"Feature","id":"way/598685718-0-0-0","properties":{"highway":"unclassified","maxspeed":"50","name":"Kaki Bukit Avenue 4","oneway":"yes"},"geometry":{"type":"LineString","coordinates":[[103.9073369,1.339028],[103.907247,1.3390326]]}},{"type":"Feature","id":"way/634151613-0-0-0","properties":{"highway":"unclassified","lanes":"1","maxspeed":"50","name":"Kaki Bukit Avenue 4","oneway":"yes","surface":"asphalt"},"geometry":{"type":"LineString","coordinates":[[103.907247,1.3390326],[103.9069627,1.3390273]]}},{"type":"Feature","id":"way/635500755-0-0-0","properties":{"highway":"unclassified","lanes":"1","maxspeed":"50","name":"Kaki Bukit Avenue 4","oneway":"yes","surface":"asphalt","turn:lanes":"right"},"geometry":{"type":"LineString","coordinates":[[103.907293,1.3387711],[103.9072752,1.338865]]}},{"type":"Feature","id":"way/635500755-0-1-0","properties":{"highway":"unclassified","lanes":"1","maxspeed":"50","name":"Kaki Bukit Avenue 4","oneway":"yes","surface":"asphalt","turn:lanes":"right"},"geometry":{"type":"LineString","coordinates":[[103.9072752,1.338865],[103.9072591,1.3389763]]}},{"type":"Feature","id":"way/635500755-0-2-0","properties":{"highway":"unclassified","lanes":"1","maxspeed":"50","name":"Kaki Bukit Avenue 4","oneway":"yes","surface":"asphalt","turn:lanes":"right"},"geometry":{"type":"LineString","coordinates":[[103.9072591,1.3389763],[103.907247,1.3390326]]}},{"type":"Feature","id":"way/635746673-0-0-0","properties":{"highway":"unclassified","lanes":"2","maxspeed":"50","name":"Kaki Bukit Avenue 4","oneway":"yes","surface":"asphalt"},"geometry":{"type":"LineString","coordinates":[[103.9073614,1.3387449],[103.9074223,1.3384473]]}},{"type":"Feature","id":"way/644819977-0-0-0","properties":{"highway":"service","lanes":"2","lanes:backward":"1","lanes:forward":"1"},"geometry":{"type":"LineString","coordinates":[[103.9059194,1.3410435],[103.9056859,1.3410701]]}},{"type":"Feature","id":"way/644819977-0-1-0","properties":{"highway":"service","lanes":"2","lanes:backward":"1","lanes:forward":"1"},"geometry":{"type":"LineString","coordinates":[[103.9056859,1.3410701],[103.9054443,1.3410747]]}},{"type":"Feature","id":"way/644819977-0-2-0","properties":{"highway":"service","lanes":"2","lanes:backward":"1","lanes:forward":"1"},"geometry":{"type":"LineString","coordinates":[[103.9054443,1.3410747],[103.9053997,1.3410724]]}},{"type":"Feature","id":"way/644819977-0-3-0","properties":{"highway":"service","lanes":"2","lanes:backward":"1","lanes:forward":"1"},"geometry":{"type":"LineString","coordinates":[[103.9053997,1.3410724],[103.905156,1.34106]]}},{"type":"Feature","id":"way/644819977-0-4-0","properties":{"highway":"service","lanes":"2","lanes:backward":"1","lanes:forward":"1"},"geometry":{"type":"LineString","coordinates":[[103.905156,1.34106],[103.9049187,1.341056]]}},{"type":"Feature","id":"way/644819978-0-23-0","properties":{"highway":"service","lanes":"2","lanes:backward":"1","lanes:forward":"1"},"geometry":{"type":"LineString","coordinates":[[103.9094463,1.3418712],[103.9090707,1.3415789]]}},{"type":"Feature","id":"way/644819978-0-24-0","properties":{"highway":"service","lanes":"2","lanes:backward":"1","lanes:forward":"1"},"geometry":{"type":"LineString","coordinates":[[103.9090707,1.3415789],[103.9088267,1.3413859]]}},{"type":"Feature","id":"way/644819978-0-25-0","properties":{"highway":"service","lanes":"2","lanes:backward":"1","lanes:forward":"1"},"geometry":{"type":"LineString","coordinates":[[103.9088267,1.3413859],[103.9085236,1.3412035]]}},{"type":"Feature","id":"way/644819978-0-26-0","properties":{"highway":"service","lanes":"2","lanes:backward":"1","lanes:forward":"1"},"geometry":{"type":"LineString","coordinates":[[103.9085236,1.3412035],[103.9083519,1.3411258]]}},{"type":"Feature","id":"way/644819978-0-27-0","properties":{"highway":"service","lanes":"2","lanes:backward":"1","lanes:forward":"1"},"geometry":{"type":"LineString","coordinates":[[103.9083519,1.3411258],[103.908199,1.3410721]]}},{"type":"Feature","id":"way/644819978-0-28-0","properties":{"highway":"service","lanes":"2","lanes:backward":"1","lanes:forward":"1"},"geometry":{"type":"LineString","coordinates":[[103.908199,1.3410721],[103.9079415,1.3410158]]}},{"type":"Feature","id":"way/644819978-0-29-0","properties":{"highway":"service","lanes":"2","lanes:backward":"1","lanes:forward":"1"},"geometry":{"type":"LineString","coordinates":[[103.9079415,1.3410158],[103.9076331,1.3409917]]}},{"type":"Feature","id":"way/644819978-0-30-0","properties":{"highway":"service","lanes":"2","lanes:backward":"1","lanes:forward":"1"},"geometry":{"type":"LineString","coordinates":[[103.9076331,1.3409917],[103.906925,1.3410132]]}},{"type":"Feature","id":"way/644819978-0-31-0","properties":{"highway":"service","lanes":"2","lanes:backward":"1","lanes:forward":"1"},"geometry":{"type":"LineString","coordinates":[[103.906925,1.3410132],[103.9059194,1.3410435]]}},{"type":"Feature","id":"way/646400606-0-0-0","properties":{"highway":"service","service":"parking_aisle"},"geometry":{"type":"LineString","coordinates":[[103.9053534,1.3413722],[103.9059211,1.3413736]]}},{"type":"Feature","id":"way/646400607-0-0-0","properties":{"highway":"service","service":"parking_aisle"},"geometry":{"type":"LineString","coordinates":[[103.9059194,1.3410435],[103.9059211,1.3413736]]}},{"type":"Feature","id":"way/646476797-0-0-0","properties":{"highway":"service"},"geometry":{"type":"LineString","coordinates":[[103.9076838,1.3404006],[103.9069305,1.3403895]]}},{"type":"Feature","id":"way/646476799-0-0-0","properties":{"highway":"service"},"geometry":{"type":"LineString","coordinates":[[103.907686,1.3403448],[103.9076838,1.3404006]]}},{"type":"Feature","id":"way/646666893-0-0-0","properties":{"highway":"service","lanes":"2","lanes:backward":"1","lanes:forward":"1"},"geometry":{"type":"LineString","coordinates":[[103.9053681,1.3388449],[103.9057078,1.3387668]]}},{"type":"Feature","id":"way/646666894-0-0-0","properties":{"highway":"service"},"geometry":{"type":"LineString","coordinates":[[103.9062467,1.3386314],[103.9062345,1.338562]]}},{"type":"Feature","id":"way/646668423-0-0-0","properties":{"highway":"unclassified","lanes":"2","maxspeed":"50","name":"Kaki Bukit Avenue 4","oneway":"yes","parking:condition:left:vehicles":"motorcar","parking:lane:left":"parallel","surface":"asphalt"},"geometry":{"type":"LineString","coordinates":[[103.9062943,1.3390245],[103.9060548,1.3390326]]}},{"type":"Feature","id":"way/646668423-0-1-0","properties":{"highway":"unclassified","lanes":"2","maxspeed":"50","name":"Kaki Bukit Avenue 4","oneway":"yes","parking:condition:left:vehicles":"motorcar","parking:lane:left":"parallel","surface":"asphalt"},"geometry":{"type":"LineString","coordinates":[[103.9060548,1.3390326],[103.9057357,1.3390293]]}},{"type":"Feature","id":"way/646668424-0-0-0","properties":{"highway":"unclassified","lanes":"2","maxspeed":"50","name":"Kaki Bukit Avenue 4","oneway":"yes","surface":"asphalt"},"geometry":{"type":"LineString","coordinates":[[103.9069627,1.3390273],[103.9069503,1.3390263]]}},{"type":"Feature","id":"way/646668424-0-1-0","properties":{"highway":"unclassified","lanes":"2","maxspeed":"50","name":"Kaki Bukit Avenue 4","oneway":"yes","surface":"asphalt"},"geometry":{"type":"LineString","coordinates":[[103.9069503,1.3390263],[103.9067032,1.3390293]]}},{"type":"Feature","id":"way/646668425-0-0-0","properties":{"highway":"unclassified","lanes":"2","maxspeed":"50","name":"Kaki Bukit Avenue 4","oneway":"yes","surface":"asphalt"},"geometry":{"type":"LineString","coordinates":[[103.9062975,1.3391049],[103.9068702,1.3391104]]}},{"type":"Feature","id":"way/646668426-0-0-0","properties":{"highway":"unclassified","lanes":"2","maxspeed":"50","name":"Kaki Bukit Avenue 4","oneway":"yes","surface":"asphalt","turn:lanes":"through|through;right"},"geometry":{"type":"LineString","coordinates":[[103.9060722,1.3391064],[103.9062975,1.3391049]]}},{"type":"Feature","id":"way/646668427-0-0-0","properties":{"highway":"service"},"geometry":{"type":"LineString","coordinates":[[103.9062975,1.3391049],[103.9062943,1.3390245]]}},{"type":"Feature","id":"way/646668954-0-0-0","properties":{"highway":"service"},"geometry":{"type":"LineString","coordinates":[[103.9053701,1.339042],[103.9053728,1.3391076]]}},{"type":"Feature","id":"way/646872965-0-0-0","properties":{"highway":"service","lanes":"2","lanes:backward":"1","lanes:forward":"1"},"geometry":{"type":"LineString","coordinates":[[103.9075634,1.3391073],[103.9075737,1.3391273]]}},{"type":"Feature","id":"way/646872965-0-1-0","properties":{"highway":"service","lanes":"2","lanes:backward":"1","lanes:forward":"1"},"geometry":{"type":"LineString","coordinates":[[103.9075737,1.3391273],[103.9075863,1.3391613]]}},{"type":"Feature","id":"way/646872965-0-2-0","properties":{"highway":"service","lanes":"2","lanes:backward":"1","lanes:forward":"1"},"geometry":{"type":"LineString","coordinates":[[103.9075863,1.3391613],[103.9076015,1.3392309]]}},{"type":"Feature","id":"way/652181494-0-1-0","properties":{"expressway":"yes","highway":"trunk","lanes":"4","maxspeed":"70","name":"Bartley Road East","name:en":"Bartley Road East","name:zh":"\u5df4\u7279\u91cc\u4e1c\u8def","oneway":"yes","surface":"asphalt"},"geometry":{"type":"LineString","coordinates":[[103.904884,1.3381764],[103.9056839,1.3379924]]}},{"type":"Feature","id":"way/652181494-0-1-1","properties":{"expressway":"yes","highway":"trunk","lanes":"4","maxspeed":"70","name":"Bartley Road East","name:en":"Bartley Road East","name:zh":"\u5df4\u7279\u91cc\u4e1c\u8def","oneway":"yes","surface":"asphalt"},"geometry":{"type":"LineString","coordinates":[[103.9056839,1.3379924],[103.9064839,1.3378085]]}},{"type":"Feature","id":"way/665511733-0-0-0","properties":{"highway":"service","lanes":"2","lanes:backward":"1","lanes:forward":"1","parking:condition:right:vehicles":"motorcar","parking:lane:right":"parallel"},"geometry":{"type":"LineString","coordinates":[[103.9074913,1.3390673],[103.907526,1.3390759]]}},{"type":"Feature","id":"way/665511733-0-1-0","properties":{"highway":"service","lanes":"2","lanes:backward":"1","lanes:forward":"1","parking:condition:right:vehicles":"motorcar","parking:lane:right":"parallel"},"geometry":{"type":"LineString","coordinates":[[103.907526,1.3390759],[103.9075634,1.3391073]]}},{"type":"Feature","id":"way/665511734-0-0-0","properties":{"highway":"unclassified","lanes":"2","maxspeed":"50","name":"Kaki Bukit Avenue 4","oneway":"yes","parking:condition:left:vehicles":"motorcar","parking:lane:left":"parallel","surface":"asphalt"},"geometry":{"type":"LineString","coordinates":[[103.9067032,1.3390293],[103.9065376,1.3390266]]}},{"type":"Feature","id":"way/665511735-0-0-0","properties":{"highway":"unclassified","lanes":"2","maxspeed":"50","name":"Kaki Bukit Avenue 4","oneway":"yes","surface":"asphalt","turn:lanes":"left;through|through"},"geometry":{"type":"LineString","coordinates":[[103.9065376,1.3390266],[103.9062943,1.3390245]]}},{"type":"Feature","id":"way/711926831-0-3-0","properties":{"expressway":"yes","highway":"trunk_link","lanes":"2","maxspeed":"50","name":"Kaki Bukit Avenue 4","oneway":"yes","surface":"asphalt"},"geometry":{"type":"LineString","coordinates":[[103.9048009,1.3391077],[103.9051114,1.3391057]]}},{"type":"Feature","id":"way/711929672-0-0-0","properties":{"highway":"unclassified","lanes":"2","maxspeed":"50","name":"Kaki Bukit Avenue 4","oneway":"yes","surface":"asphalt","turn:lanes":"left;through|right"},"geometry":{"type":"LineString","coordinates":[[103.9068702,1.3391104],[103.9072429,1.3390904]]}},{"type":"Feature","id":"way/711929673-0-0-0","properties":{"highway":"unclassified","maxspeed":"50","name":"Kaki Bukit Avenue 4","oneway":"yes"},"geometry":{"type":"LineString","coordinates":[[103.907247,1.3390326],[103.9072429,1.3390904]]}},{"type":"Feature","id":"way/711929674-0-0-0","properties":{"highway":"unclassified","lanes":"2","maxspeed":"50","name":"Kaki Bukit Avenue 4","oneway":"yes","surface":"asphalt"},"geometry":{"type":"LineString","coordinates":[[103.9053728,1.3391076],[103.9057678,1.339101]]}},{"type":"Feature","id":"way/711929674-0-1-0","properties":{"highway":"unclassified","lanes":"2","maxspeed":"50","name":"Kaki Bukit Avenue 4","oneway":"yes","surface":"asphalt"},"geometry":{"type":"LineString","coordinates":[[103.9057678,1.339101],[103.9060722,1.3391064]]}},{"type":"Feature","id":"way/711931525-0-0-0","properties":{"highway":"unclassified","lanes":"2","maxspeed":"50","name":"Kaki Bukit Avenue 4","oneway":"yes","surface":"asphalt","turn:lanes":"left;through|right"},"geometry":{"type":"LineString","coordinates":[[103.9074854,1.338165],[103.9075748,1.3378073]]}},{"type":"Feature","id":"way/711936176-0-0-0","properties":{"highway":"service"},"geometry":{"type":"LineString","coordinates":[[103.9073707,1.3384354],[103.9074223,1.3384473]]}},{"type":"Feature","id":"way/711936177-0-0-0","properties":{"highway":"service"},"geometry":{"type":"LineString","coordinates":[[103.9074398,1.3381572],[103.9074854,1.338165]]}},{"type":"Feature","id":"way/711936178-0-0-0","properties":{"highway":"unclassified","lanes":"2","maxspeed":"50","name":"Kaki Bukit Avenue 4","oneway":"yes","surface":"asphalt","turn:lanes":"left|left;through"},"geometry":{"type":"LineString","coordinates":[[103.907513,1.3378031],[103.9074616,1.3380713]]}},{"type":"Feature","id":"way/711936178-0-1-0","properties":{"highway":"unclassified","lanes":"2","maxspeed":"50","name":"Kaki Bukit Avenue 4","oneway":"yes","surface":"asphalt","turn:lanes":"left|left;through"},"geometry":{"type":"LineString","coordinates":[[103.9074616,1.3380713],[103.9074398,1.3381572]]}},{"type":"Feature","id":"way/711940768-0-0-0","properties":{"highway":"unclassified","lanes":"2","maxspeed":"50","name":"Kaki Bukit Avenue 4","oneway":"yes","surface":"asphalt","turn:lanes":"left|left;through;right"},"geometry":{"type":"LineString","coordinates":[[103.9074398,1.3381572],[103.9074241,1.3382148]]}},{"type":"Feature","id":"way/711940768-0-1-0","properties":{"highway":"unclassified","lanes":"2","maxspeed":"50","name":"Kaki Bukit Avenue 4","oneway":"yes","surface":"asphalt","turn:lanes":"left|left;through;right"},"geometry":{"type":"LineString","coordinates":[[103.9074241,1.3382148],[103.9074053,1.3382939]]}},{"type":"Feature","id":"way/711940768-0-2-0","properties":{"highway":"unclassified","lanes":"2","maxspeed":"50","name":"Kaki Bukit Avenue 4","oneway":"yes","surface":"asphalt","turn:lanes":"left|left;through;right"},"geometry":{"type":"LineString","coordinates":[[103.9074053,1.3382939],[103.9073707,1.3384354]]}},{"type":"Feature","id":"way/711941030-0-0-0","properties":{"highway":"unclassified","lanes":"2","maxspeed":"50","name":"Kaki Bukit Avenue 4","oneway":"yes","surface":"asphalt"},"geometry":{"type":"LineString","coordinates":[[103.9073707,1.3384354],[103.9073154,1.3386612]]}},{"type":"Feature","id":"way/711941030-0-1-0","properties":{"highway":"unclassified","lanes":"2","maxspeed":"50","name":"Kaki Bukit Avenue 4","oneway":"yes","surface":"asphalt"},"geometry":{"type":"LineString","coordinates":[[103.9073154,1.3386612],[103.907293,1.3387711]]}},{"type":"Feature","id":"way/711953043-0-0-0","properties":{"highway":"unclassified","lanes":"2","maxspeed":"50","name":"Kaki Bukit Avenue 4","oneway":"yes","parking:condition:left:vehicles":"motorcar","parking:lane:left":"parallel","surface":"asphalt","turn:lanes":"left;through|through"},"geometry":{"type":"LineString","coordinates":[[103.9057357,1.3390293],[103.9055452,1.339038]]}},{"type":"Feature","id":"way/711953043-0-1-0","properties":{"highway":"unclassified","lanes":"2","maxspeed":"50","name":"Kaki Bukit Avenue 4","oneway":"yes","parking:condition:left:vehicles":"motorcar","parking:lane:left":"parallel","surface":"asphalt","turn:lanes":"left;through|through"},"geometry":{"type":"LineString","coordinates":[[103.9055452,1.339038],[103.9053701,1.339042]]}},{"type":"Feature","id":"way/751787337-0-0-0","properties":{"highway":"service","lanes":"2","lanes:backward":"1","lanes:forward":"1"},"geometry":{"type":"LineString","coordinates":[[103.9076838,1.3404006],[103.9076894,1.3405864]]}},{"type":"Feature","id":"way/751787338-0-0-0","properties":{"highway":"service","lanes":"2","lanes:backward":"1","lanes:forward":"1"},"geometry":{"type":"LineString","coordinates":[[103.9076775,1.3397982],[103.907686,1.3403448]]}},{"type":"Feature","id":"way/1144990032-0-0-0","properties":{"highway":"service","service":"driveway"},"geometry":{"type":"LineString","coordinates":[[103.9053997,1.3410724],[103.9053971,1.3408027]]}},{"type":"Feature","id":"way/1300867807-0-0-0","properties":{"highway":"service","lanes":"2","lanes:backward":"1","lanes:forward":"1"},"geometry":{"type":"LineString","coordinates":[[103.9059887,1.3387084],[103.9061742,1.3386519]]}},{"type":"Feature","id":"way/1300867808-0-0-0","properties":{"covered":"yes","highway":"service","lanes":"2","lanes:backward":"1","lanes:forward":"1"},"geometry":{"type":"LineString","coordinates":[[103.9057078,1.3387668],[103.9059887,1.3387084]]}},{"type":"Feature","id":"way/1486769762-0-0-0","properties":{"highway":"service","layer":"-1","oneway":"yes"},"geometry":{"type":"LineString","coordinates":[[103.9076775,1.3397982],[103.9068215,1.3398147]]}},{"type":"Feature","id":"way/1486769762-0-1-0","properties":{"highway":"service","layer":"-1","oneway":"yes"},"geometry":{"type":"LineString","coordinates":[[103.9068215,1.3398147],[103.906828,1.3403875]]}},{"type":"Feature","id":"way/1486769762-0-2-0","properties":{"highway":"service","layer":"-1","oneway":"yes"},"geometry":{"type":"LineString","coordinates":[[103.906828,1.3403875],[103.9069305,1.3403895]]}}]}