{"type":"FeatureCollection","features":[{"type":"Feature","id":"way/299569766-0","properties":{"building":"yes"},"geometry":{"type":"Polygon","coordinates":[[[103.9081031,1.4206226],[103.9081028,1.4206025],[103.908034,1.4206037],[103.9080365,1.4207488],[103.9080108,1.4207492],[103.9080114,1.4207866],[103.9081337,1.4207845],[103.9081331,1.4207491],[103.9083047,1.4207462],[103.9083027,1.4206193],[103.9081031,1.4206226]]]}},{"type":"Feature","id":"way/299569767-0","properties":{"building":"yes"},"geometry":{"type":"Polygon","coordinates":[[[103.9081358,1.4202292],[103.9081766,1.4202201],[103.9081471,1.4200885],[103.9081063,1.4200976],[103.9081358,1.4202292]]]}},{"type":"Feature","id":"way/299569772-0","properties":{"building":"yes"},"geometry":{"type":"Polygon","coordinates":[[[103.9079826,1.4201846],[103.908007,1.420231],[103.9078673,1.4203046],[103.907842,1.4202565],[103.9076928,1.420335],[103.9077573,1.4204574],[103.907975,1.4203428],[103.9079447,1.4202852],[103.9079689,1.4202725],[103.907987,1.4203067],[103.9080844,1.4202554],[103.9080331,1.420158],[103.9079826,1.4201846]]]}},{"type":"Feature","id":"way/397596111-0","properties":{"building:colour":"#7cc8ee","building:levels":"12","building:part":"yes","layer":"1","roof:material":"grass"},"geometry":{"type":"Polygon","coordinates":[[[103.9052107,1.4200408],[103.905211,1.420176],[103.9053099,1.4201758],[103.9053095,1.4199318],[103.9052569,1.4199319],[103.9052569,1.4199376],[103.9052391,1.4199376],[103.905239,1.4199668],[103.905213,1.4199667],[103.9052128,1.4200118],[103.9051595,1.4200116],[103.9051597,1.4200409],[103.9052107,1.4200408]]]}},{"type":"Feature","id":"way/397596113-0","properties":{"building:colour":"#7cc8ee","building:levels":"8","building:part":"yes","roof:material":"grass"},"geometry":{"type":"Polygon","coordinates":[[[103.9051474,1.419179],[103.9051677,1.4191168],[103.9050616,1.4190897],[103.9050435,1.4191537],[103.9050648,1.4191614],[103.9050631,1.4191725],[103.9050185,1.4191651],[103.9050279,1.4190925],[103.9049223,1.4190725],[103.9049092,1.4191467],[103.9049223,1.4191491],[103.9049076,1.4192321],[103.904962,1.4192409],[103.9049636,1.4192321],[103.9049823,1.4192353],[103.9049816,1.419244],[103.9050352,1.4192526],[103.905045,1.4191908],[103.9050844,1.4191984],[103.9050871,1.4191845],[103.905154,1.419204],[103.9051603,1.4191828],[103.9051474,1.419179]]]}},{"type":"Feature","id":"way/397596115-0","properties":{"building:colour":"#7cc8ee","building:levels":"18","building:part":"yes","roof:material":"grass"},"geometry":{"type":"Polygon","coordinates":[[[103.9051077,1.4200119],[103.904959,1.4200133],[103.9049593,1.4200409],[103.9049795,1.4200408],[103.9049796,1.4200575],[103.9049486,1.4200578],[103.9049488,1.420073],[103.9049387,1.420073],[103.904939,1.4201325],[103.905199,1.420131],[103.9051987,1.4200736],[103.9051831,1.4200736],[103.905183,1.420054],[103.9051597,1.4200541],[103.9051597,1.4200409],[103.9051595,1.4200116],[103.9051381,1.4200115],[103.9051384,1.4199339],[103.905107,1.4199339],[103.9051077,1.4200119]]]}},{"type":"Feature","id":"way/397596119-0","properties":{"building:colour":"#7cc8ee","building:levels":"26","building:part":"yes"},"geometry":{"type":"Polygon","coordinates":[[[103.9051386,1.4198932],[103.9051472,1.4198932],[103.905147,1.4199277],[103.905221,1.4199281],[103.9052222,1.4196868],[103.9051748,1.4196866],[103.9051748,1.4196981],[103.9051588,1.4196981],[103.9051587,1.4197298],[103.9051371,1.4197298],[103.905137,1.4197816],[103.9051243,1.4197816],[103.9051243,1.4198115],[103.9050928,1.4198115],[103.9050929,1.4198674],[103.9050768,1.4198674],[103.9050767,1.4198503],[103.9050385,1.4198503],[103.9050386,1.4198755],[103.9050094,1.4198756],[103.9049936,1.4198663],[103.9049669,1.4198507],[103.9050013,1.4197921],[103.9049554,1.4197652],[103.9049627,1.4197527],[103.9048865,1.4197079],[103.9048579,1.4197565],[103.9048667,1.4197617],[103.9048585,1.4197756],[103.9048831,1.4197901],[103.9048728,1.4198074],[103.9049002,1.4198236],[103.9048945,1.4198333],[103.9048603,1.419813],[103.9048489,1.4198323],[103.9048214,1.419816],[103.9048131,1.4198298],[103.9048047,1.4198247],[103.9047799,1.4198662],[103.9049971,1.4199957],[103.9050221,1.4199537],[103.9050171,1.4199507],[103.905024,1.4199391],[103.9050021,1.419926],[103.9050116,1.4199101],[103.905042,1.4199098],[103.9050422,1.4199345],[103.905107,1.4199339],[103.9051384,1.4199339],[103.9051386,1.4198932]]]}},{"type":"Feature","id":"way/397596120-0","properties":{"building:colour":"#7cc8ee","building:levels":"26","building:part":"yes"},"geometry":{"type":"Polygon","coordinates":[[[103.9051896,1.4192134],[103.9051641,1.4192585],[103.9051398,1.4192447],[103.9051278,1.419266],[103.9051436,1.4192749],[103.905137,1.4192865],[103.9051112,1.4192719],[103.9051015,1.4192892],[103.9050813,1.4192778],[103.9050414,1.4193485],[103.9051609,1.419416],[103.9051972,1.4193515],[103.9052218,1.4193654],[103.9052285,1.4193777],[103.9052091,1.4193897],[103.9052119,1.4193945],[103.9051891,1.4194082],[103.9052008,1.4194283],[103.9051788,1.4194411],[103.9051977,1.4194752],[103.9052075,1.4194927],[103.9052579,1.419465],[103.9052526,1.4194559],[103.9053049,1.4194254],[103.9053112,1.4194358],[103.9053621,1.4194079],[103.9053494,1.419386],[103.9053302,1.419353],[103.905307,1.4193665],[103.9052954,1.4193445],[103.9052681,1.4193608],[103.9052649,1.4193552],[103.9052479,1.4193657],[103.9052448,1.4193584],[103.905231,1.4193401],[103.9051905,1.4193195],[103.9052244,1.4192593],[103.9052006,1.4192459],[103.9052125,1.4192249],[103.9053055,1.419317],[103.9053167,1.4193057],[103.9053344,1.4193232],[103.905394,1.4192631],[103.9053112,1.4191812],[103.9052585,1.4192345],[103.9052405,1.4192167],[103.9052727,1.419184],[103.9052571,1.4191692],[103.9052779,1.4191497],[103.9052391,1.4191094],[103.9052283,1.4191194],[103.9051782,1.419166],[103.9051924,1.4191786],[103.9051844,1.4191898],[103.9051603,1.4191828],[103.905154,1.419204],[103.9051896,1.4192134]]]}},{"type":"Feature","id":"way/397596123-0","properties":{"addr:city":"Singapore","addr:country":"SG","addr:housenumber":"421C","addr:neighbourhood":"Northshore Straits View","addr:postcode":"823421","addr:street":"Northshore Drive","building":"residential","residential":"HDB","source":"HDB"},"geometry":{"type":"Polygon","coordinates":[[[103.9052285,1.4193777],[103.9052091,1.4193897],[103.9052119,1.4193945],[103.9051891,1.4194082],[103.9052008,1.4194283],[103.9051788,1.4194411],[103.9051977,1.4194752],[103.9052075,1.4194927],[103.9052579,1.419465],[103.9052526,1.4194559],[103.9053049,1.4194254],[103.9053112,1.4194358],[103.9053621,1.4194079],[103.9053494,1.419386],[103.9053302,1.419353],[103.905307,1.4193665],[103.9052954,1.4193445],[103.9052681,1.4193608],[103.9052649,1.4193552],[103.9052479,1.4193657],[103.9052448,1.4193584],[103.905231,1.4193401],[103.9051905,1.4193195],[103.9052244,1.4192593],[103.9052006,1.4192459],[103.9052125,1.4192249],[103.9053055,1.419317],[103.9053167,1.4193057],[103.9053344,1.4193232],[103.9053554,1.4193454],[103.9054344,1.4193012],[103.9054334,1.4192562],[103.9052588,1.4190816],[103.90523,1.4190836],[103.9052115,1.4191027],[103.9052283,1.4191194],[103.9051782,1.419166],[103.9051924,1.4191786],[103.9051844,1.4191898],[103.9051603,1.4191828],[103.9051474,1.419179],[103.9051677,1.4191168],[103.9050616,1.4190897],[103.9050435,1.4191537],[103.9050648,1.4191614],[103.9050631,1.4191725],[103.9050185,1.4191651],[103.9050279,1.4190925],[103.9049223,1.4190725],[103.9049092,1.4191467],[103.9049223,1.4191491],[103.9049076,1.4192321],[103.904962,1.4192409],[103.9049636,1.4192321],[103.9049823,1.4192353],[103.9049816,1.419244],[103.9050352,1.4192526],[103.905045,1.4191908],[103.9050844,1.4191984],[103.9050871,1.4191845],[103.905154,1.419204],[103.9051896,1.4192134],[103.9051641,1.4192585],[103.9051398,1.4192447],[103.9051278,1.419266],[103.9051436,1.4192749],[103.905137,1.4192865],[103.9051112,1.4192719],[103.9051015,1.4192892],[103.9050813,1.4192778],[103.9050414,1.4193485],[103.9051609,1.419416],[103.9051972,1.4193515],[103.9052218,1.4193654],[103.9052285,1.4193777]]]}},{"type":"Feature","id":"way/397596125-0","properties":{"addr:city":"Singapore","addr:country":"SG","addr:housenumber":"422B","addr:neighbourhood":"Northshore Straits View","addr:postcode":"822422","addr:street":"Northshore Drive","building":"residential","layer":"1","residential":"HDB","source":"HDB"},"geometry":{"type":"Polygon","coordinates":[[[103.9049936,1.4198663],[103.9049669,1.4198507],[103.9050013,1.4197921],[103.9049554,1.4197652],[103.9049627,1.4197527],[103.9048865,1.4197079],[103.9048579,1.4197565],[103.9048667,1.4197617],[103.9048585,1.4197756],[103.9048831,1.4197901],[103.9048728,1.4198074],[103.9049002,1.4198236],[103.9048945,1.4198333],[103.9048603,1.419813],[103.9048489,1.4198323],[103.9048214,1.419816],[103.9048131,1.4198298],[103.9048047,1.4198247],[103.9047799,1.4198662],[103.9049971,1.4199957],[103.9050221,1.4199537],[103.9050171,1.4199507],[103.905024,1.4199391],[103.9050021,1.419926],[103.9050116,1.4199101],[103.905042,1.4199098],[103.9050422,1.4199345],[103.905107,1.4199339],[103.9051077,1.4200119],[103.904959,1.4200133],[103.9049593,1.4200409],[103.9049795,1.4200408],[103.9049796,1.4200575],[103.9049486,1.4200578],[103.9049488,1.420073],[103.9049387,1.420073],[103.904939,1.4201325],[103.905199,1.420131],[103.9051987,1.4200736],[103.9051831,1.4200736],[103.905183,1.420054],[103.9051597,1.4200541],[103.9051597,1.4200409],[103.9052107,1.4200408],[103.905211,1.420176],[103.9053099,1.4201758],[103.9053256,1.4201569],[103.9053382,1.420127],[103.9053172,1.4199038],[103.9052942,1.4199042],[103.9052769,1.4197362],[103.9052654,1.4197056],[103.9052467,1.419694],[103.9052222,1.4196868],[103.9051748,1.4196866],[103.9051748,1.4196981],[103.9051588,1.4196981],[103.9051587,1.4197298],[103.9051371,1.4197298],[103.905137,1.4197816],[103.9051243,1.4197816],[103.9051243,1.4198115],[103.9050928,1.4198115],[103.9050929,1.4198674],[103.9050768,1.4198674],[103.9050767,1.4198503],[103.9050385,1.4198503],[103.9050386,1.4198755],[103.9050094,1.4198756],[103.9049936,1.4198663]]]}},{"type":"Feature","id":"way/397596128-0","properties":{"amenity":"shelter","building":"yes","building:levels":"1","shelter_type":"pavilion"},"geometry":{"type":"Polygon","coordinates":[[[103.9050317,1.4195962],[103.9048324,1.4195569],[103.9048139,1.4195875],[103.9048155,1.4196029],[103.9048754,1.4196665],[103.904887,1.4196748],[103.9050199,1.4196492],[103.9050317,1.4195962]]]}},{"type":"Feature","id":"way/455060375-0","properties":{"addr:city":"Singapore","addr:housenumber":"25","addr:street":"Ponggol Twenty-Fourth Avenue","building":"house"},"geometry":{"type":"Polygon","coordinates":[[[103.909094,1.4190582],[103.90906,1.4188003],[103.9090279,1.4188045],[103.909023,1.418767],[103.9089916,1.4187712],[103.9090305,1.4190666],[103.909094,1.4190582]]]}},{"type":"Feature","id":"way/455060377-0","properties":{"addr:city":"Singapore","addr:housenumber":"27","addr:street":"Ponggol Twenty-Fourth Avenue","building":"yes"},"geometry":{"type":"Polygon","coordinates":[[[103.9093907,1.4190855],[103.9093538,1.4187863],[103.9093224,1.4187902],[103.9093179,1.4187542],[103.9092235,1.4187658],[103.9092283,1.4188054],[103.9091943,1.4188096],[103.9092307,1.4191052],[103.9093907,1.4190855]]]}},{"type":"Feature","id":"way/455060379-0","properties":{"addr:city":"Singapore","addr:housenumber":"21","addr:street":"Ponggol Twenty-Fourth Avenue","building":"yes","name":"Redemptorist Community"},"geometry":{"type":"Polygon","coordinates":[[[103.9087967,1.4190364],[103.908789,1.4189642],[103.908774,1.4189658],[103.9087673,1.4189027],[103.9086441,1.4189158],[103.9086584,1.419051],[103.9087967,1.4190364]]]}},{"type":"Feature","id":"way/455060395-0","properties":{"addr:city":"Singapore","addr:housenumber":"23","addr:street":"Ponggol Twenty-Fourth Avenue","building":"house"},"geometry":{"type":"Polygon","coordinates":[[[103.9089375,1.419017],[103.9089348,1.4189934],[103.9089778,1.4189885],[103.9089659,1.4188849],[103.9088381,1.4188995],[103.9088497,1.4190012],[103.9088934,1.4189962],[103.9088963,1.4190217],[103.9089375,1.419017]]]}},{"type":"Feature","id":"way/455060399-0","properties":{"addr:city":"Singapore","addr:housenumber":"29A","addr:street":"Ponggol Twenty-Fourth Avenue","building":"yes"},"geometry":{"type":"Polygon","coordinates":[[[103.9092043,1.419373],[103.909411,1.4193188],[103.909401,1.4192808],[103.9093862,1.4192847],[103.9093764,1.4192475],[103.909348,1.419255],[103.9093449,1.4192435],[103.9091815,1.4192863],[103.9092043,1.419373]]]}},{"type":"Feature","id":"way/455060403-0","properties":{"addr:city":"Singapore","addr:housenumber":"33","addr:street":"Ponggol Twenty-Fourth Avenue","building":"kindergarten","building:levels":"3"},"geometry":{"type":"Polygon","coordinates":[[[103.9091511,1.4193282],[103.9091055,1.4191859],[103.9089686,1.4192298],[103.9090142,1.4193721],[103.9091511,1.4193282]]]}},{"type":"Feature","id":"way/455060405-0","properties":{"addr:city":"Singapore","addr:housenumber":"35","addr:street":"Ponggol Twenty-Fourth Avenue","building":"house"},"geometry":{"type":"Polygon","coordinates":[[[103.9088186,1.4192347],[103.9088187,1.4193625],[103.908943,1.4193624],[103.9089429,1.4192311],[103.9089022,1.4192311],[103.9089021,1.4192074],[103.9088641,1.4192074],[103.9088641,1.4192347],[103.9088186,1.4192347]]]}},{"type":"Feature","id":"way/455060407-0","properties":{"addr:city":"Singapore","addr:housenumber":"29","addr:street":"Ponggol Twenty-Fourth Avenue","building":"yes"},"geometry":{"type":"Polygon","coordinates":[[[103.9093579,1.4191166],[103.9091533,1.4191718],[103.9091772,1.4192604],[103.9093819,1.4192052],[103.9093579,1.4191166]]]}},{"type":"Feature","id":"way/455061186-0","properties":{"addr:city":"Singapore","addr:housenumber":"39","addr:street":"Ponggol Twenty-Fourth Avenue","building":"house"},"geometry":{"type":"Polygon","coordinates":[[[103.9084801,1.4191863],[103.9086174,1.4191695],[103.908598,1.4190104],[103.9085167,1.4190203],[103.9085212,1.4190567],[103.9084742,1.4190624],[103.9084769,1.4190841],[103.9084537,1.4190869],[103.9084593,1.4191324],[103.9084349,1.4191353],[103.9084404,1.4191804],[103.9084788,1.4191758],[103.9084801,1.4191863]]]}},{"type":"Feature","id":"way/455061188-0","properties":{"addr:city":"Singapore","addr:housenumber":"19","addr:street":"Ponggol Twenty-Fourth Avenue","amenity":"place_of_worship","building":"church","name":"River of Life Community Church","religion":"christian"},"geometry":{"type":"Polygon","coordinates":[[[103.9085713,1.4188364],[103.9085098,1.4188446],[103.9085125,1.4188647],[103.9084747,1.4188698],[103.9084722,1.4188505],[103.9084208,1.4188574],[103.9084236,1.4188785],[103.9084051,1.4188809],[103.9084149,1.4189539],[103.9084254,1.4189525],[103.9084302,1.4189882],[103.9085888,1.418967],[103.9085713,1.4188364]]]}},{"type":"Feature","id":"way/455061190-0","properties":{"addr:city":"Singapore","addr:housenumber":"37","addr:street":"Ponggol Twenty-Fourth Avenue","building":"house"},"geometry":{"type":"Polygon","coordinates":[[[103.9085476,1.4193788],[103.9085489,1.4194086],[103.9086914,1.4194025],[103.9086835,1.4192169],[103.9085624,1.419222],[103.908564,1.419258],[103.9084986,1.4192608],[103.9085037,1.4193807],[103.9085476,1.4193788]]]}},{"type":"Feature","id":"way/476138597-0","properties":{"addr:city":"Singapore","addr:housenumber":"31A","addr:street":"Ponggol Twenty-Fourth Avenue","building":"house"},"geometry":{"type":"Polygon","coordinates":[[[103.9092018,1.4193916],[103.9092394,1.4195412],[103.9093066,1.4195243],[103.9093045,1.419516],[103.9093543,1.4195035],[103.9093189,1.4193622],[103.9092018,1.4193916]]]}},{"type":"Feature","id":"way/476162999-0","properties":{"addr:city":"Singapore","addr:housenumber":"25A","addr:street":"Ponggol Twenty-Fourth Avenue","building":"house"},"geometry":{"type":"Polygon","coordinates":[[[103.9091882,1.4190421],[103.9091492,1.41875],[103.9091173,1.4187543],[103.9091219,1.4187889],[103.9090933,1.4187927],[103.9091276,1.4190502],[103.9091882,1.4190421]]]}},{"type":"Feature","id":"way/536658904-0","properties":{"addr:city":"Singapore","addr:country":"SG","addr:housenumber":"425","addr:neighbourhood":"Northshore Cove","addr:postcode":"820425","addr:street":"Northshore Crescent","building":"yes","building:levels":"1"},"geometry":{"type":"Polygon","coordinates":[[[103.9064433,1.4195619],[103.9064942,1.4194584],[103.9063963,1.4193943],[103.9063793,1.41942],[103.9063695,1.4194278],[103.9063016,1.4194702],[103.9062965,1.4194803],[103.9062982,1.4194973],[103.9063178,1.4195619],[103.9063284,1.4195781],[103.906343,1.4195829],[103.906432,1.4195693],[103.9064433,1.4195619]]]}},{"type":"Feature","id":"way/720843447-0","properties":{"addr:city":"Singapore","addr:housenumber":"423A","addr:postcode":"821423","addr:street":"Northshore Crescent","building":"residential","source":"HDB"},"geometry":{"type":"Polygon","coordinates":[[[103.9060507,1.4192663],[103.9060564,1.4192566],[103.9060827,1.4192119],[103.9060542,1.4191941],[103.9060491,1.4192028],[103.9060175,1.4191849],[103.9059977,1.4192199],[103.9059505,1.4191925],[103.9059535,1.4191869],[103.9059471,1.419183],[103.9059697,1.4191429],[103.9059645,1.4191399],[103.905972,1.4191284],[103.9059653,1.4191244],[103.9059714,1.4191143],[103.9059541,1.4191044],[103.9059621,1.4190911],[103.9060145,1.4190742],[103.9060346,1.4190676],[103.9060452,1.4191003],[103.9060359,1.4191031],[103.9060462,1.4191344],[103.9061718,1.4190932],[103.9061956,1.4190854],[103.9061797,1.4190396],[103.9061569,1.4190476],[103.9061514,1.4190495],[103.9061459,1.4190299],[103.906119,1.4190384],[103.9061166,1.419032],[103.9061145,1.4190265],[103.9061277,1.4190221],[103.9061057,1.4189561],[103.9060063,1.4189882],[103.9060288,1.4190532],[103.9060096,1.4190591],[103.9059902,1.4189985],[103.9059684,1.4190066],[103.9059668,1.4190008],[103.9059004,1.4190255],[103.9059095,1.4190554],[103.9059201,1.4190518],[103.9059311,1.4190869],[103.9059479,1.4190815],[103.9059306,1.4191122],[103.9059256,1.4191093],[103.9059222,1.4191151],[103.9059016,1.4191029],[103.9058775,1.4191411],[103.9058729,1.4191384],[103.9058687,1.4191452],[103.9058247,1.4191197],[103.9058291,1.4191119],[103.9058242,1.419109],[103.9058568,1.4190551],[103.905829,1.4190386],[103.9058353,1.4190287],[103.9057646,1.418988],[103.9057479,1.4190133],[103.905739,1.4190269],[103.9057522,1.4190357],[103.9057435,1.4190473],[103.9057687,1.4190635],[103.9057579,1.419081],[103.9057916,1.4191005],[103.9057857,1.4191111],[103.9057426,1.4190848],[103.9057304,1.4191054],[103.9057061,1.4190905],[103.9056981,1.4191036],[103.9056879,1.4190974],[103.9056633,1.4191376],[103.9057344,1.41918],[103.90574,1.4191703],[103.9057668,1.4191869],[103.9058001,1.4191297],[103.9058092,1.4191338],[103.9058129,1.4191277],[103.9058479,1.419149],[103.9058366,1.4191689],[103.9058124,1.4191549],[103.9058036,1.4191692],[103.9057979,1.4191652],[103.9057767,1.4191995],[103.9058286,1.4192294],[103.9058351,1.4192171],[103.9059375,1.4192795],[103.9059549,1.4192506],[103.9059456,1.419245],[103.9059626,1.4192165],[103.9059833,1.4192284],[103.9059733,1.4192458],[103.9059809,1.4192495],[103.9059622,1.4192825],[103.9059933,1.4192988],[103.9059884,1.4193072],[103.9060167,1.4193241],[103.9060507,1.4192663]]]}},{"type":"Feature","id":"way/720843448-0","properties":{"addr:city":"Singapore","addr:housenumber":"423B","addr:postcode":"822423","addr:street":"Northshore Crescent","building":"residential","source":"HDB"},"geometry":{"type":"Polygon","coordinates":[[[103.9063296,1.4189923],[103.9063243,1.4189934],[103.9063204,1.4189763],[103.9063313,1.4189727],[103.9063994,1.4189505],[103.9064114,1.4189578],[103.9064011,1.4189759],[103.9064096,1.4189803],[103.9064052,1.4189874],[103.9064354,1.4190046],[103.9064206,1.4190296],[103.906412,1.4190245],[103.9063951,1.419051],[103.9064425,1.4190788],[103.9064513,1.4190839],[103.9065084,1.4191174],[103.9065243,1.4190905],[103.9065155,1.4190853],[103.9065345,1.4190536],[103.9065011,1.4190348],[103.9065056,1.4190288],[103.9064887,1.4190192],[103.9064944,1.4190097],[103.9065442,1.4190403],[103.9065572,1.4190184],[103.9065066,1.4189896],[103.9065185,1.41897],[103.9065293,1.4189759],[103.9065323,1.4189707],[103.9065667,1.4189911],[103.906575,1.418979],[103.9065922,1.4189892],[103.9066057,1.4189669],[103.9066109,1.4189698],[103.9066313,1.4189373],[103.9065825,1.4189069],[103.9065745,1.4189191],[103.9065486,1.4189015],[103.9065328,1.4188908],[103.9065406,1.4188806],[103.9064886,1.4188481],[103.9064628,1.4188854],[103.9064707,1.4188899],[103.9064573,1.418909],[103.9064662,1.4189143],[103.9064472,1.4189477],[103.9064416,1.418944],[103.9064357,1.4189557],[103.9064107,1.4189412],[103.9063885,1.4188643],[103.9063363,1.418879],[103.9063379,1.4188846],[103.9063147,1.4188914],[103.9063328,1.418947],[103.9063235,1.4189497],[103.9063256,1.4189559],[103.9063113,1.4189606],[103.90629,1.4188945],[103.9061886,1.4189283],[103.9062119,1.4189947],[103.9062275,1.4189896],[103.9062297,1.4189967],[103.9062314,1.4190026],[103.9062034,1.4190116],[103.9062095,1.4190293],[103.9062043,1.4190311],[103.9061797,1.4190396],[103.9061956,1.4190854],[103.9062209,1.4190771],[103.9063419,1.4190375],[103.9063296,1.4189923]]]}},{"type":"Feature","id":"way/720843449-0","properties":{"addr:city":"Singapore","addr:housenumber":"425B","addr:postcode":"822425","addr:street":"Northshore Crescent","building":"residential"},"geometry":{"type":"Polygon","coordinates":[[[103.9065735,1.4195663],[103.9065796,1.4195563],[103.9066299,1.419587],[103.9066241,1.4195955],[103.9066733,1.4196239],[103.9066954,1.4195889],[103.9066881,1.4195844],[103.906697,1.4195704],[103.9066743,1.4195581],[103.9066853,1.4195378],[103.9067781,1.419593],[103.9067647,1.419617],[103.9067434,1.4196051],[103.9067365,1.419617],[103.9067297,1.4196131],[103.9067025,1.4196595],[103.9066827,1.4196473],[103.9066704,1.4196694],[103.9067222,1.4196983],[103.9067045,1.4197202],[103.9066384,1.4197196],[103.9066384,1.4197447],[103.9066112,1.419744],[103.9066112,1.4197616],[103.9065948,1.4197615],[103.9065972,1.4198084],[103.9066986,1.4198008],[103.9066985,1.4198084],[103.9067226,1.4198071],[103.9068416,1.419801],[103.9068397,1.4197525],[103.9068254,1.4197531],[103.9068248,1.4197404],[103.9067955,1.4197416],[103.906795,1.4197223],[103.9067429,1.4197249],[103.9067425,1.4197204],[103.9067275,1.4197134],[103.906733,1.4197021],[103.9067382,1.4197051],[103.9067491,1.4196867],[103.9067698,1.4197006],[103.9068019,1.4196498],[103.9067732,1.4196338],[103.9067913,1.4196009],[103.9068888,1.4196589],[103.9069484,1.4196943],[103.9068904,1.4197163],[103.9068966,1.4197359],[103.9068705,1.4197454],[103.9068761,1.4197601],[103.9068542,1.4197681],[103.9068731,1.4198114],[103.9069692,1.4197762],[103.9069717,1.4197839],[103.9070287,1.4197612],[103.9070261,1.4197553],[103.9071236,1.4197195],[103.9071075,1.4196757],[103.9070864,1.4196834],[103.9070817,1.4196689],[103.9070543,1.4196788],[103.9070474,1.4196567],[103.9069713,1.4196856],[103.9069405,1.419668],[103.9069501,1.419652],[103.9069734,1.4196656],[103.9069814,1.4196515],[103.906994,1.4196588],[103.9070175,1.4196183],[103.9069446,1.4195762],[103.9069387,1.4195848],[103.9068681,1.4195431],[103.9068737,1.4195351],[103.9068007,1.4194928],[103.906778,1.4195336],[103.9067895,1.4195402],[103.9067819,1.4195543],[103.9068064,1.4195685],[103.9067966,1.4195855],[103.9067858,1.4195793],[103.9067432,1.4195549],[103.9067162,1.4195394],[103.9067525,1.419475],[103.906731,1.4194623],[103.906735,1.4194548],[103.9066179,1.419387],[103.906593,1.4194263],[103.9066115,1.419437],[103.9066039,1.4194509],[103.9066302,1.4194662],[103.9066191,1.4194838],[103.9066303,1.4194902],[103.9066259,1.4194983],[103.9065809,1.419471],[103.9065768,1.4194789],[103.9065704,1.419491],[103.9065444,1.4194754],[103.9065361,1.4194921],[103.9065253,1.4194855],[103.906502,1.419525],[103.9065735,1.4195663]]]}},{"type":"Feature","id":"way/720843450-0","properties":{"addr:city":"Singapore","addr:housenumber":"425A","addr:postcode":"821425","addr:street":"Northshore Crescent","building":"residential"},"geometry":{"type":"Polygon","coordinates":[[[103.9060124,1.4195345],[103.9060005,1.4195805],[103.9060223,1.4195865],[103.906018,1.4196013],[103.9060449,1.4196078],[103.9060381,1.4196293],[103.9060457,1.4196311],[103.9060387,1.4196529],[103.9061006,1.4196707],[103.9060717,1.4197701],[103.9060335,1.4197943],[103.9060229,1.4197786],[103.9060467,1.4197652],[103.9060392,1.4197503],[103.9060481,1.4197454],[103.9060247,1.4197048],[103.9059522,1.4197449],[103.9059578,1.4197545],[103.9059333,1.4197698],[103.9059393,1.4197805],[103.9059189,1.4197938],[103.9059502,1.4198419],[103.9059371,1.4198496],[103.9059253,1.4198428],[103.9059217,1.4198474],[103.9058762,1.4198198],[103.9058694,1.4198318],[103.9058647,1.4198402],[103.905841,1.4198265],[103.9058329,1.419839],[103.9058218,1.419833],[103.9057983,1.4198722],[103.9059215,1.4199442],[103.9059268,1.4199347],[103.9060179,1.4199871],[103.9060407,1.4199479],[103.9060208,1.4199371],[103.9060292,1.4199224],[103.9060048,1.4199094],[103.9060172,1.4198891],[103.9059584,1.4198575],[103.9059597,1.4198567],[103.9060834,1.4197815],[103.906092,1.4197962],[103.9060725,1.4198068],[103.9060864,1.4198291],[103.9060764,1.419835],[103.9061037,1.4198814],[103.9061249,1.419869],[103.9061274,1.4198734],[103.9061346,1.4198696],[103.9061419,1.4198839],[103.9060758,1.4199198],[103.9060859,1.4199376],[103.9060608,1.4199516],[103.9060681,1.4199677],[103.9060499,1.4199782],[103.9060756,1.4200189],[103.9061648,1.4199666],[103.9061696,1.4199749],[103.9062229,1.4199427],[103.9062187,1.4199351],[103.9062299,1.4199285],[103.9063064,1.4198837],[103.9062932,1.4198598],[103.9062841,1.4198433],[103.9062651,1.4198542],[103.906258,1.4198419],[103.9062332,1.4198557],[103.9062239,1.4198393],[103.9062102,1.4198468],[103.9061988,1.4198259],[103.9061723,1.4198413],[103.9061451,1.4197944],[103.906119,1.4198098],[103.9060932,1.4197634],[103.9061037,1.4197235],[103.9061218,1.4197284],[103.9061149,1.4197541],[103.9061302,1.4197583],[103.9061281,1.4197665],[103.9061689,1.4197761],[103.9061851,1.4197201],[103.9061749,1.4197177],[103.9061927,1.4196619],[103.9062013,1.4196641],[103.906224,1.4195855],[103.9061787,1.4195738],[103.9061756,1.4195854],[103.9061614,1.4195809],[103.9061541,1.4196082],[103.9061424,1.4196045],[103.9061358,1.4196025],[103.906144,1.4195718],[103.9060124,1.4195345]]]}},{"type":"Feature","id":"way/1159408877-0","properties":{"building":"roof","building:levels":"1","layer":"1","roof:levels":"1","roof:shape":"flat"},"geometry":{"type":"Polygon","coordinates":[[[103.9054962,1.4192733],[103.90506,1.4195096],[103.9050396,1.41951],[103.9049259,1.4193886],[103.9048119,1.4193249],[103.904771,1.4193017],[103.9047611,1.4193191],[103.9047462,1.4193108],[103.9047326,1.419335],[103.904766,1.4193539],[103.9048974,1.4194239],[103.9048934,1.4194503],[103.9048324,1.4195569],[103.9048139,1.4195875],[103.9048155,1.4196029],[103.9048754,1.4196665],[103.904887,1.4196748],[103.9050199,1.4196492],[103.9050452,1.4196625],[103.9050429,1.4196704],[103.9050172,1.4197586],[103.9050013,1.4197921],[103.9049669,1.4198507],[103.9049936,1.4198663],[103.9050094,1.4198756],[103.9050468,1.4198178],[103.9050829,1.4196833],[103.9051293,1.4196689],[103.9051748,1.4196866],[103.9052222,1.4196868],[103.9052235,1.4196735],[103.9052254,1.4196601],[103.9051493,1.4196393],[103.9051053,1.4196273],[103.9051229,1.4195504],[103.905487,1.4193378],[103.9055294,1.4193381],[103.9057142,1.4193687],[103.9059291,1.4193636],[103.9060159,1.4194159],[103.9059804,1.4194729],[103.9059552,1.419556],[103.9059552,1.4195862],[103.9059659,1.4196003],[103.9059854,1.419614],[103.9060381,1.4196293],[103.9060449,1.4196078],[103.906018,1.4196013],[103.9060223,1.4195865],[103.9060005,1.4195805],[103.9059884,1.4195657],[103.9060142,1.4194806],[103.9061433,1.4192614],[103.9061571,1.4192512],[103.9064103,1.4191676],[103.9064185,1.4191696],[103.9064417,1.4192376],[103.9064246,1.4192537],[103.9064072,1.4192879],[103.9064015,1.4193227],[103.9064038,1.4193475],[103.9064112,1.4193677],[103.9063963,1.4193943],[103.9064942,1.4194584],[103.9065057,1.4194511],[103.9065178,1.4194484],[103.9065336,1.4194504],[103.9065768,1.4194789],[103.9065809,1.419471],[103.9066259,1.4194983],[103.9066303,1.4194902],[103.9066191,1.4194838],[103.9066302,1.4194662],[103.9066039,1.4194509],[103.9065971,1.4194637],[103.9065251,1.4194211],[103.9065363,1.4194015],[103.9065453,1.4193727],[103.906544,1.4193429],[103.9065329,1.419307],[103.9065141,1.4192772],[103.9064809,1.41925],[103.906434,1.4191109],[103.9064513,1.4190839],[103.9064425,1.4190788],[103.9063951,1.419051],[103.9063517,1.4190667],[103.9063819,1.419156],[103.9061248,1.4192383],[103.9060827,1.4192119],[103.9060564,1.4192566],[103.9060507,1.4192663],[103.9060796,1.4192845],[103.9060836,1.4192916],[103.9060816,1.419303],[103.9060431,1.4193693],[103.9060323,1.4193747],[103.9060172,1.4193754],[103.9059418,1.4193291],[103.9057219,1.4193308],[103.9055358,1.4192736],[103.9054962,1.4192733]]]}},{"type":"Feature","id":"way/1159408894-0","properties":{"amenity":"shelter","building":"yes","building:levels":"1","shelter_type":"pavilion"},"geometry":{"type":"Polygon","coordinates":[[[103.9055952,1.4194322],[103.9055726,1.4193939],[103.9055365,1.4193914],[103.905535,1.4193992],[103.9055422,1.4194111],[103.905562,1.4194274],[103.9055656,1.4194351],[103.9055606,1.4194594],[103.9055636,1.4194655],[103.9055721,1.4194655],[103.9055952,1.4194322]]]}},{"type":"Feature","id":"way/1159408896-0","properties":{"amenity":"shelter","building":"yes","building:levels":"1","shelter_type":"pavilion"},"geometry":{"type":"Polygon","coordinates":[[[103.9055446,1.4199099],[103.9055883,1.4199015],[103.9056027,1.4198683],[103.9055959,1.4198643],[103.9055823,1.4198671],[103.9055603,1.4198803],[103.9055518,1.4198811],[103.9055306,1.4198683],[103.9055238,1.4198691],[103.905521,1.4198771],[103.9055446,1.4199099]]]}},{"type":"Feature","id":"way/1221344775-0","properties":{"building":"yes","building:levels":"1","power":"substation"},"geometry":{"type":"Polygon","coordinates":[[[103.9069617,1.4195329],[103.9070133,1.4194927],[103.9069423,1.4194022],[103.9068913,1.4194434],[103.9069617,1.4195329]]]}},{"type":"Feature","id":"way/1221344776-0","properties":{"building":"yes","building:levels":"1","power":"substation"},"geometry":{"type":"Polygon","coordinates":[[[103.906559,1.4190151],[103.9065696,1.4190228],[103.9065369,1.4190777],[103.9066409,1.4191391],[103.9066918,1.4190509],[103.9065778,1.4189866],[103.906559,1.4190151]]]}},{"type":"Feature","id":"way/1221344779-0","properties":{"building:levels":"26","building:part":"yes"},"geometry":{"type":"Polygon","coordinates":[[[103.9067858,1.4195793],[103.9067781,1.419593],[103.9067647,1.419617],[103.9067434,1.4196051],[103.9067365,1.419617],[103.9067297,1.4196131],[103.9067025,1.4196595],[103.9066827,1.4196473],[103.9066704,1.4196694],[103.9067222,1.4196983],[103.9067045,1.4197202],[103.9066384,1.4197196],[103.9066384,1.4197447],[103.9066112,1.419744],[103.9066112,1.4197616],[103.9065948,1.4197615],[103.9065972,1.4198084],[103.9066986,1.4198008],[103.9066985,1.4198084],[103.9067226,1.4198071],[103.9068416,1.419801],[103.9068397,1.4197525],[103.9068254,1.4197531],[103.9068248,1.4197404],[103.9067955,1.4197416],[103.906795,1.4197223],[103.9067429,1.4197249],[103.9067425,1.4197204],[103.9067275,1.4197134],[103.906733,1.4197021],[103.9067382,1.4197051],[103.9067491,1.4196867],[103.9067698,1.4197006],[103.9068019,1.4196498],[103.9067732,1.4196338],[103.9067913,1.4196009],[103.9068888,1.4196589],[103.906898,1.4196436],[103.9069405,1.419668],[103.9069501,1.419652],[103.9069734,1.4196656],[103.9069814,1.4196515],[103.906994,1.4196588],[103.9070175,1.4196183],[103.9069446,1.4195762],[103.9069387,1.4195848],[103.9068681,1.4195431],[103.9068737,1.4195351],[103.9068007,1.4194928],[103.906778,1.4195336],[103.9067895,1.4195402],[103.9067819,1.4195543],[103.9068064,1.4195685],[103.9067966,1.4195855],[103.9067858,1.4195793]]]}},{"type":"Feature","id":"way/1221344780-0","properties":{"building:levels":"22","building:part":"yes","roof:levels":"1","roof:material":"grass","roof:shape":"flat"},"geometry":{"type":"Polygon","coordinates":[[[103.9067858,1.4195793],[103.9067432,1.4195549],[103.9067162,1.4195394],[103.9067525,1.419475],[103.906731,1.4194623],[103.906735,1.4194548],[103.9066179,1.419387],[103.906593,1.4194263],[103.9066115,1.419437],[103.9066039,1.4194509],[103.9066302,1.4194662],[103.9066191,1.4194838],[103.9066303,1.4194902],[103.9066259,1.4194983],[103.9065809,1.419471],[103.9065768,1.4194789],[103.9065704,1.419491],[103.9065444,1.4194754],[103.9065361,1.4194921],[103.9065253,1.4194855],[103.906502,1.419525],[103.9065735,1.4195663],[103.9065796,1.4195563],[103.9066299,1.419587],[103.9066241,1.4195955],[103.9066733,1.4196239],[103.9066954,1.4195889],[103.9066881,1.4195844],[103.906697,1.4195704],[103.9066743,1.4195581],[103.9066853,1.4195378],[103.9067781,1.419593],[103.9067858,1.4195793]]]}},{"type":"Feature","id":"way/1221344781-0","properties":{"building:levels":"19","building:part":"yes","roof:levels":"1","roof:material":"grass","roof:shape":"flat"},"geometry":{"type":"Polygon","coordinates":[[[103.906898,1.4196436],[103.9068888,1.4196589],[103.9069484,1.4196943],[103.9068904,1.4197163],[103.9068966,1.4197359],[103.9068705,1.4197454],[103.9068761,1.4197601],[103.9068542,1.4197681],[103.9068731,1.4198114],[103.9069692,1.4197762],[103.9069717,1.4197839],[103.9070287,1.4197612],[103.9070261,1.4197553],[103.9071236,1.4197195],[103.9071075,1.4196757],[103.9070864,1.4196834],[103.9070817,1.4196689],[103.9070543,1.4196788],[103.9070474,1.4196567],[103.9069713,1.4196856],[103.9069405,1.419668],[103.906898,1.4196436]]]}},{"type":"Feature","id":"way/1221344785-0","properties":{"building:levels":"26","building:part":"yes"},"geometry":{"type":"Polygon","coordinates":[[[103.9060903,1.4197583],[103.9060717,1.4197701],[103.9060335,1.4197943],[103.9060229,1.4197786],[103.9060467,1.4197652],[103.9060392,1.4197503],[103.9060481,1.4197454],[103.9060247,1.4197048],[103.9059522,1.4197449],[103.9059578,1.4197545],[103.9059333,1.4197698],[103.9059393,1.4197805],[103.9059189,1.4197938],[103.9059502,1.4198419],[103.9059597,1.4198567],[103.9060834,1.4197815],[103.906092,1.4197962],[103.9060725,1.4198068],[103.9060864,1.4198291],[103.9060764,1.419835],[103.9061037,1.4198814],[103.9061249,1.419869],[103.9061274,1.4198734],[103.9061346,1.4198696],[103.9061419,1.4198839],[103.9060758,1.4199198],[103.9060859,1.4199376],[103.9060608,1.4199516],[103.9060681,1.4199677],[103.9060499,1.4199782],[103.9060756,1.4200189],[103.9061648,1.4199666],[103.9061696,1.4199749],[103.9062229,1.4199427],[103.9062187,1.4199351],[103.9062299,1.4199285],[103.9063064,1.4198837],[103.9062932,1.4198598],[103.9062841,1.4198433],[103.9062651,1.4198542],[103.906258,1.4198419],[103.9062332,1.4198557],[103.9062239,1.4198393],[103.9062102,1.4198468],[103.9061988,1.4198259],[103.9061723,1.4198413],[103.9061451,1.4197944],[103.906119,1.4198098],[103.9060932,1.4197634],[103.9060903,1.4197583]]]}},{"type":"Feature","id":"way/1221344786-0","properties":{"building:levels":"22","building:part":"yes","roof:levels":"1","roof:material":"grass","roof:shape":"flat"},"geometry":{"type":"Polygon","coordinates":[[[103.9060903,1.4197583],[103.9060932,1.4197634],[103.9061037,1.4197235],[103.9061218,1.4197284],[103.9061149,1.4197541],[103.9061302,1.4197583],[103.9061281,1.4197665],[103.9061689,1.4197761],[103.9061851,1.4197201],[103.9061749,1.4197177],[103.9061927,1.4196619],[103.9062013,1.4196641],[103.906224,1.4195855],[103.9061787,1.4195738],[103.9061756,1.4195854],[103.9061614,1.4195809],[103.9061541,1.4196082],[103.9061424,1.4196045],[103.9061358,1.4196025],[103.906144,1.4195718],[103.9060124,1.4195345],[103.9060005,1.4195805],[103.9060223,1.4195865],[103.906018,1.4196013],[103.9060449,1.4196078],[103.9060381,1.4196293],[103.9060457,1.4196311],[103.9060387,1.4196529],[103.9061006,1.4196707],[103.9060717,1.4197701],[103.9060903,1.4197583]]]}},{"type":"Feature","id":"way/1221344787-0","properties":{"building:levels":"19","building:part":"yes","roof:levels":"1","roof:material":"grass","roof:shape":"flat"},"geometry":{"type":"Polygon","coordinates":[[[103.9059371,1.4198496],[103.9059253,1.4198428],[103.9059217,1.4198474],[103.9058762,1.4198198],[103.9058694,1.4198318],[103.9058647,1.4198402],[103.905841,1.4198265],[103.9058329,1.419839],[103.9058218,1.419833],[103.9057983,1.4198722],[103.9059215,1.4199442],[103.9059268,1.4199347],[103.9060179,1.4199871],[103.9060407,1.4199479],[103.9060208,1.4199371],[103.9060292,1.4199224],[103.9060048,1.4199094],[103.9060172,1.4198891],[103.9059584,1.4198575],[103.9059597,1.4198567],[103.9059502,1.4198419],[103.9059371,1.4198496]]]}},{"type":"Feature","id":"way/1221344788-0","properties":{"building:levels":"26","building:part":"yes"},"geometry":{"type":"Polygon","coordinates":[[[103.9060096,1.4190591],[103.9059902,1.4189985],[103.9059684,1.4190066],[103.9059668,1.4190008],[103.9059004,1.4190255],[103.9059095,1.4190554],[103.9059201,1.4190518],[103.9059311,1.4190869],[103.9059479,1.4190815],[103.9059306,1.4191122],[103.9059256,1.4191093],[103.9059222,1.4191151],[103.9059016,1.4191029],[103.9058775,1.4191411],[103.9058729,1.4191384],[103.9058687,1.4191452],[103.9058247,1.4191197],[103.9058291,1.4191119],[103.9058242,1.419109],[103.9058568,1.4190551],[103.905829,1.4190386],[103.9058353,1.4190287],[103.9057646,1.418988],[103.9057479,1.4190133],[103.905739,1.4190269],[103.9057522,1.4190357],[103.9057435,1.4190473],[103.9057687,1.4190635],[103.9057579,1.419081],[103.9057916,1.4191005],[103.9057857,1.4191111],[103.9057426,1.4190848],[103.9057304,1.4191054],[103.9057061,1.4190905],[103.9056981,1.4191036],[103.9056879,1.4190974],[103.9056633,1.4191376],[103.9057344,1.41918],[103.90574,1.4191703],[103.9057668,1.4191869],[103.9058001,1.4191297],[103.9058092,1.4191338],[103.9058129,1.4191277],[103.9058479,1.419149],[103.9058366,1.4191689],[103.9058124,1.4191549],[103.9058036,1.4191692],[103.9057979,1.4191652],[103.9057767,1.4191995],[103.9058286,1.4192294],[103.9058351,1.4192171],[103.9059375,1.4192795],[103.9059549,1.4192506],[103.9059456,1.419245],[103.9059626,1.4192165],[103.9059833,1.4192284],[103.9059733,1.4192458],[103.9059809,1.4192495],[103.9059622,1.4192825],[103.9059933,1.4192988],[103.9059884,1.4193072],[103.9060167,1.4193241],[103.9060507,1.4192663],[103.9060564,1.4192566],[103.9060827,1.4192119],[103.9060542,1.4191941],[103.9060491,1.4192028],[103.9060175,1.4191849],[103.9059977,1.4192199],[103.9059505,1.4191925],[103.9059535,1.4191869],[103.9059471,1.419183],[103.9059697,1.4191429],[103.9059645,1.4191399],[103.905972,1.4191284],[103.9059653,1.4191244],[103.9059714,1.4191143],[103.9059541,1.4191044],[103.9059621,1.4190911],[103.9060145,1.4190742],[103.9060096,1.4190591]]]}},{"type":"Feature","id":"way/1221344789-0","properties":{"building:levels":"18","building:part":"yes","roof:levels":"1","roof:material":"grass","roof:shape":"flat"},"geometry":{"type":"Polygon","coordinates":[[[103.9060145,1.4190742],[103.9060346,1.4190676],[103.9060452,1.4191003],[103.9060359,1.4191031],[103.9060462,1.4191344],[103.9061718,1.4190932],[103.9061569,1.4190476],[103.9061514,1.4190495],[103.9061459,1.4190299],[103.906119,1.4190384],[103.9061166,1.419032],[103.9061145,1.4190265],[103.9061277,1.4190221],[103.9061057,1.4189561],[103.9060063,1.4189882],[103.9060288,1.4190532],[103.9060096,1.4190591],[103.9060145,1.4190742]]]}},{"type":"Feature","id":"way/1221344790-0","properties":{"building:levels":"18","building:part":"roof","layer":"1","roof:levels":"1","roof:material":"grass","roof:shape":"flat"},"geometry":{"type":"Polygon","coordinates":[[[103.9061956,1.4190854],[103.9061797,1.4190396],[103.9061569,1.4190476],[103.9061718,1.4190932],[103.9061956,1.4190854]]]}},{"type":"Feature","id":"way/1221344791-0","properties":{"building:levels":"18","building:part":"roof","layer":"1","roof:levels":"1","roof:material":"grass","roof:shape":"flat"},"geometry":{"type":"Polygon","coordinates":[[[103.9062209,1.4190771],[103.9062043,1.4190311],[103.9061797,1.4190396],[103.9061956,1.4190854],[103.9062209,1.4190771]]]}},{"type":"Feature","id":"way/1221344792-0","properties":{"building:levels":"18","building:part":"yes","roof:levels":"1","roof:material":"grass","roof:shape":"flat"},"geometry":{"type":"Polygon","coordinates":[[[103.9063313,1.4189727],[103.9063256,1.4189559],[103.9063113,1.4189606],[103.90629,1.4188945],[103.9061886,1.4189283],[103.9062119,1.4189947],[103.9062275,1.4189896],[103.9062297,1.4189967],[103.9062314,1.4190026],[103.9062034,1.4190116],[103.9062095,1.4190293],[103.9062043,1.4190311],[103.9062209,1.4190771],[103.9063419,1.4190375],[103.9063296,1.4189923],[103.9063243,1.4189934],[103.9063204,1.4189763],[103.9063313,1.4189727]]]}},{"type":"Feature","id":"way/1221344793-0","properties":{"building:levels":"26","building:part":"yes"},"geometry":{"type":"Polygon","coordinates":[[[103.9063313,1.4189727],[103.9063994,1.4189505],[103.9064114,1.4189578],[103.9064011,1.4189759],[103.9064096,1.4189803],[103.9064052,1.4189874],[103.9064354,1.4190046],[103.9064206,1.4190296],[103.906412,1.4190245],[103.9063951,1.419051],[103.9064425,1.4190788],[103.9064513,1.4190839],[103.9065084,1.4191174],[103.9065243,1.4190905],[103.9065155,1.4190853],[103.9065345,1.4190536],[103.9065011,1.4190348],[103.9065056,1.4190288],[103.9064887,1.4190192],[103.9064944,1.4190097],[103.9065442,1.4190403],[103.9065572,1.4190184],[103.9065066,1.4189896],[103.9065185,1.41897],[103.9065293,1.4189759],[103.9065323,1.4189707],[103.9065667,1.4189911],[103.906575,1.418979],[103.9065922,1.4189892],[103.9066057,1.4189669],[103.9066109,1.4189698],[103.9066313,1.4189373],[103.9065825,1.4189069],[103.9065745,1.4189191],[103.9065486,1.4189015],[103.9065328,1.4188908],[103.9065406,1.4188806],[103.9064886,1.4188481],[103.9064628,1.4188854],[103.9064707,1.4188899],[103.9064573,1.418909],[103.9064662,1.4189143],[103.9064472,1.4189477],[103.9064416,1.418944],[103.9064357,1.4189557],[103.9064107,1.4189412],[103.9063885,1.4188643],[103.9063363,1.418879],[103.9063379,1.4188846],[103.9063147,1.4188914],[103.9063328,1.418947],[103.9063235,1.4189497],[103.9063256,1.4189559],[103.9063313,1.4189727]]]}},{"type":"Feature","id":"way/1221344815-0","properties":{"amenity":"shelter","building":"yes","building:levels":"1","shelter_type":"pavilion"},"geometry":{"type":"Polygon","coordinates":[[[103.9061689,1.419442],[103.9061624,1.4194423],[103.9061298,1.4194757],[103.9061299,1.4194819],[103.9061353,1.419488],[103.9061967,1.4194887],[103.9062013,1.4194849],[103.9062014,1.4194742],[103.9061689,1.419442]]]}},{"type":"Feature","id":"way/1221344816-0","properties":{"amenity":"shelter","building":"yes","building:levels":"1","shelter_type":"pavilion","wheelchair":"yes"},"geometry":{"type":"Polygon","coordinates":[[[103.9063822,1.4197576],[103.9063741,1.4197569],[103.90634,1.4197847],[103.9063385,1.4197937],[103.9063415,1.419798],[103.9064036,1.4198062],[103.9064086,1.4198031],[103.90641,1.4197946],[103.9063822,1.4197576]]]}},{"type":"Feature","id":"way/1221344817-0","properties":{"amenity":"shelter","building":"yes","building:levels":"1","shelter_type":"pavilion"},"geometry":{"type":"Polygon","coordinates":[[[103.9063604,1.4199206],[103.9063915,1.4199139],[103.9063961,1.4199058],[103.9063579,1.4198824],[103.906353,1.419889],[103.9063604,1.4199206]]]}},{"type":"Feature","id":"way/1221344818-0","properties":{"amenity":"shelter","building":"yes","building:levels":"1","shelter_type":"pavilion"},"geometry":{"type":"Polygon","coordinates":[[[103.9057459,1.4194221],[103.9057693,1.4194005],[103.9057692,1.4193913],[103.9057244,1.4193904],[103.9057235,1.4193986],[103.9057459,1.4194221]]]}},{"type":"Feature","id":"way/1221344819-0","properties":{"amenity":"shelter","building":"yes","building:levels":"1","shelter_type":"pavilion"},"geometry":{"type":"Polygon","coordinates":[[[103.9057811,1.4195969],[103.9057585,1.4196193],[103.9057589,1.4196285],[103.9058038,1.4196278],[103.9058043,1.4196197],[103.9057811,1.4195969]]]}},{"type":"Feature","id":"way/1221344820-0","properties":{"amenity":"shelter","building":"yes","building:levels":"1","shelter_type":"pavilion"},"geometry":{"type":"Polygon","coordinates":[[[103.9059614,1.4196743],[103.9059616,1.4196425],[103.9059547,1.4196363],[103.9059235,1.4196685],[103.9059289,1.4196747],[103.9059614,1.4196743]]]}},{"type":"Feature","id":"way/1221344833-0","properties":{"building":"yes","building:levels":"1","layer":"-1","roof:levels":"1"},"geometry":{"type":"Polygon","coordinates":[[[103.9062209,1.4190771],[103.9062043,1.4190311],[103.9062095,1.4190293],[103.9062034,1.4190116],[103.9061459,1.4190299],[103.9061514,1.4190495],[103.9061569,1.4190476],[103.9061718,1.4190932],[103.9060462,1.4191344],[103.9060616,1.4191814],[103.9060542,1.4191941],[103.9060827,1.4192119],[103.9061248,1.4192383],[103.9063819,1.419156],[103.9063517,1.4190667],[103.9063419,1.4190375],[103.9062209,1.4190771]]]}},{"type":"Feature","id":"way/1346576508-0","properties":{"building:levels":"1","building:part":"yes"},"geometry":{"type":"Polygon","coordinates":[[[103.9052391,1.4191094],[103.9052779,1.4191497],[103.9052571,1.4191692],[103.9052727,1.419184],[103.9052405,1.4192167],[103.9052585,1.4192345],[103.9053112,1.4191812],[103.905394,1.4192631],[103.9053344,1.4193232],[103.9053554,1.4193454],[103.9054344,1.4193012],[103.9054334,1.4192562],[103.9052588,1.4190816],[103.90523,1.4190836],[103.9052115,1.4191027],[103.9052283,1.4191194],[103.9052391,1.4191094]]]}},{"type":"Feature","id":"way/1346576509-0","properties":{"building:levels":"1","building:part":"yes"},"geometry":{"type":"Polygon","coordinates":[[[103.9052654,1.4197056],[103.9052467,1.419694],[103.9052222,1.4196868],[103.905221,1.4199281],[103.905147,1.4199277],[103.9051472,1.4198932],[103.9051386,1.4198932],[103.9051384,1.4199339],[103.9051381,1.4200115],[103.9051595,1.4200116],[103.9052128,1.4200118],[103.905213,1.4199667],[103.905239,1.4199668],[103.9052391,1.4199376],[103.9052569,1.4199376],[103.9052569,1.4199319],[103.9053095,1.4199318],[103.9053099,1.4201758],[103.9053256,1.4201569],[103.9053382,1.420127],[103.9053172,1.4199038],[103.9052942,1.4199042],[103.9052769,1.4197362],[103.9052654,1.4197056]]]}},{"type":"Feature","id":"way/32760051-0-0-0","properties":{"alt_name":"Ponggol 24th Avenue;Punggol Twenty-Fourth Avenue;Punggol 24th Avenue","highway":"residential","lanes":"2","lanes:backward":"1","lanes:forward":"1","maxspeed":"50","name":"Ponggol Twenty-Fourth Avenue","surface":"asphalt"},"geometry":{"type":"LineString","coordinates":[[103.9083169,1.4187582],[103.9082977,1.4187751]]}},{"type":"Feature","id":"way/32760051-0-1-0","properties":{"alt_name":"Ponggol 24th Avenue;Punggol Twenty-Fourth Avenue;Punggol 24th Avenue","highway":"residential","lanes":"2","lanes:backward":"1","lanes:forward":"1","maxspeed":"50","name":"Ponggol Twenty-Fourth Avenue","surface":"asphalt"},"geometry":{"type":"LineString","coordinates":[[103.9082977,1.4187751],[103.9082941,1.4188063]]}},{"type":"Feature","id":"way/32760051-0-2-0","properties":{"alt_name":"Ponggol 24th Avenue;Punggol Twenty-Fourth Avenue;Punggol 24th Avenue","highway":"residential","lanes":"2","lanes:backward":"1","lanes:forward":"1","maxspeed":"50","name":"Ponggol Twenty-Fourth Avenue","surface":"asphalt"},"geometry":{"type":"LineString","coordinates":[[103.9082941,1.4188063],[103.9083409,1.4191596]]}},{"type":"Feature","id":"way/32760051-0-3-0","properties":{"alt_name":"Ponggol 24th Avenue;Punggol Twenty-Fourth Avenue;Punggol 24th Avenue","highway":"residential","lanes":"2","lanes:backward":"1","lanes:forward":"1","maxspeed":"50","name":"Ponggol Twenty-Fourth Avenue","surface":"asphalt"},"geometry":{"type":"LineString","coordinates":[[103.9083409,1.4191596],[103.9083625,1.4193047]]}},{"type":"Feature","id":"way/32760051-0-4-0","properties":{"alt_name":"Ponggol 24th Avenue;Punggol Twenty-Fourth Avenue;Punggol 24th Avenue","highway":"residential","lanes":"2","lanes:backward":"1","lanes:forward":"1","maxspeed":"50","name":"Ponggol Twenty-Fourth Avenue","surface":"asphalt"},"geometry":{"type":"LineString","coordinates":[[103.9083625,1.4193047],[103.9083795,1.4194034]]}},{"type":"Feature","id":"way/32760051-0-5-0","properties":{"alt_name":"Ponggol 24th Avenue;Punggol Twenty-Fourth Avenue;Punggol 24th Avenue","highway":"residential","lanes":"2","lanes:backward":"1","lanes:forward":"1","maxspeed":"50","name":"Ponggol Twenty-Fourth Avenue","surface":"asphalt"},"geometry":{"type":"LineString","coordinates":[[103.9083795,1.4194034],[103.9084087,1.4195944]]}},{"type":"Feature","id":"way/32760051-0-6-0","properties":{"alt_name":"Ponggol 24th Avenue;Punggol Twenty-Fourth Avenue;Punggol 24th Avenue","highway":"residential","lanes":"2","lanes:backward":"1","lanes:forward":"1","maxspeed":"50","name":"Ponggol Twenty-Fourth Avenue","surface":"asphalt"},"geometry":{"type":"LineString","coordinates":[[103.9084087,1.4195944],[103.9084822,1.4195872]]}},{"type":"Feature","id":"way/32760051-0-7-0","properties":{"alt_name":"Ponggol 24th Avenue;Punggol Twenty-Fourth Avenue;Punggol 24th Avenue","highway":"residential","lanes":"2","lanes:backward":"1","lanes:forward":"1","maxspeed":"50","name":"Ponggol Twenty-Fourth Avenue","surface":"asphalt"},"geometry":{"type":"LineString","coordinates":[[103.9084822,1.4195872],[103.9085636,1.4196089]]}},{"type":"Feature","id":"way/32760051-0-8-0","properties":{"alt_name":"Ponggol 24th Avenue;Punggol Twenty-Fourth Avenue;Punggol 24th Avenue","highway":"residential","lanes":"2","lanes:backward":"1","lanes:forward":"1","maxspeed":"50","name":"Ponggol Twenty-Fourth Avenue","surface":"asphalt"},"geometry":{"type":"LineString","coordinates":[[103.9085636,1.4196089],[103.9086772,1.4196518]]}},{"type":"Feature","id":"way/32760051-0-9-0","properties":{"alt_name":"Ponggol 24th Avenue;Punggol Twenty-Fourth Avenue;Punggol 24th Avenue","highway":"residential","lanes":"2","lanes:backward":"1","lanes:forward":"1","maxspeed":"50","name":"Ponggol Twenty-Fourth Avenue","surface":"asphalt"},"geometry":{"type":"LineString","coordinates":[[103.9086772,1.4196518],[103.9087929,1.4197035]]}},{"type":"Feature","id":"way/32760051-0-10-0","properties":{"alt_name":"Ponggol 24th Avenue;Punggol Twenty-Fourth Avenue;Punggol 24th Avenue","highway":"residential","lanes":"2","lanes:backward":"1","lanes:forward":"1","maxspeed":"50","name":"Ponggol Twenty-Fourth Avenue","surface":"asphalt"},"geometry":{"type":"LineString","coordinates":[[103.9087929,1.4197035],[103.9089215,1.4197245]]}},{"type":"Feature","id":"way/32760051-0-11-0","properties":{"alt_name":"Ponggol 24th Avenue;Punggol Twenty-Fourth Avenue;Punggol 24th Avenue","highway":"residential","lanes":"2","lanes:backward":"1","lanes:forward":"1","maxspeed":"50","name":"Ponggol Twenty-Fourth Avenue","surface":"asphalt"},"geometry":{"type":"LineString","coordinates":[[103.9089215,1.4197245],[103.9090177,1.4197157]]}},{"type":"Feature","id":"way/444899255-0-0-0","properties":{"highway":"residential","lanes":"3","maxspeed":"50","name":"Northshore Crescent","name:zh":"\u5317\u5cb8\u5f2f","oneway":"yes","sidewalk:left":"separate","sidewalk:right":"no","surface":"asphalt"},"geometry":{"type":"LineString","coordinates":[[103.9072459,1.4194503],[103.9071552,1.4193294]]}},{"type":"Feature","id":"way/444899255-0-1-0","properties":{"highway":"residential","lanes":"3","maxspeed":"50","name":"Northshore Crescent","name:zh":"\u5317\u5cb8\u5f2f","oneway":"yes","sidewalk:left":"separate","sidewalk:right":"no","surface":"asphalt"},"geometry":{"type":"LineString","coordinates":[[103.9071552,1.4193294],[103.9070622,1.4191815]]}},{"type":"Feature","id":"way/465501539-0-0-0","properties":{"alt_name":"Ponggol 24th Avenue;Punggol Twenty-Fourth Avenue;Punggol 24th Avenue","highway":"residential","lanes":"2","lanes:backward":"1","lanes:forward":"1","maxspeed":"50","name":"Ponggol Twenty-Fourth Avenue","surface":"asphalt"},"geometry":{"type":"LineString","coordinates":[[103.9090177,1.4197157],[103.9096632,1.4195373]]}},{"type":"Feature","id":"way/539310353-0-4-0","properties":{"highway":"residential","lanes":"1","maxspeed":"50","oneway":"yes","sidewalk:both":"separate"},"geometry":{"type":"LineString","coordinates":[[103.9066891,1.4187273],[103.9067517,1.4187699]]}},{"type":"Feature","id":"way/539310353-0-5-0","properties":{"highway":"residential","lanes":"1","maxspeed":"50","oneway":"yes","sidewalk:both":"separate"},"geometry":{"type":"LineString","coordinates":[[103.9067517,1.4187699],[103.9068078,1.4188455]]}},{"type":"Feature","id":"way/539310356-0-2-0","properties":{"highway":"residential","lanes":"2","maxspeed":"50","name":"Northshore Crescent","name:zh":"\u5317\u5cb8\u5f2f","oneway":"yes","sidewalk:left":"separate","sidewalk:right":"no","surface":"asphalt"},"geometry":{"type":"LineString","coordinates":[[103.9068078,1.4188455],[103.9068254,1.4188862]]}},{"type":"Feature","id":"way/539310356-0-3-0","properties":{"highway":"residential","lanes":"2","maxspeed":"50","name":"Northshore Crescent","name:zh":"\u5317\u5cb8\u5f2f","oneway":"yes","sidewalk:left":"separate","sidewalk:right":"no","surface":"asphalt"},"geometry":{"type":"LineString","coordinates":[[103.9068254,1.4188862],[103.9069571,1.4191913]]}},{"type":"Feature","id":"way/539310356-0-4-0","properties":{"highway":"residential","lanes":"2","maxspeed":"50","name":"Northshore Crescent","name:zh":"\u5317\u5cb8\u5f2f","oneway":"yes","sidewalk:left":"separate","sidewalk:right":"no","surface":"asphalt"},"geometry":{"type":"LineString","coordinates":[[103.9069571,1.4191913],[103.907013,1.4192756]]}},{"type":"Feature","id":"way/539317438-0-0-0","properties":{"highway":"service","service":"driveway"},"geometry":{"type":"LineString","coordinates":[[103.9076278,1.4203525],[103.9078775,1.4201929]]}},{"type":"Feature","id":"way/539317438-0-1-0","properties":{"highway":"service","service":"driveway"},"geometry":{"type":"LineString","coordinates":[[103.9078775,1.4201929],[103.907841,1.4200879]]}},{"type":"Feature","id":"way/539317438-0-2-0","properties":{"highway":"service","service":"driveway"},"geometry":{"type":"LineString","coordinates":[[103.907841,1.4200879],[103.9078482,1.4200123]]}},{"type":"Feature","id":"way/539317438-0-3-0","properties":{"highway":"service","service":"driveway"},"geometry":{"type":"LineString","coordinates":[[103.9078482,1.4200123],[103.9078862,1.4199482]]}},{"type":"Feature","id":"way/645287545-0-5-0","properties":{"highway":"residential","lanes":"2","maxspeed":"50","name":"Northshore Drive","oneway":"yes","sidewalk:left":"separate","sidewalk:right":"no","surface":"asphalt"},"geometry":{"type":"LineString","coordinates":[[103.9050012,1.4188692],[103.905403,1.4188397]]}},{"type":"Feature","id":"way/645287545-0-6-0","properties":{"highway":"residential","lanes":"2","maxspeed":"50","name":"Northshore Drive","oneway":"yes","sidewalk:left":"separate","sidewalk:right":"no","surface":"asphalt"},"geometry":{"type":"LineString","coordinates":[[103.905403,1.4188397],[103.9059122,1.418731]]}},{"type":"Feature","id":"way/785346522-0-4-0","properties":{"highway":"residential","lanes":"2","maxspeed":"50","name":"Northshore Drive","oneway":"yes","sidewalk:left":"separate","sidewalk:right":"no","surface":"asphalt"},"geometry":{"type":"LineString","coordinates":[[103.9054106,1.4187741],[103.9050947,1.4187944]]}},{"type":"Feature","id":"way/785346522-0-5-0","properties":{"highway":"residential","lanes":"2","maxspeed":"50","name":"Northshore Drive","oneway":"yes","sidewalk:left":"separate","sidewalk:right":"no","surface":"asphalt"},"geometry":{"type":"LineString","coordinates":[[103.9050947,1.4187944],[103.904831,1.418798]]}},{"type":"Feature","id":"way/1098106983-0-1-0","properties":{"highway":"service","service":"driveway"},"geometry":{"type":"LineString","coordinates":[[103.9049491,1.4193193],[103.9050095,1.4193847]]}},{"type":"Feature","id":"way/1098106984-0-0-0","properties":{"highway":"service","oneway":"yes","service":"driveway"},"geometry":{"type":"LineString","coordinates":[[103.9051068,1.4194856],[103.9051167,1.4194634]]}},{"type":"Feature","id":"way/1098106984-0-1-0","properties":{"highway":"service","oneway":"yes","service":"driveway"},"geometry":{"type":"LineString","coordinates":[[103.9051167,1.4194634],[103.9051186,1.4194393]]}},{"type":"Feature","id":"way/1098106984-0-2-0","properties":{"highway":"service","oneway":"yes","service":"driveway"},"geometry":{"type":"LineString","coordinates":[[103.9051186,1.4194393],[103.9051125,1.4194159]]}},{"type":"Feature","id":"way/1098106984-0-3-0","properties":{"highway":"service","oneway":"yes","service":"driveway"},"geometry":{"type":"LineString","coordinates":[[103.9051125,1.4194159],[103.9050988,1.4193958]]}},{"type":"Feature","id":"way/1098106984-0-4-0","properties":{"highway":"service","oneway":"yes","service":"driveway"},"geometry":{"type":"LineString","coordinates":[[103.9050988,1.4193958],[103.9050794,1.4193815]]}},{"type":"Feature","id":"way/1098106984-0-5-0","properties":{"highway":"service","oneway":"yes","service":"driveway"},"geometry":{"type":"LineString","coordinates":[[103.9050794,1.4193815],[103.9050561,1.4193745]]}},{"type":"Feature","id":"way/1098106984-0-6-0","properties":{"highway":"service","oneway":"yes","service":"driveway"},"geometry":{"type":"LineString","coordinates":[[103.9050561,1.4193745],[103.9050319,1.4193756]]}},{"type":"Feature","id":"way/1098106984-0-7-0","properties":{"highway":"service","oneway":"yes","service":"driveway"},"geometry":{"type":"LineString","coordinates":[[103.9050319,1.4193756],[103.9050095,1.4193847]]}},{"type":"Feature","id":"way/1098106984-0-8-0","properties":{"highway":"service","oneway":"yes","service":"driveway"},"geometry":{"type":"LineString","coordinates":[[103.9050095,1.4193847],[103.9049923,1.4193994]]}},{"type":"Feature","id":"way/1098106984-0-9-0","properties":{"highway":"service","oneway":"yes","service":"driveway"},"geometry":{"type":"LineString","coordinates":[[103.9049923,1.4193994],[103.9049807,1.4194188]]}},{"type":"Feature","id":"way/1098106984-0-10-0","properties":{"highway":"service","oneway":"yes","service":"driveway"},"geometry":{"type":"LineString","coordinates":[[103.9049807,1.4194188],[103.9049756,1.4194407]]}},{"type":"Feature","id":"way/1098353817-0-0-0","properties":{"highway":"residential","lanes":"1","maxspeed":"50","oneway":"yes","sidewalk:both":"separate","surface":"asphalt"},"geometry":{"type":"LineString","coordinates":[[103.9069624,1.4189902],[103.9069533,1.4188429]]}},{"type":"Feature","id":"way/1098353817-0-1-0","properties":{"highway":"residential","lanes":"1","maxspeed":"50","oneway":"yes","sidewalk:both":"separate","surface":"asphalt"},"geometry":{"type":"LineString","coordinates":[[103.9069533,1.4188429],[103.9069588,1.418755]]}},{"type":"Feature","id":"way/1098353818-0-0-0","properties":{"highway":"residential","lanes":"3","maxspeed":"50","name":"Northshore Crescent","name:zh":"\u5317\u5cb8\u5f2f","oneway":"yes","sidewalk:left":"separate","sidewalk:right":"no","surface":"asphalt"},"geometry":{"type":"LineString","coordinates":[[103.9069624,1.4189902],[103.9068208,1.4186289]]}},{"type":"Feature","id":"way/1098353819-0-0-0","properties":{"highway":"residential","lanes":"4","maxspeed":"50","name":"Northshore Crescent","name:zh":"\u5317\u5cb8\u5f2f","oneway":"yes","sidewalk:left":"separate","sidewalk:right":"no","surface":"asphalt"},"geometry":{"type":"LineString","coordinates":[[103.9070622,1.4191815],[103.9069624,1.4189902]]}},{"type":"Feature","id":"way/1098353820-0-0-0","properties":{"highway":"residential","lanes":"1","maxspeed":"50","name":"Northshore Crescent","name:zh":"\u5317\u5cb8\u5f2f","oneway":"yes","sidewalk:left":"separate","sidewalk:right":"no","surface":"asphalt"},"geometry":{"type":"LineString","coordinates":[[103.9073247,1.4195337],[103.9072459,1.4194503]]}},{"type":"Feature","id":"way/1124778509-0-0-0","properties":{"highway":"residential","name":"Northshore Crescent","name:zh":"\u5317\u5cb8\u5f2f","oneway":"yes","sidewalk:left":"separate","sidewalk:right":"no"},"geometry":{"type":"LineString","coordinates":[[103.908218,1.4200072],[103.9083496,1.4200085]]}},{"type":"Feature","id":"way/1124778509-0-1-0","properties":{"highway":"residential","name":"Northshore Crescent","name:zh":"\u5317\u5cb8\u5f2f","oneway":"yes","sidewalk:left":"separate","sidewalk:right":"no"},"geometry":{"type":"LineString","coordinates":[[103.9083496,1.4200085],[103.9084781,1.4200199]]}},{"type":"Feature","id":"way/1124778509-0-2-0","properties":{"highway":"residential","name":"Northshore Crescent","name:zh":"\u5317\u5cb8\u5f2f","oneway":"yes","sidewalk:left":"separate","sidewalk:right":"no"},"geometry":{"type":"LineString","coordinates":[[103.9084781,1.4200199],[103.9087003,1.420019]]}},{"type":"Feature","id":"way/1124778509-0-3-0","properties":{"highway":"residential","name":"Northshore Crescent","name:zh":"\u5317\u5cb8\u5f2f","oneway":"yes","sidewalk:left":"separate","sidewalk:right":"no"},"geometry":{"type":"LineString","coordinates":[[103.9087003,1.420019],[103.9090886,1.4199753]]}},{"type":"Feature","id":"way/1124778509-0-4-0","properties":{"highway":"residential","name":"Northshore Crescent","name:zh":"\u5317\u5cb8\u5f2f","oneway":"yes","sidewalk:left":"separate","sidewalk:right":"no"},"geometry":{"type":"LineString","coordinates":[[103.9090886,1.4199753],[103.9093243,1.419913]]}},{"type":"Feature","id":"way/1124778509-0-5-0","properties":{"highway":"residential","name":"Northshore Crescent","name:zh":"\u5317\u5cb8\u5f2f","oneway":"yes","sidewalk:left":"separate","sidewalk:right":"no"},"geometry":{"type":"LineString","coordinates":[[103.9093243,1.419913],[103.9094018,1.4199159]]}},{"type":"Feature","id":"way/1124778509-0-14-0","properties":{"highway":"residential","name":"Northshore Crescent","name:zh":"\u5317\u5cb8\u5f2f","oneway":"yes","sidewalk:left":"separate","sidewalk:right":"no"},"geometry":{"type":"LineString","coordinates":[[103.9095058,1.4197668],[103.9090777,1.4199004]]}},{"type":"Feature","id":"way/1124778509-0-15-0","properties":{"highway":"residential","name":"Northshore Crescent","name:zh":"\u5317\u5cb8\u5f2f","oneway":"yes","sidewalk:left":"separate","sidewalk:right":"no"},"geometry":{"type":"LineString","coordinates":[[103.9090777,1.4199004],[103.9087011,1.4199496]]}},{"type":"Feature","id":"way/1124778509-0-16-0","properties":{"highway":"residential","name":"Northshore Crescent","name:zh":"\u5317\u5cb8\u5f2f","oneway":"yes","sidewalk:left":"separate","sidewalk:right":"no"},"geometry":{"type":"LineString","coordinates":[[103.9087011,1.4199496],[103.9084705,1.4199472]]}},{"type":"Feature","id":"way/1124778509-0-17-0","properties":{"highway":"residential","name":"Northshore Crescent","name:zh":"\u5317\u5cb8\u5f2f","oneway":"yes","sidewalk:left":"separate","sidewalk:right":"no"},"geometry":{"type":"LineString","coordinates":[[103.9084705,1.4199472],[103.9083575,1.4199367]]}},{"type":"Feature","id":"way/1124778509-0-18-0","properties":{"highway":"residential","name":"Northshore Crescent","name:zh":"\u5317\u5cb8\u5f2f","oneway":"yes","sidewalk:left":"separate","sidewalk:right":"no"},"geometry":{"type":"LineString","coordinates":[[103.9083575,1.4199367],[103.9082373,1.419929]]}},{"type":"Feature","id":"way/1143761816-0-0-0","properties":{"highway":"residential","name":"Northshore Crescent","name:zh":"\u5317\u5cb8\u5f2f","oneway":"yes","sidewalk:left":"separate","sidewalk:right":"no"},"geometry":{"type":"LineString","coordinates":[[103.9072499,1.4195711],[103.9074023,1.419714]]}},{"type":"Feature","id":"way/1143761816-0-1-0","properties":{"highway":"residential","name":"Northshore Crescent","name:zh":"\u5317\u5cb8\u5f2f","oneway":"yes","sidewalk:left":"separate","sidewalk:right":"no"},"geometry":{"type":"LineString","coordinates":[[103.9074023,1.419714],[103.9076026,1.4198359]]}},{"type":"Feature","id":"way/1143761816-0-2-0","properties":{"highway":"residential","name":"Northshore Crescent","name:zh":"\u5317\u5cb8\u5f2f","oneway":"yes","sidewalk:left":"separate","sidewalk:right":"no"},"geometry":{"type":"LineString","coordinates":[[103.9076026,1.4198359],[103.9078217,1.419932]]}},{"type":"Feature","id":"way/1143761816-0-3-0","properties":{"highway":"residential","name":"Northshore Crescent","name:zh":"\u5317\u5cb8\u5f2f","oneway":"yes","sidewalk:left":"separate","sidewalk:right":"no"},"geometry":{"type":"LineString","coordinates":[[103.9078217,1.419932],[103.9078862,1.4199482]]}},{"type":"Feature","id":"way/1143761816-0-4-0","properties":{"highway":"residential","name":"Northshore Crescent","name:zh":"\u5317\u5cb8\u5f2f","oneway":"yes","sidewalk:left":"separate","sidewalk:right":"no"},"geometry":{"type":"LineString","coordinates":[[103.9078862,1.4199482],[103.908218,1.4200072]]}},{"type":"Feature","id":"way/1143761816-0-5-0","properties":{"highway":"residential","name":"Northshore Crescent","name:zh":"\u5317\u5cb8\u5f2f","oneway":"yes","sidewalk:left":"separate","sidewalk:right":"no"},"geometry":{"type":"LineString","coordinates":[[103.908218,1.4200072],[103.9082373,1.419929]]}},{"type":"Feature","id":"way/1159408893-0-0-0","properties":{"covered":"yes","highway":"service","oneway":"yes","service":"driveway"},"geometry":{"type":"LineString","coordinates":[[103.9049756,1.4194407],[103.9049777,1.4194632]]}},{"type":"Feature","id":"way/1159408893-0-1-0","properties":{"covered":"yes","highway":"service","oneway":"yes","service":"driveway"},"geometry":{"type":"LineString","coordinates":[[103.9049777,1.4194632],[103.9049866,1.419484]]}},{"type":"Feature","id":"way/1159408893-0-2-0","properties":{"covered":"yes","highway":"service","oneway":"yes","service":"driveway"},"geometry":{"type":"LineString","coordinates":[[103.9049866,1.419484],[103.9050015,1.419501]]}},{"type":"Feature","id":"way/1159408893-0-3-0","properties":{"covered":"yes","highway":"service","oneway":"yes","service":"driveway"},"geometry":{"type":"LineString","coordinates":[[103.9050015,1.419501],[103.905021,1.4195125]]}},{"type":"Feature","id":"way/1159408893-0-4-0","properties":{"covered":"yes","highway":"service","oneway":"yes","service":"driveway"},"geometry":{"type":"LineString","coordinates":[[103.905021,1.4195125],[103.9050447,1.4195174]]}},{"type":"Feature","id":"way/1159408893-0-5-0","properties":{"covered":"yes","highway":"service","oneway":"yes","service":"driveway"},"geometry":{"type":"LineString","coordinates":[[103.9050447,1.4195174],[103.9050687,1.4195142]]}},{"type":"Feature","id":"way/1159408893-0-6-0","properties":{"covered":"yes","highway":"service","oneway":"yes","service":"driveway"},"geometry":{"type":"LineString","coordinates":[[103.9050687,1.4195142],[103.9050902,1.4195031]]}},{"type":"Feature","id":"way/1159408893-0-7-0","properties":{"covered":"yes","highway":"service","oneway":"yes","service":"driveway"},"geometry":{"type":"LineString","coordinates":[[103.9050902,1.4195031],[103.9051068,1.4194856]]}},{"type":"Feature","id":"way/1190946626-0-0-0","properties":{"highway":"service","service":"driveway"},"geometry":{"type":"LineString","coordinates":[[103.907013,1.4192756],[103.9069514,1.4193101]]}},{"type":"Feature","id":"way/1190946626-0-1-0","properties":{"highway":"service","service":"driveway"},"geometry":{"type":"LineString","coordinates":[[103.9069514,1.4193101],[103.9068712,1.4193654]]}},{"type":"Feature","id":"way/1190946627-0-0-0","properties":{"highway":"residential","lanes":"2","maxspeed":"50","name":"Northshore Crescent","name:zh":"\u5317\u5cb8\u5f2f","oneway":"yes","sidewalk:left":"separate","sidewalk:right":"no","surface":"asphalt"},"geometry":{"type":"LineString","coordinates":[[103.907013,1.4192756],[103.9070912,1.4193721]]}},{"type":"Feature","id":"way/1190946627-0-1-0","properties":{"highway":"residential","lanes":"2","maxspeed":"50","name":"Northshore Crescent","name:zh":"\u5317\u5cb8\u5f2f","oneway":"yes","sidewalk:left":"separate","sidewalk:right":"no","surface":"asphalt"},"geometry":{"type":"LineString","coordinates":[[103.9070912,1.4193721],[103.907164,1.4194828]]}},{"type":"Feature","id":"way/1190946629-0-0-0","properties":{"highway":"service","service":"driveway"},"geometry":{"type":"LineString","coordinates":[[103.9068712,1.4193654],[103.906678,1.4189851]]}},{"type":"Feature","id":"way/1190946630-0-0-0","properties":{"highway":"service","service":"driveway"},"geometry":{"type":"LineString","coordinates":[[103.9068712,1.4193654],[103.9068179,1.4193683]]}},{"type":"Feature","id":"way/1190946630-0-1-0","properties":{"highway":"service","service":"driveway"},"geometry":{"type":"LineString","coordinates":[[103.9068179,1.4193683],[103.9067236,1.4193529]]}},{"type":"Feature","id":"way/1190946630-0-2-0","properties":{"highway":"service","service":"driveway"},"geometry":{"type":"LineString","coordinates":[[103.9067236,1.4193529],[103.906523,1.4193202]]}},{"type":"Feature","id":"way/1221344778-0-0-0","properties":{"highway":"service","service":"driveway"},"geometry":{"type":"LineString","coordinates":[[103.9068179,1.4193683],[103.9068367,1.4193995]]}},{"type":"Feature","id":"way/1221344778-0-1-0","properties":{"highway":"service","service":"driveway"},"geometry":{"type":"LineString","coordinates":[[103.9068367,1.4193995],[103.9068709,1.4194434]]}},{"type":"Feature","id":"way/1221344778-0-2-0","properties":{"highway":"service","service":"driveway"},"geometry":{"type":"LineString","coordinates":[[103.9068709,1.4194434],[103.906949,1.4195433]]}},{"type":"Feature","id":"way/1221344829-0-0-0","properties":{"highway":"service","service":"driveway"},"geometry":{"type":"LineString","coordinates":[[103.9067236,1.4193529],[103.9067441,1.4192671]]}},{"type":"Feature","id":"way/1221344829-0-1-0","properties":{"highway":"service","service":"driveway"},"geometry":{"type":"LineString","coordinates":[[103.9067441,1.4192671],[103.9067321,1.4192296]]}},{"type":"Feature","id":"way/1221344829-0-2-0","properties":{"highway":"service","service":"driveway"},"geometry":{"type":"LineString","coordinates":[[103.9067321,1.4192296],[103.9067032,1.4191987]]}},{"type":"Feature","id":"way/1221344829-0-3-0","properties":{"highway":"service","service":"driveway"},"geometry":{"type":"LineString","coordinates":[[103.9067032,1.4191987],[103.9065383,1.4191572]]}},{"type":"Feature","id":"way/1221344829-0-4-0","properties":{"highway":"service","service":"driveway"},"geometry":{"type":"LineString","coordinates":[[103.9065383,1.4191572],[103.9065108,1.4191612]]}},{"type":"Feature","id":"way/1221344829-0-5-0","properties":{"highway":"service","service":"driveway"},"geometry":{"type":"LineString","coordinates":[[103.9065108,1.4191612],[103.9064766,1.4191699]]}},{"type":"Feature","id":"way/1308680498-0-0-0","properties":{"highway":"residential","name":"Northshore Crescent","name:zh":"\u5317\u5cb8\u5f2f","oneway":"yes","sidewalk:left":"separate","sidewalk:right":"no"},"geometry":{"type":"LineString","coordinates":[[103.9082373,1.419929],[103.9080402,1.4199116]]}},{"type":"Feature","id":"way/1308680498-0-1-0","properties":{"highway":"residential","name":"Northshore Crescent","name:zh":"\u5317\u5cb8\u5f2f","oneway":"yes","sidewalk:left":"separate","sidewalk:right":"no"},"geometry":{"type":"LineString","coordinates":[[103.9080402,1.4199116],[103.9078362,1.4198568]]}},{"type":"Feature","id":"way/1308680498-0-2-0","properties":{"highway":"residential","name":"Northshore Crescent","name:zh":"\u5317\u5cb8\u5f2f","oneway":"yes","sidewalk:left":"separate","sidewalk:right":"no"},"geometry":{"type":"LineString","coordinates":[[103.9078362,1.4198568],[103.9076126,1.4197633]]}},{"type":"Feature","id":"way/1308680498-0-3-0","properties":{"highway":"residential","name":"Northshore Crescent","name:zh":"\u5317\u5cb8\u5f2f","oneway":"yes","sidewalk:left":"separate","sidewalk:right":"no"},"geometry":{"type":"LineString","coordinates":[[103.9076126,1.4197633],[103.9074409,1.4196339]]}},{"type":"Feature","id":"way/1308680498-0-4-0","properties":{"highway":"residential","name":"Northshore Crescent","name:zh":"\u5317\u5cb8\u5f2f","oneway":"yes","sidewalk:left":"separate","sidewalk:right":"no"},"geometry":{"type":"LineString","coordinates":[[103.9074409,1.4196339],[103.9073247,1.4195337]]}},{"type":"Feature","id":"way/1393172697-0-0-0","properties":{"highway":"service","service":"parking_aisle"},"geometry":{"type":"LineString","coordinates":[[103.908616,1.4203864],[103.9084257,1.4204237]]}},{"type":"Feature","id":"way/1393172697-0-1-0","properties":{"highway":"service","service":"parking_aisle"},"geometry":{"type":"LineString","coordinates":[[103.9084257,1.4204237],[103.908377,1.4204333]]}},{"type":"Feature","id":"way/1393172812-0-0-0","properties":{"highway":"residential"},"geometry":{"type":"LineString","coordinates":[[103.9084087,1.4195944],[103.9084153,1.4196587]]}},{"type":"Feature","id":"way/1393385925-0-0-0","properties":{"highway":"residential","oneway":"yes"},"geometry":{"type":"LineString","coordinates":[[103.9084153,1.4196587],[103.908394,1.4197531]]}},{"type":"Feature","id":"way/1393385925-0-1-0","properties":{"highway":"residential","oneway":"yes"},"geometry":{"type":"LineString","coordinates":[[103.908394,1.4197531],[103.9083972,1.4198102]]}},{"type":"Feature","id":"way/1393385925-0-2-0","properties":{"highway":"residential","oneway":"yes"},"geometry":{"type":"LineString","coordinates":[[103.9083972,1.4198102],[103.9083956,1.4198753]]}},{"type":"Feature","id":"way/1393385925-0-3-0","properties":{"highway":"residential","oneway":"yes"},"geometry":{"type":"LineString","coordinates":[[103.9083956,1.4198753],[103.9083575,1.4199367]]}},{"type":"Feature","id":"way/1393385926-0-0-0","properties":{"highway":"residential","oneway":"yes"},"geometry":{"type":"LineString","coordinates":[[103.9084781,1.4200199],[103.9084705,1.4199472]]}},{"type":"Feature","id":"way/1393385926-0-1-0","properties":{"highway":"residential","oneway":"yes"},"geometry":{"type":"LineString","coordinates":[[103.9084705,1.4199472],[103.9084563,1.4198013]]}},{"type":"Feature","id":"way/1393385926-0-2-0","properties":{"highway":"residential","oneway":"yes"},"geometry":{"type":"LineString","coordinates":[[103.9084563,1.4198013],[103.9084439,1.4197331]]}},{"type":"Feature","id":"way/1393385926-0-3-0","properties":{"highway":"residential","oneway":"yes"},"geometry":{"type":"LineString","coordinates":[[103.9084439,1.4197331],[103.9084153,1.4196587]]}},{"type":"Feature","id":"way/1452943516-0-0-0","properties":{"highway":"residential","lanes":"1","maxspeed":"50","name":"Northshore Crescent","name:zh":"\u5317\u5cb8\u5f2f","oneway":"yes","sidewalk:left":"separate","sidewalk:right":"no","surface":"asphalt"},"geometry":{"type":"LineString","coordinates":[[103.907164,1.4194828],[103.9072499,1.4195711]]}},{"type":"Feature","id":"way/1452943517-0-0-0","properties":{"highway":"service","lanes":"1","maxspeed":"50","oneway":"yes","surface":"asphalt"},"geometry":{"type":"LineString","coordinates":[[103.9072499,1.4195711],[103.9072939,1.4195663]]}},{"type":"Feature","id":"way/1452943517-0-1-0","properties":{"highway":"service","lanes":"1","maxspeed":"50","oneway":"yes","surface":"asphalt"},"geometry":{"type":"LineString","coordinates":[[103.9072939,1.4195663],[103.9073247,1.4195337]]}}]}