{"type":"FeatureCollection","features":[{"type":"Feature","id":"way/274201592-0","properties":{"building":"industrial"},"geometry":{"type":"Polygon","coordinates":[[[103.9270172,1.3650932],[103.9266954,1.3652112],[103.9270387,1.3661229],[103.9273391,1.3660157],[103.9270172,1.3650932]]]}},{"type":"Feature","id":"way/274201648-0","properties":{"addr:city":"Singapore","addr:housenumber":"15","addr:postcode":"529788","addr:street":"Tampines Avenue","building":"yes","building:levels":"2","description":"shophouses - residential with retail/commercial on ground floor"},"geometry":{"type":"Polygon","coordinates":[[[103.9266562,1.3665756],[103.9265709,1.3665554],[103.9265898,1.3664754],[103.9265513,1.3664663],[103.926508,1.3666495],[103.9265973,1.3666713],[103.9266562,1.3665756]]]}},{"type":"Feature","id":"way/453276206-0","properties":{"building":"yes"},"geometry":{"type":"Polygon","coordinates":[[[103.9236188,1.3686254],[103.923472,1.3686768],[103.9235083,1.3687806],[103.9236551,1.3687292],[103.9236188,1.3686254]]]}},{"type":"Feature","id":"way/453276215-0","properties":{"building":"yes"},"geometry":{"type":"Polygon","coordinates":[[[103.9236067,1.3683199],[103.9237285,1.3685849],[103.9239318,1.3684916],[103.9239008,1.3684241],[103.9237615,1.3684881],[103.9236707,1.3682905],[103.9236067,1.3683199]]]}},{"type":"Feature","id":"way/1218814924-0","properties":{"addr:city":"Singapore","addr:housenumber":"15B","addr:postcode":"529790","addr:street":"Tampines Avenue","building":"yes","building:levels":"2","description":"shophouses - residential with retail/commercial on ground floor"},"geometry":{"type":"Polygon","coordinates":[[[103.926508,1.3666495],[103.9265513,1.3664663],[103.926515,1.3664587],[103.9264961,1.3665363],[103.92646,1.3665275],[103.9264347,1.3666317],[103.926508,1.3666495]]]}},{"type":"Feature","id":"way/1218814925-0","properties":{"addr:city":"Singapore","addr:housenumber":"17","addr:postcode":"529792","addr:street":"Tampines Avenue","building":"yes","building:levels":"2","description":"shophouses - residential with retail/commercial on ground floor"},"geometry":{"type":"Polygon","coordinates":[[[103.9264347,1.3666317],[103.92646,1.3665275],[103.9264276,1.36652],[103.9264474,1.3664401],[103.9264064,1.3664299],[103.9263607,1.3666136],[103.9264347,1.3666317]]]}},{"type":"Feature","id":"way/1218814926-0","properties":{"addr:city":"Singapore","addr:housenumber":"17B","addr:postcode":"529794","addr:street":"Tampines Avenue","building":"yes","building:levels":"2","description":"shophouses - residential with retail/commercial on ground floor"},"geometry":{"type":"Polygon","coordinates":[[[103.9263607,1.3666136],[103.9264064,1.3664299],[103.926374,1.3664209],[103.9263548,1.3665009],[103.926314,1.3664912],[103.9262888,1.3665961],[103.9263607,1.3666136]]]}},{"type":"Feature","id":"way/1218814927-0","properties":{"addr:city":"Singapore","addr:housenumber":"19","addr:postcode":"529798","addr:street":"Tampines Avenue","building":"yes","building:levels":"2","description":"shophouses - residential with retail/commercial on ground floor"},"geometry":{"type":"Polygon","coordinates":[[[103.9262888,1.3665961],[103.926314,1.3664912],[103.9262832,1.3664843],[103.9263025,1.3664046],[103.9262671,1.366396],[103.9262223,1.3665799],[103.9262888,1.3665961]]]}},{"type":"Feature","id":"way/1218814928-0","properties":{"addr:city":"Singapore","addr:housenumber":"19B","addr:postcode":"529800","addr:street":"Tampines Avenue","building":"yes","building:levels":"2","description":"shophouses - residential with retail/commercial on ground floor"},"geometry":{"type":"Polygon","coordinates":[[[103.9262223,1.3665799],[103.9262671,1.366396],[103.9262295,1.3663875],[103.9262103,1.3664644],[103.9261759,1.3664558],[103.9261494,1.3665622],[103.9262223,1.3665799]]]}},{"type":"Feature","id":"way/1218814929-0","properties":{"addr:city":"Singapore","addr:housenumber":"21","addr:postcode":"529802","addr:street":"Tampines Avenue","building":"yes","building:levels":"2","description":"shophouses - residential with retail/commercial on ground floor"},"geometry":{"type":"Polygon","coordinates":[[[103.9261494,1.3665622],[103.9261759,1.3664558],[103.9261434,1.3664476],[103.9261629,1.3663699],[103.9261233,1.36636],[103.9260771,1.3665446],[103.9261494,1.3665622]]]}},{"type":"Feature","id":"way/1218814930-0","properties":{"addr:city":"Singapore","addr:housenumber":"21B","addr:postcode":"529804","addr:street":"Tampines Avenue","building":"yes","building:levels":"2","description":"shophouses - residential with retail/commercial on ground floor"},"geometry":{"type":"Polygon","coordinates":[[[103.9260771,1.3665446],[103.9261233,1.36636],[103.9260851,1.3663493],[103.9260656,1.366427],[103.9260319,1.3664185],[103.9260048,1.3665269],[103.9260771,1.3665446]]]}},{"type":"Feature","id":"way/1218814931-0","properties":{"addr:city":"Singapore","addr:housenumber":"23","addr:postcode":"529806","addr:street":"Tampines Avenue","building":"yes","building:levels":"2","description":"shophouses - residential with retail/commercial on ground floor"},"geometry":{"type":"Polygon","coordinates":[[[103.9260048,1.3665269],[103.9260319,1.3664185],[103.9259978,1.3664093],[103.926016,1.3663349],[103.9259725,1.3663242],[103.9259274,1.3665081],[103.9260048,1.3665269]]]}},{"type":"Feature","id":"way/170864845-0-0-0","properties":{"highway":"unclassified","lanes":"2","maxspeed":"60","name":"Tampines Industrial Avenue 2","oneway":"yes","sidewalk:left":"separate","sidewalk:right":"no","surface":"asphalt","turn:lanes":"right|right"},"geometry":{"type":"LineString","coordinates":[[103.9265116,1.3657409],[103.9265527,1.3658328]]}},{"type":"Feature","id":"way/170868650-0-0-0","properties":{"highway":"tertiary","lanes":"2","maxspeed":"50","name":"Tampines Link","oneway":"yes","surface":"asphalt"},"geometry":{"type":"LineString","coordinates":[[103.9271522,1.3669517],[103.9272047,1.3670437]]}},{"type":"Feature","id":"way/170868650-0-1-0","properties":{"highway":"tertiary","lanes":"2","maxspeed":"50","name":"Tampines Link","oneway":"yes","surface":"asphalt"},"geometry":{"type":"LineString","coordinates":[[103.9272047,1.3670437],[103.9272682,1.3671517]]}},{"type":"Feature","id":"way/170868650-0-2-0","properties":{"highway":"tertiary","lanes":"2","maxspeed":"50","name":"Tampines Link","oneway":"yes","surface":"asphalt"},"geometry":{"type":"LineString","coordinates":[[103.9272682,1.3671517],[103.9273937,1.367282]]}},{"type":"Feature","id":"way/262613760-0-0-0","properties":{"highway":"service","lanes":"2","lanes:backward":"1","lanes:forward":"1","name":"Jalan Sam Kongsi","name:zh":"\u60f9\u5170\u4e09\u516c\u53f8","sidewalk":"right","surface":"asphalt"},"geometry":{"type":"LineString","coordinates":[[103.9255688,1.3666042],[103.9255469,1.3667697]]}},{"type":"Feature","id":"way/262613760-0-1-0","properties":{"highway":"service","lanes":"2","lanes:backward":"1","lanes:forward":"1","name":"Jalan Sam Kongsi","name:zh":"\u60f9\u5170\u4e09\u516c\u53f8","sidewalk":"right","surface":"asphalt"},"geometry":{"type":"LineString","coordinates":[[103.9255469,1.3667697],[103.9255442,1.3669398]]}},{"type":"Feature","id":"way/262613760-0-2-0","properties":{"highway":"service","lanes":"2","lanes:backward":"1","lanes:forward":"1","name":"Jalan Sam Kongsi","name:zh":"\u60f9\u5170\u4e09\u516c\u53f8","sidewalk":"right","surface":"asphalt"},"geometry":{"type":"LineString","coordinates":[[103.9255442,1.3669398],[103.9255567,1.3670913]]}},{"type":"Feature","id":"way/452363506-0-0-0","properties":{"highway":"service","lanes":"2","surface":"asphalt"},"geometry":{"type":"LineString","coordinates":[[103.9243243,1.3686521],[103.9242861,1.3685472]]}},{"type":"Feature","id":"way/452363506-0-1-0","properties":{"highway":"service","lanes":"2","surface":"asphalt"},"geometry":{"type":"LineString","coordinates":[[103.9242861,1.3685472],[103.924277,1.3685222]]}},{"type":"Feature","id":"way/452363506-0-2-0","properties":{"highway":"service","lanes":"2","surface":"asphalt"},"geometry":{"type":"LineString","coordinates":[[103.924277,1.3685222],[103.9242294,1.3683978]]}},{"type":"Feature","id":"way/452363506-0-3-0","properties":{"highway":"service","lanes":"2","surface":"asphalt"},"geometry":{"type":"LineString","coordinates":[[103.9242294,1.3683978],[103.9241369,1.3681383]]}},{"type":"Feature","id":"way/452363506-0-4-0","properties":{"highway":"service","lanes":"2","surface":"asphalt"},"geometry":{"type":"LineString","coordinates":[[103.9241369,1.3681383],[103.9237249,1.3672686]]}},{"type":"Feature","id":"way/480252559-0-1-0","properties":{"highway":"secondary","lanes":"3","maxspeed":"60","name":"Tampines Road","oneway":"yes","sidewalk:left":"separate","sidewalk:right":"no","surface":"asphalt"},"geometry":{"type":"LineString","coordinates":[[103.9238508,1.3693209],[103.9239638,1.3691992]]}},{"type":"Feature","id":"way/480252559-0-2-0","properties":{"highway":"secondary","lanes":"3","maxspeed":"60","name":"Tampines Road","oneway":"yes","sidewalk:left":"separate","sidewalk:right":"no","surface":"asphalt"},"geometry":{"type":"LineString","coordinates":[[103.9239638,1.3691992],[103.9242585,1.368899]]}},{"type":"Feature","id":"way/480252559-0-3-0","properties":{"highway":"secondary","lanes":"3","maxspeed":"60","name":"Tampines Road","oneway":"yes","sidewalk:left":"separate","sidewalk:right":"no","surface":"asphalt"},"geometry":{"type":"LineString","coordinates":[[103.9242585,1.368899],[103.9247249,1.3684349]]}},{"type":"Feature","id":"way/480252559-0-4-0","properties":{"highway":"secondary","lanes":"3","maxspeed":"60","name":"Tampines Road","oneway":"yes","sidewalk:left":"separate","sidewalk:right":"no","surface":"asphalt"},"geometry":{"type":"LineString","coordinates":[[103.9247249,1.3684349],[103.9250529,1.3680834]]}},{"type":"Feature","id":"way/480252559-0-5-0","properties":{"highway":"secondary","lanes":"3","maxspeed":"60","name":"Tampines Road","oneway":"yes","sidewalk:left":"separate","sidewalk:right":"no","surface":"asphalt"},"geometry":{"type":"LineString","coordinates":[[103.9250529,1.3680834],[103.9252848,1.3678384]]}},{"type":"Feature","id":"way/480261356-0-2-0","properties":{"highway":"secondary_link","lanes":"1","maxspeed":"50","oneway":"yes","sidewalk:both":"separate","surface":"asphalt"},"geometry":{"type":"LineString","coordinates":[[103.923974,1.3693711],[103.9239699,1.369302]]}},{"type":"Feature","id":"way/480261356-0-3-0","properties":{"highway":"secondary_link","lanes":"1","maxspeed":"50","oneway":"yes","sidewalk:both":"separate","surface":"asphalt"},"geometry":{"type":"LineString","coordinates":[[103.9239699,1.369302],[103.9239638,1.3691992]]}},{"type":"Feature","id":"way/490863327-0-0-0","properties":{"highway":"service","oneway":"yes"},"geometry":{"type":"LineString","coordinates":[[103.9262898,1.3668436],[103.9263912,1.3666656]]}},{"type":"Feature","id":"way/490863327-0-1-0","properties":{"highway":"service","oneway":"yes"},"geometry":{"type":"LineString","coordinates":[[103.9263912,1.3666656],[103.9259733,1.3665552]]}},{"type":"Feature","id":"way/490863327-0-2-0","properties":{"highway":"service","oneway":"yes"},"geometry":{"type":"LineString","coordinates":[[103.9259733,1.3665552],[103.925921,1.3665608]]}},{"type":"Feature","id":"way/490863327-0-3-0","properties":{"highway":"service","oneway":"yes"},"geometry":{"type":"LineString","coordinates":[[103.925921,1.3665608],[103.925874,1.3666225]]}},{"type":"Feature","id":"way/490863327-0-4-0","properties":{"highway":"service","oneway":"yes"},"geometry":{"type":"LineString","coordinates":[[103.925874,1.3666225],[103.9258495,1.3667005]]}},{"type":"Feature","id":"way/632377343-0-0-0","properties":{"highway":"secondary","lanes":"1","maxspeed":"70","name":"Tampines Road","oneway":"yes","sidewalk:left":"separate","sidewalk:right":"no","surface":"asphalt"},"geometry":{"type":"LineString","coordinates":[[103.9237033,1.3692893],[103.9236559,1.3693399]]}},{"type":"Feature","id":"way/632377344-0-0-0","properties":{"highway":"secondary","lanes":"3","maxspeed":"60","name":"Tampines Road","oneway":"yes","sidewalk:left":"separate","sidewalk:right":"no","surface":"asphalt"},"geometry":{"type":"LineString","coordinates":[[103.9257065,1.3672984],[103.9256138,1.3673637]]}},{"type":"Feature","id":"way/632377344-0-1-0","properties":{"highway":"secondary","lanes":"3","maxspeed":"60","name":"Tampines Road","oneway":"yes","sidewalk:left":"separate","sidewalk:right":"no","surface":"asphalt"},"geometry":{"type":"LineString","coordinates":[[103.9256138,1.3673637],[103.9252476,1.3676671]]}},{"type":"Feature","id":"way/632377344-0-2-0","properties":{"highway":"secondary","lanes":"3","maxspeed":"60","name":"Tampines Road","oneway":"yes","sidewalk:left":"separate","sidewalk:right":"no","surface":"asphalt"},"geometry":{"type":"LineString","coordinates":[[103.9252476,1.3676671],[103.9251045,1.3678401]]}},{"type":"Feature","id":"way/632377344-0-3-0","properties":{"highway":"secondary","lanes":"3","maxspeed":"60","name":"Tampines Road","oneway":"yes","sidewalk:left":"separate","sidewalk:right":"no","surface":"asphalt"},"geometry":{"type":"LineString","coordinates":[[103.9251045,1.3678401],[103.9248406,1.3681115]]}},{"type":"Feature","id":"way/632377344-0-4-0","properties":{"highway":"secondary","lanes":"3","maxspeed":"60","name":"Tampines Road","oneway":"yes","sidewalk:left":"separate","sidewalk:right":"no","surface":"asphalt"},"geometry":{"type":"LineString","coordinates":[[103.9248406,1.3681115],[103.9246177,1.3683404]]}},{"type":"Feature","id":"way/632377344-0-5-0","properties":{"highway":"secondary","lanes":"3","maxspeed":"60","name":"Tampines Road","oneway":"yes","sidewalk:left":"separate","sidewalk:right":"no","surface":"asphalt"},"geometry":{"type":"LineString","coordinates":[[103.9246177,1.3683404],[103.9243243,1.3686521]]}},{"type":"Feature","id":"way/632377345-0-0-0","properties":{"foot":"no","highway":"unclassified","lanes":"1","maxspeed":"50","name":"Tampines Industrial Avenue 4","oneway":"yes","sidewalk:left":"separate","sidewalk:right":"no","source":"Yahoo aerial images","surface":"asphalt"},"geometry":{"type":"LineString","coordinates":[[103.9238005,1.369375],[103.9237033,1.3692893]]}},{"type":"Feature","id":"way/634033282-0-0-0","properties":{"highway":"secondary","lanes":"4","maxspeed":"60","name":"Tampines Road","oneway":"yes","sidewalk:left":"separate","sidewalk:right":"no","surface":"asphalt","turn:lanes":"through|through|through|right"},"geometry":{"type":"LineString","coordinates":[[103.9241164,1.3688655],[103.9237586,1.3692326]]}},{"type":"Feature","id":"way/634033282-0-1-0","properties":{"highway":"secondary","lanes":"4","maxspeed":"60","name":"Tampines Road","oneway":"yes","sidewalk:left":"separate","sidewalk:right":"no","surface":"asphalt","turn:lanes":"through|through|through|right"},"geometry":{"type":"LineString","coordinates":[[103.9237586,1.3692326],[103.9237033,1.3692893]]}},{"type":"Feature","id":"way/640191137-0-4-0","properties":{"highway":"tertiary","lanes":"1","maxspeed":"50","name":"Tampines Link","oneway":"yes","sidewalk:left":"separate","sidewalk:right":"no","surface":"asphalt"},"geometry":{"type":"LineString","coordinates":[[103.9273555,1.3671194],[103.9273069,1.3670275]]}},{"type":"Feature","id":"way/643228616-0-0-0","properties":{"highway":"service","service":"alley"},"geometry":{"type":"LineString","coordinates":[[103.9258185,1.3673712],[103.9259291,1.3674357]]}},{"type":"Feature","id":"way/643228616-0-1-0","properties":{"highway":"service","service":"alley"},"geometry":{"type":"LineString","coordinates":[[103.9259291,1.3674357],[103.9259671,1.3674578]]}},{"type":"Feature","id":"way/643228616-0-2-0","properties":{"highway":"service","service":"alley"},"geometry":{"type":"LineString","coordinates":[[103.9259671,1.3674578],[103.9260484,1.3674641]]}},{"type":"Feature","id":"way/643228616-0-3-0","properties":{"highway":"service","service":"alley"},"geometry":{"type":"LineString","coordinates":[[103.9260484,1.3674641],[103.9261709,1.367439]]}},{"type":"Feature","id":"way/643228616-0-4-0","properties":{"highway":"service","service":"alley"},"geometry":{"type":"LineString","coordinates":[[103.9261709,1.367439],[103.9268298,1.3671387]]}},{"type":"Feature","id":"way/643228616-0-5-0","properties":{"highway":"service","service":"alley"},"geometry":{"type":"LineString","coordinates":[[103.9268298,1.3671387],[103.9268844,1.3671637]]}},{"type":"Feature","id":"way/643228616-0-6-0","properties":{"highway":"service","service":"alley"},"geometry":{"type":"LineString","coordinates":[[103.9268844,1.3671637],[103.926904,1.3672265]]}},{"type":"Feature","id":"way/643228616-0-7-0","properties":{"highway":"service","service":"alley"},"geometry":{"type":"LineString","coordinates":[[103.926904,1.3672265],[103.9269179,1.3674248]]}},{"type":"Feature","id":"way/643228616-0-8-0","properties":{"highway":"service","service":"alley"},"geometry":{"type":"LineString","coordinates":[[103.9269179,1.3674248],[103.9268819,1.3674927]]}},{"type":"Feature","id":"way/643228616-0-9-0","properties":{"highway":"service","service":"alley"},"geometry":{"type":"LineString","coordinates":[[103.9268819,1.3674927],[103.9268259,1.3675208]]}},{"type":"Feature","id":"way/643228616-0-10-0","properties":{"highway":"service","service":"alley"},"geometry":{"type":"LineString","coordinates":[[103.9268259,1.3675208],[103.9264411,1.3676239]]}},{"type":"Feature","id":"way/643228616-0-11-0","properties":{"highway":"service","service":"alley"},"geometry":{"type":"LineString","coordinates":[[103.9264411,1.3676239],[103.9262069,1.3676415]]}},{"type":"Feature","id":"way/643228616-0-12-0","properties":{"highway":"service","service":"alley"},"geometry":{"type":"LineString","coordinates":[[103.9262069,1.3676415],[103.9261347,1.3676751]]}},{"type":"Feature","id":"way/643228616-0-13-0","properties":{"highway":"service","service":"alley"},"geometry":{"type":"LineString","coordinates":[[103.9261347,1.3676751],[103.9260973,1.3677492]]}},{"type":"Feature","id":"way/643228616-0-14-0","properties":{"highway":"service","service":"alley"},"geometry":{"type":"LineString","coordinates":[[103.9260973,1.3677492],[103.9261084,1.3678297]]}},{"type":"Feature","id":"way/643228616-0-15-0","properties":{"highway":"service","service":"alley"},"geometry":{"type":"LineString","coordinates":[[103.9261084,1.3678297],[103.9263953,1.3686444]]}},{"type":"Feature","id":"way/643228616-0-15-1","properties":{"highway":"service","service":"alley"},"geometry":{"type":"LineString","coordinates":[[103.9263953,1.3686444],[103.9266822,1.3694591]]}},{"type":"Feature","id":"way/643228618-0-2-0","properties":{"highway":"service"},"geometry":{"type":"LineString","coordinates":[[103.9248517,1.3693144],[103.9248785,1.3692875]]}},{"type":"Feature","id":"way/643228618-0-3-0","properties":{"highway":"service"},"geometry":{"type":"LineString","coordinates":[[103.9248785,1.3692875],[103.9248759,1.3692473]]}},{"type":"Feature","id":"way/643228618-0-4-0","properties":{"highway":"service"},"geometry":{"type":"LineString","coordinates":[[103.9248759,1.3692473],[103.9247632,1.3689416]]}},{"type":"Feature","id":"way/643228618-0-5-0","properties":{"highway":"service"},"geometry":{"type":"LineString","coordinates":[[103.9247632,1.3689416],[103.924731,1.3689309]]}},{"type":"Feature","id":"way/643228618-0-6-0","properties":{"highway":"service"},"geometry":{"type":"LineString","coordinates":[[103.924731,1.3689309],[103.9246908,1.3689416]]}},{"type":"Feature","id":"way/643228618-0-7-0","properties":{"highway":"service"},"geometry":{"type":"LineString","coordinates":[[103.9246908,1.3689416],[103.9244289,1.3690528]]}},{"type":"Feature","id":"way/643228625-0-0-0","properties":{"highway":"service"},"geometry":{"type":"LineString","coordinates":[[103.9254901,1.3688934],[103.9256591,1.3693492]]}},{"type":"Feature","id":"way/643228626-0-0-0","properties":{"highway":"service"},"geometry":{"type":"LineString","coordinates":[[103.9251494,1.3690569],[103.9254445,1.3689202]]}},{"type":"Feature","id":"way/643228626-0-1-0","properties":{"highway":"service"},"geometry":{"type":"LineString","coordinates":[[103.9254445,1.3689202],[103.9254901,1.3688934]]}},{"type":"Feature","id":"way/643228626-0-2-0","properties":{"highway":"service"},"geometry":{"type":"LineString","coordinates":[[103.9254901,1.3688934],[103.9254847,1.3688103]]}},{"type":"Feature","id":"way/643228626-0-3-0","properties":{"highway":"service"},"geometry":{"type":"LineString","coordinates":[[103.9254847,1.3688103],[103.9253399,1.3684375]]}},{"type":"Feature","id":"way/643228627-0-0-0","properties":{"highway":"service"},"geometry":{"type":"LineString","coordinates":[[103.9247249,1.3684349],[103.9248013,1.3684936]]}},{"type":"Feature","id":"way/643228627-0-1-0","properties":{"highway":"service"},"geometry":{"type":"LineString","coordinates":[[103.9248013,1.3684936],[103.9248866,1.3685591]]}},{"type":"Feature","id":"way/643228627-0-2-0","properties":{"highway":"service"},"geometry":{"type":"LineString","coordinates":[[103.9248866,1.3685591],[103.9250073,1.3687191]]}},{"type":"Feature","id":"way/643228627-0-3-0","properties":{"highway":"service"},"geometry":{"type":"LineString","coordinates":[[103.9250073,1.3687191],[103.9251494,1.3690569]]}},{"type":"Feature","id":"way/643228628-0-0-0","properties":{"highway":"service"},"geometry":{"type":"LineString","coordinates":[[103.9252848,1.3678384],[103.9253365,1.3679513]]}},{"type":"Feature","id":"way/643228628-0-1-0","properties":{"highway":"service"},"geometry":{"type":"LineString","coordinates":[[103.9253365,1.3679513],[103.9257127,1.3687727]]}},{"type":"Feature","id":"way/644866967-0-0-0","properties":{"highway":"service","lanes":"2","lanes:backward":"1","lanes:forward":"1"},"geometry":{"type":"LineString","coordinates":[[103.9230302,1.3659574],[103.9228428,1.3659156]]}},{"type":"Feature","id":"way/644868590-0-0-0","properties":{"highway":"service","lanes":"2","lanes:backward":"1","lanes:forward":"1","surface":"asphalt"},"geometry":{"type":"LineString","coordinates":[[103.9237249,1.3672686],[103.9231904,1.3660312]]}},{"type":"Feature","id":"way/644869130-0-0-0","properties":{"highway":"service"},"geometry":{"type":"LineString","coordinates":[[103.9237249,1.3672686],[103.9241411,1.367081]]}},{"type":"Feature","id":"way/646261579-0-0-0","properties":{"highway":"service","name":"Tampines Avenue","oneway":"no","surface":"asphalt"},"geometry":{"type":"LineString","coordinates":[[103.926372,1.3669169],[103.9263426,1.3668731]]}},{"type":"Feature","id":"way/646261579-0-1-0","properties":{"highway":"service","name":"Tampines Avenue","oneway":"no","surface":"asphalt"},"geometry":{"type":"LineString","coordinates":[[103.9263426,1.3668731],[103.9262898,1.3668436]]}},{"type":"Feature","id":"way/646261579-0-2-0","properties":{"highway":"service","name":"Tampines Avenue","oneway":"no","surface":"asphalt"},"geometry":{"type":"LineString","coordinates":[[103.9262898,1.3668436],[103.9258495,1.3667005]]}},{"type":"Feature","id":"way/646261579-0-3-0","properties":{"highway":"service","name":"Tampines Avenue","oneway":"no","surface":"asphalt"},"geometry":{"type":"LineString","coordinates":[[103.9258495,1.3667005],[103.9255688,1.3666042]]}},{"type":"Feature","id":"way/647096624-0-0-0","properties":{"highway":"secondary","lanes":"3","maxspeed":"60","name":"Tampines Road","oneway":"yes","sidewalk:left":"separate","sidewalk:right":"no","surface":"asphalt"},"geometry":{"type":"LineString","coordinates":[[103.9270734,1.3665842],[103.9269769,1.3666219]]}},{"type":"Feature","id":"way/647096627-0-0-0","properties":{"highway":"secondary","lanes":"3","maxspeed":"60","name":"Tampines Road","oneway":"yes","sidewalk:left":"separate","sidewalk:right":"no","surface":"asphalt"},"geometry":{"type":"LineString","coordinates":[[103.9258185,1.3673712],[103.9259262,1.3672992]]}},{"type":"Feature","id":"way/647096627-0-1-0","properties":{"highway":"secondary","lanes":"3","maxspeed":"60","name":"Tampines Road","oneway":"yes","sidewalk:left":"separate","sidewalk:right":"no","surface":"asphalt"},"geometry":{"type":"LineString","coordinates":[[103.9259262,1.3672992],[103.9263197,1.3670912]]}},{"type":"Feature","id":"way/647096632-0-0-0","properties":{"highway":"secondary","lanes":"3","maxspeed":"60","name":"Tampines Road","oneway":"yes","sidewalk:left":"separate","sidewalk:right":"no","surface":"asphalt"},"geometry":{"type":"LineString","coordinates":[[103.9252848,1.3678384],[103.9255045,1.367633]]}},{"type":"Feature","id":"way/647096632-0-1-0","properties":{"highway":"secondary","lanes":"3","maxspeed":"60","name":"Tampines Road","oneway":"yes","sidewalk:left":"separate","sidewalk:right":"no","surface":"asphalt"},"geometry":{"type":"LineString","coordinates":[[103.9255045,1.367633],[103.9256923,1.3674711]]}},{"type":"Feature","id":"way/647096632-0-2-0","properties":{"highway":"secondary","lanes":"3","maxspeed":"60","name":"Tampines Road","oneway":"yes","sidewalk:left":"separate","sidewalk:right":"no","surface":"asphalt"},"geometry":{"type":"LineString","coordinates":[[103.9256923,1.3674711],[103.9258185,1.3673712]]}},{"type":"Feature","id":"way/665734381-0-8-0","properties":{"highway":"unclassified","lanes":"2","maxspeed":"60","name":"Tampines Industrial Avenue 2","oneway":"yes","parking:condition:left:vehicles":"hgv_articulated","parking:lane:left":"parallel","sidewalk:left":"separate","sidewalk:right":"no","surface":"asphalt"},"geometry":{"type":"LineString","coordinates":[[103.9263805,1.3648011],[103.9263889,1.3651288]]}},{"type":"Feature","id":"way/665734632-0-0-0","properties":{"highway":"unclassified","lanes":"2","maxspeed":"60","name":"Tampines Industrial Avenue 2","oneway":"yes","parking:condition:left:vehicles":"hgv_articulated","parking:lane:left":"parallel","sidewalk:left":"separate","sidewalk:right":"no","surface":"asphalt"},"geometry":{"type":"LineString","coordinates":[[103.9265069,1.3653392],[103.9264919,1.3651903]]}},{"type":"Feature","id":"way/665734632-0-1-0","properties":{"highway":"unclassified","lanes":"2","maxspeed":"60","name":"Tampines Industrial Avenue 2","oneway":"yes","parking:condition:left:vehicles":"hgv_articulated","parking:lane:left":"parallel","sidewalk:left":"separate","sidewalk:right":"no","surface":"asphalt"},"geometry":{"type":"LineString","coordinates":[[103.9264919,1.3651903],[103.9264732,1.3648201]]}},{"type":"Feature","id":"way/697182163-0-0-0","properties":{"highway":"unclassified","lanes":"2","maxspeed":"60","name":"Tampines Industrial Avenue 2","oneway":"yes","sidewalk:left":"separate","sidewalk:right":"no","surface":"asphalt"},"geometry":{"type":"LineString","coordinates":[[103.9268907,1.3662672],[103.9266933,1.3659268]]}},{"type":"Feature","id":"way/697182163-0-1-0","properties":{"highway":"unclassified","lanes":"2","maxspeed":"60","name":"Tampines Industrial Avenue 2","oneway":"yes","sidewalk:left":"separate","sidewalk:right":"no","surface":"asphalt"},"geometry":{"type":"LineString","coordinates":[[103.9266933,1.3659268],[103.9266004,1.3657198]]}},{"type":"Feature","id":"way/697182163-0-2-0","properties":{"highway":"unclassified","lanes":"2","maxspeed":"60","name":"Tampines Industrial Avenue 2","oneway":"yes","sidewalk:left":"separate","sidewalk:right":"no","surface":"asphalt"},"geometry":{"type":"LineString","coordinates":[[103.9266004,1.3657198],[103.9265404,1.3654747]]}},{"type":"Feature","id":"way/697182163-0-3-0","properties":{"highway":"unclassified","lanes":"2","maxspeed":"60","name":"Tampines Industrial Avenue 2","oneway":"yes","sidewalk:left":"separate","sidewalk:right":"no","surface":"asphalt"},"geometry":{"type":"LineString","coordinates":[[103.9265404,1.3654747],[103.9265069,1.3653392]]}},{"type":"Feature","id":"way/699918780-0-0-0","properties":{"highway":"unclassified","lanes":"2","maxspeed":"60","name":"Tampines Industrial Avenue 2","oneway":"yes","sidewalk:left":"separate","sidewalk:right":"no","surface":"asphalt"},"geometry":{"type":"LineString","coordinates":[[103.9263889,1.3651288],[103.926413,1.3653902]]}},{"type":"Feature","id":"way/699918780-0-1-0","properties":{"highway":"unclassified","lanes":"2","maxspeed":"60","name":"Tampines Industrial Avenue 2","oneway":"yes","sidewalk:left":"separate","sidewalk:right":"no","surface":"asphalt"},"geometry":{"type":"LineString","coordinates":[[103.926413,1.3653902],[103.9265031,1.3657108]]}},{"type":"Feature","id":"way/700124869-0-0-0","properties":{"highway":"secondary","lanes":"3","maxspeed":"60","name":"Tampines Road","oneway":"yes","sidewalk:left":"separate","sidewalk:right":"no","surface":"asphalt"},"geometry":{"type":"LineString","coordinates":[[103.927124,1.3666868],[103.9271874,1.3666592]]}},{"type":"Feature","id":"way/700124869-0-1-0","properties":{"highway":"secondary","lanes":"3","maxspeed":"60","name":"Tampines Road","oneway":"yes","sidewalk:left":"separate","sidewalk:right":"no","surface":"asphalt"},"geometry":{"type":"LineString","coordinates":[[103.9271874,1.3666592],[103.9273843,1.3665941]]}},{"type":"Feature","id":"way/722309503-0-0-0","properties":{"highway":"service"},"geometry":{"type":"LineString","coordinates":[[103.9244289,1.3690528],[103.9245426,1.3694337]]}},{"type":"Feature","id":"way/722309504-0-0-0","properties":{"highway":"service"},"geometry":{"type":"LineString","coordinates":[[103.9242585,1.368899],[103.9243283,1.3689729]]}},{"type":"Feature","id":"way/722309504-0-1-0","properties":{"highway":"service"},"geometry":{"type":"LineString","coordinates":[[103.9243283,1.3689729],[103.9244289,1.3690528]]}},{"type":"Feature","id":"way/722309505-0-0-0","properties":{"highway":"service"},"geometry":{"type":"LineString","coordinates":[[103.9251494,1.3690569],[103.925238,1.3692822]]}},{"type":"Feature","id":"way/722309505-0-1-0","properties":{"highway":"service"},"geometry":{"type":"LineString","coordinates":[[103.925238,1.3692822],[103.9252675,1.3693787]]}},{"type":"Feature","id":"way/722309508-0-0-0","properties":{"highway":"service"},"geometry":{"type":"LineString","coordinates":[[103.9227432,1.367746],[103.9237249,1.3672686]]}},{"type":"Feature","id":"way/1002831474-0-0-0","properties":{"highway":"secondary_link","oneway":"yes","sidewalk:both":"separate"},"geometry":{"type":"LineString","coordinates":[[103.9273069,1.3670275],[103.9272972,1.3669118]]}},{"type":"Feature","id":"way/1002831474-0-1-0","properties":{"highway":"secondary_link","oneway":"yes","sidewalk:both":"separate"},"geometry":{"type":"LineString","coordinates":[[103.9272972,1.3669118],[103.9272905,1.3668682]]}},{"type":"Feature","id":"way/1002831474-0-2-0","properties":{"highway":"secondary_link","oneway":"yes","sidewalk:both":"separate"},"geometry":{"type":"LineString","coordinates":[[103.9272905,1.3668682],[103.9272919,1.3668153]]}},{"type":"Feature","id":"way/1002831474-0-3-0","properties":{"highway":"secondary_link","oneway":"yes","sidewalk:both":"separate"},"geometry":{"type":"LineString","coordinates":[[103.9272919,1.3668153],[103.9273003,1.3667567]]}},{"type":"Feature","id":"way/1002831474-0-4-0","properties":{"highway":"secondary_link","oneway":"yes","sidewalk:both":"separate"},"geometry":{"type":"LineString","coordinates":[[103.9273003,1.3667567],[103.9273214,1.3666892]]}},{"type":"Feature","id":"way/1002831474-0-5-0","properties":{"highway":"secondary_link","oneway":"yes","sidewalk:both":"separate"},"geometry":{"type":"LineString","coordinates":[[103.9273214,1.3666892],[103.9273562,1.3666343]]}},{"type":"Feature","id":"way/1002831474-0-6-0","properties":{"highway":"secondary_link","oneway":"yes","sidewalk:both":"separate"},"geometry":{"type":"LineString","coordinates":[[103.9273562,1.3666343],[103.9273843,1.3665941]]}},{"type":"Feature","id":"way/1002831698-0-0-0","properties":{"highway":"secondary","lanes":"3","maxspeed":"60","name":"Tampines Road","oneway":"yes","sidewalk:left":"separate","sidewalk:right":"no","surface":"asphalt"},"geometry":{"type":"LineString","coordinates":[[103.9267737,1.3667161],[103.9266967,1.366752]]}},{"type":"Feature","id":"way/1002831698-0-1-0","properties":{"highway":"secondary","lanes":"3","maxspeed":"60","name":"Tampines Road","oneway":"yes","sidewalk:left":"separate","sidewalk:right":"no","surface":"asphalt"},"geometry":{"type":"LineString","coordinates":[[103.9266967,1.366752],[103.926372,1.3669169]]}},{"type":"Feature","id":"way/1002831698-0-2-0","properties":{"highway":"secondary","lanes":"3","maxspeed":"60","name":"Tampines Road","oneway":"yes","sidewalk:left":"separate","sidewalk:right":"no","surface":"asphalt"},"geometry":{"type":"LineString","coordinates":[[103.926372,1.3669169],[103.9261106,1.367062]]}},{"type":"Feature","id":"way/1002831698-0-3-0","properties":{"highway":"secondary","lanes":"3","maxspeed":"60","name":"Tampines Road","oneway":"yes","sidewalk:left":"separate","sidewalk:right":"no","surface":"asphalt"},"geometry":{"type":"LineString","coordinates":[[103.9261106,1.367062],[103.9258243,1.3672233]]}},{"type":"Feature","id":"way/1002831698-0-4-0","properties":{"highway":"secondary","lanes":"3","maxspeed":"60","name":"Tampines Road","oneway":"yes","sidewalk:left":"separate","sidewalk:right":"no","surface":"asphalt"},"geometry":{"type":"LineString","coordinates":[[103.9258243,1.3672233],[103.9257065,1.3672984]]}},{"type":"Feature","id":"way/1030356594-0-0-0","properties":{"highway":"secondary","lanes":"4","maxspeed":"60","name":"Tampines Road","oneway":"yes","sidewalk:left":"separate","sidewalk:right":"no","surface":"asphalt","turn:lanes":"through|through|through|right"},"geometry":{"type":"LineString","coordinates":[[103.9266999,1.3669005],[103.9269681,1.3667603]]}},{"type":"Feature","id":"way/1030356594-0-1-0","properties":{"highway":"secondary","lanes":"4","maxspeed":"60","name":"Tampines Road","oneway":"yes","sidewalk:left":"separate","sidewalk:right":"no","surface":"asphalt","turn:lanes":"through|through|through|right"},"geometry":{"type":"LineString","coordinates":[[103.9269681,1.3667603],[103.9270324,1.3667266]]}},{"type":"Feature","id":"way/1030356595-0-0-0","properties":{"highway":"secondary_link","lanes":"1","maxspeed":"60","name":"Tampines Industrial Avenue 2","oneway":"yes","sidewalk:both":"separate","surface":"asphalt"},"geometry":{"type":"LineString","coordinates":[[103.927372,1.3664689],[103.9272643,1.3664382]]}},{"type":"Feature","id":"way/1030356595-0-1-0","properties":{"highway":"secondary_link","lanes":"1","maxspeed":"60","name":"Tampines Industrial Avenue 2","oneway":"yes","sidewalk:both":"separate","surface":"asphalt"},"geometry":{"type":"LineString","coordinates":[[103.9272643,1.3664382],[103.9271902,1.3664382]]}},{"type":"Feature","id":"way/1030356595-0-2-0","properties":{"highway":"secondary_link","lanes":"1","maxspeed":"60","name":"Tampines Industrial Avenue 2","oneway":"yes","sidewalk:both":"separate","surface":"asphalt"},"geometry":{"type":"LineString","coordinates":[[103.9271902,1.3664382],[103.9270993,1.3664223]]}},{"type":"Feature","id":"way/1030356595-0-3-0","properties":{"highway":"secondary_link","lanes":"1","maxspeed":"60","name":"Tampines Industrial Avenue 2","oneway":"yes","sidewalk:both":"separate","surface":"asphalt"},"geometry":{"type":"LineString","coordinates":[[103.9270993,1.3664223],[103.9270057,1.3663851]]}},{"type":"Feature","id":"way/1030356595-0-4-0","properties":{"highway":"secondary_link","lanes":"1","maxspeed":"60","name":"Tampines Industrial Avenue 2","oneway":"yes","sidewalk:both":"separate","surface":"asphalt"},"geometry":{"type":"LineString","coordinates":[[103.9270057,1.3663851],[103.9270038,1.3663844]]}},{"type":"Feature","id":"way/1030356595-0-5-0","properties":{"highway":"secondary_link","lanes":"1","maxspeed":"60","name":"Tampines Industrial Avenue 2","oneway":"yes","sidewalk:both":"separate","surface":"asphalt"},"geometry":{"type":"LineString","coordinates":[[103.9270038,1.3663844],[103.9269256,1.3663312]]}},{"type":"Feature","id":"way/1030356596-0-0-0","properties":{"highway":"unclassified","lanes":"1","maxspeed":"60","name":"Tampines Industrial Avenue 2","oneway":"yes","sidewalk:left":"separate","sidewalk:right":"no","surface":"asphalt"},"geometry":{"type":"LineString","coordinates":[[103.9270734,1.3665842],[103.9270229,1.3664977]]}},{"type":"Feature","id":"way/1030356596-0-1-0","properties":{"highway":"unclassified","lanes":"1","maxspeed":"60","name":"Tampines Industrial Avenue 2","oneway":"yes","sidewalk:left":"separate","sidewalk:right":"no","surface":"asphalt"},"geometry":{"type":"LineString","coordinates":[[103.9270229,1.3664977],[103.9269256,1.3663312]]}},{"type":"Feature","id":"way/1030356596-0-2-0","properties":{"highway":"unclassified","lanes":"1","maxspeed":"60","name":"Tampines Industrial Avenue 2","oneway":"yes","sidewalk:left":"separate","sidewalk:right":"no","surface":"asphalt"},"geometry":{"type":"LineString","coordinates":[[103.9269256,1.3663312],[103.9268907,1.3662672]]}},{"type":"Feature","id":"way/1030356597-0-0-0","properties":{"highway":"unclassified","lanes":"2","maxspeed":"60","name":"Tampines Industrial Avenue 2","oneway":"yes","sidewalk:left":"separate","sidewalk:right":"no","surface":"asphalt","turn:lanes":"right|right"},"geometry":{"type":"LineString","coordinates":[[103.9268117,1.3663219],[103.9269327,1.3665417]]}},{"type":"Feature","id":"way/1030356597-0-1-0","properties":{"highway":"unclassified","lanes":"2","maxspeed":"60","name":"Tampines Industrial Avenue 2","oneway":"yes","sidewalk:left":"separate","sidewalk:right":"no","surface":"asphalt","turn:lanes":"right|right"},"geometry":{"type":"LineString","coordinates":[[103.9269327,1.3665417],[103.9269769,1.3666219]]}},{"type":"Feature","id":"way/1030356598-0-0-0","properties":{"highway":"secondary_link","lanes":"1","maxspeed":"50","oneway":"yes","sidewalk:both":"separate","surface":"asphalt"},"geometry":{"type":"LineString","coordinates":[[103.9266999,1.3669005],[103.9268837,1.3668831]]}},{"type":"Feature","id":"way/1030356598-0-1-0","properties":{"highway":"secondary_link","lanes":"1","maxspeed":"50","oneway":"yes","sidewalk:both":"separate","surface":"asphalt"},"geometry":{"type":"LineString","coordinates":[[103.9268837,1.3668831],[103.9270014,1.3668961]]}},{"type":"Feature","id":"way/1030356598-0-2-0","properties":{"highway":"secondary_link","lanes":"1","maxspeed":"50","oneway":"yes","sidewalk:both":"separate","surface":"asphalt"},"geometry":{"type":"LineString","coordinates":[[103.9270014,1.3668961],[103.9270468,1.3669011]]}},{"type":"Feature","id":"way/1030356598-0-3-0","properties":{"highway":"secondary_link","lanes":"1","maxspeed":"50","oneway":"yes","sidewalk:both":"separate","surface":"asphalt"},"geometry":{"type":"LineString","coordinates":[[103.9270468,1.3669011],[103.9271522,1.3669517]]}},{"type":"Feature","id":"way/1030356599-0-0-0","properties":{"highway":"tertiary","lanes":"3","maxspeed":"50","name":"Tampines Link","oneway":"yes","sidewalk:left":"separate","sidewalk:right":"no","surface":"asphalt"},"geometry":{"type":"LineString","coordinates":[[103.9269769,1.3666219],[103.9270324,1.3667266]]}},{"type":"Feature","id":"way/1030358753-0-0-0","properties":{"highway":"secondary","lanes":"3","maxspeed":"60","name":"Tampines Road","oneway":"yes","sidewalk:left":"separate","sidewalk:right":"no","surface":"asphalt"},"geometry":{"type":"LineString","coordinates":[[103.9270324,1.3667266],[103.927124,1.3666868]]}},{"type":"Feature","id":"way/1030358754-0-0-0","properties":{"highway":"tertiary","lanes":"1","maxspeed":"50","name":"Tampines Link","oneway":"yes","sidewalk:left":"separate","sidewalk:right":"no","surface":"asphalt"},"geometry":{"type":"LineString","coordinates":[[103.9270324,1.3667266],[103.9270756,1.366807]]}},{"type":"Feature","id":"way/1030358754-0-1-0","properties":{"highway":"tertiary","lanes":"1","maxspeed":"50","name":"Tampines Link","oneway":"yes","sidewalk:left":"separate","sidewalk:right":"no","surface":"asphalt"},"geometry":{"type":"LineString","coordinates":[[103.9270756,1.366807],[103.9271522,1.3669517]]}},{"type":"Feature","id":"way/1030358755-0-0-0","properties":{"highway":"secondary","lanes":"3","maxspeed":"60","name":"Tampines Road","oneway":"yes","sidewalk:left":"separate","sidewalk:right":"no","surface":"asphalt"},"geometry":{"type":"LineString","coordinates":[[103.9269769,1.3666219],[103.9269127,1.3666516]]}},{"type":"Feature","id":"way/1030358755-0-1-0","properties":{"highway":"secondary","lanes":"3","maxspeed":"60","name":"Tampines Road","oneway":"yes","sidewalk:left":"separate","sidewalk:right":"no","surface":"asphalt"},"geometry":{"type":"LineString","coordinates":[[103.9269127,1.3666516],[103.9267737,1.3667161]]}},{"type":"Feature","id":"way/1030358757-0-0-0","properties":{"highway":"tertiary","lanes":"3","maxspeed":"50","name":"Tampines Link","oneway":"yes","sidewalk:left":"separate","sidewalk:right":"no","surface":"asphalt"},"geometry":{"type":"LineString","coordinates":[[103.927124,1.3666868],[103.9270734,1.3665842]]}},{"type":"Feature","id":"way/1057615592-0-0-0","properties":{"highway":"secondary","lanes":"5","maxspeed":"60","name":"Tampines Road","oneway":"yes","sidewalk:left":"separate","sidewalk:right":"no","surface":"asphalt","turn:lanes":"left|through|through|through|right"},"geometry":{"type":"LineString","coordinates":[[103.9263197,1.3670912],[103.9266999,1.3669005]]}},{"type":"Feature","id":"way/1232097390-0-0-0","properties":{"highway":"service"},"geometry":{"type":"LineString","coordinates":[[103.9263912,1.3666656],[103.9265292,1.3666978]]}},{"type":"Feature","id":"way/1232097391-0-0-0","properties":{"highway":"unclassified","oneway":"no"},"geometry":{"type":"LineString","coordinates":[[103.9255688,1.3666042],[103.9255871,1.3661434]]}},{"type":"Feature","id":"way/1232097391-0-1-0","properties":{"highway":"unclassified","oneway":"no"},"geometry":{"type":"LineString","coordinates":[[103.9255871,1.3661434],[103.925716,1.3660129]]}},{"type":"Feature","id":"way/1232097391-0-2-0","properties":{"highway":"unclassified","oneway":"no"},"geometry":{"type":"LineString","coordinates":[[103.925716,1.3660129],[103.9261715,1.3658395]]}},{"type":"Feature","id":"way/1232097392-0-0-0","properties":{"highway":"unclassified","oneway":"no"},"geometry":{"type":"LineString","coordinates":[[103.9263702,1.3657666],[103.9265031,1.3657108]]}},{"type":"Feature","id":"way/1232097393-0-0-0","properties":{"highway":"unclassified","oneway":"yes"},"geometry":{"type":"LineString","coordinates":[[103.9261715,1.3658395],[103.9263913,1.3658356]]}},{"type":"Feature","id":"way/1232097393-0-1-0","properties":{"highway":"unclassified","oneway":"yes"},"geometry":{"type":"LineString","coordinates":[[103.9263913,1.3658356],[103.9265527,1.3658328]]}},{"type":"Feature","id":"way/1232097394-0-0-0","properties":{"highway":"unclassified","lanes":"2","maxspeed":"60","name":"Tampines Industrial Avenue 2","oneway":"yes","surface":"asphalt"},"geometry":{"type":"LineString","coordinates":[[103.9265031,1.3657108],[103.9265116,1.3657409]]}},{"type":"Feature","id":"way/1232097395-0-0-0","properties":{"highway":"unclassified","lanes":"2","maxspeed":"60","name":"Tampines Industrial Avenue 2","oneway":"yes","sidewalk:left":"separate","sidewalk:right":"no","surface":"asphalt","turn:lanes":"right|right"},"geometry":{"type":"LineString","coordinates":[[103.9265527,1.3658328],[103.9266173,1.3659775]]}},{"type":"Feature","id":"way/1232097395-0-1-0","properties":{"highway":"unclassified","lanes":"2","maxspeed":"60","name":"Tampines Industrial Avenue 2","oneway":"yes","sidewalk:left":"separate","sidewalk:right":"no","surface":"asphalt","turn:lanes":"right|right"},"geometry":{"type":"LineString","coordinates":[[103.9266173,1.3659775],[103.9267821,1.3662606]]}},{"type":"Feature","id":"way/1232097395-0-2-0","properties":{"highway":"unclassified","lanes":"2","maxspeed":"60","name":"Tampines Industrial Avenue 2","oneway":"yes","sidewalk:left":"separate","sidewalk:right":"no","surface":"asphalt","turn:lanes":"right|right"},"geometry":{"type":"LineString","coordinates":[[103.9267821,1.3662606],[103.9268117,1.3663219]]}},{"type":"Feature","id":"way/1232097396-0-0-0","properties":{"highway":"unclassified","oneway":"no"},"geometry":{"type":"LineString","coordinates":[[103.9261715,1.3658395],[103.9263702,1.3657666]]}},{"type":"Feature","id":"way/1243133806-0-0-0","properties":{"highway":"secondary","lanes":"3","maxspeed":"60","name":"Tampines Road","oneway":"yes","sidewalk:left":"separate","sidewalk:right":"no","surface":"asphalt","turn:lanes":"through|right"},"geometry":{"type":"LineString","coordinates":[[103.9243243,1.3686521],[103.9241164,1.3688655]]}},{"type":"Feature","id":"way/1243148526-0-0-0","properties":{"highway":"secondary","lanes":"4","maxspeed":"60","name":"Tampines Road","oneway":"yes","sidewalk:left":"separate","sidewalk:right":"no","surface":"asphalt","turn:lanes":"through|through|through|right"},"geometry":{"type":"LineString","coordinates":[[103.927372,1.3664689],[103.9271408,1.366562]]}},{"type":"Feature","id":"way/1243148526-0-1-0","properties":{"highway":"secondary","lanes":"4","maxspeed":"60","name":"Tampines Road","oneway":"yes","sidewalk:left":"separate","sidewalk:right":"no","surface":"asphalt","turn:lanes":"through|through|through|right"},"geometry":{"type":"LineString","coordinates":[[103.9271408,1.366562],[103.9270734,1.3665842]]}},{"type":"Feature","id":"way/1243148527-0-0-0","properties":{"highway":"tertiary","lanes":"3","maxspeed":"50","name":"Tampines Link","oneway":"yes","sidewalk:left":"separate","sidewalk:right":"no","surface":"asphalt"},"geometry":{"type":"LineString","coordinates":[[103.9273069,1.3670275],[103.9271666,1.3667659]]}},{"type":"Feature","id":"way/1243148527-0-1-0","properties":{"highway":"tertiary","lanes":"3","maxspeed":"50","name":"Tampines Link","oneway":"yes","sidewalk:left":"separate","sidewalk:right":"no","surface":"asphalt"},"geometry":{"type":"LineString","coordinates":[[103.9271666,1.3667659],[103.927124,1.3666868]]}},{"type":"Feature","id":"way/1243148531-0-0-0","properties":{"highway":"secondary_link","lanes":"2","maxspeed":"60","name":"Tampines Industrial Avenue 2","oneway":"yes","sidewalk:both":"separate","surface":"asphalt","turn:lanes":"right|right"},"geometry":{"type":"LineString","coordinates":[[103.9268117,1.3663219],[103.9268206,1.3664702]]}},{"type":"Feature","id":"way/1243148531-0-1-0","properties":{"highway":"secondary_link","lanes":"2","maxspeed":"60","name":"Tampines Industrial Avenue 2","oneway":"yes","sidewalk:both":"separate","surface":"asphalt","turn:lanes":"right|right"},"geometry":{"type":"LineString","coordinates":[[103.9268206,1.3664702],[103.9268109,1.366554]]}},{"type":"Feature","id":"way/1243148531-0-2-0","properties":{"highway":"secondary_link","lanes":"2","maxspeed":"60","name":"Tampines Industrial Avenue 2","oneway":"yes","sidewalk:both":"separate","surface":"asphalt","turn:lanes":"right|right"},"geometry":{"type":"LineString","coordinates":[[103.9268109,1.366554],[103.9268053,1.3666034]]}},{"type":"Feature","id":"way/1243148531-0-3-0","properties":{"highway":"secondary_link","lanes":"2","maxspeed":"60","name":"Tampines Industrial Avenue 2","oneway":"yes","sidewalk:both":"separate","surface":"asphalt","turn:lanes":"right|right"},"geometry":{"type":"LineString","coordinates":[[103.9268053,1.3666034],[103.9267737,1.3667161]]}}]}