{"type":"FeatureCollection","features":[{"type":"Feature","id":"way/14058412-0-5-0","properties":{"destination":"Changi","destination:ref":"TPE;KPE","destination:ref:to":"PIE","highway":"motorway","lanes":"3","maxheight":"4.5","maxspeed":"90","name":"Tampines Expressway","name:ms":"Lebuhraya Tampines","name:ta":"\u0ba4\u0bc6\u0bae\u0bcd\u0baa\u0bbf\u0ba9\u0bc0\u0bb8\u0bcd \u0bb5\u0bbf\u0bb0\u0bc8\u0bb5\u0bc1\u0b9a\u0bcd\u0b9a\u0bbe\u0bb2\u0bc8","name:zh":"\u6de1\u6ee8\u5c3c\u9ad8\u901f\u516c\u8def","oneway":"yes","ref":"TPE","short_name:ta":"\u0b9f\u0bbf\u0baa\u0bbf\u0b87","surface":"asphalt","wikidata":"Q1164571","wikipedia":"en:Tampines Expressway"},"geometry":{"type":"LineString","coordinates":[[103.855367,1.3991252],[103.8557552,1.3993993]]}},{"type":"Feature","id":"way/14058412-0-6-0","properties":{"destination":"Changi","destination:ref":"TPE;KPE","destination:ref:to":"PIE","highway":"motorway","lanes":"3","maxheight":"4.5","maxspeed":"90","name":"Tampines Expressway","name:ms":"Lebuhraya Tampines","name:ta":"\u0ba4\u0bc6\u0bae\u0bcd\u0baa\u0bbf\u0ba9\u0bc0\u0bb8\u0bcd \u0bb5\u0bbf\u0bb0\u0bc8\u0bb5\u0bc1\u0b9a\u0bcd\u0b9a\u0bbe\u0bb2\u0bc8","name:zh":"\u6de1\u6ee8\u5c3c\u9ad8\u901f\u516c\u8def","oneway":"yes","ref":"TPE","short_name:ta":"\u0b9f\u0bbf\u0baa\u0bbf\u0b87","surface":"asphalt","wikidata":"Q1164571","wikipedia":"en:Tampines Expressway"},"geometry":{"type":"LineString","coordinates":[[103.8557552,1.3993993],[103.8561906,1.3996721]]}},{"type":"Feature","id":"way/14058412-0-7-0","properties":{"destination":"Changi","destination:ref":"TPE;KPE","destination:ref:to":"PIE","highway":"motorway","lanes":"3","maxheight":"4.5","maxspeed":"90","name":"Tampines Expressway","name:ms":"Lebuhraya Tampines","name:ta":"\u0ba4\u0bc6\u0bae\u0bcd\u0baa\u0bbf\u0ba9\u0bc0\u0bb8\u0bcd \u0bb5\u0bbf\u0bb0\u0bc8\u0bb5\u0bc1\u0b9a\u0bcd\u0b9a\u0bbe\u0bb2\u0bc8","name:zh":"\u6de1\u6ee8\u5c3c\u9ad8\u901f\u516c\u8def","oneway":"yes","ref":"TPE","short_name:ta":"\u0b9f\u0bbf\u0baa\u0bbf\u0b87","surface":"asphalt","wikidata":"Q1164571","wikipedia":"en:Tampines Expressway"},"geometry":{"type":"LineString","coordinates":[[103.8561906,1.3996721],[103.8566179,1.3999198]]}},{"type":"Feature","id":"way/14058412-0-8-0","properties":{"destination":"Changi","destination:ref":"TPE;KPE","destination:ref:to":"PIE","highway":"motorway","lanes":"3","maxheight":"4.5","maxspeed":"90","name":"Tampines Expressway","name:ms":"Lebuhraya Tampines","name:ta":"\u0ba4\u0bc6\u0bae\u0bcd\u0baa\u0bbf\u0ba9\u0bc0\u0bb8\u0bcd \u0bb5\u0bbf\u0bb0\u0bc8\u0bb5\u0bc1\u0b9a\u0bcd\u0b9a\u0bbe\u0bb2\u0bc8","name:zh":"\u6de1\u6ee8\u5c3c\u9ad8\u901f\u516c\u8def","oneway":"yes","ref":"TPE","short_name:ta":"\u0b9f\u0bbf\u0baa\u0bbf\u0b87","surface":"asphalt","wikidata":"Q1164571","wikipedia":"en:Tampines Expressway"},"geometry":{"type":"LineString","coordinates":[[103.8566179,1.3999198],[103.8570717,1.4001374]]}},{"type":"Feature","id":"way/14058412-0-9-0","properties":{"destination":"Changi","destination:ref":"TPE;KPE","destination:ref:to":"PIE","highway":"motorway","lanes":"3","maxheight":"4.5","maxspeed":"90","name":"Tampines Expressway","name:ms":"Lebuhraya Tampines","name:ta":"\u0ba4\u0bc6\u0bae\u0bcd\u0baa\u0bbf\u0ba9\u0bc0\u0bb8\u0bcd \u0bb5\u0bbf\u0bb0\u0bc8\u0bb5\u0bc1\u0b9a\u0bcd\u0b9a\u0bbe\u0bb2\u0bc8","name:zh":"\u6de1\u6ee8\u5c3c\u9ad8\u901f\u516c\u8def","oneway":"yes","ref":"TPE","short_name:ta":"\u0b9f\u0bbf\u0baa\u0bbf\u0b87","surface":"asphalt","wikidata":"Q1164571","wikipedia":"en:Tampines Expressway"},"geometry":{"type":"LineString","coordinates":[[103.8570717,1.4001374],[103.8575028,1.4003157]]}},{"type":"Feature","id":"way/15092487-0-5-0","properties":{"highway":"motorway","lanes":"3","maxheight":"4.5","maxspeed":"80","name":"Seletar Expressway","name:ms":"Lebuhraya Seletar","name:ta":"\u0b9a\u0bc6\u0bb2\u0bc7\u0ba4\u0bcd\u0ba4\u0bbe\u0bb0\u0bcd \u0bb5\u0bbf\u0bb0\u0bc8\u0bb5\u0bc1\u0b9a\u0bcd\u0b9a\u0bbe\u0bb2\u0bc8","name:zh":"\u5b9e\u91cc\u8fbe\u9ad8\u901f\u516c\u8def","oneway":"yes","ref":"SLE","ref:ta":"\u0b8e\u0bb8\u0bcd\u0b8e\u0bb2\u0bcd\u0b87","short_name:ta":"\u0b8e\u0bb8\u0bcd\u0b8e\u0bb2\u0bcd\u0b87","surface":"asphalt","wikidata":"Q1575163","wikipedia":"en:Seletar Expressway"},"geometry":{"type":"LineString","coordinates":[[103.8554676,1.3977234],[103.8557433,1.3976382]]}},{"type":"Feature","id":"way/15092487-0-6-0","properties":{"highway":"motorway","lanes":"3","maxheight":"4.5","maxspeed":"80","name":"Seletar Expressway","name:ms":"Lebuhraya Seletar","name:ta":"\u0b9a\u0bc6\u0bb2\u0bc7\u0ba4\u0bcd\u0ba4\u0bbe\u0bb0\u0bcd \u0bb5\u0bbf\u0bb0\u0bc8\u0bb5\u0bc1\u0b9a\u0bcd\u0b9a\u0bbe\u0bb2\u0bc8","name:zh":"\u5b9e\u91cc\u8fbe\u9ad8\u901f\u516c\u8def","oneway":"yes","ref":"SLE","ref:ta":"\u0b8e\u0bb8\u0bcd\u0b8e\u0bb2\u0bcd\u0b87","short_name:ta":"\u0b8e\u0bb8\u0bcd\u0b8e\u0bb2\u0bcd\u0b87","surface":"asphalt","wikidata":"Q1575163","wikipedia":"en:Seletar Expressway"},"geometry":{"type":"LineString","coordinates":[[103.8557433,1.3976382],[103.8560105,1.3975339]]}},{"type":"Feature","id":"way/15092487-0-7-0","properties":{"highway":"motorway","lanes":"3","maxheight":"4.5","maxspeed":"80","name":"Seletar Expressway","name:ms":"Lebuhraya Seletar","name:ta":"\u0b9a\u0bc6\u0bb2\u0bc7\u0ba4\u0bcd\u0ba4\u0bbe\u0bb0\u0bcd \u0bb5\u0bbf\u0bb0\u0bc8\u0bb5\u0bc1\u0b9a\u0bcd\u0b9a\u0bbe\u0bb2\u0bc8","name:zh":"\u5b9e\u91cc\u8fbe\u9ad8\u901f\u516c\u8def","oneway":"yes","ref":"SLE","ref:ta":"\u0b8e\u0bb8\u0bcd\u0b8e\u0bb2\u0bcd\u0b87","short_name:ta":"\u0b8e\u0bb8\u0bcd\u0b8e\u0bb2\u0bcd\u0b87","surface":"asphalt","wikidata":"Q1575163","wikipedia":"en:Seletar Expressway"},"geometry":{"type":"LineString","coordinates":[[103.8560105,1.3975339],[103.8563042,1.397382]]}},{"type":"Feature","id":"way/15092487-0-8-0","properties":{"highway":"motorway","lanes":"3","maxheight":"4.5","maxspeed":"80","name":"Seletar Expressway","name:ms":"Lebuhraya Seletar","name:ta":"\u0b9a\u0bc6\u0bb2\u0bc7\u0ba4\u0bcd\u0ba4\u0bbe\u0bb0\u0bcd \u0bb5\u0bbf\u0bb0\u0bc8\u0bb5\u0bc1\u0b9a\u0bcd\u0b9a\u0bbe\u0bb2\u0bc8","name:zh":"\u5b9e\u91cc\u8fbe\u9ad8\u901f\u516c\u8def","oneway":"yes","ref":"SLE","ref:ta":"\u0b8e\u0bb8\u0bcd\u0b8e\u0bb2\u0bcd\u0b87","short_name:ta":"\u0b8e\u0bb8\u0bcd\u0b8e\u0bb2\u0bcd\u0b87","surface":"asphalt","wikidata":"Q1575163","wikipedia":"en:Seletar Expressway"},"geometry":{"type":"LineString","coordinates":[[103.8563042,1.397382],[103.8565734,1.3972136]]}},{"type":"Feature","id":"way/15092487-0-9-0","properties":{"highway":"motorway","lanes":"3","maxheight":"4.5","maxspeed":"80","name":"Seletar Expressway","name:ms":"Lebuhraya Seletar","name:ta":"\u0b9a\u0bc6\u0bb2\u0bc7\u0ba4\u0bcd\u0ba4\u0bbe\u0bb0\u0bcd \u0bb5\u0bbf\u0bb0\u0bc8\u0bb5\u0bc1\u0b9a\u0bcd\u0b9a\u0bbe\u0bb2\u0bc8","name:zh":"\u5b9e\u91cc\u8fbe\u9ad8\u901f\u516c\u8def","oneway":"yes","ref":"SLE","ref:ta":"\u0b8e\u0bb8\u0bcd\u0b8e\u0bb2\u0bcd\u0b87","short_name:ta":"\u0b8e\u0bb8\u0bcd\u0b8e\u0bb2\u0bcd\u0b87","surface":"asphalt","wikidata":"Q1575163","wikipedia":"en:Seletar Expressway"},"geometry":{"type":"LineString","coordinates":[[103.8565734,1.3972136],[103.8568936,1.3969409]]}},{"type":"Feature","id":"way/15092487-0-10-0","properties":{"highway":"motorway","lanes":"3","maxheight":"4.5","maxspeed":"80","name":"Seletar Expressway","name:ms":"Lebuhraya Seletar","name:ta":"\u0b9a\u0bc6\u0bb2\u0bc7\u0ba4\u0bcd\u0ba4\u0bbe\u0bb0\u0bcd \u0bb5\u0bbf\u0bb0\u0bc8\u0bb5\u0bc1\u0b9a\u0bcd\u0b9a\u0bbe\u0bb2\u0bc8","name:zh":"\u5b9e\u91cc\u8fbe\u9ad8\u901f\u516c\u8def","oneway":"yes","ref":"SLE","ref:ta":"\u0b8e\u0bb8\u0bcd\u0b8e\u0bb2\u0bcd\u0b87","short_name:ta":"\u0b8e\u0bb8\u0bcd\u0b8e\u0bb2\u0bcd\u0b87","surface":"asphalt","wikidata":"Q1575163","wikipedia":"en:Seletar Expressway"},"geometry":{"type":"LineString","coordinates":[[103.8568936,1.3969409],[103.8571507,1.3966705]]}},{"type":"Feature","id":"way/15092487-0-11-0","properties":{"highway":"motorway","lanes":"3","maxheight":"4.5","maxspeed":"80","name":"Seletar Expressway","name:ms":"Lebuhraya Seletar","name:ta":"\u0b9a\u0bc6\u0bb2\u0bc7\u0ba4\u0bcd\u0ba4\u0bbe\u0bb0\u0bcd \u0bb5\u0bbf\u0bb0\u0bc8\u0bb5\u0bc1\u0b9a\u0bcd\u0b9a\u0bbe\u0bb2\u0bc8","name:zh":"\u5b9e\u91cc\u8fbe\u9ad8\u901f\u516c\u8def","oneway":"yes","ref":"SLE","ref:ta":"\u0b8e\u0bb8\u0bcd\u0b8e\u0bb2\u0bcd\u0b87","short_name:ta":"\u0b8e\u0bb8\u0bcd\u0b8e\u0bb2\u0bcd\u0b87","surface":"asphalt","wikidata":"Q1575163","wikipedia":"en:Seletar Expressway"},"geometry":{"type":"LineString","coordinates":[[103.8571507,1.3966705],[103.8574035,1.396313]]}},{"type":"Feature","id":"way/21309187-0-6-0","properties":{"highway":"motorway","lanes":"3","maxheight":"4.5","maxspeed":"80","name":"Seletar Expressway","name:ms":"Lebuhraya Seletar","name:ta":"\u0b9a\u0bc6\u0bb2\u0bc7\u0ba4\u0bcd\u0ba4\u0bbe\u0bb0\u0bcd \u0bb5\u0bbf\u0bb0\u0bc8\u0bb5\u0bc1\u0b9a\u0bcd\u0b9a\u0bbe\u0bb2\u0bc8","name:zh":"\u5b9e\u91cc\u8fbe\u9ad8\u901f\u516c\u8def","oneway":"yes","ref":"SLE","ref:ta":"\u0b8e\u0bb8\u0bcd\u0b8e\u0bb2\u0bcd\u0b87","short_name:ta":"\u0b8e\u0bb8\u0bcd\u0b8e\u0bb2\u0bcd\u0b87","surface":"asphalt","wikidata":"Q1575163","wikipedia":"en:Seletar Expressway"},"geometry":{"type":"LineString","coordinates":[[103.8572737,1.3962342],[103.8570215,1.3965867]]}},{"type":"Feature","id":"way/21309187-0-7-0","properties":{"highway":"motorway","lanes":"3","maxheight":"4.5","maxspeed":"80","name":"Seletar Expressway","name:ms":"Lebuhraya Seletar","name:ta":"\u0b9a\u0bc6\u0bb2\u0bc7\u0ba4\u0bcd\u0ba4\u0bbe\u0bb0\u0bcd \u0bb5\u0bbf\u0bb0\u0bc8\u0bb5\u0bc1\u0b9a\u0bcd\u0b9a\u0bbe\u0bb2\u0bc8","name:zh":"\u5b9e\u91cc\u8fbe\u9ad8\u901f\u516c\u8def","oneway":"yes","ref":"SLE","ref:ta":"\u0b8e\u0bb8\u0bcd\u0b8e\u0bb2\u0bcd\u0b87","short_name:ta":"\u0b8e\u0bb8\u0bcd\u0b8e\u0bb2\u0bcd\u0b87","surface":"asphalt","wikidata":"Q1575163","wikipedia":"en:Seletar Expressway"},"geometry":{"type":"LineString","coordinates":[[103.8570215,1.3965867],[103.8567913,1.3968323]]}},{"type":"Feature","id":"way/21309187-0-8-0","properties":{"highway":"motorway","lanes":"3","maxheight":"4.5","maxspeed":"80","name":"Seletar Expressway","name:ms":"Lebuhraya Seletar","name:ta":"\u0b9a\u0bc6\u0bb2\u0bc7\u0ba4\u0bcd\u0ba4\u0bbe\u0bb0\u0bcd \u0bb5\u0bbf\u0bb0\u0bc8\u0bb5\u0bc1\u0b9a\u0bcd\u0b9a\u0bbe\u0bb2\u0bc8","name:zh":"\u5b9e\u91cc\u8fbe\u9ad8\u901f\u516c\u8def","oneway":"yes","ref":"SLE","ref:ta":"\u0b8e\u0bb8\u0bcd\u0b8e\u0bb2\u0bcd\u0b87","short_name:ta":"\u0b8e\u0bb8\u0bcd\u0b8e\u0bb2\u0bcd\u0b87","surface":"asphalt","wikidata":"Q1575163","wikipedia":"en:Seletar Expressway"},"geometry":{"type":"LineString","coordinates":[[103.8567913,1.3968323],[103.8564728,1.397099]]}},{"type":"Feature","id":"way/21309187-0-9-0","properties":{"highway":"motorway","lanes":"3","maxheight":"4.5","maxspeed":"80","name":"Seletar Expressway","name:ms":"Lebuhraya Seletar","name:ta":"\u0b9a\u0bc6\u0bb2\u0bc7\u0ba4\u0bcd\u0ba4\u0bbe\u0bb0\u0bcd \u0bb5\u0bbf\u0bb0\u0bc8\u0bb5\u0bc1\u0b9a\u0bcd\u0b9a\u0bbe\u0bb2\u0bc8","name:zh":"\u5b9e\u91cc\u8fbe\u9ad8\u901f\u516c\u8def","oneway":"yes","ref":"SLE","ref:ta":"\u0b8e\u0bb8\u0bcd\u0b8e\u0bb2\u0bcd\u0b87","short_name:ta":"\u0b8e\u0bb8\u0bcd\u0b8e\u0bb2\u0bcd\u0b87","surface":"asphalt","wikidata":"Q1575163","wikipedia":"en:Seletar Expressway"},"geometry":{"type":"LineString","coordinates":[[103.8564728,1.397099],[103.8562251,1.3972576]]}},{"type":"Feature","id":"way/21309187-0-10-0","properties":{"highway":"motorway","lanes":"3","maxheight":"4.5","maxspeed":"80","name":"Seletar Expressway","name:ms":"Lebuhraya Seletar","name:ta":"\u0b9a\u0bc6\u0bb2\u0bc7\u0ba4\u0bcd\u0ba4\u0bbe\u0bb0\u0bcd \u0bb5\u0bbf\u0bb0\u0bc8\u0bb5\u0bc1\u0b9a\u0bcd\u0b9a\u0bbe\u0bb2\u0bc8","name:zh":"\u5b9e\u91cc\u8fbe\u9ad8\u901f\u516c\u8def","oneway":"yes","ref":"SLE","ref:ta":"\u0b8e\u0bb8\u0bcd\u0b8e\u0bb2\u0bcd\u0b87","short_name:ta":"\u0b8e\u0bb8\u0bcd\u0b8e\u0bb2\u0bcd\u0b87","surface":"asphalt","wikidata":"Q1575163","wikipedia":"en:Seletar Expressway"},"geometry":{"type":"LineString","coordinates":[[103.8562251,1.3972576],[103.8559601,1.3973991]]}},{"type":"Feature","id":"way/21309187-0-11-0","properties":{"highway":"motorway","lanes":"3","maxheight":"4.5","maxspeed":"80","name":"Seletar Expressway","name:ms":"Lebuhraya Seletar","name:ta":"\u0b9a\u0bc6\u0bb2\u0bc7\u0ba4\u0bcd\u0ba4\u0bbe\u0bb0\u0bcd \u0bb5\u0bbf\u0bb0\u0bc8\u0bb5\u0bc1\u0b9a\u0bcd\u0b9a\u0bbe\u0bb2\u0bc8","name:zh":"\u5b9e\u91cc\u8fbe\u9ad8\u901f\u516c\u8def","oneway":"yes","ref":"SLE","ref:ta":"\u0b8e\u0bb8\u0bcd\u0b8e\u0bb2\u0bcd\u0b87","short_name:ta":"\u0b8e\u0bb8\u0bcd\u0b8e\u0bb2\u0bcd\u0b87","surface":"asphalt","wikidata":"Q1575163","wikipedia":"en:Seletar Expressway"},"geometry":{"type":"LineString","coordinates":[[103.8559601,1.3973991],[103.8557082,1.3975006]]}},{"type":"Feature","id":"way/21309187-0-12-0","properties":{"highway":"motorway","lanes":"3","maxheight":"4.5","maxspeed":"80","name":"Seletar Expressway","name:ms":"Lebuhraya Seletar","name:ta":"\u0b9a\u0bc6\u0bb2\u0bc7\u0ba4\u0bcd\u0ba4\u0bbe\u0bb0\u0bcd \u0bb5\u0bbf\u0bb0\u0bc8\u0bb5\u0bc1\u0b9a\u0bcd\u0b9a\u0bbe\u0bb2\u0bc8","name:zh":"\u5b9e\u91cc\u8fbe\u9ad8\u901f\u516c\u8def","oneway":"yes","ref":"SLE","ref:ta":"\u0b8e\u0bb8\u0bcd\u0b8e\u0bb2\u0bcd\u0b87","short_name:ta":"\u0b8e\u0bb8\u0bcd\u0b8e\u0bb2\u0bcd\u0b87","surface":"asphalt","wikidata":"Q1575163","wikipedia":"en:Seletar Expressway"},"geometry":{"type":"LineString","coordinates":[[103.8557082,1.3975006],[103.8554701,1.3975746]]}},{"type":"Feature","id":"way/37583316-0-7-0","properties":{"destination":"Yio Chu Kang Road","highway":"motorway_link","lanes":"1","maxspeed":"50","oneway":"yes"},"geometry":{"type":"LineString","coordinates":[[103.8553013,1.3978882],[103.8557013,1.3978121]]}},{"type":"Feature","id":"way/37583316-0-8-0","properties":{"destination":"Yio Chu Kang Road","highway":"motorway_link","lanes":"1","maxspeed":"50","oneway":"yes"},"geometry":{"type":"LineString","coordinates":[[103.8557013,1.3978121],[103.8560845,1.3976713]]}},{"type":"Feature","id":"way/37583316-0-9-0","properties":{"destination":"Yio Chu Kang Road","highway":"motorway_link","lanes":"1","maxspeed":"50","oneway":"yes"},"geometry":{"type":"LineString","coordinates":[[103.8560845,1.3976713],[103.8564128,1.3975222]]}},{"type":"Feature","id":"way/37583324-0-3-0","properties":{"destination:ref":"TPE;KPE","destination:ref:to":"PIE","destination:symbol":"airport","destination:to":"Changi","highway":"primary_link","lanes":"2","layer":"-1","maxspeed":"50","name:zh":"\u5b9e\u91cc\u8fbe\u7acb\u4ea4","oneway":"yes","tunnel":"yes"},"geometry":{"type":"LineString","coordinates":[[103.8555425,1.3992356],[103.8556302,1.3994115]]}},{"type":"Feature","id":"way/37583324-0-4-0","properties":{"destination:ref":"TPE;KPE","destination:ref:to":"PIE","destination:symbol":"airport","destination:to":"Changi","highway":"primary_link","lanes":"2","layer":"-1","maxspeed":"50","name:zh":"\u5b9e\u91cc\u8fbe\u7acb\u4ea4","oneway":"yes","tunnel":"yes"},"geometry":{"type":"LineString","coordinates":[[103.8556302,1.3994115],[103.8557635,1.3995895]]}},{"type":"Feature","id":"way/37583329-0-0-0","properties":{"destination:ref":"TPE;KPE","destination:ref:to":"PIE","destination:symbol":"airport","destination:to":"Changi","highway":"primary_link","lanes":"2","maxspeed":"50","name:zh":"\u5b9e\u91cc\u8fbe\u7acb\u4ea4","oneway":"yes"},"geometry":{"type":"LineString","coordinates":[[103.8557635,1.3995895],[103.855983,1.3998141]]}},{"type":"Feature","id":"way/37583329-0-1-0","properties":{"destination:ref":"TPE;KPE","destination:ref:to":"PIE","destination:symbol":"airport","destination:to":"Changi","highway":"primary_link","lanes":"2","maxspeed":"50","name:zh":"\u5b9e\u91cc\u8fbe\u7acb\u4ea4","oneway":"yes"},"geometry":{"type":"LineString","coordinates":[[103.855983,1.3998141],[103.8562484,1.400004]]}},{"type":"Feature","id":"way/37583329-0-2-0","properties":{"destination:ref":"TPE;KPE","destination:ref:to":"PIE","destination:symbol":"airport","destination:to":"Changi","highway":"primary_link","lanes":"2","maxspeed":"50","name:zh":"\u5b9e\u91cc\u8fbe\u7acb\u4ea4","oneway":"yes"},"geometry":{"type":"LineString","coordinates":[[103.8562484,1.400004],[103.8564984,1.4001402]]}},{"type":"Feature","id":"way/37583329-0-3-0","properties":{"destination:ref":"TPE;KPE","destination:ref:to":"PIE","destination:symbol":"airport","destination:to":"Changi","highway":"primary_link","lanes":"2","maxspeed":"50","name:zh":"\u5b9e\u91cc\u8fbe\u7acb\u4ea4","oneway":"yes"},"geometry":{"type":"LineString","coordinates":[[103.8564984,1.4001402],[103.8569944,1.4003617]]}},{"type":"Feature","id":"way/37583329-0-4-0","properties":{"destination:ref":"TPE;KPE","destination:ref:to":"PIE","destination:symbol":"airport","destination:to":"Changi","highway":"primary_link","lanes":"2","maxspeed":"50","name:zh":"\u5b9e\u91cc\u8fbe\u7acb\u4ea4","oneway":"yes"},"geometry":{"type":"LineString","coordinates":[[103.8569944,1.4003617],[103.8573949,1.4005019]]}},{"type":"Feature","id":"way/37583329-0-5-0","properties":{"destination:ref":"TPE;KPE","destination:ref:to":"PIE","destination:symbol":"airport","destination:to":"Changi","highway":"primary_link","lanes":"2","maxspeed":"50","name:zh":"\u5b9e\u91cc\u8fbe\u7acb\u4ea4","oneway":"yes"},"geometry":{"type":"LineString","coordinates":[[103.8573949,1.4005019],[103.8578019,1.400628]]}},{"type":"Feature","id":"way/139718132-0-7-0","properties":{"destination":"Seletar West Link;Seletar Aerospace Drive;Seletar North Link","highway":"motorway_link","lanes":"1","maxspeed":"50","oneway":"yes","surface":"asphalt"},"geometry":{"type":"LineString","coordinates":[[103.8554815,1.3996054],[103.8556246,1.3998948]]}},{"type":"Feature","id":"way/139718132-0-8-0","properties":{"destination":"Seletar West Link;Seletar Aerospace Drive;Seletar North Link","highway":"motorway_link","lanes":"1","maxspeed":"50","oneway":"yes","surface":"asphalt"},"geometry":{"type":"LineString","coordinates":[[103.8556246,1.3998948],[103.8557074,1.4001648]]}},{"type":"Feature","id":"way/139718132-0-9-0","properties":{"destination":"Seletar West Link;Seletar Aerospace Drive;Seletar North Link","highway":"motorway_link","lanes":"1","maxspeed":"50","oneway":"yes","surface":"asphalt"},"geometry":{"type":"LineString","coordinates":[[103.8557074,1.4001648],[103.855741,1.400416]]}},{"type":"Feature","id":"way/139718132-0-10-0","properties":{"destination":"Seletar West Link;Seletar Aerospace Drive;Seletar North Link","highway":"motorway_link","lanes":"1","maxspeed":"50","oneway":"yes","surface":"asphalt"},"geometry":{"type":"LineString","coordinates":[[103.855741,1.400416],[103.8557321,1.4006283]]}},{"type":"Feature","id":"way/139718132-0-11-0","properties":{"destination":"Seletar West Link;Seletar Aerospace Drive;Seletar North Link","highway":"motorway_link","lanes":"1","maxspeed":"50","oneway":"yes","surface":"asphalt"},"geometry":{"type":"LineString","coordinates":[[103.8557321,1.4006283],[103.8556826,1.400883]]}},{"type":"Feature","id":"way/301866488-0-0-0","properties":{"destination":"Yio Chu Kang Road","highway":"primary_link","lanes":"2","maxheight":"4.5","maxspeed":"50","oneway":"yes","surface":"asphalt"},"geometry":{"type":"LineString","coordinates":[[103.8593582,1.4003918],[103.8586764,1.4002111]]}},{"type":"Feature","id":"way/301866488-0-1-0","properties":{"destination":"Yio Chu Kang Road","highway":"primary_link","lanes":"2","maxheight":"4.5","maxspeed":"50","oneway":"yes","surface":"asphalt"},"geometry":{"type":"LineString","coordinates":[[103.8586764,1.4002111],[103.8583796,1.4000837]]}},{"type":"Feature","id":"way/301866488-0-2-0","properties":{"destination":"Yio Chu Kang Road","highway":"primary_link","lanes":"2","maxheight":"4.5","maxspeed":"50","oneway":"yes","surface":"asphalt"},"geometry":{"type":"LineString","coordinates":[[103.8583796,1.4000837],[103.8581507,1.399892]]}},{"type":"Feature","id":"way/301866488-0-3-0","properties":{"destination":"Yio Chu Kang Road","highway":"primary_link","lanes":"2","maxheight":"4.5","maxspeed":"50","oneway":"yes","surface":"asphalt"},"geometry":{"type":"LineString","coordinates":[[103.8581507,1.399892],[103.8580032,1.3996989]]}},{"type":"Feature","id":"way/301866488-0-4-0","properties":{"destination":"Yio Chu Kang Road","highway":"primary_link","lanes":"2","maxheight":"4.5","maxspeed":"50","oneway":"yes","surface":"asphalt"},"geometry":{"type":"LineString","coordinates":[[103.8580032,1.3996989],[103.8579039,1.3995086]]}},{"type":"Feature","id":"way/301866488-0-5-0","properties":{"destination":"Yio Chu Kang Road","highway":"primary_link","lanes":"2","maxheight":"4.5","maxspeed":"50","oneway":"yes","surface":"asphalt"},"geometry":{"type":"LineString","coordinates":[[103.8579039,1.3995086],[103.8578369,1.399286]]}},{"type":"Feature","id":"way/301866488-0-6-0","properties":{"destination":"Yio Chu Kang Road","highway":"primary_link","lanes":"2","maxheight":"4.5","maxspeed":"50","oneway":"yes","surface":"asphalt"},"geometry":{"type":"LineString","coordinates":[[103.8578369,1.399286],[103.8577913,1.3990501]]}},{"type":"Feature","id":"way/301866488-0-7-0","properties":{"destination":"Yio Chu Kang Road","highway":"primary_link","lanes":"2","maxheight":"4.5","maxspeed":"50","oneway":"yes","surface":"asphalt"},"geometry":{"type":"LineString","coordinates":[[103.8577913,1.3990501],[103.8577765,1.3986814]]}},{"type":"Feature","id":"way/301866488-0-8-0","properties":{"destination":"Yio Chu Kang Road","highway":"primary_link","lanes":"2","maxheight":"4.5","maxspeed":"50","oneway":"yes","surface":"asphalt"},"geometry":{"type":"LineString","coordinates":[[103.8577765,1.3986814],[103.8577631,1.3984065]]}},{"type":"Feature","id":"way/301866488-0-9-0","properties":{"destination":"Yio Chu Kang Road","highway":"primary_link","lanes":"2","maxheight":"4.5","maxspeed":"50","oneway":"yes","surface":"asphalt"},"geometry":{"type":"LineString","coordinates":[[103.8577631,1.3984065],[103.8576719,1.3979882]]}},{"type":"Feature","id":"way/301866488-0-10-0","properties":{"destination":"Yio Chu Kang Road","highway":"primary_link","lanes":"2","maxheight":"4.5","maxspeed":"50","oneway":"yes","surface":"asphalt"},"geometry":{"type":"LineString","coordinates":[[103.8576719,1.3979882],[103.8576196,1.3976718]]}},{"type":"Feature","id":"way/301866488-0-11-0","properties":{"destination":"Yio Chu Kang Road","highway":"primary_link","lanes":"2","maxheight":"4.5","maxspeed":"50","oneway":"yes","surface":"asphalt"},"geometry":{"type":"LineString","coordinates":[[103.8576196,1.3976718],[103.8575861,1.3973178]]}},{"type":"Feature","id":"way/301866488-0-12-0","properties":{"destination":"Yio Chu Kang Road","highway":"primary_link","lanes":"2","maxheight":"4.5","maxspeed":"50","oneway":"yes","surface":"asphalt"},"geometry":{"type":"LineString","coordinates":[[103.8575861,1.3973178],[103.8575926,1.3970269]]}},{"type":"Feature","id":"way/301866488-0-13-0","properties":{"destination":"Yio Chu Kang Road","highway":"primary_link","lanes":"2","maxheight":"4.5","maxspeed":"50","oneway":"yes","surface":"asphalt"},"geometry":{"type":"LineString","coordinates":[[103.8575926,1.3970269],[103.8576306,1.3967386]]}},{"type":"Feature","id":"way/301866488-0-14-0","properties":{"destination":"Yio Chu Kang Road","highway":"primary_link","lanes":"2","maxheight":"4.5","maxspeed":"50","oneway":"yes","surface":"asphalt"},"geometry":{"type":"LineString","coordinates":[[103.8576306,1.3967386],[103.8576627,1.3966095]]}},{"type":"Feature","id":"way/301866488-0-15-0","properties":{"destination":"Yio Chu Kang Road","highway":"primary_link","lanes":"2","maxheight":"4.5","maxspeed":"50","oneway":"yes","surface":"asphalt"},"geometry":{"type":"LineString","coordinates":[[103.8576627,1.3966095],[103.857794,1.3961301]]}},{"type":"Feature","id":"way/349477678-0-0-0","properties":{"bridge":"yes","destination":"Yio Chu Kang Road","highway":"motorway_link","lanes":"1","layer":"1","maxspeed":"50","name:zh":"\u6768\u539d\u6e2f\u7acb\u4ea4","oneway":"yes"},"geometry":{"type":"LineString","coordinates":[[103.8564128,1.3975222],[103.8567417,1.3973399]]}},{"type":"Feature","id":"way/349477678-0-1-0","properties":{"bridge":"yes","destination":"Yio Chu Kang Road","highway":"motorway_link","lanes":"1","layer":"1","maxspeed":"50","name:zh":"\u6768\u539d\u6e2f\u7acb\u4ea4","oneway":"yes"},"geometry":{"type":"LineString","coordinates":[[103.8567417,1.3973399],[103.8570243,1.397168]]}},{"type":"Feature","id":"way/349477678-0-2-0","properties":{"bridge":"yes","destination":"Yio Chu Kang Road","highway":"motorway_link","lanes":"1","layer":"1","maxspeed":"50","name:zh":"\u6768\u539d\u6e2f\u7acb\u4ea4","oneway":"yes"},"geometry":{"type":"LineString","coordinates":[[103.8570243,1.397168],[103.8571828,1.397036]]}},{"type":"Feature","id":"way/349477678-0-3-0","properties":{"bridge":"yes","destination":"Yio Chu Kang Road","highway":"motorway_link","lanes":"1","layer":"1","maxspeed":"50","name:zh":"\u6768\u539d\u6e2f\u7acb\u4ea4","oneway":"yes"},"geometry":{"type":"LineString","coordinates":[[103.8571828,1.397036],[103.857305,1.3969286]]}},{"type":"Feature","id":"way/349477678-0-4-0","properties":{"bridge":"yes","destination":"Yio Chu Kang Road","highway":"motorway_link","lanes":"1","layer":"1","maxspeed":"50","name:zh":"\u6768\u539d\u6e2f\u7acb\u4ea4","oneway":"yes"},"geometry":{"type":"LineString","coordinates":[[103.857305,1.3969286],[103.8573841,1.3968506]]}},{"type":"Feature","id":"way/349477678-0-5-0","properties":{"bridge":"yes","destination":"Yio Chu Kang Road","highway":"motorway_link","lanes":"1","layer":"1","maxspeed":"50","name:zh":"\u6768\u539d\u6e2f\u7acb\u4ea4","oneway":"yes"},"geometry":{"type":"LineString","coordinates":[[103.8573841,1.3968506],[103.8575188,1.3967136]]}},{"type":"Feature","id":"way/349477678-0-6-0","properties":{"bridge":"yes","destination":"Yio Chu Kang Road","highway":"motorway_link","lanes":"1","layer":"1","maxspeed":"50","name:zh":"\u6768\u539d\u6e2f\u7acb\u4ea4","oneway":"yes"},"geometry":{"type":"LineString","coordinates":[[103.8575188,1.3967136],[103.857678,1.396524]]}},{"type":"Feature","id":"way/349477678-0-7-0","properties":{"bridge":"yes","destination":"Yio Chu Kang Road","highway":"motorway_link","lanes":"1","layer":"1","maxspeed":"50","name:zh":"\u6768\u539d\u6e2f\u7acb\u4ea4","oneway":"yes"},"geometry":{"type":"LineString","coordinates":[[103.857678,1.396524],[103.8578229,1.3963042]]}},{"type":"Feature","id":"way/349477688-0-0-0","properties":{"destination":"City","destination:ref":"CTE","highway":"motorway_link","lanes":"1","maxheight":"4.5","maxspeed":"50","oneway":"yes","surface":"asphalt"},"geometry":{"type":"LineString","coordinates":[[103.8593582,1.4003918],[103.8587336,1.4003071]]}},{"type":"Feature","id":"way/349477688-0-1-0","properties":{"destination":"City","destination:ref":"CTE","highway":"motorway_link","lanes":"1","maxheight":"4.5","maxspeed":"50","oneway":"yes","surface":"asphalt"},"geometry":{"type":"LineString","coordinates":[[103.8587336,1.4003071],[103.8583657,1.4002187]]}},{"type":"Feature","id":"way/349477688-0-2-0","properties":{"destination":"City","destination:ref":"CTE","highway":"motorway_link","lanes":"1","maxheight":"4.5","maxspeed":"50","oneway":"yes","surface":"asphalt"},"geometry":{"type":"LineString","coordinates":[[103.8583657,1.4002187],[103.8580901,1.4001253]]}},{"type":"Feature","id":"way/349477688-0-3-0","properties":{"destination":"City","destination:ref":"CTE","highway":"motorway_link","lanes":"1","maxheight":"4.5","maxspeed":"50","oneway":"yes","surface":"asphalt"},"geometry":{"type":"LineString","coordinates":[[103.8580901,1.4001253],[103.8578362,1.399991]]}},{"type":"Feature","id":"way/349477688-0-4-0","properties":{"destination":"City","destination:ref":"CTE","highway":"motorway_link","lanes":"1","maxheight":"4.5","maxspeed":"50","oneway":"yes","surface":"asphalt"},"geometry":{"type":"LineString","coordinates":[[103.8578362,1.399991],[103.857684,1.3998598]]}},{"type":"Feature","id":"way/349477688-0-5-0","properties":{"destination":"City","destination:ref":"CTE","highway":"motorway_link","lanes":"1","maxheight":"4.5","maxspeed":"50","oneway":"yes","surface":"asphalt"},"geometry":{"type":"LineString","coordinates":[[103.857684,1.3998598],[103.8575391,1.3997311]]}},{"type":"Feature","id":"way/349477688-0-6-0","properties":{"destination":"City","destination:ref":"CTE","highway":"motorway_link","lanes":"1","maxheight":"4.5","maxspeed":"50","oneway":"yes","surface":"asphalt"},"geometry":{"type":"LineString","coordinates":[[103.8575391,1.3997311],[103.8573702,1.399522]]}},{"type":"Feature","id":"way/349477688-0-7-0","properties":{"destination":"City","destination:ref":"CTE","highway":"motorway_link","lanes":"1","maxheight":"4.5","maxspeed":"50","oneway":"yes","surface":"asphalt"},"geometry":{"type":"LineString","coordinates":[[103.8573702,1.399522],[103.8572441,1.3993155]]}},{"type":"Feature","id":"way/349477688-0-8-0","properties":{"destination":"City","destination:ref":"CTE","highway":"motorway_link","lanes":"1","maxheight":"4.5","maxspeed":"50","oneway":"yes","surface":"asphalt"},"geometry":{"type":"LineString","coordinates":[[103.8572441,1.3993155],[103.8571261,1.3990098]]}},{"type":"Feature","id":"way/349477688-0-9-0","properties":{"destination":"City","destination:ref":"CTE","highway":"motorway_link","lanes":"1","maxheight":"4.5","maxspeed":"50","oneway":"yes","surface":"asphalt"},"geometry":{"type":"LineString","coordinates":[[103.8571261,1.3990098],[103.85711,1.3987417]]}},{"type":"Feature","id":"way/349477688-0-10-0","properties":{"destination":"City","destination:ref":"CTE","highway":"motorway_link","lanes":"1","maxheight":"4.5","maxspeed":"50","oneway":"yes","surface":"asphalt"},"geometry":{"type":"LineString","coordinates":[[103.85711,1.3987417],[103.8571219,1.3984065]]}},{"type":"Feature","id":"way/349477688-0-11-0","properties":{"destination":"City","destination:ref":"CTE","highway":"motorway_link","lanes":"1","maxheight":"4.5","maxspeed":"50","oneway":"yes","surface":"asphalt"},"geometry":{"type":"LineString","coordinates":[[103.8571219,1.3984065],[103.8571717,1.3980257]]}},{"type":"Feature","id":"way/349477688-0-12-0","properties":{"destination":"City","destination:ref":"CTE","highway":"motorway_link","lanes":"1","maxheight":"4.5","maxspeed":"50","oneway":"yes","surface":"asphalt"},"geometry":{"type":"LineString","coordinates":[[103.8571717,1.3980257],[103.8572788,1.3973325]]}},{"type":"Feature","id":"way/349477688-0-13-0","properties":{"destination":"City","destination:ref":"CTE","highway":"motorway_link","lanes":"1","maxheight":"4.5","maxspeed":"50","oneway":"yes","surface":"asphalt"},"geometry":{"type":"LineString","coordinates":[[103.8572788,1.3973325],[103.8574019,1.3967592]]}},{"type":"Feature","id":"way/349477688-0-14-0","properties":{"destination":"City","destination:ref":"CTE","highway":"motorway_link","lanes":"1","maxheight":"4.5","maxspeed":"50","oneway":"yes","surface":"asphalt"},"geometry":{"type":"LineString","coordinates":[[103.8574019,1.3967592],[103.8574219,1.3966728]]}},{"type":"Feature","id":"way/349477688-0-15-0","properties":{"destination":"City","destination:ref":"CTE","highway":"motorway_link","lanes":"1","maxheight":"4.5","maxspeed":"50","oneway":"yes","surface":"asphalt"},"geometry":{"type":"LineString","coordinates":[[103.8574219,1.3966728],[103.8574764,1.3965311]]}},{"type":"Feature","id":"way/349477688-0-16-0","properties":{"destination":"City","destination:ref":"CTE","highway":"motorway_link","lanes":"1","maxheight":"4.5","maxspeed":"50","oneway":"yes","surface":"asphalt"},"geometry":{"type":"LineString","coordinates":[[103.8574764,1.3965311],[103.8575756,1.3963675]]}},{"type":"Feature","id":"way/349477711-0-0-0","properties":{"bridge":"yes","destination":"Seletar West Link;Yishun Avenue 1","highway":"motorway_link","lanes":"2","layer":"1","maxspeed":"50","oneway":"yes","surface":"asphalt"},"geometry":{"type":"LineString","coordinates":[[103.8567241,1.3977321],[103.8569167,1.3977911]]}},{"type":"Feature","id":"way/349477711-0-1-0","properties":{"bridge":"yes","destination":"Seletar West Link;Yishun Avenue 1","highway":"motorway_link","lanes":"2","layer":"1","maxspeed":"50","oneway":"yes","surface":"asphalt"},"geometry":{"type":"LineString","coordinates":[[103.8569167,1.3977911],[103.8570961,1.3978784]]}},{"type":"Feature","id":"way/349477711-0-2-0","properties":{"bridge":"yes","destination":"Seletar West Link;Yishun Avenue 1","highway":"motorway_link","lanes":"2","layer":"1","maxspeed":"50","oneway":"yes","surface":"asphalt"},"geometry":{"type":"LineString","coordinates":[[103.8570961,1.3978784],[103.8572332,1.3979996]]}},{"type":"Feature","id":"way/349477711-0-3-0","properties":{"bridge":"yes","destination":"Seletar West Link;Yishun Avenue 1","highway":"motorway_link","lanes":"2","layer":"1","maxspeed":"50","oneway":"yes","surface":"asphalt"},"geometry":{"type":"LineString","coordinates":[[103.8572332,1.3979996],[103.8573258,1.3981101]]}},{"type":"Feature","id":"way/349477711-0-4-0","properties":{"bridge":"yes","destination":"Seletar West Link;Yishun Avenue 1","highway":"motorway_link","lanes":"2","layer":"1","maxspeed":"50","oneway":"yes","surface":"asphalt"},"geometry":{"type":"LineString","coordinates":[[103.8573258,1.3981101],[103.8573888,1.3982148]]}},{"type":"Feature","id":"way/349477711-0-5-0","properties":{"bridge":"yes","destination":"Seletar West Link;Yishun Avenue 1","highway":"motorway_link","lanes":"2","layer":"1","maxspeed":"50","oneway":"yes","surface":"asphalt"},"geometry":{"type":"LineString","coordinates":[[103.8573888,1.3982148],[103.8574376,1.3983214]]}},{"type":"Feature","id":"way/349477711-0-6-0","properties":{"bridge":"yes","destination":"Seletar West Link;Yishun Avenue 1","highway":"motorway_link","lanes":"2","layer":"1","maxspeed":"50","oneway":"yes","surface":"asphalt"},"geometry":{"type":"LineString","coordinates":[[103.8574376,1.3983214],[103.8574719,1.3984802]]}},{"type":"Feature","id":"way/349477711-0-7-0","properties":{"bridge":"yes","destination":"Seletar West Link;Yishun Avenue 1","highway":"motorway_link","lanes":"2","layer":"1","maxspeed":"50","oneway":"yes","surface":"asphalt"},"geometry":{"type":"LineString","coordinates":[[103.8574719,1.3984802],[103.8574782,1.3986303]]}},{"type":"Feature","id":"way/349477711-0-8-0","properties":{"bridge":"yes","destination":"Seletar West Link;Yishun Avenue 1","highway":"motorway_link","lanes":"2","layer":"1","maxspeed":"50","oneway":"yes","surface":"asphalt"},"geometry":{"type":"LineString","coordinates":[[103.8574782,1.3986303],[103.8574254,1.398931]]}},{"type":"Feature","id":"way/349477711-0-9-0","properties":{"bridge":"yes","destination":"Seletar West Link;Yishun Avenue 1","highway":"motorway_link","lanes":"2","layer":"1","maxspeed":"50","oneway":"yes","surface":"asphalt"},"geometry":{"type":"LineString","coordinates":[[103.8574254,1.398931],[103.8573461,1.3991566]]}},{"type":"Feature","id":"way/349477711-0-10-0","properties":{"bridge":"yes","destination":"Seletar West Link;Yishun Avenue 1","highway":"motorway_link","lanes":"2","layer":"1","maxspeed":"50","oneway":"yes","surface":"asphalt"},"geometry":{"type":"LineString","coordinates":[[103.8573461,1.3991566],[103.8571916,1.3994675]]}},{"type":"Feature","id":"way/349477711-0-11-0","properties":{"bridge":"yes","destination":"Seletar West Link;Yishun Avenue 1","highway":"motorway_link","lanes":"2","layer":"1","maxspeed":"50","oneway":"yes","surface":"asphalt"},"geometry":{"type":"LineString","coordinates":[[103.8571916,1.3994675],[103.857024,1.3997008]]}},{"type":"Feature","id":"way/349477711-0-12-0","properties":{"bridge":"yes","destination":"Seletar West Link;Yishun Avenue 1","highway":"motorway_link","lanes":"2","layer":"1","maxspeed":"50","oneway":"yes","surface":"asphalt"},"geometry":{"type":"LineString","coordinates":[[103.857024,1.3997008],[103.856316,1.4005368]]}},{"type":"Feature","id":"way/349477712-0-0-0","properties":{"destination":"Seletar West Link;Yishun Avenue 1","highway":"motorway_link","lanes":"2","maxspeed":"50","oneway":"yes","surface":"asphalt"},"geometry":{"type":"LineString","coordinates":[[103.8565455,1.3995779],[103.8565033,1.399543]]}},{"type":"Feature","id":"way/349477712-0-1-0","properties":{"destination":"Seletar West Link;Yishun Avenue 1","highway":"motorway_link","lanes":"2","maxspeed":"50","oneway":"yes","surface":"asphalt"},"geometry":{"type":"LineString","coordinates":[[103.8565033,1.399543],[103.8563937,1.3994482]]}},{"type":"Feature","id":"way/349477712-0-2-0","properties":{"destination":"Seletar West Link;Yishun Avenue 1","highway":"motorway_link","lanes":"2","maxspeed":"50","oneway":"yes","surface":"asphalt"},"geometry":{"type":"LineString","coordinates":[[103.8563937,1.3994482],[103.8560571,1.3991935]]}},{"type":"Feature","id":"way/349477712-0-3-0","properties":{"destination":"Seletar West Link;Yishun Avenue 1","highway":"motorway_link","lanes":"2","maxspeed":"50","oneway":"yes","surface":"asphalt"},"geometry":{"type":"LineString","coordinates":[[103.8560571,1.3991935],[103.8559578,1.3990916]]}},{"type":"Feature","id":"way/349477712-0-4-0","properties":{"destination":"Seletar West Link;Yishun Avenue 1","highway":"motorway_link","lanes":"2","maxspeed":"50","oneway":"yes","surface":"asphalt"},"geometry":{"type":"LineString","coordinates":[[103.8559578,1.3990916],[103.8558935,1.3989937]]}},{"type":"Feature","id":"way/349477712-0-5-0","properties":{"destination":"Seletar West Link;Yishun Avenue 1","highway":"motorway_link","lanes":"2","maxspeed":"50","oneway":"yes","surface":"asphalt"},"geometry":{"type":"LineString","coordinates":[[103.8558935,1.3989937],[103.8558365,1.3988583]]}},{"type":"Feature","id":"way/349477712-0-6-0","properties":{"destination":"Seletar West Link;Yishun Avenue 1","highway":"motorway_link","lanes":"2","maxspeed":"50","oneway":"yes","surface":"asphalt"},"geometry":{"type":"LineString","coordinates":[[103.8558365,1.3988583],[103.8557971,1.398675]]}},{"type":"Feature","id":"way/349477712-0-7-0","properties":{"destination":"Seletar West Link;Yishun Avenue 1","highway":"motorway_link","lanes":"2","maxspeed":"50","oneway":"yes","surface":"asphalt"},"geometry":{"type":"LineString","coordinates":[[103.8557971,1.398675],[103.8557976,1.3985319]]}},{"type":"Feature","id":"way/349477712-0-8-0","properties":{"destination":"Seletar West Link;Yishun Avenue 1","highway":"motorway_link","lanes":"2","maxspeed":"50","oneway":"yes","surface":"asphalt"},"geometry":{"type":"LineString","coordinates":[[103.8557976,1.3985319],[103.855819,1.3983817]]}},{"type":"Feature","id":"way/349477712-0-9-0","properties":{"destination":"Seletar West Link;Yishun Avenue 1","highway":"motorway_link","lanes":"2","maxspeed":"50","oneway":"yes","surface":"asphalt"},"geometry":{"type":"LineString","coordinates":[[103.855819,1.3983817],[103.8558492,1.3982704]]}},{"type":"Feature","id":"way/349477712-0-10-0","properties":{"destination":"Seletar West Link;Yishun Avenue 1","highway":"motorway_link","lanes":"2","maxspeed":"50","oneway":"yes","surface":"asphalt"},"geometry":{"type":"LineString","coordinates":[[103.8558492,1.3982704],[103.8559015,1.3981618]]}},{"type":"Feature","id":"way/349477712-0-11-0","properties":{"destination":"Seletar West Link;Yishun Avenue 1","highway":"motorway_link","lanes":"2","maxspeed":"50","oneway":"yes","surface":"asphalt"},"geometry":{"type":"LineString","coordinates":[[103.8559015,1.3981618],[103.8559894,1.3980271]]}},{"type":"Feature","id":"way/349477712-0-12-0","properties":{"destination":"Seletar West Link;Yishun Avenue 1","highway":"motorway_link","lanes":"2","maxspeed":"50","oneway":"yes","surface":"asphalt"},"geometry":{"type":"LineString","coordinates":[[103.8559894,1.3980271],[103.8561244,1.3978967]]}},{"type":"Feature","id":"way/349477712-0-13-0","properties":{"destination":"Seletar West Link;Yishun Avenue 1","highway":"motorway_link","lanes":"2","maxspeed":"50","oneway":"yes","surface":"asphalt"},"geometry":{"type":"LineString","coordinates":[[103.8561244,1.3978967],[103.8562556,1.3978233]]}},{"type":"Feature","id":"way/349477712-0-14-0","properties":{"destination":"Seletar West Link;Yishun Avenue 1","highway":"motorway_link","lanes":"2","maxspeed":"50","oneway":"yes","surface":"asphalt"},"geometry":{"type":"LineString","coordinates":[[103.8562556,1.3978233],[103.8564205,1.3977563]]}},{"type":"Feature","id":"way/349477712-0-15-0","properties":{"destination":"Seletar West Link;Yishun Avenue 1","highway":"motorway_link","lanes":"2","maxspeed":"50","oneway":"yes","surface":"asphalt"},"geometry":{"type":"LineString","coordinates":[[103.8564205,1.3977563],[103.8565747,1.3977335]]}},{"type":"Feature","id":"way/349477712-0-16-0","properties":{"destination":"Seletar West Link;Yishun Avenue 1","highway":"motorway_link","lanes":"2","maxspeed":"50","oneway":"yes","surface":"asphalt"},"geometry":{"type":"LineString","coordinates":[[103.8565747,1.3977335],[103.8567241,1.3977321]]}},{"type":"Feature","id":"way/349477748-0-0-0","properties":{"highway":"secondary_link","lanes":"2","maxspeed":"50","name:en":"Seletar West Link","name:zh":"\u5b9e\u91cc\u8fbe\u897f\u8fde\u8def","oneway":"yes","surface":"asphalt","turn:lanes":"left|right"},"geometry":{"type":"LineString","coordinates":[[103.8576196,1.3982349],[103.8575846,1.398088]]}},{"type":"Feature","id":"way/349477751-0-0-0","properties":{"bridge":"yes","destination":"Seletar West Link;Yishun Avenue 1","highway":"secondary_link","lanes":"2","layer":"1","maxspeed":"50","oneway":"yes"},"geometry":{"type":"LineString","coordinates":[[103.8559552,1.3976275],[103.8558868,1.3977596]]}},{"type":"Feature","id":"way/349477751-0-1-0","properties":{"bridge":"yes","destination":"Seletar West Link;Yishun Avenue 1","highway":"secondary_link","lanes":"2","layer":"1","maxspeed":"50","oneway":"yes"},"geometry":{"type":"LineString","coordinates":[[103.8558868,1.3977596],[103.855758,1.3980593]]}},{"type":"Feature","id":"way/349477751-0-2-0","properties":{"bridge":"yes","destination":"Seletar West Link;Yishun Avenue 1","highway":"secondary_link","lanes":"2","layer":"1","maxspeed":"50","oneway":"yes"},"geometry":{"type":"LineString","coordinates":[[103.855758,1.3980593],[103.8557184,1.3982014]]}},{"type":"Feature","id":"way/349477751-0-3-0","properties":{"bridge":"yes","destination":"Seletar West Link;Yishun Avenue 1","highway":"secondary_link","lanes":"2","layer":"1","maxspeed":"50","oneway":"yes"},"geometry":{"type":"LineString","coordinates":[[103.8557184,1.3982014],[103.8556829,1.3983891]]}},{"type":"Feature","id":"way/349477751-0-4-0","properties":{"bridge":"yes","destination":"Seletar West Link;Yishun Avenue 1","highway":"secondary_link","lanes":"2","layer":"1","maxspeed":"50","oneway":"yes"},"geometry":{"type":"LineString","coordinates":[[103.8556829,1.3983891],[103.8556749,1.3986948]]}},{"type":"Feature","id":"way/349477751-0-5-0","properties":{"bridge":"yes","destination":"Seletar West Link;Yishun Avenue 1","highway":"secondary_link","lanes":"2","layer":"1","maxspeed":"50","oneway":"yes"},"geometry":{"type":"LineString","coordinates":[[103.8556749,1.3986948],[103.8557526,1.3990219]]}},{"type":"Feature","id":"way/349477751-0-6-0","properties":{"bridge":"yes","destination":"Seletar West Link;Yishun Avenue 1","highway":"secondary_link","lanes":"2","layer":"1","maxspeed":"50","oneway":"yes"},"geometry":{"type":"LineString","coordinates":[[103.8557526,1.3990219],[103.8560617,1.399792]]}},{"type":"Feature","id":"way/349477751-0-7-0","properties":{"bridge":"yes","destination":"Seletar West Link;Yishun Avenue 1","highway":"secondary_link","lanes":"2","layer":"1","maxspeed":"50","oneway":"yes"},"geometry":{"type":"LineString","coordinates":[[103.8560617,1.399792],[103.8560922,1.4001002]]}},{"type":"Feature","id":"way/349477751-0-8-0","properties":{"bridge":"yes","destination":"Seletar West Link;Yishun Avenue 1","highway":"secondary_link","lanes":"2","layer":"1","maxspeed":"50","oneway":"yes"},"geometry":{"type":"LineString","coordinates":[[103.8560922,1.4001002],[103.8560516,1.4003121]]}},{"type":"Feature","id":"way/349477751-0-9-0","properties":{"bridge":"yes","destination":"Seletar West Link;Yishun Avenue 1","highway":"secondary_link","lanes":"2","layer":"1","maxspeed":"50","oneway":"yes"},"geometry":{"type":"LineString","coordinates":[[103.8560516,1.4003121],[103.8560161,1.4004804]]}},{"type":"Feature","id":"way/349477757-0-0-0","properties":{"destination":"City","destination:ref":"CTE","highway":"motorway_link","lanes":"1","maxheight":"4.5","maxspeed":"50","oneway":"yes","surface":"asphalt"},"geometry":{"type":"LineString","coordinates":[[103.8575427,1.3979224],[103.8574867,1.397775]]}},{"type":"Feature","id":"way/349477757-0-1-0","properties":{"destination":"City","destination:ref":"CTE","highway":"motorway_link","lanes":"1","maxheight":"4.5","maxspeed":"50","oneway":"yes","surface":"asphalt"},"geometry":{"type":"LineString","coordinates":[[103.8574867,1.397775],[103.8574599,1.397657]]}},{"type":"Feature","id":"way/349477757-0-2-0","properties":{"destination":"City","destination:ref":"CTE","highway":"motorway_link","lanes":"1","maxheight":"4.5","maxspeed":"50","oneway":"yes","surface":"asphalt"},"geometry":{"type":"LineString","coordinates":[[103.8574599,1.397657],[103.8574123,1.3973834]]}},{"type":"Feature","id":"way/349477757-0-3-0","properties":{"destination":"City","destination:ref":"CTE","highway":"motorway_link","lanes":"1","maxheight":"4.5","maxspeed":"50","oneway":"yes","surface":"asphalt"},"geometry":{"type":"LineString","coordinates":[[103.8574123,1.3973834],[103.8574091,1.3972881]]}},{"type":"Feature","id":"way/349477757-0-4-0","properties":{"destination":"City","destination:ref":"CTE","highway":"motorway_link","lanes":"1","maxheight":"4.5","maxspeed":"50","oneway":"yes","surface":"asphalt"},"geometry":{"type":"LineString","coordinates":[[103.8574091,1.3972881],[103.8574066,1.3972146]]}},{"type":"Feature","id":"way/349477757-0-5-0","properties":{"destination":"City","destination:ref":"CTE","highway":"motorway_link","lanes":"1","maxheight":"4.5","maxspeed":"50","oneway":"yes","surface":"asphalt"},"geometry":{"type":"LineString","coordinates":[[103.8574066,1.3972146],[103.8574105,1.3970976]]}},{"type":"Feature","id":"way/349477757-0-6-0","properties":{"destination":"City","destination:ref":"CTE","highway":"motorway_link","lanes":"1","maxheight":"4.5","maxspeed":"50","oneway":"yes","surface":"asphalt"},"geometry":{"type":"LineString","coordinates":[[103.8574105,1.3970976],[103.8574745,1.3967246]]}},{"type":"Feature","id":"way/349477757-0-7-0","properties":{"destination":"City","destination:ref":"CTE","highway":"motorway_link","lanes":"1","maxheight":"4.5","maxspeed":"50","oneway":"yes","surface":"asphalt"},"geometry":{"type":"LineString","coordinates":[[103.8574745,1.3967246],[103.8575605,1.3964719]]}},{"type":"Feature","id":"way/349477757-0-8-0","properties":{"destination":"City","destination:ref":"CTE","highway":"motorway_link","lanes":"1","maxheight":"4.5","maxspeed":"50","oneway":"yes","surface":"asphalt"},"geometry":{"type":"LineString","coordinates":[[103.8575605,1.3964719],[103.8575756,1.3963675]]}},{"type":"Feature","id":"way/349477764-0-0-0","properties":{"highway":"secondary_link","lanes":"1","maxheight":"4.5","maxspeed":"50","oneway":"yes","surface":"asphalt"},"geometry":{"type":"LineString","coordinates":[[103.8575427,1.3979224],[103.857547,1.3977616]]}},{"type":"Feature","id":"way/349477764-0-1-0","properties":{"highway":"secondary_link","lanes":"1","maxheight":"4.5","maxspeed":"50","oneway":"yes","surface":"asphalt"},"geometry":{"type":"LineString","coordinates":[[103.857547,1.3977616],[103.8575323,1.3975873]]}},{"type":"Feature","id":"way/349477764-0-2-0","properties":{"highway":"secondary_link","lanes":"1","maxheight":"4.5","maxspeed":"50","oneway":"yes","surface":"asphalt"},"geometry":{"type":"LineString","coordinates":[[103.8575323,1.3975873],[103.8574985,1.3973409]]}},{"type":"Feature","id":"way/349477764-0-3-0","properties":{"highway":"secondary_link","lanes":"1","maxheight":"4.5","maxspeed":"50","oneway":"yes","surface":"asphalt"},"geometry":{"type":"LineString","coordinates":[[103.8574985,1.3973409],[103.8574996,1.3970859]]}},{"type":"Feature","id":"way/349477764-0-4-0","properties":{"highway":"secondary_link","lanes":"1","maxheight":"4.5","maxspeed":"50","oneway":"yes","surface":"asphalt"},"geometry":{"type":"LineString","coordinates":[[103.8574996,1.3970859],[103.8575282,1.3968608]]}},{"type":"Feature","id":"way/349477764-0-5-0","properties":{"highway":"secondary_link","lanes":"1","maxheight":"4.5","maxspeed":"50","oneway":"yes","surface":"asphalt"},"geometry":{"type":"LineString","coordinates":[[103.8575282,1.3968608],[103.8576283,1.396484]]}},{"type":"Feature","id":"way/349477764-0-6-0","properties":{"highway":"secondary_link","lanes":"1","maxheight":"4.5","maxspeed":"50","oneway":"yes","surface":"asphalt"},"geometry":{"type":"LineString","coordinates":[[103.8576283,1.396484],[103.857794,1.3961301]]}},{"type":"Feature","id":"way/349477772-0-0-0","properties":{"destination":"Seletar West Link","destination:to":"Yishun Avenue 1","highway":"secondary_link","lanes":"2","maxspeed":"50","oneway":"yes"},"geometry":{"type":"LineString","coordinates":[[103.8560161,1.4004804],[103.8559511,1.4006488]]}},{"type":"Feature","id":"way/349477772-0-1-0","properties":{"destination":"Seletar West Link","destination:to":"Yishun Avenue 1","highway":"secondary_link","lanes":"2","maxspeed":"50","oneway":"yes"},"geometry":{"type":"LineString","coordinates":[[103.8559511,1.4006488],[103.8558436,1.40086]]}},{"type":"Feature","id":"way/349477780-0-0-0","properties":{"bridge":"yes","highway":"secondary_link","lanes":"2","layer":"1","maxspeed":"50","name:en":"Seletar West Link","name:zh":"\u5b9e\u91cc\u8fbe\u897f\u8fde\u8def","oneway":"yes","surface":"asphalt","turn:lanes":"left|right"},"geometry":{"type":"LineString","coordinates":[[103.8564393,1.4006146],[103.8572574,1.3997043]]}},{"type":"Feature","id":"way/349477780-0-1-0","properties":{"bridge":"yes","highway":"secondary_link","lanes":"2","layer":"1","maxspeed":"50","name:en":"Seletar West Link","name:zh":"\u5b9e\u91cc\u8fbe\u897f\u8fde\u8def","oneway":"yes","surface":"asphalt","turn:lanes":"left|right"},"geometry":{"type":"LineString","coordinates":[[103.8572574,1.3997043],[103.8574158,1.3994952]]}},{"type":"Feature","id":"way/349477780-0-2-0","properties":{"bridge":"yes","highway":"secondary_link","lanes":"2","layer":"1","maxspeed":"50","name:en":"Seletar West Link","name:zh":"\u5b9e\u91cc\u8fbe\u897f\u8fde\u8def","oneway":"yes","surface":"asphalt","turn:lanes":"left|right"},"geometry":{"type":"LineString","coordinates":[[103.8574158,1.3994952],[103.8575418,1.3992619]]}},{"type":"Feature","id":"way/349477780-0-3-0","properties":{"bridge":"yes","highway":"secondary_link","lanes":"2","layer":"1","maxspeed":"50","name:en":"Seletar West Link","name:zh":"\u5b9e\u91cc\u8fbe\u897f\u8fde\u8def","oneway":"yes","surface":"asphalt","turn:lanes":"left|right"},"geometry":{"type":"LineString","coordinates":[[103.8575418,1.3992619],[103.8576322,1.3990091]]}},{"type":"Feature","id":"way/349477780-0-4-0","properties":{"bridge":"yes","highway":"secondary_link","lanes":"2","layer":"1","maxspeed":"50","name:en":"Seletar West Link","name:zh":"\u5b9e\u91cc\u8fbe\u897f\u8fde\u8def","oneway":"yes","surface":"asphalt","turn:lanes":"left|right"},"geometry":{"type":"LineString","coordinates":[[103.8576322,1.3990091],[103.8576543,1.3988436]]}},{"type":"Feature","id":"way/349477780-0-5-0","properties":{"bridge":"yes","highway":"secondary_link","lanes":"2","layer":"1","maxspeed":"50","name:en":"Seletar West Link","name:zh":"\u5b9e\u91cc\u8fbe\u897f\u8fde\u8def","oneway":"yes","surface":"asphalt","turn:lanes":"left|right"},"geometry":{"type":"LineString","coordinates":[[103.8576543,1.3988436],[103.8576625,1.3986907]]}},{"type":"Feature","id":"way/349477780-0-6-0","properties":{"bridge":"yes","highway":"secondary_link","lanes":"2","layer":"1","maxspeed":"50","name:en":"Seletar West Link","name:zh":"\u5b9e\u91cc\u8fbe\u897f\u8fde\u8def","oneway":"yes","surface":"asphalt","turn:lanes":"left|right"},"geometry":{"type":"LineString","coordinates":[[103.8576625,1.3986907],[103.8576464,1.3983824]]}},{"type":"Feature","id":"way/349477780-0-7-0","properties":{"bridge":"yes","highway":"secondary_link","lanes":"2","layer":"1","maxspeed":"50","name:en":"Seletar West Link","name:zh":"\u5b9e\u91cc\u8fbe\u897f\u8fde\u8def","oneway":"yes","surface":"asphalt","turn:lanes":"left|right"},"geometry":{"type":"LineString","coordinates":[[103.8576464,1.3983824],[103.8576196,1.3982349]]}},{"type":"Feature","id":"way/349482668-0-4-0","properties":{"highway":"motorway","lanes":"5","maxspeed":"90","name":"Tampines Expressway","name:ms":"Lebuhraya Tampines","name:ta":"\u0ba4\u0bc6\u0bae\u0bcd\u0baa\u0bbf\u0ba9\u0bc0\u0bb8\u0bcd \u0bb5\u0bbf\u0bb0\u0bc8\u0bb5\u0bc1\u0b9a\u0bcd\u0b9a\u0bbe\u0bb2\u0bc8","name:zh":"\u6de1\u6ee8\u5c3c\u9ad8\u901f\u516c\u8def","oneway":"yes","ref":"TPE","short_name:ta":"\u0b9f\u0bbf\u0baa\u0bbf\u0b87","surface":"asphalt","wikidata":"Q1164571","wikipedia":"en:Tampines Expressway"},"geometry":{"type":"LineString","coordinates":[[103.8598665,1.4006967],[103.8593467,1.4006344]]}},{"type":"Feature","id":"way/349482668-0-5-0","properties":{"highway":"motorway","lanes":"5","maxspeed":"90","name":"Tampines Expressway","name:ms":"Lebuhraya Tampines","name:ta":"\u0ba4\u0bc6\u0bae\u0bcd\u0baa\u0bbf\u0ba9\u0bc0\u0bb8\u0bcd \u0bb5\u0bbf\u0bb0\u0bc8\u0bb5\u0bc1\u0b9a\u0bcd\u0b9a\u0bbe\u0bb2\u0bc8","name:zh":"\u6de1\u6ee8\u5c3c\u9ad8\u901f\u516c\u8def","oneway":"yes","ref":"TPE","short_name:ta":"\u0b9f\u0bbf\u0baa\u0bbf\u0b87","surface":"asphalt","wikidata":"Q1164571","wikipedia":"en:Tampines Expressway"},"geometry":{"type":"LineString","coordinates":[[103.8593467,1.4006344],[103.8590116,1.4005748]]}},{"type":"Feature","id":"way/383203969-0-3-0","properties":{"bridge":"yes","highway":"secondary_link","lanes":"1","layer":"1","maxspeed":"50","oneway":"yes"},"geometry":{"type":"LineString","coordinates":[[103.8567068,1.3961052],[103.8565278,1.3965027]]}},{"type":"Feature","id":"way/383203969-0-4-0","properties":{"bridge":"yes","highway":"secondary_link","lanes":"1","layer":"1","maxspeed":"50","oneway":"yes"},"geometry":{"type":"LineString","coordinates":[[103.8565278,1.3965027],[103.8563964,1.3967319]]}},{"type":"Feature","id":"way/476989633-0-0-0","properties":{"highway":"motorway","lanes":"5","maxspeed":"90","name":"Tampines Expressway","name:ms":"Lebuhraya Tampines","name:ta":"\u0ba4\u0bc6\u0bae\u0bcd\u0baa\u0bbf\u0ba9\u0bc0\u0bb8\u0bcd \u0bb5\u0bbf\u0bb0\u0bc8\u0bb5\u0bc1\u0b9a\u0bcd\u0b9a\u0bbe\u0bb2\u0bc8","name:zh":"\u6de1\u6ee8\u5c3c\u9ad8\u901f\u516c\u8def","oneway":"yes","ref":"TPE","short_name:ta":"\u0b9f\u0bbf\u0baa\u0bbf\u0b87","surface":"asphalt","wikidata":"Q1164571","wikipedia":"en:Tampines Expressway"},"geometry":{"type":"LineString","coordinates":[[103.857988,1.4003027],[103.8572001,1.3999897]]}},{"type":"Feature","id":"way/476989634-0-0-0","properties":{"highway":"motorway","lanes":"4","maxspeed":"90","name":"Tampines Expressway","name:ms":"Lebuhraya Tampines","name:ta":"\u0ba4\u0bc6\u0bae\u0bcd\u0baa\u0bbf\u0ba9\u0bc0\u0bb8\u0bcd \u0bb5\u0bbf\u0bb0\u0bc8\u0bb5\u0bc1\u0b9a\u0bcd\u0b9a\u0bbe\u0bb2\u0bc8","name:zh":"\u6de1\u6ee8\u5c3c\u9ad8\u901f\u516c\u8def","oneway":"yes","ref":"TPE","short_name:ta":"\u0b9f\u0bbf\u0baa\u0bbf\u0b87","surface":"asphalt","wikidata":"Q1164571","wikipedia":"en:Tampines Expressway"},"geometry":{"type":"LineString","coordinates":[[103.8564875,1.399648],[103.8562652,1.3995274]]}},{"type":"Feature","id":"way/476989634-0-1-0","properties":{"highway":"motorway","lanes":"4","maxspeed":"90","name":"Tampines Expressway","name:ms":"Lebuhraya Tampines","name:ta":"\u0ba4\u0bc6\u0bae\u0bcd\u0baa\u0bbf\u0ba9\u0bc0\u0bb8\u0bcd \u0bb5\u0bbf\u0bb0\u0bc8\u0bb5\u0bc1\u0b9a\u0bcd\u0b9a\u0bbe\u0bb2\u0bc8","name:zh":"\u6de1\u6ee8\u5c3c\u9ad8\u901f\u516c\u8def","oneway":"yes","ref":"TPE","short_name:ta":"\u0b9f\u0bbf\u0baa\u0bbf\u0b87","surface":"asphalt","wikidata":"Q1164571","wikipedia":"en:Tampines Expressway"},"geometry":{"type":"LineString","coordinates":[[103.8562652,1.3995274],[103.8558686,1.3992939]]}},{"type":"Feature","id":"way/476989634-0-2-0","properties":{"highway":"motorway","lanes":"4","maxspeed":"90","name":"Tampines Expressway","name:ms":"Lebuhraya Tampines","name:ta":"\u0ba4\u0bc6\u0bae\u0bcd\u0baa\u0bbf\u0ba9\u0bc0\u0bb8\u0bcd \u0bb5\u0bbf\u0bb0\u0bc8\u0bb5\u0bc1\u0b9a\u0bcd\u0b9a\u0bbe\u0bb2\u0bc8","name:zh":"\u6de1\u6ee8\u5c3c\u9ad8\u901f\u516c\u8def","oneway":"yes","ref":"TPE","short_name:ta":"\u0b9f\u0bbf\u0baa\u0bbf\u0b87","surface":"asphalt","wikidata":"Q1164571","wikipedia":"en:Tampines Expressway"},"geometry":{"type":"LineString","coordinates":[[103.8558686,1.3992939],[103.8557543,1.3992133]]}},{"type":"Feature","id":"way/476989634-0-3-0","properties":{"highway":"motorway","lanes":"4","maxspeed":"90","name":"Tampines Expressway","name:ms":"Lebuhraya Tampines","name:ta":"\u0ba4\u0bc6\u0bae\u0bcd\u0baa\u0bbf\u0ba9\u0bc0\u0bb8\u0bcd \u0bb5\u0bbf\u0bb0\u0bc8\u0bb5\u0bc1\u0b9a\u0bcd\u0b9a\u0bbe\u0bb2\u0bc8","name:zh":"\u6de1\u6ee8\u5c3c\u9ad8\u901f\u516c\u8def","oneway":"yes","ref":"TPE","short_name:ta":"\u0b9f\u0bbf\u0baa\u0bbf\u0b87","surface":"asphalt","wikidata":"Q1164571","wikipedia":"en:Tampines Expressway"},"geometry":{"type":"LineString","coordinates":[[103.8557543,1.3992133],[103.8554442,1.3989904]]}},{"type":"Feature","id":"way/477025179-0-0-0","properties":{"highway":"secondary_link","lanes":"2","maxspeed":"50","oneway":"yes","surface":"asphalt","turn:lanes":"left|right"},"geometry":{"type":"LineString","coordinates":[[103.8575846,1.398088],[103.8575427,1.3979224]]}},{"type":"Feature","id":"way/531352625-0-5-0","properties":{"destination":"Woodlands","destination:ref":"SLE;BKE","highway":"motorway_link","lanes":"1","maxspeed":"50","oneway":"yes"},"geometry":{"type":"LineString","coordinates":[[103.8565117,1.3962144],[103.8561805,1.3964745]]}},{"type":"Feature","id":"way/531352625-0-6-0","properties":{"destination":"Woodlands","destination:ref":"SLE;BKE","highway":"motorway_link","lanes":"1","maxspeed":"50","oneway":"yes"},"geometry":{"type":"LineString","coordinates":[[103.8561805,1.3964745],[103.8556716,1.3968803]]}},{"type":"Feature","id":"way/543194305-0-0-0","properties":{"destination:ref":"TPE;KPE","destination:ref:to":"PIE","destination:symbol":"airport","destination:to":"Changi","highway":"primary_link","lanes":"2","layer":"-1","lit":"24/7","maxspeed":"50","name:zh":"\u5b9e\u91cc\u8fbe\u7acb\u4ea4","oneway":"yes","tunnel":"yes"},"geometry":{"type":"LineString","coordinates":[[103.8557277,1.3972176],[103.8554516,1.3976436]]}},{"type":"Feature","id":"way/633588308-0-2-0","properties":{"destination:ref":"TPE;KPE","destination:ref:to":"PIE","destination:symbol":"airport","destination:to":"Changi","highway":"primary_link","lanes":"3","lit":"yes","maxheight":"4.5","maxspeed":"50","oneway":"yes","surface":"asphalt"},"geometry":{"type":"LineString","coordinates":[[103.8568068,1.3961982],[103.8564331,1.3965076]]}},{"type":"Feature","id":"way/636736039-0-0-0","properties":{"bridge":"yes","destination":"Seletar West Link","destination:to":"Yishun Avenue 1","highway":"secondary_link","lanes":"3","layer":"1","maxspeed":"50","oneway":"yes"},"geometry":{"type":"LineString","coordinates":[[103.8563964,1.3967319],[103.8562086,1.39711]]}},{"type":"Feature","id":"way/636736039-0-1-0","properties":{"bridge":"yes","destination":"Seletar West Link","destination:to":"Yishun Avenue 1","highway":"secondary_link","lanes":"3","layer":"1","maxspeed":"50","oneway":"yes"},"geometry":{"type":"LineString","coordinates":[[103.8562086,1.39711],[103.8559552,1.3976275]]}},{"type":"Feature","id":"way/651093787-0-0-0","properties":{"highway":"motorway","lanes":"3","maxspeed":"90","name":"Tampines Expressway","name:ms":"Lebuhraya Tampines","name:ta":"\u0ba4\u0bc6\u0bae\u0bcd\u0baa\u0bbf\u0ba9\u0bc0\u0bb8\u0bcd \u0bb5\u0bbf\u0bb0\u0bc8\u0bb5\u0bc1\u0b9a\u0bcd\u0b9a\u0bbe\u0bb2\u0bc8","name:zh":"\u6de1\u6ee8\u5c3c\u9ad8\u901f\u516c\u8def","oneway":"yes","ref":"TPE","short_name:ta":"\u0b9f\u0bbf\u0baa\u0bbf\u0b87","surface":"asphalt","wikidata":"Q1164571","wikipedia":"en:Tampines Expressway"},"geometry":{"type":"LineString","coordinates":[[103.8575028,1.4003157],[103.8580674,1.4005033]]}},{"type":"Feature","id":"way/651093788-0-0-0","properties":{"highway":"motorway","lanes":"3","maxspeed":"90","name":"Tampines Expressway","name:ms":"Lebuhraya Tampines","name:ta":"\u0ba4\u0bc6\u0bae\u0bcd\u0baa\u0bbf\u0ba9\u0bc0\u0bb8\u0bcd \u0bb5\u0bbf\u0bb0\u0bc8\u0bb5\u0bc1\u0b9a\u0bcd\u0b9a\u0bbe\u0bb2\u0bc8","name:zh":"\u6de1\u6ee8\u5c3c\u9ad8\u901f\u516c\u8def","oneway":"yes","ref":"TPE","short_name:ta":"\u0b9f\u0bbf\u0baa\u0bbf\u0b87","surface":"asphalt","turn:lanes":"through|through|through","wikidata":"Q1164571","wikipedia":"en:Tampines Expressway"},"geometry":{"type":"LineString","coordinates":[[103.8580674,1.4005033],[103.8586052,1.4006703]]}},{"type":"Feature","id":"way/651093789-0-0-0","properties":{"highway":"motorway","lanes":"4","maxspeed":"90","name":"Tampines Expressway","name:ms":"Lebuhraya Tampines","name:ta":"\u0ba4\u0bc6\u0bae\u0bcd\u0baa\u0bbf\u0ba9\u0bc0\u0bb8\u0bcd \u0bb5\u0bbf\u0bb0\u0bc8\u0bb5\u0bc1\u0b9a\u0bcd\u0b9a\u0bbe\u0bb2\u0bc8","name:zh":"\u6de1\u6ee8\u5c3c\u9ad8\u901f\u516c\u8def","oneway":"yes","ref":"TPE","short_name:ta":"\u0b9f\u0bbf\u0baa\u0bbf\u0b87","surface":"asphalt","turn:lanes":"left|left;through|through|through","wikidata":"Q1164571","wikipedia":"en:Tampines Expressway"},"geometry":{"type":"LineString","coordinates":[[103.8586052,1.4006703],[103.8589753,1.400746]]}},{"type":"Feature","id":"way/655617133-0-0-0","properties":{"destination":"Yio Chu Kang Road;City","destination:ref":"CTE","highway":"primary_link","lanes":"2","maxspeed":"50","oneway":"yes","surface":"asphalt","turn:lanes":"left|through"},"geometry":{"type":"LineString","coordinates":[[103.8600334,1.4005019],[103.859698,1.400449]]}},{"type":"Feature","id":"way/655617133-0-1-0","properties":{"destination":"Yio Chu Kang Road;City","destination:ref":"CTE","highway":"primary_link","lanes":"2","maxspeed":"50","oneway":"yes","surface":"asphalt","turn:lanes":"left|through"},"geometry":{"type":"LineString","coordinates":[[103.859698,1.400449],[103.8593582,1.4003918]]}},{"type":"Feature","id":"way/701164566-0-0-0","properties":{"highway":"motorway_link","lanes":"1","maxspeed":"50","oneway":"yes"},"geometry":{"type":"LineString","coordinates":[[103.8567169,1.3976396],[103.8566458,1.3976356]]}},{"type":"Feature","id":"way/701164566-0-1-0","properties":{"highway":"motorway_link","lanes":"1","maxspeed":"50","oneway":"yes"},"geometry":{"type":"LineString","coordinates":[[103.8566458,1.3976356],[103.8565909,1.3976396]]}},{"type":"Feature","id":"way/701164566-0-2-0","properties":{"highway":"motorway_link","lanes":"1","maxspeed":"50","oneway":"yes"},"geometry":{"type":"LineString","coordinates":[[103.8565909,1.3976396],[103.8563749,1.3976758]]}},{"type":"Feature","id":"way/701164566-0-3-0","properties":{"highway":"motorway_link","lanes":"1","maxspeed":"50","oneway":"yes"},"geometry":{"type":"LineString","coordinates":[[103.8563749,1.3976758],[103.8560691,1.3978072]]}},{"type":"Feature","id":"way/701164566-0-4-0","properties":{"highway":"motorway_link","lanes":"1","maxspeed":"50","oneway":"yes"},"geometry":{"type":"LineString","coordinates":[[103.8560691,1.3978072],[103.8555993,1.3980004]]}},{"type":"Feature","id":"way/701164567-0-0-0","properties":{"bridge":"yes","highway":"motorway_link","lanes":"1","layer":"1","maxspeed":"50","oneway":"yes"},"geometry":{"type":"LineString","coordinates":[[103.8564393,1.4006146],[103.8566324,1.4003304]]}},{"type":"Feature","id":"way/701164567-0-1-0","properties":{"bridge":"yes","highway":"motorway_link","lanes":"1","layer":"1","maxspeed":"50","oneway":"yes"},"geometry":{"type":"LineString","coordinates":[[103.8566324,1.4003304],[103.8568282,1.4000757]]}},{"type":"Feature","id":"way/701164567-0-2-0","properties":{"bridge":"yes","highway":"motorway_link","lanes":"1","layer":"1","maxspeed":"50","oneway":"yes"},"geometry":{"type":"LineString","coordinates":[[103.8568282,1.4000757],[103.8571554,1.3996788]]}},{"type":"Feature","id":"way/701164567-0-3-0","properties":{"bridge":"yes","highway":"motorway_link","lanes":"1","layer":"1","maxspeed":"50","oneway":"yes"},"geometry":{"type":"LineString","coordinates":[[103.8571554,1.3996788],[103.8573968,1.3993142]]}},{"type":"Feature","id":"way/701164567-0-4-0","properties":{"bridge":"yes","highway":"motorway_link","lanes":"1","layer":"1","maxspeed":"50","oneway":"yes"},"geometry":{"type":"LineString","coordinates":[[103.8573968,1.3993142],[103.8575202,1.3989254]]}},{"type":"Feature","id":"way/701164567-0-5-0","properties":{"bridge":"yes","highway":"motorway_link","lanes":"1","layer":"1","maxspeed":"50","oneway":"yes"},"geometry":{"type":"LineString","coordinates":[[103.8575202,1.3989254],[103.8575765,1.3985124]]}},{"type":"Feature","id":"way/701164567-0-6-0","properties":{"bridge":"yes","highway":"motorway_link","lanes":"1","layer":"1","maxspeed":"50","oneway":"yes"},"geometry":{"type":"LineString","coordinates":[[103.8575765,1.3985124],[103.8575363,1.3982577]]}},{"type":"Feature","id":"way/701164567-0-7-0","properties":{"bridge":"yes","highway":"motorway_link","lanes":"1","layer":"1","maxspeed":"50","oneway":"yes"},"geometry":{"type":"LineString","coordinates":[[103.8575363,1.3982577],[103.8574022,1.3980029]]}},{"type":"Feature","id":"way/701164567-0-8-0","properties":{"bridge":"yes","highway":"motorway_link","lanes":"1","layer":"1","maxspeed":"50","oneway":"yes"},"geometry":{"type":"LineString","coordinates":[[103.8574022,1.3980029],[103.8572828,1.3978863]]}},{"type":"Feature","id":"way/701164567-0-9-0","properties":{"bridge":"yes","highway":"motorway_link","lanes":"1","layer":"1","maxspeed":"50","oneway":"yes"},"geometry":{"type":"LineString","coordinates":[[103.8572828,1.3978863],[103.8571595,1.3977858]]}},{"type":"Feature","id":"way/701164567-0-10-0","properties":{"bridge":"yes","highway":"motorway_link","lanes":"1","layer":"1","maxspeed":"50","oneway":"yes"},"geometry":{"type":"LineString","coordinates":[[103.8571595,1.3977858],[103.856914,1.3976691]]}},{"type":"Feature","id":"way/701164567-0-11-0","properties":{"bridge":"yes","highway":"motorway_link","lanes":"1","layer":"1","maxspeed":"50","oneway":"yes"},"geometry":{"type":"LineString","coordinates":[[103.856914,1.3976691],[103.8567169,1.3976396]]}},{"type":"Feature","id":"way/703411378-0-0-0","properties":{"highway":"motorway","lanes":"5","maxheight":"4.5","maxspeed":"90","name":"Tampines Expressway","name:ms":"Lebuhraya Tampines","name:ta":"\u0ba4\u0bc6\u0bae\u0bcd\u0baa\u0bbf\u0ba9\u0bc0\u0bb8\u0bcd \u0bb5\u0bbf\u0bb0\u0bc8\u0bb5\u0bc1\u0b9a\u0bcd\u0b9a\u0bbe\u0bb2\u0bc8","name:zh":"\u6de1\u6ee8\u5c3c\u9ad8\u901f\u516c\u8def","oneway":"yes","ref":"TPE","short_name:ta":"\u0b9f\u0bbf\u0baa\u0bbf\u0b87","surface":"asphalt","turn:lanes":"left|left;through|through|through|through","wikidata":"Q1164571","wikipedia":"en:Tampines Expressway"},"geometry":{"type":"LineString","coordinates":[[103.8572001,1.3999897],[103.8569422,1.3998672]]}},{"type":"Feature","id":"way/703411378-0-1-0","properties":{"highway":"motorway","lanes":"5","maxheight":"4.5","maxspeed":"90","name":"Tampines Expressway","name:ms":"Lebuhraya Tampines","name:ta":"\u0ba4\u0bc6\u0bae\u0bcd\u0baa\u0bbf\u0ba9\u0bc0\u0bb8\u0bcd \u0bb5\u0bbf\u0bb0\u0bc8\u0bb5\u0bc1\u0b9a\u0bcd\u0b9a\u0bbe\u0bb2\u0bc8","name:zh":"\u6de1\u6ee8\u5c3c\u9ad8\u901f\u516c\u8def","oneway":"yes","ref":"TPE","short_name:ta":"\u0b9f\u0bbf\u0baa\u0bbf\u0b87","surface":"asphalt","turn:lanes":"left|left;through|through|through|through","wikidata":"Q1164571","wikipedia":"en:Tampines Expressway"},"geometry":{"type":"LineString","coordinates":[[103.8569422,1.3998672],[103.8566679,1.3997329]]}},{"type":"Feature","id":"way/703411379-0-0-0","properties":{"highway":"motorway","lanes":"5","maxspeed":"90","name":"Tampines Expressway","name:ms":"Lebuhraya Tampines","name:ta":"\u0ba4\u0bc6\u0bae\u0bcd\u0baa\u0bbf\u0ba9\u0bc0\u0bb8\u0bcd \u0bb5\u0bbf\u0bb0\u0bc8\u0bb5\u0bc1\u0b9a\u0bcd\u0b9a\u0bbe\u0bb2\u0bc8","name:zh":"\u6de1\u6ee8\u5c3c\u9ad8\u901f\u516c\u8def","oneway":"yes","ref":"TPE","short_name:ta":"\u0b9f\u0bbf\u0baa\u0bbf\u0b87","surface":"asphalt","wikidata":"Q1164571","wikipedia":"en:Tampines Expressway"},"geometry":{"type":"LineString","coordinates":[[103.8590116,1.4005748],[103.8586307,1.4004877]]}},{"type":"Feature","id":"way/703411379-0-1-0","properties":{"highway":"motorway","lanes":"5","maxspeed":"90","name":"Tampines Expressway","name:ms":"Lebuhraya Tampines","name:ta":"\u0ba4\u0bc6\u0bae\u0bcd\u0baa\u0bbf\u0ba9\u0bc0\u0bb8\u0bcd \u0bb5\u0bbf\u0bb0\u0bc8\u0bb5\u0bc1\u0b9a\u0bcd\u0b9a\u0bbe\u0bb2\u0bc8","name:zh":"\u6de1\u6ee8\u5c3c\u9ad8\u901f\u516c\u8def","oneway":"yes","ref":"TPE","short_name:ta":"\u0b9f\u0bbf\u0baa\u0bbf\u0b87","surface":"asphalt","wikidata":"Q1164571","wikipedia":"en:Tampines Expressway"},"geometry":{"type":"LineString","coordinates":[[103.8586307,1.4004877],[103.857988,1.4003027]]}},{"type":"Feature","id":"way/726148962-0-0-0","properties":{"destination:ref":"TPE;KPE","destination:ref:to":"PIE","destination:symbol":"airport","destination:to":"Changi","highway":"primary_link","lanes":"2","maxspeed":"50","name:zh":"\u5b9e\u91cc\u8fbe\u7acb\u4ea4","oneway":"yes","surface":"asphalt","turn:lanes":"through|through"},"geometry":{"type":"LineString","coordinates":[[103.8578019,1.400628],[103.8584174,1.400793]]}},{"type":"Feature","id":"way/726148963-0-0-0","properties":{"destination:ref":"TPE;KPE","destination:ref:to":"PIE","destination:symbol":"airport","destination:to":"Changi","highway":"primary_link","lanes":"2","lit":"yes","maxspeed":"50","oneway":"yes","surface":"asphalt"},"geometry":{"type":"LineString","coordinates":[[103.8564331,1.3965076],[103.8562436,1.3966803]]}},{"type":"Feature","id":"way/726148963-0-1-0","properties":{"destination:ref":"TPE;KPE","destination:ref:to":"PIE","destination:symbol":"airport","destination:to":"Changi","highway":"primary_link","lanes":"2","lit":"yes","maxspeed":"50","oneway":"yes","surface":"asphalt"},"geometry":{"type":"LineString","coordinates":[[103.8562436,1.3966803],[103.85585,1.3970622]]}},{"type":"Feature","id":"way/726148963-0-2-0","properties":{"destination:ref":"TPE;KPE","destination:ref:to":"PIE","destination:symbol":"airport","destination:to":"Changi","highway":"primary_link","lanes":"2","lit":"yes","maxspeed":"50","oneway":"yes","surface":"asphalt"},"geometry":{"type":"LineString","coordinates":[[103.85585,1.3970622],[103.8557277,1.3972176]]}},{"type":"Feature","id":"way/746061756-0-0-0","properties":{"bicycle":"yes","foot":"yes","highway":"tertiary","motor_vehicle":"no","oneway":"yes"},"geometry":{"type":"LineString","coordinates":[[103.8599647,1.3981316],[103.8598939,1.398132]]}},{"type":"Feature","id":"way/746061756-0-1-0","properties":{"bicycle":"yes","foot":"yes","highway":"tertiary","motor_vehicle":"no","oneway":"yes"},"geometry":{"type":"LineString","coordinates":[[103.8598939,1.398132],[103.8597197,1.3981331]]}},{"type":"Feature","id":"way/746061756-0-2-0","properties":{"bicycle":"yes","foot":"yes","highway":"tertiary","motor_vehicle":"no","oneway":"yes"},"geometry":{"type":"LineString","coordinates":[[103.8597197,1.3981331],[103.8590085,1.3981375]]}},{"type":"Feature","id":"way/746061756-0-3-0","properties":{"bicycle":"yes","foot":"yes","highway":"tertiary","motor_vehicle":"no","oneway":"yes"},"geometry":{"type":"LineString","coordinates":[[103.8590085,1.3981375],[103.8589102,1.3981044]]}},{"type":"Feature","id":"way/746061756-0-4-0","properties":{"bicycle":"yes","foot":"yes","highway":"tertiary","motor_vehicle":"no","oneway":"yes"},"geometry":{"type":"LineString","coordinates":[[103.8589102,1.3981044],[103.8588356,1.3980493]]}},{"type":"Feature","id":"way/746061756-0-5-0","properties":{"bicycle":"yes","foot":"yes","highway":"tertiary","motor_vehicle":"no","oneway":"yes"},"geometry":{"type":"LineString","coordinates":[[103.8588356,1.3980493],[103.8587571,1.3980072]]}},{"type":"Feature","id":"way/746061756-0-6-0","properties":{"bicycle":"yes","foot":"yes","highway":"tertiary","motor_vehicle":"no","oneway":"yes"},"geometry":{"type":"LineString","coordinates":[[103.8587571,1.3980072],[103.8586784,1.3979906]]}},{"type":"Feature","id":"way/746061756-0-7-0","properties":{"bicycle":"yes","foot":"yes","highway":"tertiary","motor_vehicle":"no","oneway":"yes"},"geometry":{"type":"LineString","coordinates":[[103.8586784,1.3979906],[103.8586107,1.3980011]]}},{"type":"Feature","id":"way/746061756-0-8-0","properties":{"bicycle":"yes","foot":"yes","highway":"tertiary","motor_vehicle":"no","oneway":"yes"},"geometry":{"type":"LineString","coordinates":[[103.8586107,1.3980011],[103.8585599,1.3980482]]}},{"type":"Feature","id":"way/746061756-0-9-0","properties":{"bicycle":"yes","foot":"yes","highway":"tertiary","motor_vehicle":"no","oneway":"yes"},"geometry":{"type":"LineString","coordinates":[[103.8585599,1.3980482],[103.8585443,1.3981276]]}},{"type":"Feature","id":"way/746061756-0-10-0","properties":{"bicycle":"yes","foot":"yes","highway":"tertiary","motor_vehicle":"no","oneway":"yes"},"geometry":{"type":"LineString","coordinates":[[103.8585443,1.3981276],[103.8585677,1.3981781]]}},{"type":"Feature","id":"way/746061756-0-11-0","properties":{"bicycle":"yes","foot":"yes","highway":"tertiary","motor_vehicle":"no","oneway":"yes"},"geometry":{"type":"LineString","coordinates":[[103.8585677,1.3981781],[103.8586214,1.3982174]]}},{"type":"Feature","id":"way/746061756-0-12-0","properties":{"bicycle":"yes","foot":"yes","highway":"tertiary","motor_vehicle":"no","oneway":"yes"},"geometry":{"type":"LineString","coordinates":[[103.8586214,1.3982174],[103.8587542,1.3982252]]}},{"type":"Feature","id":"way/746061756-0-13-0","properties":{"bicycle":"yes","foot":"yes","highway":"tertiary","motor_vehicle":"no","oneway":"yes"},"geometry":{"type":"LineString","coordinates":[[103.8587542,1.3982252],[103.8598931,1.3982317]]}},{"type":"Feature","id":"way/746061756-0-14-0","properties":{"bicycle":"yes","foot":"yes","highway":"tertiary","motor_vehicle":"no","oneway":"yes"},"geometry":{"type":"LineString","coordinates":[[103.8598931,1.3982317],[103.8599621,1.3982321]]}},{"type":"Feature","id":"way/782560132-0-0-0","properties":{"highway":"motorway","lanes":"4","maxspeed":"90","name":"Tampines Expressway","name:ms":"Lebuhraya Tampines","name:ta":"\u0ba4\u0bc6\u0bae\u0bcd\u0baa\u0bbf\u0ba9\u0bc0\u0bb8\u0bcd \u0bb5\u0bbf\u0bb0\u0bc8\u0bb5\u0bc1\u0b9a\u0bcd\u0b9a\u0bbe\u0bb2\u0bc8","name:zh":"\u6de1\u6ee8\u5c3c\u9ad8\u901f\u516c\u8def","oneway":"yes","ref":"TPE","short_name:ta":"\u0b9f\u0bbf\u0baa\u0bbf\u0b87","surface":"asphalt","wikidata":"Q1164571","wikipedia":"en:Tampines Expressway"},"geometry":{"type":"LineString","coordinates":[[103.8566679,1.3997329],[103.8564875,1.399648]]}},{"type":"Feature","id":"way/785756880-0-0-0","properties":{"destination":"Seletar West Link;Yishun Avenue 1","highway":"motorway_link","lanes":"2","maxspeed":"50","name":"Tampines Expressway","oneway":"yes","surface":"asphalt"},"geometry":{"type":"LineString","coordinates":[[103.8566679,1.3997329],[103.8566029,1.3996272]]}},{"type":"Feature","id":"way/785756880-0-1-0","properties":{"destination":"Seletar West Link;Yishun Avenue 1","highway":"motorway_link","lanes":"2","maxspeed":"50","name":"Tampines Expressway","oneway":"yes","surface":"asphalt"},"geometry":{"type":"LineString","coordinates":[[103.8566029,1.3996272],[103.8565828,1.3996105]]}},{"type":"Feature","id":"way/785756880-0-2-0","properties":{"destination":"Seletar West Link;Yishun Avenue 1","highway":"motorway_link","lanes":"2","maxspeed":"50","name":"Tampines Expressway","oneway":"yes","surface":"asphalt"},"geometry":{"type":"LineString","coordinates":[[103.8565828,1.3996105],[103.8565455,1.3995779]]}},{"type":"Feature","id":"way/1160114518-0-0-0","properties":{"bridge":"yes","bridge:name":"Yio Chu Kang Flyover","destination":"Seletar West Link","destination:to":"Yishun Avenue 1","highway":"motorway_link","lanes":"2","layer":"1","maxspeed":"50","oneway":"yes"},"geometry":{"type":"LineString","coordinates":[[103.8566269,1.3961531],[103.8563964,1.3967319]]}},{"type":"Feature","id":"way/1184263947-0-1-2","properties":{"bicycle":"yes","foot":"yes","highway":"secondary","motor_vehicle":"no","name":"Seletar West Road 4","oneway":"yes"},"geometry":{"type":"LineString","coordinates":[[103.8599512,1.396375],[103.8599632,1.3978724]]}},{"type":"Feature","id":"way/1184263947-0-2-0","properties":{"bicycle":"yes","foot":"yes","highway":"secondary","motor_vehicle":"no","name":"Seletar West Road 4","oneway":"yes"},"geometry":{"type":"LineString","coordinates":[[103.8599632,1.3978724],[103.8599643,1.3980601]]}},{"type":"Feature","id":"way/1184263947-0-3-0","properties":{"bicycle":"yes","foot":"yes","highway":"secondary","motor_vehicle":"no","name":"Seletar West Road 4","oneway":"yes"},"geometry":{"type":"LineString","coordinates":[[103.8599643,1.3980601],[103.8599647,1.3981316]]}},{"type":"Feature","id":"way/1184263947-0-4-0","properties":{"bicycle":"yes","foot":"yes","highway":"secondary","motor_vehicle":"no","name":"Seletar West Road 4","oneway":"yes"},"geometry":{"type":"LineString","coordinates":[[103.8599647,1.3981316],[103.8599621,1.3982321]]}},{"type":"Feature","id":"way/1426822585-0-0-0","properties":{"highway":"secondary_link","oneway":"yes"},"geometry":{"type":"LineString","coordinates":[[103.8599632,1.3978724],[103.8599096,1.3979751]]}},{"type":"Feature","id":"way/1426822585-0-1-0","properties":{"highway":"secondary_link","oneway":"yes"},"geometry":{"type":"LineString","coordinates":[[103.8599096,1.3979751],[103.8598567,1.398042]]}},{"type":"Feature","id":"way/1426822585-0-2-0","properties":{"highway":"secondary_link","oneway":"yes"},"geometry":{"type":"LineString","coordinates":[[103.8598567,1.398042],[103.8597197,1.3981331]]}}]}