{"type":"FeatureCollection","features":[{"type":"Feature","id":"way/124507208-0","properties":{"addr:housenumber":"31","building":"yes","building:levels":"4"},"geometry":{"type":"Polygon","coordinates":[[[103.9696329,1.3320067],[103.9694932,1.3317989],[103.9690342,1.3321072],[103.9691738,1.332315],[103.9696329,1.3320067]]]}},{"type":"Feature","id":"way/124507211-0","properties":{"building":"yes"},"geometry":{"type":"Polygon","coordinates":[[[103.9690499,1.3325002],[103.9689271,1.332324],[103.9688379,1.3323861],[103.9689607,1.3325624],[103.9690499,1.3325002]]]}},{"type":"Feature","id":"way/124507213-0","properties":{"building":"yes"},"geometry":{"type":"Polygon","coordinates":[[[103.9688408,1.3323068],[103.9687854,1.3321995],[103.9687268,1.3322298],[103.9687822,1.332337],[103.9688408,1.3323068]]]}},{"type":"Feature","id":"way/124507214-0","properties":{"addr:housenumber":"29","building":"yes","building:levels":"4"},"geometry":{"type":"Polygon","coordinates":[[[103.9694623,1.3317214],[103.969272,1.3314313],[103.9688091,1.3317415],[103.9689994,1.3320316],[103.9694623,1.3317214]]]}},{"type":"Feature","id":"way/124507216-0","properties":{"addr:city":"Singapore","addr:country":"SG","addr:housename":"OCH Building","addr:housenumber":"25","addr:postcode":"486594","addr:street":"Changi South Avenue 2","building":"commercial","building:levels":"5"},"geometry":{"type":"Polygon","coordinates":[[[103.9684007,1.3313328],[103.9683618,1.3313167],[103.968333,1.3313126],[103.9682934,1.331318],[103.9681442,1.3314077],[103.9684141,1.3318144],[103.9686985,1.3316237],[103.9684718,1.3312858],[103.9684007,1.3313328]]]}},{"type":"Feature","id":"way/124507218-0","properties":{"addr:housenumber":"35","addr:street":"Changi South Avenue 2","building":"yes","building:levels":"3","name":"Sunny Metal & Engineering"},"geometry":{"type":"Polygon","coordinates":[[[103.9699034,1.3327328],[103.9697886,1.3325716],[103.969393,1.3328531],[103.9695077,1.3330143],[103.9699034,1.3327328]]]}},{"type":"Feature","id":"way/124507220-0","properties":{"addr:housenumber":"2","building":"yes"},"geometry":{"type":"Polygon","coordinates":[[[103.9684731,1.3322775],[103.9683251,1.3320557],[103.9680833,1.3322171],[103.9682313,1.3324388],[103.9684731,1.3322775]]]}},{"type":"Feature","id":"way/124507222-0","properties":{"addr:housenumber":"33","building":"yes"},"geometry":{"type":"Polygon","coordinates":[[[103.9690426,1.3326221],[103.9690777,1.3326747],[103.9691114,1.3326523],[103.9691998,1.3327848],[103.9697547,1.3324151],[103.9696312,1.3322299],[103.9690426,1.3326221]]]}},{"type":"Feature","id":"way/124507223-0","properties":{"addr:city":"Singapore","addr:housenumber":"27","addr:street":"Changi South Avenue 2","building":"yes","building:levels":"3","name":"Choo Building Centre","source":"Kaart Ground Survey 2017"},"geometry":{"type":"Polygon","coordinates":[[[103.9689254,1.3311041],[103.9689064,1.3310883],[103.9688828,1.331081],[103.9688582,1.3310832],[103.9688363,1.3310947],[103.9688326,1.3310991],[103.9687882,1.3310346],[103.9685922,1.3311696],[103.9688486,1.3315416],[103.9692246,1.3312826],[103.9690542,1.3310354],[103.9689331,1.3311188],[103.9689254,1.3311041]]]}},{"type":"Feature","id":"way/124507225-0","properties":{"building":"yes"},"geometry":{"type":"Polygon","coordinates":[[[103.9687034,1.3321697],[103.9687714,1.3321309],[103.9686172,1.3318612],[103.9685493,1.3319],[103.9687034,1.3321697]]]}},{"type":"Feature","id":"way/124507228-0","properties":{"building":"yes"},"geometry":{"type":"Polygon","coordinates":[[[103.9683251,1.3320557],[103.9684731,1.3322775],[103.9686195,1.3321855],[103.9684662,1.3319557],[103.9683251,1.3320557]]]}},{"type":"Feature","id":"way/124518466-0","properties":{"addr:housenumber":"5","building":"yes"},"geometry":{"type":"Polygon","coordinates":[[[103.9677094,1.3296898],[103.967702,1.3297004],[103.9676992,1.329713],[103.9677015,1.3297257],[103.9677084,1.3297366],[103.967719,1.329744],[103.9677317,1.3297468],[103.9677389,1.3297455],[103.9677892,1.3298886],[103.9684765,1.3296474],[103.9683446,1.3292715],[103.9676572,1.3295127],[103.9677175,1.3296846],[103.9677094,1.3296898]]]}},{"type":"Feature","id":"way/124518468-0","properties":{"addr:housenumber":"q","building":"yes"},"geometry":{"type":"Polygon","coordinates":[[[103.9682911,1.3307218],[103.9683055,1.3307665],[103.9684693,1.3307136],[103.9684549,1.3306689],[103.9687952,1.3305589],[103.9687699,1.3304806],[103.9688642,1.3304501],[103.9688512,1.3304098],[103.9688833,1.3303995],[103.968865,1.330343],[103.9688329,1.3303534],[103.9687797,1.3301889],[103.9680673,1.3304191],[103.968177,1.3307587],[103.9682911,1.3307218]]]}},{"type":"Feature","id":"way/124518478-0","properties":{"addr:housenumber":"7","building":"yes"},"geometry":{"type":"Polygon","coordinates":[[[103.9683151,1.3291673],[103.9681969,1.3288185],[103.967855,1.3289343],[103.9678771,1.3289996],[103.9676568,1.3290742],[103.9677529,1.3293577],[103.9683151,1.3291673]]]}},{"type":"Feature","id":"way/124518481-0","properties":{"addr:housenumber":"3","building":"yes"},"geometry":{"type":"Polygon","coordinates":[[[103.968822,1.3300555],[103.968788,1.3299504],[103.9687469,1.3299637],[103.9686768,1.3297466],[103.9679411,1.3299841],[103.967982,1.3301108],[103.9681285,1.3300635],[103.9681917,1.330259],[103.968822,1.3300555]]]}},{"type":"Feature","id":"way/223860439-0","properties":{"addr:housenumber":"10","addr:street":"Changi South Street 1","building":"yes"},"geometry":{"type":"Polygon","coordinates":[[[103.9689476,1.3327914],[103.9688553,1.3326522],[103.9684294,1.3329346],[103.9685217,1.3330737],[103.9689476,1.3327914]]]}},{"type":"Feature","id":"way/223860440-0","properties":{"addr:housenumber":"12","addr:street":"Changi South Street 1","building":"yes"},"geometry":{"type":"Polygon","coordinates":[[[103.9690399,1.3329305],[103.9689476,1.3327914],[103.9685217,1.3330737],[103.9686139,1.3332129],[103.9690399,1.3329305]]]}},{"type":"Feature","id":"way/223860441-0","properties":{"addr:housenumber":"14","addr:street":"Changi South Street 1","building":"yes"},"geometry":{"type":"Polygon","coordinates":[[[103.9690429,1.3331265],[103.9691311,1.333068],[103.9690399,1.3329305],[103.9686139,1.3332129],[103.9687052,1.3333504],[103.9690429,1.3331265]]]}},{"type":"Feature","id":"way/223860442-0","properties":{"addr:housenumber":"16","addr:street":"Changi South Street 1","building":"yes"},"geometry":{"type":"Polygon","coordinates":[[[103.9691362,1.3332671],[103.9690429,1.3331265],[103.9687052,1.3333504],[103.9687984,1.333491],[103.9691362,1.3332671]]]}},{"type":"Feature","id":"way/223860458-0","properties":{"addr:housenumber":"6","addr:street":"Changi South Street 1","building":"yes"},"geometry":{"type":"Polygon","coordinates":[[[103.9687631,1.3325131],[103.9688076,1.3324835],[103.9687041,1.3323201],[103.9686222,1.3323063],[103.9685465,1.3323564],[103.9685926,1.3324258],[103.9682448,1.3326563],[103.9683371,1.3327954],[103.9687631,1.3325131]]]}},{"type":"Feature","id":"way/223860459-0","properties":{"addr:housenumber":"8","addr:street":"Changi South Street 1","building":"yes"},"geometry":{"type":"Polygon","coordinates":[[[103.9688553,1.3326522],[103.9687631,1.3325131],[103.9683371,1.3327954],[103.9684294,1.3329346],[103.9688553,1.3326522]]]}},{"type":"Feature","id":"way/453249158-0","properties":{"building":"yes"},"geometry":{"type":"Polygon","coordinates":[[[103.9689964,1.3305919],[103.9690962,1.3305597],[103.969078,1.3305033],[103.9689782,1.3305356],[103.9689964,1.3305919]]]}},{"type":"Feature","id":"way/453250920-0","properties":{"building":"yes"},"geometry":{"type":"Polygon","coordinates":[[[103.9679512,1.3320528],[103.9677149,1.332205],[103.9677799,1.332302],[103.968016,1.3321438],[103.9679512,1.3320528]]]}},{"type":"Feature","id":"way/453256368-0","properties":{"building":"yes"},"geometry":{"type":"Polygon","coordinates":[[[103.9697884,1.3323222],[103.9698286,1.3323785],[103.9698631,1.3323538],[103.9698229,1.3322975],[103.9697884,1.3323222]]]}},{"type":"Feature","id":"way/453256369-0","properties":{"building":"yes"},"geometry":{"type":"Polygon","coordinates":[[[103.969344,1.3331791],[103.969418,1.33313],[103.9694281,1.3331453],[103.9694988,1.3330984],[103.969468,1.3330521],[103.9694932,1.3330355],[103.9693482,1.3328171],[103.9691785,1.3329297],[103.969344,1.3331791]]]}},{"type":"Feature","id":"way/453256370-0","properties":{"building":"yes"},"geometry":{"type":"Polygon","coordinates":[[[103.9681586,1.3320012],[103.9682032,1.3320649],[103.9683373,1.3319711],[103.9682927,1.3319074],[103.9681586,1.3320012]]]}},{"type":"Feature","id":"way/223860407-0-0-0","properties":{"highway":"tertiary","lanes":"2","maxspeed":"50","name":"Changi South Avenue 2","oneway":"yes","surface":"asphalt"},"geometry":{"type":"LineString","coordinates":[[103.969368,1.3311679],[103.9693351,1.3310612]]}},{"type":"Feature","id":"way/223860407-0-1-0","properties":{"highway":"tertiary","lanes":"2","maxspeed":"50","name":"Changi South Avenue 2","oneway":"yes","surface":"asphalt"},"geometry":{"type":"LineString","coordinates":[[103.9693351,1.3310612],[103.96931,1.3310083]]}},{"type":"Feature","id":"way/223860407-0-2-0","properties":{"highway":"tertiary","lanes":"2","maxspeed":"50","name":"Changi South Avenue 2","oneway":"yes","surface":"asphalt"},"geometry":{"type":"LineString","coordinates":[[103.96931,1.3310083],[103.9692631,1.3309527]]}},{"type":"Feature","id":"way/223860407-0-3-0","properties":{"highway":"tertiary","lanes":"2","maxspeed":"50","name":"Changi South Avenue 2","oneway":"yes","surface":"asphalt"},"geometry":{"type":"LineString","coordinates":[[103.9692631,1.3309527],[103.969201,1.330902]]}},{"type":"Feature","id":"way/223860407-0-4-0","properties":{"highway":"tertiary","lanes":"2","maxspeed":"50","name":"Changi South Avenue 2","oneway":"yes","surface":"asphalt"},"geometry":{"type":"LineString","coordinates":[[103.969201,1.330902],[103.9691222,1.3308575]]}},{"type":"Feature","id":"way/223860407-0-5-0","properties":{"highway":"tertiary","lanes":"2","maxspeed":"50","name":"Changi South Avenue 2","oneway":"yes","surface":"asphalt"},"geometry":{"type":"LineString","coordinates":[[103.9691222,1.3308575],[103.9690451,1.330832]]}},{"type":"Feature","id":"way/223860407-0-6-0","properties":{"highway":"tertiary","lanes":"2","maxspeed":"50","name":"Changi South Avenue 2","oneway":"yes","surface":"asphalt"},"geometry":{"type":"LineString","coordinates":[[103.9690451,1.330832],[103.9689662,1.330815]]}},{"type":"Feature","id":"way/223860411-0-0-0","properties":{"highway":"tertiary","lanes":"2","maxspeed":"50","name":"Changi South Avenue 2","parking:condition:right:vehicles":"hgv_articulated","parking:lane:right":"parallel","surface":"asphalt"},"geometry":{"type":"LineString","coordinates":[[103.9701192,1.3325482],[103.9701883,1.332646]]}},{"type":"Feature","id":"way/223860411-0-1-0","properties":{"highway":"tertiary","lanes":"2","maxspeed":"50","name":"Changi South Avenue 2","parking:condition:right:vehicles":"hgv_articulated","parking:lane:right":"parallel","surface":"asphalt"},"geometry":{"type":"LineString","coordinates":[[103.9701883,1.332646],[103.9702809,1.3327724]]}},{"type":"Feature","id":"way/452391074-0-0-0","properties":{"highway":"service","lanes":"2","lanes:backward":"1","lanes:forward":"1","name":"Changi South Street 3","turn:lanes:backward":"left;right"},"geometry":{"type":"LineString","coordinates":[[103.9679682,1.3307871],[103.9678281,1.3304012]]}},{"type":"Feature","id":"way/452391652-0-0-0","properties":{"highway":"service"},"geometry":{"type":"LineString","coordinates":[[103.9681136,1.3333594],[103.9682115,1.3332914]]}},{"type":"Feature","id":"way/452391652-0-1-0","properties":{"highway":"service"},"geometry":{"type":"LineString","coordinates":[[103.9682115,1.3332914],[103.9683441,1.3332134]]}},{"type":"Feature","id":"way/452391656-0-0-0","properties":{"highway":"service","lanes":"2","lanes:backward":"1","lanes:forward":"1"},"geometry":{"type":"LineString","coordinates":[[103.969001,1.3322879],[103.9690733,1.3323678]]}},{"type":"Feature","id":"way/452391656-0-1-0","properties":{"highway":"service","lanes":"2","lanes:backward":"1","lanes:forward":"1"},"geometry":{"type":"LineString","coordinates":[[103.9690733,1.3323678],[103.9691169,1.3323812]]}},{"type":"Feature","id":"way/452391656-0-2-0","properties":{"highway":"service","lanes":"2","lanes:backward":"1","lanes:forward":"1"},"geometry":{"type":"LineString","coordinates":[[103.9691169,1.3323812],[103.9691599,1.3323717]]}},{"type":"Feature","id":"way/452391656-0-3-0","properties":{"highway":"service","lanes":"2","lanes:backward":"1","lanes:forward":"1"},"geometry":{"type":"LineString","coordinates":[[103.9691599,1.3323717],[103.9697335,1.3320111]]}},{"type":"Feature","id":"way/452391656-0-4-0","properties":{"highway":"service","lanes":"2","lanes:backward":"1","lanes:forward":"1"},"geometry":{"type":"LineString","coordinates":[[103.9697335,1.3320111],[103.9697882,1.3319767]]}},{"type":"Feature","id":"way/452391657-0-0-0","properties":{"highway":"service"},"geometry":{"type":"LineString","coordinates":[[103.9692357,1.3318964],[103.9695179,1.3317161]]}},{"type":"Feature","id":"way/452391663-0-0-0","properties":{"highway":"service"},"geometry":{"type":"LineString","coordinates":[[103.9686322,1.3296788],[103.9677472,1.3299741]]}},{"type":"Feature","id":"way/452392262-0-0-0","properties":{"highway":"service"},"geometry":{"type":"LineString","coordinates":[[103.9694319,1.3313106],[103.969377,1.3313431]]}},{"type":"Feature","id":"way/452392262-0-1-0","properties":{"highway":"service"},"geometry":{"type":"LineString","coordinates":[[103.969377,1.3313431],[103.9693067,1.3313846]]}},{"type":"Feature","id":"way/452392264-0-0-0","properties":{"highway":"service"},"geometry":{"type":"LineString","coordinates":[[103.9699841,1.3323316],[103.9699248,1.3323698]]}},{"type":"Feature","id":"way/452392264-0-1-0","properties":{"highway":"service"},"geometry":{"type":"LineString","coordinates":[[103.9699248,1.3323698],[103.9698098,1.3324438]]}},{"type":"Feature","id":"way/452392264-0-2-0","properties":{"highway":"service"},"geometry":{"type":"LineString","coordinates":[[103.9698098,1.3324438],[103.9694381,1.3326695]]}},{"type":"Feature","id":"way/452392264-0-3-0","properties":{"highway":"service"},"geometry":{"type":"LineString","coordinates":[[103.9694381,1.3326695],[103.9692063,1.3328322]]}},{"type":"Feature","id":"way/452392266-0-0-0","properties":{"highway":"service"},"geometry":{"type":"LineString","coordinates":[[103.9679969,1.3326813],[103.9680638,1.3326539]]}},{"type":"Feature","id":"way/452392266-0-1-0","properties":{"highway":"service"},"geometry":{"type":"LineString","coordinates":[[103.9680638,1.3326539],[103.9684795,1.3323576]]}},{"type":"Feature","id":"way/452392266-0-2-0","properties":{"highway":"service"},"geometry":{"type":"LineString","coordinates":[[103.9684795,1.3323576],[103.9686565,1.332253]]}},{"type":"Feature","id":"way/452392266-0-3-0","properties":{"highway":"service"},"geometry":{"type":"LineString","coordinates":[[103.9686565,1.332253],[103.9686837,1.3322512]]}},{"type":"Feature","id":"way/452392266-0-4-0","properties":{"highway":"service"},"geometry":{"type":"LineString","coordinates":[[103.9686837,1.3322512],[103.9687061,1.3322664]]}},{"type":"Feature","id":"way/452392266-0-5-0","properties":{"highway":"service"},"geometry":{"type":"LineString","coordinates":[[103.9687061,1.3322664],[103.968812,1.3323945]]}},{"type":"Feature","id":"way/452392266-0-6-0","properties":{"highway":"service"},"geometry":{"type":"LineString","coordinates":[[103.968812,1.3323945],[103.969437,1.333339]]}},{"type":"Feature","id":"way/452392270-0-0-0","properties":{"highway":"service"},"geometry":{"type":"LineString","coordinates":[[103.9703309,1.3330986],[103.969665,1.3335241]]}},{"type":"Feature","id":"way/473876352-0-0-0","properties":{"highway":"tertiary","lanes":"2","maxspeed":"50","name":"Changi South Avenue 2","oneway":"yes","surface":"asphalt"},"geometry":{"type":"LineString","coordinates":[[103.9680762,1.3311317],[103.9683303,1.3310386]]}},{"type":"Feature","id":"way/473876352-0-1-0","properties":{"highway":"tertiary","lanes":"2","maxspeed":"50","name":"Changi South Avenue 2","oneway":"yes","surface":"asphalt"},"geometry":{"type":"LineString","coordinates":[[103.9683303,1.3310386],[103.9685306,1.3309669]]}},{"type":"Feature","id":"way/473876352-0-2-0","properties":{"highway":"tertiary","lanes":"2","maxspeed":"50","name":"Changi South Avenue 2","oneway":"yes","surface":"asphalt"},"geometry":{"type":"LineString","coordinates":[[103.9685306,1.3309669],[103.968677,1.3309144]]}},{"type":"Feature","id":"way/473876352-0-3-0","properties":{"highway":"tertiary","lanes":"2","maxspeed":"50","name":"Changi South Avenue 2","oneway":"yes","surface":"asphalt"},"geometry":{"type":"LineString","coordinates":[[103.968677,1.3309144],[103.9688011,1.330889]]}},{"type":"Feature","id":"way/473876352-0-4-0","properties":{"highway":"tertiary","lanes":"2","maxspeed":"50","name":"Changi South Avenue 2","oneway":"yes","surface":"asphalt"},"geometry":{"type":"LineString","coordinates":[[103.9688011,1.330889],[103.9688876,1.3308836]]}},{"type":"Feature","id":"way/473876352-0-5-0","properties":{"highway":"tertiary","lanes":"2","maxspeed":"50","name":"Changi South Avenue 2","oneway":"yes","surface":"asphalt"},"geometry":{"type":"LineString","coordinates":[[103.9688876,1.3308836],[103.9689466,1.3308843]]}},{"type":"Feature","id":"way/473876352-0-6-0","properties":{"highway":"tertiary","lanes":"2","maxspeed":"50","name":"Changi South Avenue 2","oneway":"yes","surface":"asphalt"},"geometry":{"type":"LineString","coordinates":[[103.9689466,1.3308843],[103.969017,1.330895]]}},{"type":"Feature","id":"way/473876352-0-7-0","properties":{"highway":"tertiary","lanes":"2","maxspeed":"50","name":"Changi South Avenue 2","oneway":"yes","surface":"asphalt"},"geometry":{"type":"LineString","coordinates":[[103.969017,1.330895],[103.9690874,1.3309158]]}},{"type":"Feature","id":"way/473876352-0-8-0","properties":{"highway":"tertiary","lanes":"2","maxspeed":"50","name":"Changi South Avenue 2","oneway":"yes","surface":"asphalt"},"geometry":{"type":"LineString","coordinates":[[103.9690874,1.3309158],[103.9691813,1.3309654]]}},{"type":"Feature","id":"way/473876352-0-9-0","properties":{"highway":"tertiary","lanes":"2","maxspeed":"50","name":"Changi South Avenue 2","oneway":"yes","surface":"asphalt"},"geometry":{"type":"LineString","coordinates":[[103.9691813,1.3309654],[103.9692468,1.3310194]]}},{"type":"Feature","id":"way/473876352-0-10-0","properties":{"highway":"tertiary","lanes":"2","maxspeed":"50","name":"Changi South Avenue 2","oneway":"yes","surface":"asphalt"},"geometry":{"type":"LineString","coordinates":[[103.9692468,1.3310194],[103.9693135,1.331101]]}},{"type":"Feature","id":"way/473876352-0-11-0","properties":{"highway":"tertiary","lanes":"2","maxspeed":"50","name":"Changi South Avenue 2","oneway":"yes","surface":"asphalt"},"geometry":{"type":"LineString","coordinates":[[103.9693135,1.331101],[103.969368,1.3311679]]}},{"type":"Feature","id":"way/543989878-0-0-0","properties":{"highway":"service"},"geometry":{"type":"LineString","coordinates":[[103.9680535,1.330324],[103.9680079,1.3301904]]}},{"type":"Feature","id":"way/543989879-0-0-0","properties":{"highway":"service"},"geometry":{"type":"LineString","coordinates":[[103.9678281,1.3304012],[103.9679058,1.3303761]]}},{"type":"Feature","id":"way/543989879-0-1-0","properties":{"highway":"service"},"geometry":{"type":"LineString","coordinates":[[103.9679058,1.3303761],[103.9680535,1.330324]]}},{"type":"Feature","id":"way/544008385-0-0-0","properties":{"highway":"service"},"geometry":{"type":"LineString","coordinates":[[103.9680862,1.3313381],[103.9681171,1.331318]]}},{"type":"Feature","id":"way/544008385-0-1-0","properties":{"highway":"service"},"geometry":{"type":"LineString","coordinates":[[103.9681171,1.331318],[103.9684064,1.3311686]]}},{"type":"Feature","id":"way/544008386-0-0-0","properties":{"highway":"service"},"geometry":{"type":"LineString","coordinates":[[103.9684135,1.3318597],[103.9683786,1.3318489]]}},{"type":"Feature","id":"way/544008386-0-1-0","properties":{"highway":"service"},"geometry":{"type":"LineString","coordinates":[[103.9683786,1.3318489],[103.9680769,1.3313783]]}},{"type":"Feature","id":"way/544008386-0-2-0","properties":{"highway":"service"},"geometry":{"type":"LineString","coordinates":[[103.9680769,1.3313783],[103.9680862,1.3313381]]}},{"type":"Feature","id":"way/544008387-0-0-0","properties":{"highway":"service"},"geometry":{"type":"LineString","coordinates":[[103.9687259,1.3316545],[103.9687085,1.3316814]]}},{"type":"Feature","id":"way/544008387-0-1-0","properties":{"highway":"service"},"geometry":{"type":"LineString","coordinates":[[103.9687085,1.3316814],[103.9684524,1.331853]]}},{"type":"Feature","id":"way/544008387-0-2-0","properties":{"highway":"service"},"geometry":{"type":"LineString","coordinates":[[103.9684524,1.331853],[103.9684135,1.3318597]]}},{"type":"Feature","id":"way/544008388-0-0-0","properties":{"highway":"service","lanes":"2","lanes:backward":"1","lanes:forward":"1"},"geometry":{"type":"LineString","coordinates":[[103.9684064,1.3311686],[103.9687152,1.3316197]]}},{"type":"Feature","id":"way/544008388-0-1-0","properties":{"highway":"service","lanes":"2","lanes:backward":"1","lanes:forward":"1"},"geometry":{"type":"LineString","coordinates":[[103.9687152,1.3316197],[103.9687259,1.3316545]]}},{"type":"Feature","id":"way/544008389-0-0-0","properties":{"highway":"service"},"geometry":{"type":"LineString","coordinates":[[103.9693067,1.3313846],[103.9695179,1.3317161]]}},{"type":"Feature","id":"way/544008860-0-0-0","properties":{"highway":"service"},"geometry":{"type":"LineString","coordinates":[[103.970501,1.333367],[103.9704934,1.3333374]]}},{"type":"Feature","id":"way/544008860-0-1-0","properties":{"highway":"service"},"geometry":{"type":"LineString","coordinates":[[103.9704934,1.3333374],[103.9703309,1.3330986]]}},{"type":"Feature","id":"way/544008861-0-2-0","properties":{"highway":"service"},"geometry":{"type":"LineString","coordinates":[[103.97049,1.333389],[103.970501,1.333367]]}},{"type":"Feature","id":"way/544590977-0-0-0","properties":{"highway":"service"},"geometry":{"type":"LineString","coordinates":[[103.9685797,1.3310794],[103.9686179,1.3310605]]}},{"type":"Feature","id":"way/544590977-0-1-0","properties":{"highway":"service"},"geometry":{"type":"LineString","coordinates":[[103.9686179,1.3310605],[103.9686887,1.3310369]]}},{"type":"Feature","id":"way/544590977-0-2-0","properties":{"highway":"service"},"geometry":{"type":"LineString","coordinates":[[103.9686887,1.3310369],[103.9687538,1.3310187]]}},{"type":"Feature","id":"way/544590977-0-3-0","properties":{"highway":"service"},"geometry":{"type":"LineString","coordinates":[[103.9687538,1.3310187],[103.9688399,1.3310003]]}},{"type":"Feature","id":"way/544590977-0-4-0","properties":{"highway":"service"},"geometry":{"type":"LineString","coordinates":[[103.9688399,1.3310003],[103.9689311,1.3309909]]}},{"type":"Feature","id":"way/544590977-0-5-0","properties":{"highway":"service"},"geometry":{"type":"LineString","coordinates":[[103.9689311,1.3309909],[103.9690197,1.3310003]]}},{"type":"Feature","id":"way/639571773-0-0-0","properties":{"highway":"service","lanes":"2","lanes:backward":"1","lanes:forward":"1","name":"Changi South Street 3","turn:lanes:forward":"left;right"},"geometry":{"type":"LineString","coordinates":[[103.9679682,1.3307871],[103.9680031,1.330893]]}},{"type":"Feature","id":"way/639571773-0-1-0","properties":{"highway":"service","lanes":"2","lanes:backward":"1","lanes:forward":"1","name":"Changi South Street 3","turn:lanes:forward":"left;right"},"geometry":{"type":"LineString","coordinates":[[103.9680031,1.330893],[103.9680289,1.3309725]]}},{"type":"Feature","id":"way/639571773-0-2-0","properties":{"highway":"service","lanes":"2","lanes:backward":"1","lanes:forward":"1","name":"Changi South Street 3","turn:lanes:forward":"left;right"},"geometry":{"type":"LineString","coordinates":[[103.9680289,1.3309725],[103.9680571,1.3310732]]}},{"type":"Feature","id":"way/640188119-0-0-0","properties":{"highway":"tertiary","lanes":"2","lanes:backward":"1","lanes:forward":"1","maxspeed":"50","name":"Changi South Avenue 2","surface":"asphalt"},"geometry":{"type":"LineString","coordinates":[[103.9704563,1.3330016],[103.9707206,1.333397]]}},{"type":"Feature","id":"way/641120481-0-0-0","properties":{"highway":"service","lanes":"2","lanes:backward":"1","lanes:forward":"1","name":"Changi South Street 1","surface":"asphalt"},"geometry":{"type":"LineString","coordinates":[[103.9680494,1.3327612],[103.9681379,1.3328974]]}},{"type":"Feature","id":"way/641120482-0-1-0","properties":{"highway":"service","lanes":"2","lanes:backward":"1","lanes:forward":"1","name":"Changi South Street 1","parking:condition:left:vehicles":"motorcar","parking:condition:right:vehicles":"motorcycle","parking:lane:left":"parallel","parking:lane:right":"perpendicular","surface":"asphalt"},"geometry":{"type":"LineString","coordinates":[[103.9677702,1.3323906],[103.9679969,1.3326813]]}},{"type":"Feature","id":"way/641120483-0-0-0","properties":{"highway":"service","lanes":"2","lanes:backward":"1","lanes:forward":"1","name":"Changi South Street 1","surface":"asphalt"},"geometry":{"type":"LineString","coordinates":[[103.9679969,1.3326813],[103.9680494,1.3327612]]}},{"type":"Feature","id":"way/641120819-0-0-0","properties":{"highway":"service","lanes":"2","lanes:backward":"1","lanes:forward":"1","name":"Changi South Street 1","parking:condition:right:vehicles":"motorcar","parking:lane:right":"parallel","surface":"asphalt"},"geometry":{"type":"LineString","coordinates":[[103.9683441,1.3332134],[103.9684135,1.3333338]]}},{"type":"Feature","id":"way/641120820-0-0-0","properties":{"highway":"service","lanes":"2","name":"Changi South Street 1","parking:condition:right:vehicles":"motorcycle","parking:lane:right":"perpendicular","surface":"asphalt"},"geometry":{"type":"LineString","coordinates":[[103.9681379,1.3328974],[103.9681714,1.3329463]]}},{"type":"Feature","id":"way/641121881-0-0-0","properties":{"highway":"tertiary","lanes":"2","lanes:backward":"1","lanes:forward":"1","maxspeed":"50","name":"Changi South Avenue 2","parking:condition:right:vehicles":"motorcar","parking:lane:right":"parallel","surface":"asphalt"},"geometry":{"type":"LineString","coordinates":[[103.9699841,1.3323316],[103.9701192,1.3325482]]}},{"type":"Feature","id":"way/641121882-0-0-0","properties":{"highway":"tertiary","lanes":"2","lanes:backward":"1","lanes:forward":"1","maxspeed":"50","name":"Changi South Avenue 2","surface":"asphalt"},"geometry":{"type":"LineString","coordinates":[[103.9699229,1.3322206],[103.9699841,1.3323316]]}},{"type":"Feature","id":"way/641121883-0-0-0","properties":{"highway":"tertiary","lanes":"2","maxspeed":"50","name":"Changi South Avenue 2","parking:condition:right:vehicles":"motorcar","parking:lane:right":"parallel","surface":"asphalt"},"geometry":{"type":"LineString","coordinates":[[103.9698258,1.3320449],[103.9699042,1.3321869]]}},{"type":"Feature","id":"way/641121884-0-0-0","properties":{"highway":"tertiary","lanes":"2","lanes:backward":"1","lanes:forward":"1","maxspeed":"50","name":"Changi South Avenue 2","surface":"asphalt"},"geometry":{"type":"LineString","coordinates":[[103.969744,1.3318954],[103.9697882,1.3319767]]}},{"type":"Feature","id":"way/641121885-0-0-0","properties":{"highway":"tertiary","lanes":"2","lanes:backward":"1","lanes:forward":"1","maxspeed":"50","name":"Changi South Avenue 2","surface":"asphalt"},"geometry":{"type":"LineString","coordinates":[[103.9697882,1.3319767],[103.9698258,1.3320449]]}},{"type":"Feature","id":"way/641121886-0-0-0","properties":{"highway":"tertiary","lanes":"2","lanes:backward":"1","lanes:forward":"1","maxspeed":"50","name":"Changi South Avenue 2","surface":"asphalt"},"geometry":{"type":"LineString","coordinates":[[103.969368,1.3311679],[103.9694319,1.3313106]]}},{"type":"Feature","id":"way/641121887-0-0-0","properties":{"highway":"tertiary","lanes":"2","lanes:backward":"1","lanes:forward":"1","maxspeed":"50","name":"Changi South Avenue 2","parking:condition:right:vehicles":"motorcar","parking:lane:right":"parallel","surface":"asphalt"},"geometry":{"type":"LineString","coordinates":[[103.9696121,1.3316575],[103.9696195,1.3316733]]}},{"type":"Feature","id":"way/641121887-0-1-0","properties":{"highway":"tertiary","lanes":"2","lanes:backward":"1","lanes:forward":"1","maxspeed":"50","name":"Changi South Avenue 2","parking:condition:right:vehicles":"motorcar","parking:lane:right":"parallel","surface":"asphalt"},"geometry":{"type":"LineString","coordinates":[[103.9696195,1.3316733],[103.969744,1.3318954]]}},{"type":"Feature","id":"way/641121888-0-0-0","properties":{"highway":"tertiary","lanes":"2","lanes:backward":"1","lanes:forward":"1","maxspeed":"50","name":"Changi South Avenue 2","surface":"asphalt"},"geometry":{"type":"LineString","coordinates":[[103.9694319,1.3313106],[103.9695238,1.3314875]]}},{"type":"Feature","id":"way/641121888-0-1-0","properties":{"highway":"tertiary","lanes":"2","lanes:backward":"1","lanes:forward":"1","maxspeed":"50","name":"Changi South Avenue 2","surface":"asphalt"},"geometry":{"type":"LineString","coordinates":[[103.9695238,1.3314875],[103.9696121,1.3316575]]}},{"type":"Feature","id":"way/641122293-0-0-0","properties":{"highway":"tertiary","lanes":"2","lanes:backward":"1","lanes:forward":"1","maxspeed":"50","name":"Changi South Avenue 2","surface":"asphalt"},"geometry":{"type":"LineString","coordinates":[[103.9702809,1.3327724],[103.9704563,1.3330016]]}},{"type":"Feature","id":"way/641145720-0-0-0","properties":{"highway":"service"},"geometry":{"type":"LineString","coordinates":[[103.9693067,1.3313846],[103.9688802,1.3316559]]}},{"type":"Feature","id":"way/641145720-0-1-0","properties":{"highway":"service"},"geometry":{"type":"LineString","coordinates":[[103.9688802,1.3316559],[103.9685928,1.3318575]]}},{"type":"Feature","id":"way/643877717-0-0-0","properties":{"highway":"service","lanes":"2","name":"Changi South Street 1","parking:condition:left:vehicles":"motorcar","parking:lane:left":"parallel","surface":"asphalt"},"geometry":{"type":"LineString","coordinates":[[103.9684135,1.3333338],[103.9684658,1.3334297]]}},{"type":"Feature","id":"way/644041947-0-0-0","properties":{"highway":"service"},"geometry":{"type":"LineString","coordinates":[[103.9686576,1.330716],[103.9689244,1.330594]]}},{"type":"Feature","id":"way/644041947-0-1-0","properties":{"highway":"service"},"geometry":{"type":"LineString","coordinates":[[103.9689244,1.330594],[103.9689606,1.3305377]]}},{"type":"Feature","id":"way/644041947-0-2-0","properties":{"highway":"service"},"geometry":{"type":"LineString","coordinates":[[103.9689606,1.3305377],[103.9689513,1.3304626]]}},{"type":"Feature","id":"way/644041947-0-3-0","properties":{"highway":"service"},"geometry":{"type":"LineString","coordinates":[[103.9689513,1.3304626],[103.9688882,1.3303178]]}},{"type":"Feature","id":"way/644041948-0-0-0","properties":{"highway":"service"},"geometry":{"type":"LineString","coordinates":[[103.9686979,1.3308314],[103.9686748,1.3307652]]}},{"type":"Feature","id":"way/644041948-0-1-0","properties":{"highway":"service"},"geometry":{"type":"LineString","coordinates":[[103.9686748,1.3307652],[103.9686576,1.330716]]}},{"type":"Feature","id":"way/644041948-0-2-0","properties":{"highway":"service"},"geometry":{"type":"LineString","coordinates":[[103.9686576,1.330716],[103.9682941,1.3308112]]}},{"type":"Feature","id":"way/644041948-0-3-0","properties":{"highway":"service"},"geometry":{"type":"LineString","coordinates":[[103.9682941,1.3308112],[103.9682177,1.3308152]]}},{"type":"Feature","id":"way/644041948-0-4-0","properties":{"highway":"service"},"geometry":{"type":"LineString","coordinates":[[103.9682177,1.3308152],[103.9681788,1.3307965]]}},{"type":"Feature","id":"way/644041948-0-5-0","properties":{"highway":"service"},"geometry":{"type":"LineString","coordinates":[[103.9681788,1.3307965],[103.9680822,1.3305498]]}},{"type":"Feature","id":"way/644041949-0-0-0","properties":{"highway":"service"},"geometry":{"type":"LineString","coordinates":[[103.9685797,1.3310794],[103.9685449,1.3311491]]}},{"type":"Feature","id":"way/644041949-0-1-0","properties":{"highway":"service"},"geometry":{"type":"LineString","coordinates":[[103.9685449,1.3311491],[103.9685476,1.3311853]]}},{"type":"Feature","id":"way/644041949-0-2-0","properties":{"highway":"service"},"geometry":{"type":"LineString","coordinates":[[103.9685476,1.3311853],[103.9687991,1.331571]]}},{"type":"Feature","id":"way/644041949-0-3-0","properties":{"highway":"service"},"geometry":{"type":"LineString","coordinates":[[103.9687991,1.331571],[103.9688289,1.3315827]]}},{"type":"Feature","id":"way/644041949-0-4-0","properties":{"highway":"service"},"geometry":{"type":"LineString","coordinates":[[103.9688289,1.3315827],[103.9688652,1.3315779]]}},{"type":"Feature","id":"way/644041949-0-5-0","properties":{"highway":"service"},"geometry":{"type":"LineString","coordinates":[[103.9688652,1.3315779],[103.9692643,1.331326]]}},{"type":"Feature","id":"way/645251970-0-0-0","properties":{"highway":"service"},"geometry":{"type":"LineString","coordinates":[[103.9704563,1.3330016],[103.9703875,1.3330548]]}},{"type":"Feature","id":"way/645251970-0-1-0","properties":{"highway":"service"},"geometry":{"type":"LineString","coordinates":[[103.9703875,1.3330548],[103.9703309,1.3330986]]}},{"type":"Feature","id":"way/645256863-0-0-0","properties":{"highway":"service"},"geometry":{"type":"LineString","coordinates":[[103.9695179,1.3317161],[103.9695678,1.3316868]]}},{"type":"Feature","id":"way/645256863-0-1-0","properties":{"highway":"service"},"geometry":{"type":"LineString","coordinates":[[103.9695678,1.3316868],[103.9696121,1.3316575]]}},{"type":"Feature","id":"way/645259614-0-0-0","properties":{"highway":"service"},"geometry":{"type":"LineString","coordinates":[[103.9678694,1.3328681],[103.967925,1.3328355]]}},{"type":"Feature","id":"way/645259614-0-1-0","properties":{"highway":"service"},"geometry":{"type":"LineString","coordinates":[[103.967925,1.3328355],[103.9680494,1.3327612]]}},{"type":"Feature","id":"way/645285154-0-0-0","properties":{"highway":"service","lanes":"2","lanes:backward":"1","lanes:forward":"1"},"geometry":{"type":"LineString","coordinates":[[103.9683303,1.3310386],[103.9683617,1.3310948]]}},{"type":"Feature","id":"way/645285154-0-1-0","properties":{"highway":"service","lanes":"2","lanes:backward":"1","lanes:forward":"1"},"geometry":{"type":"LineString","coordinates":[[103.9683617,1.3310948],[103.9684064,1.3311686]]}},{"type":"Feature","id":"way/646750438-0-0-0","properties":{"highway":"service"},"geometry":{"type":"LineString","coordinates":[[103.9680535,1.330324],[103.9686517,1.3301313]]}},{"type":"Feature","id":"way/649185587-0-0-0","properties":{"highway":"tertiary","lanes":"2","maxspeed":"50","name":"Changi South Avenue 2","oneway":"yes","surface":"asphalt","turn:lanes":"left;through|through"},"geometry":{"type":"LineString","coordinates":[[103.9689662,1.330815],[103.9688815,1.3308065]]}},{"type":"Feature","id":"way/649185587-0-1-0","properties":{"highway":"tertiary","lanes":"2","maxspeed":"50","name":"Changi South Avenue 2","oneway":"yes","surface":"asphalt","turn:lanes":"left;through|through"},"geometry":{"type":"LineString","coordinates":[[103.9688815,1.3308065],[103.968797,1.3308105]]}},{"type":"Feature","id":"way/649185587-0-2-0","properties":{"highway":"tertiary","lanes":"2","maxspeed":"50","name":"Changi South Avenue 2","oneway":"yes","surface":"asphalt","turn:lanes":"left;through|through"},"geometry":{"type":"LineString","coordinates":[[103.968797,1.3308105],[103.9686979,1.3308314]]}},{"type":"Feature","id":"way/649185587-0-3-0","properties":{"highway":"tertiary","lanes":"2","maxspeed":"50","name":"Changi South Avenue 2","oneway":"yes","surface":"asphalt","turn:lanes":"left;through|through"},"geometry":{"type":"LineString","coordinates":[[103.9686979,1.3308314],[103.9685959,1.3308688]]}},{"type":"Feature","id":"way/649185587-0-4-0","properties":{"highway":"tertiary","lanes":"2","maxspeed":"50","name":"Changi South Avenue 2","oneway":"yes","surface":"asphalt","turn:lanes":"left;through|through"},"geometry":{"type":"LineString","coordinates":[[103.9685959,1.3308688],[103.9680571,1.3310732]]}},{"type":"Feature","id":"way/655615565-0-0-0","properties":{"highway":"service","name":"Changi South Street 3"},"geometry":{"type":"LineString","coordinates":[[103.9680571,1.3310732],[103.9680762,1.3311317]]}},{"type":"Feature","id":"way/666007554-0-0-0","properties":{"highway":"service","lanes":"2","name":"Changi South Street 1","parking:condition:left:vehicles":"hgv_articulated","parking:condition:right:vehicles":"motorcar","parking:lane:left":"parallel","parking:lane:right":"parallel","surface":"asphalt"},"geometry":{"type":"LineString","coordinates":[[103.9681714,1.3329463],[103.9682364,1.3330529]]}},{"type":"Feature","id":"way/666007660-0-0-0","properties":{"highway":"service","lanes":"2","lanes:backward":"1","lanes:forward":"1","name":"Changi South Street 1","surface":"asphalt"},"geometry":{"type":"LineString","coordinates":[[103.9682364,1.3330529],[103.9683441,1.3332134]]}},{"type":"Feature","id":"way/666008586-0-0-0","properties":{"highway":"tertiary","lanes":"2","maxspeed":"50","name":"Changi South Avenue 2","parking:condition:right:vehicles":"motorcycle","parking:lane:right":"perpendicular","surface":"asphalt"},"geometry":{"type":"LineString","coordinates":[[103.9699042,1.3321869],[103.9699229,1.3322206]]}},{"type":"Feature","id":"way/726205027-0-0-0","properties":{"highway":"service"},"geometry":{"type":"LineString","coordinates":[[103.9692643,1.331326],[103.9692757,1.3312913]]}},{"type":"Feature","id":"way/726205027-0-1-0","properties":{"highway":"service"},"geometry":{"type":"LineString","coordinates":[[103.9692757,1.3312913],[103.9692652,1.3312499]]}},{"type":"Feature","id":"way/726205027-0-2-0","properties":{"highway":"service"},"geometry":{"type":"LineString","coordinates":[[103.9692652,1.3312499],[103.9691632,1.3310966]]}},{"type":"Feature","id":"way/726205027-0-3-0","properties":{"highway":"service"},"geometry":{"type":"LineString","coordinates":[[103.9691632,1.3310966],[103.9690944,1.331035]]}},{"type":"Feature","id":"way/726205027-0-4-0","properties":{"highway":"service"},"geometry":{"type":"LineString","coordinates":[[103.9690944,1.331035],[103.9690197,1.3310003]]}},{"type":"Feature","id":"way/726205028-0-0-0","properties":{"highway":"service"},"geometry":{"type":"LineString","coordinates":[[103.9685306,1.3309669],[103.9685526,1.3310174]]}},{"type":"Feature","id":"way/726205028-0-1-0","properties":{"highway":"service"},"geometry":{"type":"LineString","coordinates":[[103.9685526,1.3310174],[103.9685797,1.3310794]]}},{"type":"Feature","id":"way/933699836-0-0-0","properties":{"highway":"service"},"geometry":{"type":"LineString","coordinates":[[103.9681136,1.3333594],[103.9680058,1.3332058]]}},{"type":"Feature","id":"way/933699836-0-1-0","properties":{"highway":"service"},"geometry":{"type":"LineString","coordinates":[[103.9680058,1.3332058],[103.9678355,1.3329872]]}},{"type":"Feature","id":"way/933699837-0-0-0","properties":{"highway":"service"},"geometry":{"type":"LineString","coordinates":[[103.9698098,1.3324438],[103.9696513,1.3322016]]}}]}