{"type":"FeatureCollection","features":[{"type":"Feature","id":"way/432952472-0","properties":{"building":"yes"},"geometry":{"type":"Polygon","coordinates":[[[103.9756906,1.4182729],[103.9755994,1.4182353],[103.9755777,1.4182878],[103.975669,1.4183254],[103.9756906,1.4182729]]]}},{"type":"Feature","id":"way/54710417-0-0-0","properties":{"highway":"residential","maxspeed":"40","name":"Jalan Mamam"},"geometry":{"type":"LineString","coordinates":[[103.9755213,1.4180907],[103.975646,1.4181751]]}},{"type":"Feature","id":"way/54710417-0-1-0","properties":{"highway":"residential","maxspeed":"40","name":"Jalan Mamam"},"geometry":{"type":"LineString","coordinates":[[103.975646,1.4181751],[103.975752,1.4182006]]}},{"type":"Feature","id":"way/54710417-0-2-0","properties":{"highway":"residential","maxspeed":"40","name":"Jalan Mamam"},"geometry":{"type":"LineString","coordinates":[[103.975752,1.4182006],[103.975874,1.4182033]]}},{"type":"Feature","id":"way/54710417-0-3-0","properties":{"highway":"residential","maxspeed":"40","name":"Jalan Mamam"},"geometry":{"type":"LineString","coordinates":[[103.975874,1.4182033],[103.9760205,1.4181612]]}},{"type":"Feature","id":"way/54710417-0-4-0","properties":{"highway":"residential","maxspeed":"40","name":"Jalan Mamam"},"geometry":{"type":"LineString","coordinates":[[103.9760205,1.4181612],[103.9761369,1.4180987]]}},{"type":"Feature","id":"way/54710417-0-5-0","properties":{"highway":"residential","maxspeed":"40","name":"Jalan Mamam"},"geometry":{"type":"LineString","coordinates":[[103.9761369,1.4180987],[103.9762697,1.4180008]]}},{"type":"Feature","id":"way/54710417-0-6-0","properties":{"highway":"residential","maxspeed":"40","name":"Jalan Mamam"},"geometry":{"type":"LineString","coordinates":[[103.9762697,1.4180008],[103.976385,1.4178788]]}},{"type":"Feature","id":"way/54710417-0-7-0","properties":{"highway":"residential","maxspeed":"40","name":"Jalan Mamam"},"geometry":{"type":"LineString","coordinates":[[103.976385,1.4178788],[103.9768705,1.4170194]]}}]}