{"type":"FeatureCollection","features":[{"type":"Feature","id":"way/213582717-0","properties":{"building":"warehouse"},"geometry":{"type":"Polygon","coordinates":[[[103.9813409,1.367526],[103.9816353,1.3672248],[103.9814649,1.3670583],[103.9811704,1.3673595],[103.9813409,1.367526]]]}},{"type":"Feature","id":"way/213582733-0","properties":{"building":"warehouse"},"geometry":{"type":"Polygon","coordinates":[[[103.9813563,1.3681853],[103.9817334,1.3678049],[103.9814976,1.3675712],[103.9811205,1.3679517],[103.9813563,1.3681853]]]}},{"type":"Feature","id":"way/213582736-0","properties":{"building":"yes"},"geometry":{"type":"Polygon","coordinates":[[[103.9820789,1.3660649],[103.9818408,1.3661647],[103.9820027,1.3665503],[103.9822407,1.3664505],[103.9820789,1.3660649]]]}},{"type":"Feature","id":"way/345835010-0","properties":{"building":"yes"},"geometry":{"type":"Polygon","coordinates":[[[103.9814705,1.368818],[103.9815833,1.3686877],[103.9814438,1.3685671],[103.9814045,1.3686125],[103.9815021,1.3686969],[103.9814703,1.3687337],[103.9813716,1.3686484],[103.9813299,1.3686965],[103.9814705,1.368818]]]}},{"type":"Feature","id":"way/345835011-0","properties":{"building":"yes"},"geometry":{"type":"Polygon","coordinates":[[[103.9813881,1.368982],[103.981311,1.3690652],[103.9814678,1.3692105],[103.9816369,1.369028],[103.981398,1.3688067],[103.981306,1.3689059],[103.9813881,1.368982]]]}},{"type":"Feature","id":"way/345835020-0","properties":{"building":"yes"},"geometry":{"type":"Polygon","coordinates":[[[103.9830805,1.3691547],[103.9830492,1.3690799],[103.9829517,1.3691206],[103.9829829,1.3691954],[103.9830805,1.3691547]]]}},{"type":"Feature","id":"way/345835021-0","properties":{"building":"yes"},"geometry":{"type":"Polygon","coordinates":[[[103.9831874,1.3692775],[103.9832463,1.3692528],[103.9831597,1.3690464],[103.9831008,1.3690711],[103.9831874,1.3692775]]]}},{"type":"Feature","id":"way/345835022-0","properties":{"building":"yes"},"geometry":{"type":"Polygon","coordinates":[[[103.9829906,1.3692733],[103.9829643,1.3692092],[103.9828787,1.3692444],[103.982905,1.3693084],[103.9829906,1.3692733]]]}},{"type":"Feature","id":"way/345835023-0","properties":{"building":"yes"},"geometry":{"type":"Polygon","coordinates":[[[103.9823064,1.368297],[103.9823835,1.368262],[103.9823625,1.3682157],[103.9825152,1.3681463],[103.9824762,1.3680605],[103.9823256,1.368129],[103.9822942,1.3680599],[103.9822149,1.3680959],[103.9823064,1.368297]]]}},{"type":"Feature","id":"way/453274919-0","properties":{"building":"yes"},"geometry":{"type":"Polygon","coordinates":[[[103.9817142,1.3693059],[103.9817732,1.3693729],[103.9818094,1.369341],[103.9817504,1.369274],[103.9817142,1.3693059]]]}},{"type":"Feature","id":"way/1463546532-0","properties":{"building":"yes"},"geometry":{"type":"Polygon","coordinates":[[[103.9813037,1.3653743],[103.9812616,1.3654051],[103.9812894,1.3654432],[103.9813538,1.3653961],[103.9813677,1.365188],[103.9813163,1.3651846],[103.9813037,1.3653743]]]}},{"type":"Feature","id":"way/544832411-0-4-0","properties":{"highway":"service"},"geometry":{"type":"LineString","coordinates":[[103.9813974,1.3693056],[103.9813732,1.369305]]}},{"type":"Feature","id":"way/544832411-0-5-0","properties":{"highway":"service"},"geometry":{"type":"LineString","coordinates":[[103.9813732,1.369305],[103.9813578,1.3693137]]}}]}