{"type":"FeatureCollection","features":[{"type":"Feature","id":"way/173010415-0","properties":{"addr:city":"Singapore","addr:country":"SG","addr:housenumber":"95","addr:postcode":"819461","addr:street":"Airport Cargo Road","building":"warehouse","building:levels":"2","layer":"1","name":"SATS Airfreight Terminals 1-4","source":"Bing"},"geometry":{"type":"Polygon","coordinates":[[[103.9930948,1.3718763],[103.9932249,1.371821],[103.9929857,1.371259],[103.9930055,1.3712505],[103.9929644,1.371154],[103.9922875,1.3714419],[103.9925037,1.371949],[103.992426,1.3719825],[103.9923732,1.3720048],[103.992492,1.3722839],[103.9925818,1.3722454],[103.9926231,1.3722277],[103.994693,1.3770893],[103.99533,1.3768183],[103.9951696,1.3764414],[103.9952283,1.3764164],[103.9950845,1.3760786],[103.9950718,1.376084],[103.9950281,1.3759813],[103.9949745,1.3760041],[103.9948833,1.3757899],[103.9948493,1.3758043],[103.994747,1.3755641],[103.9947893,1.3755461],[103.994745,1.3754421],[103.9947458,1.3754418],[103.9944493,1.3747452],[103.9944952,1.3747256],[103.9944518,1.3746236],[103.9944164,1.3746386],[103.9944006,1.3746014],[103.9944497,1.3745804],[103.9943441,1.3743323],[103.994295,1.3743532],[103.9941413,1.3739923],[103.9941903,1.3739714],[103.9941405,1.3738545],[103.9940915,1.3738753],[103.9939732,1.3735973],[103.994064,1.3735587],[103.9940239,1.3734647],[103.9939332,1.3735033],[103.9938654,1.373344],[103.9938963,1.3733309],[103.9937887,1.3730781],[103.9937578,1.3730913],[103.9936516,1.3728417],[103.9936401,1.3728466],[103.9935473,1.3726287],[103.993521,1.3726399],[103.9932513,1.3720064],[103.9931657,1.3720428],[103.9930948,1.3718763]]]}}]}