{"type":"FeatureCollection","features":[{"type":"Feature","id":"way/630452164-0-1-0","properties":{"highway":"primary","lanes":"3","maxspeed":"70","name":"Tanah Merah Coast Road","name:en":"Tanah Merah Coast Road","name:zh":"\u4e39\u90a3\u7f8e\u62c9\u6d77\u5cb8\u8def","oneway":"yes","opening_date":"22 April 2017","surface":"asphalt"},"geometry":{"type":"LineString","coordinates":[[104.0296631,1.3512614],[104.029078,1.3498762]]}},{"type":"Feature","id":"way/630452164-0-1-1","properties":{"highway":"primary","lanes":"3","maxspeed":"70","name":"Tanah Merah Coast Road","name:en":"Tanah Merah Coast Road","name:zh":"\u4e39\u90a3\u7f8e\u62c9\u6d77\u5cb8\u8def","oneway":"yes","opening_date":"22 April 2017","surface":"asphalt"},"geometry":{"type":"LineString","coordinates":[[104.029078,1.3498762],[104.0284929,1.3484909]]}},{"type":"Feature","id":"way/630452164-0-2-0","properties":{"highway":"primary","lanes":"3","maxspeed":"70","name":"Tanah Merah Coast Road","name:en":"Tanah Merah Coast Road","name:zh":"\u4e39\u90a3\u7f8e\u62c9\u6d77\u5cb8\u8def","oneway":"yes","opening_date":"22 April 2017","surface":"asphalt"},"geometry":{"type":"LineString","coordinates":[[104.0284929,1.3484909],[104.0282726,1.3479639]]}},{"type":"Feature","id":"way/630452166-0-0-1","properties":{"highway":"primary","lanes":"3","maxspeed":"70","name":"Tanah Merah Coast Road","name:en":"Tanah Merah Coast Road","name:zh":"\u4e39\u90a3\u7f8e\u62c9\u6d77\u5cb8\u8def","oneway":"yes","opening_date":"22 April 2017","surface":"asphalt"},"geometry":{"type":"LineString","coordinates":[[104.0278094,1.3471416],[104.0281739,1.3480009]]}},{"type":"Feature","id":"way/641312722-0-0-0","properties":{"highway":"primary","lanes":"3","maxspeed":"70","name":"Tanah Merah Coast Road","name:en":"Tanah Merah Coast Road","name:zh":"\u4e39\u90a3\u7f8e\u62c9\u6d77\u5cb8\u8def","oneway":"yes","opening_date":"22 April 2017","surface":"asphalt"},"geometry":{"type":"LineString","coordinates":[[104.0282726,1.3479639],[104.0277079,1.3465924]]}},{"type":"Feature","id":"way/641312723-0-0-0","properties":{"highway":"primary","lanes":"3","maxspeed":"70","name":"Tanah Merah Coast Road","name:en":"Tanah Merah Coast Road","name:zh":"\u4e39\u90a3\u7f8e\u62c9\u6d77\u5cb8\u8def","oneway":"yes","opening_date":"22 April 2017","surface":"asphalt"},"geometry":{"type":"LineString","coordinates":[[104.0281739,1.3480009],[104.0283944,1.3485303]]}},{"type":"Feature","id":"way/641312726-0-0-0","properties":{"highway":"primary","lanes":"3","maxspeed":"70","name":"Tanah Merah Coast Road","name:en":"Tanah Merah Coast Road","name:zh":"\u4e39\u90a3\u7f8e\u62c9\u6d77\u5cb8\u8def","oneway":"yes","opening_date":"22 April 2017","surface":"asphalt"},"geometry":{"type":"LineString","coordinates":[[104.0283944,1.3485303],[104.0286779,1.349176]]}},{"type":"Feature","id":"way/641312726-0-1-0","properties":{"highway":"primary","lanes":"3","maxspeed":"70","name":"Tanah Merah Coast Road","name:en":"Tanah Merah Coast Road","name:zh":"\u4e39\u90a3\u7f8e\u62c9\u6d77\u5cb8\u8def","oneway":"yes","opening_date":"22 April 2017","surface":"asphalt"},"geometry":{"type":"LineString","coordinates":[[104.0286779,1.349176],[104.0292559,1.3505667]]}},{"type":"Feature","id":"way/641312726-0-1-1","properties":{"highway":"primary","lanes":"3","maxspeed":"70","name":"Tanah Merah Coast Road","name:en":"Tanah Merah Coast Road","name:zh":"\u4e39\u90a3\u7f8e\u62c9\u6d77\u5cb8\u8def","oneway":"yes","opening_date":"22 April 2017","surface":"asphalt"},"geometry":{"type":"LineString","coordinates":[[104.0292559,1.3505667],[104.0298339,1.3519574]]}},{"type":"Feature","id":"way/644633482-0-0-4","properties":{"highway":"service"},"geometry":{"type":"LineString","coordinates":[[104.0265479,1.3493249],[104.0279297,1.3487359]]}},{"type":"Feature","id":"way/644633483-0-0-0","properties":{"highway":"service"},"geometry":{"type":"LineString","coordinates":[[104.0279297,1.3487359],[104.0282365,1.3485982]]}},{"type":"Feature","id":"way/644633483-0-1-0","properties":{"highway":"service"},"geometry":{"type":"LineString","coordinates":[[104.0282365,1.3485982],[104.0282838,1.3485779]]}},{"type":"Feature","id":"way/644633483-0-2-0","properties":{"highway":"service"},"geometry":{"type":"LineString","coordinates":[[104.0282838,1.3485779],[104.0283329,1.3485569]]}},{"type":"Feature","id":"way/644633483-0-3-0","properties":{"highway":"service"},"geometry":{"type":"LineString","coordinates":[[104.0283329,1.3485569],[104.0283944,1.3485303]]}}]}