{"type":"FeatureCollection","features":[{"type":"Feature","id":"relation/10693653-0","properties":{"addr:city":"Singapore","addr:country":"SG","addr:housename":"Wintech Centre","addr:housenumber":"6","addr:postcode":"408726","addr:street":"Ubi Road 1","building":"commercial","height":"0","type":"multipolygon"},"geometry":{"type":"Polygon","coordinates":[[[103.8937987,1.3266643],[103.8938321,1.326637],[103.8938522,1.3265988],[103.8938557,1.3265558],[103.8938422,1.3265148],[103.8938137,1.3264824],[103.8937822,1.3264662],[103.8938787,1.3261725],[103.8938526,1.3261639],[103.893835,1.3261581],[103.8938076,1.3261491],[103.8935826,1.3260753],[103.8935584,1.3260673],[103.8935331,1.326059],[103.8935065,1.3260503],[103.8933197,1.3266188],[103.8933464,1.3266275],[103.8933717,1.3266358],[103.8933959,1.3266438],[103.8936209,1.3267176],[103.8936482,1.3267266],[103.8936659,1.3267324],[103.8936919,1.3267409],[103.8937148,1.3266714],[103.8937573,1.3266764],[103.8937987,1.3266643]],[[103.8937779,1.326559],[103.8937769,1.3265776],[103.8937667,1.3265932],[103.8937498,1.3266016],[103.8937377,1.3266017],[103.8937596,1.326535],[103.8937693,1.3265424],[103.8937779,1.326559]]]}},{"type":"Feature","id":"way/111983678-0","properties":{"addr:block":"10","addr:city":"Singapore","addr:housenumber":"10","addr:postcode":"408564","addr:street":"Ubi Ave 1","building":"yes","building:levels":"6","name":"UBI Techpark"},"geometry":{"type":"Polygon","coordinates":[[[103.8953241,1.325996],[103.8952241,1.3262809],[103.8958166,1.3265302],[103.8959347,1.3262352],[103.8958477,1.3262],[103.89594,1.3259832],[103.8954787,1.3258705],[103.8954089,1.3260261],[103.8953241,1.325996]]]}},{"type":"Feature","id":"way/111983724-0","properties":{"addr:block":"10","addr:city":"Singapore","addr:housenumber":"10","addr:postcode":"408564","addr:street":"Ubi Avenue 1","building":"yes","building:levels":"6","name":"UBI Techpark"},"geometry":{"type":"Polygon","coordinates":[[[103.8952241,1.3262809],[103.8953241,1.325996],[103.895261,1.3259739],[103.8953133,1.3258248],[103.8948535,1.3256634],[103.8948089,1.3257904],[103.8945733,1.3257077],[103.8944655,1.3260147],[103.8952241,1.3262809]]]}},{"type":"Feature","id":"way/122493414-0","properties":{"addr:city":"Singapore","addr:country":"SG","addr:housenumber":"3027","addr:postcode":"408720","addr:street":"Ubi Road 1","building":"industrial","building:levels":"4"},"geometry":{"type":"Polygon","coordinates":[[[103.894225,1.3275279],[103.8931392,1.3271475],[103.8930933,1.3272786],[103.8941791,1.327659],[103.894225,1.3275279]]]}},{"type":"Feature","id":"way/122493419-0","properties":{"addr:city":"Singapore","addr:country":"SG","addr:housenumber":"3026","addr:postcode":"408719","addr:street":"Ubi Road 1","building":"industrial","building:levels":"4"},"geometry":{"type":"Polygon","coordinates":[[[103.8953726,1.3279556],[103.8942847,1.327547],[103.8942366,1.327675],[103.8953245,1.3280835],[103.8953726,1.3279556]]]}},{"type":"Feature","id":"way/122493510-0","properties":{"addr:city":"Singapore","addr:housenumber":"55","addr:street":"Ubi Avenue 1","building":"industrial","building:levels":"6","name":"Ubi 55","source":"Kaart Ground Survey 2017"},"geometry":{"type":"Polygon","coordinates":[[[103.8955451,1.3253662],[103.8956716,1.3248766],[103.8957581,1.3245419],[103.8958798,1.324552],[103.8959162,1.3244234],[103.8958374,1.3244011],[103.8958107,1.3244536],[103.8957337,1.3244354],[103.8956932,1.3245722],[103.8955588,1.3245453],[103.8953925,1.3244965],[103.895212,1.3252769],[103.8955451,1.3253662]]]}},{"type":"Feature","id":"way/122493511-0","properties":{"addr:city":"Singapore","addr:housenumber":"70","addr:street":"Ubi Crescent","building":"yes"},"geometry":{"type":"Polygon","coordinates":[[[103.8956626,1.327089],[103.8957311,1.326908],[103.8943673,1.3263919],[103.8942988,1.326573],[103.8956626,1.327089]]]}},{"type":"Feature","id":"way/122493512-0","properties":{"addr:city":"Singapore","addr:housenumber":"57","addr:street":"Ubi Avenue 1","building":"industrial","building:levels":"6","name":"Ubi Centre 57","source":"Kaart Ground Survey 2017"},"geometry":{"type":"Polygon","coordinates":[[[103.8951718,1.3252241],[103.8953647,1.3244998],[103.8951024,1.32443],[103.8949095,1.3251542],[103.8951718,1.3252241]]]}},{"type":"Feature","id":"way/122493513-0","properties":{"addr:city":"Singapore","addr:housenumber":"59","addr:street":"Ubi Avenue 1","building":"industrial","building:levels":"6","name":"Bizlink Centre 59","source":"Kaart Ground Survey 2017"},"geometry":{"type":"Polygon","coordinates":[[[103.8947829,1.3252164],[103.894976,1.3244151],[103.8947586,1.3243628],[103.8945655,1.325164],[103.8947829,1.3252164]]]}},{"type":"Feature","id":"way/122493521-0","properties":{"addr:city":"Singapore","addr:housenumber":"60","addr:street":"Ubi Crescent","building":"yes"},"geometry":{"type":"Polygon","coordinates":[[[103.8957373,1.3268711],[103.8958058,1.3267002],[103.8944642,1.3261628],[103.8943957,1.3263337],[103.8957373,1.3268711]]]}},{"type":"Feature","id":"way/122493741-0","properties":{"addr:city":"Singapore","addr:country":"SG","addr:housename":"63@Ubi","addr:housenumber":"63","addr:postcode":"408937","addr:street":"Ubi Avenue 1","building":"commercial","building:levels":"6"},"geometry":{"type":"Polygon","coordinates":[[[103.8940438,1.3250164],[103.8941074,1.3247634],[103.8941491,1.3247739],[103.894216,1.3245074],[103.8941758,1.3244973],[103.8942403,1.3242403],[103.8940194,1.3241848],[103.8939735,1.3243673],[103.8939396,1.3243588],[103.8938367,1.3247686],[103.8938725,1.3247776],[103.8938263,1.3249618],[103.8940438,1.3250164]]]}},{"type":"Feature","id":"way/122493746-0","properties":{"addr:city":"Singapore","addr:country":"SG","addr:housenumber":"65","addr:postcode":"408939","addr:street":"Ubi Avenue 1","building":"commercial","building:levels":"7","name":"OSIM Headquarters","source":"Kaart Ground Survey 2017"},"geometry":{"type":"Polygon","coordinates":[[[103.8936616,1.3248208],[103.8938373,1.3241242],[103.8937663,1.3241048],[103.8936751,1.3241129],[103.893604,1.324137],[103.893549,1.3241732],[103.8934913,1.3242375],[103.8934591,1.3243274],[103.8934015,1.3243166],[103.8932969,1.3247296],[103.8936616,1.3248208]]]}},{"type":"Feature","id":"way/122496619-0","properties":{"addr:city":"Singapore","addr:country":"SG","addr:housenumber":"3021","addr:postcode":"408897","addr:street":"Ubi Avenue 2","building":"industrial","building:levels":"4"},"geometry":{"type":"Polygon","coordinates":[[[103.8953994,1.3286479],[103.8946494,1.3283606],[103.8942289,1.3281995],[103.8941832,1.3283187],[103.8953537,1.328767],[103.8953994,1.3286479]]]}},{"type":"Feature","id":"way/122496625-0","properties":{"addr:city":"Singapore","addr:country":"SG","addr:housenumber":"3020","addr:postcode":"408896","addr:street":"Ubi Avenue 2","building":"industrial","building:levels":"4"},"geometry":{"type":"Polygon","coordinates":[[[103.8941611,1.3281724],[103.8929954,1.3277224],[103.8929478,1.3278456],[103.8941135,1.3282956],[103.8941611,1.3281724]]]}},{"type":"Feature","id":"way/122496626-0","properties":{"addr:city":"Singapore","addr:country":"SG","addr:housenumber":"3014B","addr:postcode":"408722","addr:street":"Ubi Road 1","building":"industrial","building:levels":"1","name":"FC 3014B"},"geometry":{"type":"Polygon","coordinates":[[[103.8943829,1.3289395],[103.8944577,1.3287554],[103.8941273,1.3286212],[103.8940525,1.3288053],[103.8943829,1.3289395]]]}},{"type":"Feature","id":"way/173221668-0","properties":{"addr:city":"Singapore","addr:country":"SG","addr:housenumber":"11","addr:street":"Ubi Crescent","building":"commercial","building:levels":"7"},"geometry":{"type":"Polygon","coordinates":[[[103.8941069,1.3269589],[103.8941731,1.3267856],[103.89405,1.3267386],[103.8939838,1.3269119],[103.8941069,1.3269589]]]}},{"type":"Feature","id":"way/173221681-0","properties":{"addr:city":"Singapore","addr:country":"SG","addr:housenumber":"13","addr:street":"Ubi Crescent","building":"commercial","building:levels":"7"},"geometry":{"type":"Polygon","coordinates":[[[103.8942302,1.3270059],[103.8942963,1.3268327],[103.8941731,1.3267856],[103.8941069,1.3269589],[103.8942302,1.3270059]]]}},{"type":"Feature","id":"way/173221691-0","properties":{"addr:city":"Singapore","addr:country":"SG","addr:housenumber":"15","addr:street":"Ubi Crescent","building":"commercial","building:levels":"7"},"geometry":{"type":"Polygon","coordinates":[[[103.8943533,1.3270529],[103.8944195,1.3268797],[103.8942963,1.3268327],[103.8942302,1.3270059],[103.8943533,1.3270529]]]}},{"type":"Feature","id":"way/173221702-0","properties":{"addr:city":"Singapore","addr:country":"SG","addr:housenumber":"17","addr:street":"Ubi Crescent","building":"commercial","building:levels":"7"},"geometry":{"type":"Polygon","coordinates":[[[103.8944765,1.3271],[103.8945427,1.3269267],[103.8944195,1.3268797],[103.8943533,1.3270529],[103.8944765,1.3271]]]}},{"type":"Feature","id":"way/173221714-0","properties":{"addr:city":"Singapore","addr:country":"SG","addr:housenumber":"19","addr:street":"Ubi Crescent","building":"commercial","building:levels":"7"},"geometry":{"type":"Polygon","coordinates":[[[103.8945997,1.327147],[103.8946659,1.3269737],[103.8945427,1.3269267],[103.8944765,1.3271],[103.8945997,1.327147]]]}},{"type":"Feature","id":"way/173221723-0","properties":{"addr:city":"Singapore","addr:country":"SG","addr:housenumber":"21","addr:street":"Ubi Crescent","building":"commercial","building:levels":"7"},"geometry":{"type":"Polygon","coordinates":[[[103.8947229,1.327194],[103.8947891,1.3270207],[103.8946659,1.3269737],[103.8945997,1.327147],[103.8947229,1.327194]]]}},{"type":"Feature","id":"way/173221735-0","properties":{"addr:city":"Singapore","addr:country":"SG","addr:housenumber":"23","addr:street":"Ubi Crescent","building":"commercial","building:levels":"7"},"geometry":{"type":"Polygon","coordinates":[[[103.8948461,1.327241],[103.8949123,1.3270677],[103.8947891,1.3270207],[103.8947229,1.327194],[103.8948461,1.327241]]]}},{"type":"Feature","id":"way/173221744-0","properties":{"addr:city":"Singapore","addr:country":"SG","addr:housenumber":"25","addr:street":"Ubi Crescent","building":"commercial","building:levels":"7"},"geometry":{"type":"Polygon","coordinates":[[[103.8949692,1.3272881],[103.8950354,1.3271148],[103.8949123,1.3270677],[103.8948461,1.327241],[103.8949692,1.3272881]]]}},{"type":"Feature","id":"way/173221746-0","properties":{"addr:city":"Singapore","addr:country":"SG","addr:housenumber":"27","addr:street":"Ubi Crescent","building":"commercial","building:levels":"7"},"geometry":{"type":"Polygon","coordinates":[[[103.8950924,1.3273351],[103.8951586,1.3271618],[103.8950354,1.3271148],[103.8949692,1.3272881],[103.8950924,1.3273351]]]}},{"type":"Feature","id":"way/173221748-0","properties":{"addr:city":"Singapore","addr:country":"SG","addr:housenumber":"29","addr:street":"Ubi Crescent","building":"commercial","building:levels":"7"},"geometry":{"type":"Polygon","coordinates":[[[103.8952156,1.3273821],[103.8952818,1.3272088],[103.8951586,1.3271618],[103.8950924,1.3273351],[103.8952156,1.3273821]]]}},{"type":"Feature","id":"way/173221750-0","properties":{"addr:city":"Singapore","addr:country":"SG","addr:housenumber":"31","addr:street":"Ubi Crescent","building":"commercial","building:levels":"7"},"geometry":{"type":"Polygon","coordinates":[[[103.8953388,1.3274291],[103.8954049,1.3272558],[103.8952818,1.3272088],[103.8952156,1.3273821],[103.8953388,1.3274291]]]}},{"type":"Feature","id":"way/173221752-0","properties":{"addr:city":"Singapore","addr:country":"SG","addr:housenumber":"33","addr:street":"Ubi Crescent","building":"commercial","building:levels":"7"},"geometry":{"type":"Polygon","coordinates":[[[103.8954619,1.3274761],[103.8955281,1.3273028],[103.8954049,1.3272558],[103.8953388,1.3274291],[103.8954619,1.3274761]]]}},{"type":"Feature","id":"way/173221753-0","properties":{"addr:city":"Singapore","addr:country":"SG","addr:housename":"ATT Building","addr:housenumber":"35","addr:street":"Ubi Crescent","building":"commercial","building:levels":"5","height":"25"},"geometry":{"type":"Polygon","coordinates":[[[103.8955851,1.3275231],[103.8956513,1.3273498],[103.8955281,1.3273028],[103.8954619,1.3274761],[103.8955851,1.3275231]]]}},{"type":"Feature","id":"way/173221756-0","properties":{"addr:city":"Singapore","addr:country":"SG","addr:housenumber":"37","addr:street":"Ubi Crescent","building":"commercial","building:levels":"5","height":"25"},"geometry":{"type":"Polygon","coordinates":[[[103.8957963,1.3276035],[103.8958624,1.3274334],[103.8957364,1.3273844],[103.8956703,1.3275545],[103.8957963,1.3276035]]]}},{"type":"Feature","id":"way/173221758-0","properties":{"addr:city":"Singapore","addr:country":"SG","addr:housename":"PowerPlus Building","addr:housenumber":"39","addr:street":"Ubi Crescent","building":"commercial","building:levels":"7"},"geometry":{"type":"Polygon","coordinates":[[[103.8959224,1.3276524],[103.8959885,1.3274824],[103.8958624,1.3274334],[103.8957963,1.3276035],[103.8959224,1.3276524]]]}},{"type":"Feature","id":"way/173221779-0","properties":{"addr:city":"Singapore","addr:country":"SG","addr:housenumber":"9","addr:postcode":"408572","addr:street":"Ubi Crescent","building":"commercial","building:levels":"5","height":"25"},"geometry":{"type":"Polygon","coordinates":[[[103.8939838,1.3269119],[103.89405,1.3267386],[103.8939268,1.3266916],[103.8938606,1.3268649],[103.8939838,1.3269119]]]}},{"type":"Feature","id":"way/214051721-0","properties":{"addr:city":"Singapore","addr:country":"SG","addr:housenumber":"24","addr:postcode":"409963","addr:street":"Arumugam Road","amenity":"place_of_worship","building":"yes","building:levels":"1","denomination":"taoist","name":"Lord Buddha Temple (four face buddha)","name:zh":"\u4e09\u5b9d\u4f5b\u5149\u5bfa","religion":"taoist","roof:material":"roof_tiles"},"geometry":{"type":"Polygon","coordinates":[[[103.8920085,1.3255778],[103.8920624,1.325587],[103.8920738,1.3255327],[103.8920101,1.3254878],[103.8920047,1.3255079],[103.8919383,1.3254932],[103.8919242,1.3255535],[103.8918416,1.3255378],[103.8917897,1.3257544],[103.8919566,1.3257944],[103.8920085,1.3255778]]]}},{"type":"Feature","id":"way/214051722-0","properties":{"addr:city":"Singapore","addr:country":"SG","addr:housenumber":"15","addr:postcode":"409960","addr:street":"Arumugam Road","amenity":"place_of_worship","building":"yes","building:levels":"1","denomination":"taoist","name":"Lorong Koo Chye Sheng Hong Temple","name:zh":"\u97ed\u83dc\u82ad\u57ce\u968d\u5e99","religion":"taoist","roof:material":"roof_tiles"},"geometry":{"type":"Polygon","coordinates":[[[103.8918721,1.3264055],[103.8919979,1.3264347],[103.8920278,1.3263058],[103.8921408,1.3263325],[103.8922153,1.3261568],[103.8919407,1.3260973],[103.8919165,1.3262016],[103.8916843,1.3261477],[103.8916291,1.3263851],[103.8918642,1.3264398],[103.8918721,1.3264055]]]}},{"type":"Feature","id":"way/306112500-0","properties":{"addr:city":"Singapore","addr:country":"SG","addr:housenumber":"3015A","addr:postcode":"408705","addr:street":"Ubi Road 1","building":"industrial","building:colour":"#B4C0CE","building:levels":"7","building:material":"brick"},"geometry":{"type":"Polygon","coordinates":[[[103.8925583,1.3290577],[103.8925528,1.3290573],[103.8925475,1.3290585],[103.892543,1.3290614],[103.8925395,1.3290655],[103.8925376,1.3290705],[103.8925374,1.3290759],[103.8925388,1.329081],[103.8925419,1.3290854],[103.8925461,1.3290884],[103.8925799,1.3291043],[103.8925397,1.3291983],[103.8927728,1.3292972],[103.892801,1.3292858],[103.8928422,1.3291879],[103.8928248,1.3291581],[103.8931078,1.3284508],[103.8934231,1.3285808],[103.8934375,1.3286171],[103.8935339,1.3286516],[103.8935648,1.3286332],[103.8936519,1.3283985],[103.8935601,1.3283617],[103.8935762,1.3283211],[103.8935767,1.3283155],[103.8935754,1.3283102],[103.8935726,1.3283057],[103.8935685,1.3283023],[103.8935635,1.3283003],[103.8935581,1.3283001],[103.8935529,1.3283016],[103.8935485,1.3283047],[103.8935455,1.3283089],[103.8935273,1.3283557],[103.8930887,1.3281763],[103.893091,1.3281663],[103.8929998,1.3281287],[103.8929877,1.3281565],[103.8929629,1.3281465],[103.8928969,1.3283184],[103.8928895,1.3283235],[103.8928848,1.3283322],[103.8928821,1.3283439],[103.8928831,1.328354],[103.8928868,1.3283633],[103.892924,1.3283784],[103.8929187,1.3283908],[103.8928556,1.3283654],[103.8928473,1.328365],[103.8928406,1.3283697],[103.8928134,1.3284428],[103.8928151,1.3284522],[103.8928211,1.3284585],[103.8928872,1.3284857],[103.8928764,1.3285189],[103.8928248,1.3285025],[103.8925982,1.329072],[103.8925583,1.3290577]]]}},{"type":"Feature","id":"way/306112501-0","properties":{"addr:city":"Singapore","addr:country":"SG","addr:housenumber":"3022","addr:postcode":"408662","addr:street":"Ubi Road 3","amenity":"parking","building":"garage","building:levels":"6","parking":"multi-storey"},"geometry":{"type":"Polygon","coordinates":[[[103.8955466,1.3289435],[103.8959888,1.3291234],[103.8960249,1.3290345],[103.8960554,1.3290468],[103.8961114,1.3289092],[103.8960776,1.3288955],[103.896096,1.3288502],[103.8956564,1.3286714],[103.8956381,1.3287165],[103.8956125,1.3287061],[103.8955324,1.3289027],[103.8955588,1.3289135],[103.8955466,1.3289435]]]}},{"type":"Feature","id":"way/306112503-0","properties":{"addr:city":"Singapore","addr:country":"SG","addr:housenumber":"31","addr:postcode":"408694","addr:street":"Ubi Road 1","building":"commercial","height":"0","name":"Aztech Building"},"geometry":{"type":"Polygon","coordinates":[[[103.8921136,1.326875],[103.892149,1.3268864],[103.8927382,1.3270764],[103.8927464,1.3270511],[103.8927862,1.3270639],[103.892871,1.3268008],[103.8928068,1.3267801],[103.8928327,1.3266999],[103.8923884,1.3265567],[103.8923247,1.3265361],[103.8921758,1.3264882],[103.8921418,1.3265939],[103.8920864,1.3267656],[103.892057,1.3268568],[103.8921136,1.326875]]]}},{"type":"Feature","id":"way/306112504-0","properties":{"addr:housenumber":"21","addr:street":"Ubi Road 1","building":"yes","name":"Brilliant Manufacturing"},"geometry":{"type":"Polygon","coordinates":[[[103.8930408,1.3261238],[103.8925639,1.3259876],[103.8924819,1.3262744],[103.8927277,1.3263447],[103.8926872,1.3264858],[103.8929185,1.3265518],[103.8930408,1.3261238]]]}},{"type":"Feature","id":"way/306112505-0","properties":{"building:levels":"4","building:part":"yes"},"geometry":{"type":"Polygon","coordinates":[[[103.8926233,1.3252798],[103.8928169,1.3253458],[103.8927983,1.3254004],[103.8931042,1.3255046],[103.8931273,1.3254367],[103.8932864,1.3254909],[103.8933699,1.3252458],[103.8931772,1.3251801],[103.8931935,1.3251322],[103.8929477,1.3250485],[103.8929302,1.3251002],[103.89271,1.3250252],[103.8926233,1.3252798]]]}},{"type":"Feature","id":"way/306112507-0","properties":{"addr:city":"Singapore","addr:country":"SG","addr:housename":"Antioch @ MacPherson","addr:housenumber":"18","addr:postcode":"409962","addr:street":"Arumugam Road","building":"yes","building:levels":"7","old_name":"Lux Industrial Building"},"geometry":{"type":"Polygon","coordinates":[[[103.8913979,1.325764],[103.8915803,1.3258009],[103.8916171,1.3256205],[103.8914066,1.3255843],[103.8914039,1.3256007],[103.8913915,1.3255991],[103.8913731,1.3257318],[103.8913979,1.325764]]]}},{"type":"Feature","id":"way/306112508-0","properties":{"addr:city":"Singapore","addr:country":"SG","addr:housename":"LTC Industrial Building C","addr:housenumber":"14","addr:postcode":"409959","addr:street":"Arumugam Road","building":"commercial","building:levels":"8"},"geometry":{"type":"Polygon","coordinates":[[[103.8915634,1.3249033],[103.8917521,1.3249481],[103.8918786,1.3244155],[103.89169,1.3243707],[103.8915634,1.3249033]]]}},{"type":"Feature","id":"way/306112509-0","properties":{"addr:city":"Singapore","addr:country":"SG","addr:housename":"LTC Industrial Building D","addr:housenumber":"16","addr:postcode":"409961","addr:street":"Arumugam Road","building":"commercial","building:levels":"7"},"geometry":{"type":"Polygon","coordinates":[[[103.8915541,1.3254984],[103.8916449,1.3250617],[103.8915028,1.3250322],[103.8914121,1.3254689],[103.8915541,1.3254984]]]}},{"type":"Feature","id":"way/306112517-0","properties":{"addr:city":"Singapore","addr:housenumber":"61","addr:postcode":"408941","addr:street":"Ubi Avenue 1","building":"industrial","building:levels":"5","name":"UB Point 61","source":"Kaart Ground Survey 2017"},"geometry":{"type":"Polygon","coordinates":[[[103.8944181,1.3250657],[103.8944626,1.3249003],[103.8946683,1.3241366],[103.8944575,1.3240799],[103.8942074,1.325009],[103.8944181,1.3250657]]]}},{"type":"Feature","id":"way/373775755-0","properties":{"addr:city":"Singapore","addr:country":"SG","addr:housenumber":"3016","addr:postcode":"408706","addr:street":"Ubi Road 1","building":"industrial","building:levels":"4"},"geometry":{"type":"Polygon","coordinates":[[[103.892202,1.3289312],[103.8913195,1.3286414],[103.8912429,1.3288744],[103.8913094,1.3288963],[103.8912999,1.3289251],[103.8913806,1.3289516],[103.8913867,1.3289329],[103.8919791,1.3291274],[103.8919747,1.3291411],[103.8920516,1.3291664],[103.8920597,1.3291419],[103.8921256,1.3291636],[103.892202,1.3289312]]]}},{"type":"Feature","id":"way/373775756-0","properties":{"addr:city":"Singapore","addr:country":"SG","addr:housenumber":"3019","addr:postcode":"408712","addr:street":"Ubi Road 1","building":"industrial","building:levels":"4"},"geometry":{"type":"Polygon","coordinates":[[[103.891741,1.3275629],[103.8925606,1.3278331],[103.8926394,1.327594],[103.8925971,1.3275801],[103.8925712,1.3275715],[103.8925789,1.3275481],[103.8925012,1.3275225],[103.8924953,1.3275404],[103.8919654,1.3273658],[103.891972,1.327346],[103.8918968,1.3273212],[103.8918872,1.3273503],[103.8918185,1.3273277],[103.891741,1.3275629]]]}},{"type":"Feature","id":"way/373775757-0","properties":{"addr:city":"Singapore","addr:country":"SG","addr:housenumber":"3018","addr:postcode":"408710","addr:street":"Ubi Road 1","building":"industrial","building:levels":"4"},"geometry":{"type":"Polygon","coordinates":[[[103.891579,1.3280481],[103.8916472,1.3280698],[103.8916381,1.3280982],[103.8917121,1.3281217],[103.8917168,1.328107],[103.8922519,1.3282773],[103.8922458,1.3282966],[103.8923281,1.3283228],[103.8923344,1.328303],[103.89241,1.3283271],[103.892488,1.3280824],[103.8916528,1.3278165],[103.891579,1.3280481]]]}},{"type":"Feature","id":"way/373775758-0","properties":{"addr:city":"Singapore","addr:country":"SG","addr:housenumber":"3017","addr:postcode":"408708","addr:street":"Ubi Road 1","building":"industrial","building:levels":"4"},"geometry":{"type":"Polygon","coordinates":[[[103.8914645,1.3284095],[103.8922858,1.3286666],[103.8923527,1.328453],[103.8922973,1.3284356],[103.8923043,1.3284132],[103.8922226,1.3283876],[103.8922168,1.328406],[103.8916762,1.3282368],[103.8916863,1.3282046],[103.8916114,1.3281812],[103.8916016,1.3282123],[103.891533,1.3281908],[103.8914645,1.3284095]]]}},{"type":"Feature","id":"way/454440237-0","properties":{"building:levels":"7","building:part":"yes"},"geometry":{"type":"Polygon","coordinates":[[[103.8924901,1.3256707],[103.8926524,1.325726],[103.8926764,1.3256556],[103.8930577,1.3257854],[103.8930331,1.3258574],[103.8931618,1.3259013],[103.8932101,1.3257596],[103.8931964,1.3257549],[103.8932864,1.3254909],[103.8931273,1.3254367],[103.8931042,1.3255046],[103.8927983,1.3254004],[103.8928169,1.3253458],[103.8926233,1.3252798],[103.8924901,1.3256707]]]}},{"type":"Feature","id":"way/454440238-0","properties":{"addr:city":"Singapore","addr:country":"SG","addr:housename":"Number One Building","addr:housenumber":"1","addr:postcode":"408563","addr:street":"Ubi Crescent","building":"commercial","building:levels":"6","name":"Number One Building"},"geometry":{"type":"Polygon","coordinates":[[[103.8941252,1.325682],[103.8942004,1.3254532],[103.8939127,1.3253586],[103.893902,1.3253913],[103.8938101,1.3253611],[103.8938082,1.325367],[103.8937532,1.3253489],[103.8937312,1.3254158],[103.8937112,1.3254093],[103.8936835,1.3254935],[103.8937048,1.3255005],[103.893692,1.3255397],[103.8941252,1.325682]]]}},{"type":"Feature","id":"way/454440239-0","properties":{"addr:city":"Singapore","addr:country":"SG","addr:housename":"Yong Lee Building","addr:housenumber":"3","addr:postcode":"408558","addr:street":"Ubi Crescent","building":"commercial","building:levels":"7","name":"Yong Lee Building","name:en":"Yong Lee Building","name:zh":"\u8363\u5229\u5927\u53a6"},"geometry":{"type":"Polygon","coordinates":[[[103.8939121,1.3260176],[103.8939127,1.3260158],[103.8939799,1.3260382],[103.8939849,1.3260231],[103.8940002,1.3260282],[103.8940587,1.3258522],[103.8940408,1.3258462],[103.8940494,1.3258204],[103.8939863,1.3257995],[103.8939884,1.3257931],[103.8936755,1.3256892],[103.8936008,1.3259141],[103.8939121,1.3260176]]]}},{"type":"Feature","id":"way/502796142-0","properties":{"addr:city":"Singapore","addr:country":"SG","addr:housenumber":"30","addr:postcode":"409966","addr:street":"Arumugam Road","amenity":"place_of_worship","building":"yes","building:levels":"2","denomination":"taoist","name":"Cheng Hong Siang T'ng Kew Huang Keng Combined Temple","name:zh":"\u4f17\u5f18\u5584\u5802\u4e5d\u7687\u5bab\u8054\u5408\u5e99","religion":"taoist","roof:material":"roof_tiles"},"geometry":{"type":"Polygon","coordinates":[[[103.8922221,1.3259756],[103.8922769,1.3257344],[103.8920777,1.3256892],[103.892023,1.3259304],[103.8922221,1.3259756]]]}},{"type":"Feature","id":"way/770946359-0","properties":{"building":"yes","building:levels":"3","power":"substation"},"geometry":{"type":"Polygon","coordinates":[[[103.8942097,1.3265277],[103.8942507,1.326413],[103.8942319,1.3264063],[103.8942415,1.3263795],[103.8941861,1.3263598],[103.8941355,1.3265012],[103.8942097,1.3265277]]]}},{"type":"Feature","id":"way/770946360-0","properties":{"building:levels":"4","building:part":"yes"},"geometry":{"type":"Polygon","coordinates":[[[103.8937573,1.3266764],[103.8937987,1.3266643],[103.8938321,1.326637],[103.8938522,1.3265988],[103.8938557,1.3265558],[103.8938422,1.3265148],[103.8938137,1.3264824],[103.8937822,1.3264662],[103.8937596,1.326535],[103.8937693,1.3265424],[103.8937779,1.326559],[103.8937769,1.3265776],[103.8937667,1.3265932],[103.8937498,1.3266016],[103.8937377,1.3266017],[103.8937148,1.3266714],[103.8937573,1.3266764]]]}},{"type":"Feature","id":"way/770946361-0","properties":{"building:levels":"8","building:part":"yes"},"geometry":{"type":"Polygon","coordinates":[[[103.8938076,1.3261491],[103.8935826,1.3260753],[103.8933959,1.3266438],[103.8936209,1.3267176],[103.8938076,1.3261491]]]}},{"type":"Feature","id":"way/770946362-0","properties":{"building:levels":"6","building:part":"yes"},"geometry":{"type":"Polygon","coordinates":[[[103.893835,1.3261581],[103.8938076,1.3261491],[103.8936209,1.3267176],[103.8936482,1.3267266],[103.893835,1.3261581]]]}},{"type":"Feature","id":"way/770946363-0","properties":{"building:levels":"6","building:part":"yes"},"geometry":{"type":"Polygon","coordinates":[[[103.8933959,1.3266438],[103.8935826,1.3260753],[103.8935584,1.3260673],[103.8933717,1.3266358],[103.8933959,1.3266438]]]}},{"type":"Feature","id":"way/770946364-0","properties":{"building:levels":"5","building:part":"yes"},"geometry":{"type":"Polygon","coordinates":[[[103.8933464,1.3266275],[103.8933717,1.3266358],[103.8935584,1.3260673],[103.8935331,1.326059],[103.8933464,1.3266275]]]}},{"type":"Feature","id":"way/770946365-0","properties":{"building:levels":"5","building:part":"yes"},"geometry":{"type":"Polygon","coordinates":[[[103.8938526,1.3261639],[103.893835,1.3261581],[103.8936482,1.3267266],[103.8936659,1.3267324],[103.8938526,1.3261639]]]}},{"type":"Feature","id":"way/770946366-0","properties":{"building:levels":"4","building:part":"yes"},"geometry":{"type":"Polygon","coordinates":[[[103.8935331,1.326059],[103.8935065,1.3260503],[103.8933197,1.3266188],[103.8933464,1.3266275],[103.8935331,1.326059]]]}},{"type":"Feature","id":"way/770946367-0","properties":{"building:levels":"4","building:part":"yes"},"geometry":{"type":"Polygon","coordinates":[[[103.8936919,1.3267409],[103.8937148,1.3266714],[103.8937377,1.3266017],[103.8937596,1.326535],[103.8937822,1.3264662],[103.8938787,1.3261725],[103.8938526,1.3261639],[103.8936659,1.3267324],[103.8936919,1.3267409]]]}},{"type":"Feature","id":"way/770946371-0","properties":{"addr:city":"Singapore","addr:country":"SG","addr:housename":"Meiban Industrial Building","addr:housenumber":"11","addr:postcode":"408723","addr:street":"Ubi Road 1","building":"industrial","height":"0"},"geometry":{"type":"Polygon","coordinates":[[[103.8931772,1.3251801],[103.8931935,1.3251322],[103.8929477,1.3250485],[103.8929302,1.3251002],[103.89271,1.3250252],[103.8926233,1.3252798],[103.8924901,1.3256707],[103.8926524,1.325726],[103.8926764,1.3256556],[103.8930577,1.3257854],[103.8930331,1.3258574],[103.8931618,1.3259013],[103.8932101,1.3257596],[103.8931964,1.3257549],[103.8932864,1.3254909],[103.8933699,1.3252458],[103.8931772,1.3251801]]]}},{"type":"Feature","id":"way/770946379-0","properties":{"building:levels":"4","building:part":"yes"},"geometry":{"type":"Polygon","coordinates":[[[103.8927382,1.3270764],[103.8927464,1.3270511],[103.8927862,1.3270639],[103.892871,1.3268008],[103.8928068,1.3267801],[103.8928327,1.3266999],[103.8923884,1.3265567],[103.8923686,1.326618],[103.8924035,1.3266293],[103.8923341,1.3268444],[103.8922998,1.3268333],[103.8922746,1.3269113],[103.8922185,1.3268933],[103.8921536,1.3268723],[103.892149,1.3268864],[103.8927382,1.3270764]]]}},{"type":"Feature","id":"way/770946380-0","properties":{"building:levels":"1","building:part":"yes"},"geometry":{"type":"Polygon","coordinates":[[[103.8920932,1.3268384],[103.8921138,1.3267745],[103.8920864,1.3267656],[103.892057,1.3268568],[103.8921136,1.326875],[103.8921224,1.3268478],[103.8920932,1.3268384]]]}},{"type":"Feature","id":"way/770946381-0","properties":{"building:levels":"8","building:part":"yes"},"geometry":{"type":"Polygon","coordinates":[[[103.8922998,1.3268333],[103.8923341,1.3268444],[103.8924035,1.3266293],[103.8923686,1.326618],[103.8923884,1.3265567],[103.8923247,1.3265361],[103.8923171,1.3265596],[103.8922564,1.32654],[103.8922527,1.3265516],[103.8922078,1.3265371],[103.8922005,1.3265599],[103.8921799,1.3265533],[103.8921645,1.3266012],[103.8921418,1.3265939],[103.8920864,1.3267656],[103.8921138,1.3267745],[103.8920932,1.3268384],[103.8921224,1.3268478],[103.8921136,1.326875],[103.892149,1.3268864],[103.8921536,1.3268723],[103.8922185,1.3268933],[103.8922746,1.3269113],[103.8922998,1.3268333]]]}},{"type":"Feature","id":"way/815643313-0","properties":{"building":"yes"},"geometry":{"type":"Polygon","coordinates":[[[103.8939862,1.3286412],[103.8940203,1.3285544],[103.8939264,1.3285176],[103.8938923,1.3286043],[103.8939862,1.3286412]]]}},{"type":"Feature","id":"way/815643314-0","properties":{"building":"yes"},"geometry":{"type":"Polygon","coordinates":[[[103.8938568,1.3285661],[103.8938902,1.3284841],[103.8937454,1.3284251],[103.8937119,1.3285071],[103.8938568,1.3285661]]]}},{"type":"Feature","id":"way/815643315-0","properties":{"building":"yes"},"geometry":{"type":"Polygon","coordinates":[[[103.893763,1.3286007],[103.8936919,1.3285719],[103.8936657,1.3286365],[103.8937367,1.3286654],[103.893763,1.3286007]]]}},{"type":"Feature","id":"way/33298712-0-0-0","properties":{"highway":"service","oneway":"yes","service":"driveway","surface":"asphalt"},"geometry":{"type":"LineString","coordinates":[[103.8956385,1.3283952],[103.8956006,1.3284922]]}},{"type":"Feature","id":"way/33298715-0-1-0","properties":{"highway":"service","oneway":"yes","service":"parking_aisle","surface":"asphalt"},"geometry":{"type":"LineString","coordinates":[[103.8953621,1.3289111],[103.8941041,1.3284162]]}},{"type":"Feature","id":"way/33298715-0-1-1","properties":{"highway":"service","oneway":"yes","service":"parking_aisle","surface":"asphalt"},"geometry":{"type":"LineString","coordinates":[[103.8941041,1.3284162],[103.8928461,1.3279212]]}},{"type":"Feature","id":"way/33298715-0-2-0","properties":{"highway":"service","oneway":"yes","service":"parking_aisle","surface":"asphalt"},"geometry":{"type":"LineString","coordinates":[[103.8928461,1.3279212],[103.8928388,1.3279183]]}},{"type":"Feature","id":"way/33298715-0-3-0","properties":{"highway":"service","oneway":"yes","service":"parking_aisle","surface":"asphalt"},"geometry":{"type":"LineString","coordinates":[[103.8928388,1.3279183],[103.8927414,1.32788]]}},{"type":"Feature","id":"way/74746285-0-0-0","properties":{"highway":"tertiary","lanes":"2","lanes:backward":"1","lanes:forward":"1","maxspeed":"50","name":"Ubi Avenue 1","surface":"asphalt","turn:lanes:backward":"left;through"},"geometry":{"type":"LineString","coordinates":[[103.8936433,1.3251181],[103.8934826,1.3250707]]}},{"type":"Feature","id":"way/74746285-0-1-0","properties":{"highway":"tertiary","lanes":"2","lanes:backward":"1","lanes:forward":"1","maxspeed":"50","name":"Ubi Avenue 1","surface":"asphalt","turn:lanes:backward":"left;through"},"geometry":{"type":"LineString","coordinates":[[103.8934826,1.3250707],[103.8933062,1.3250199]]}},{"type":"Feature","id":"way/74746292-0-0-0","properties":{"highway":"residential","lanes":"4","lanes:backward":"2","lanes:forward":"2","maxspeed":"50","name":"Ubi Road 1","sidewalk:both":"separate","surface":"asphalt"},"geometry":{"type":"LineString","coordinates":[[103.8931597,1.3266068],[103.8933503,1.3260226]]}},{"type":"Feature","id":"way/74746296-0-0-0","properties":{"highway":"secondary","lanes":"2","maxspeed":"60","name":"Ubi Avenue 2","oneway":"yes","sidewalk:left":"separate","sidewalk:right":"no","surface":"asphalt"},"geometry":{"type":"LineString","coordinates":[[103.8928518,1.3275159],[103.8929638,1.3275547]]}},{"type":"Feature","id":"way/74746296-0-1-0","properties":{"highway":"secondary","lanes":"2","maxspeed":"60","name":"Ubi Avenue 2","oneway":"yes","sidewalk:left":"separate","sidewalk:right":"no","surface":"asphalt"},"geometry":{"type":"LineString","coordinates":[[103.8929638,1.3275547],[103.8934477,1.3277096]]}},{"type":"Feature","id":"way/74746296-0-2-0","properties":{"highway":"secondary","lanes":"2","maxspeed":"60","name":"Ubi Avenue 2","oneway":"yes","sidewalk:left":"separate","sidewalk:right":"no","surface":"asphalt"},"geometry":{"type":"LineString","coordinates":[[103.8934477,1.3277096],[103.8945241,1.3281009]]}},{"type":"Feature","id":"way/74746296-0-2-1","properties":{"highway":"secondary","lanes":"2","maxspeed":"60","name":"Ubi Avenue 2","oneway":"yes","sidewalk:left":"separate","sidewalk:right":"no","surface":"asphalt"},"geometry":{"type":"LineString","coordinates":[[103.8945241,1.3281009],[103.8956006,1.3284922]]}},{"type":"Feature","id":"way/74746298-0-0-0","properties":{"highway":"secondary","lanes":"2","maxspeed":"60","name":"Ubi Avenue 2","oneway":"yes","sidewalk:left":"separate","sidewalk:right":"no","surface":"asphalt"},"geometry":{"type":"LineString","coordinates":[[103.8929019,1.327384],[103.8927902,1.3273473]]}},{"type":"Feature","id":"way/74746298-0-1-0","properties":{"highway":"secondary","lanes":"2","maxspeed":"60","name":"Ubi Avenue 2","oneway":"yes","sidewalk:left":"separate","sidewalk:right":"no","surface":"asphalt"},"geometry":{"type":"LineString","coordinates":[[103.8927902,1.3273473],[103.8915494,1.3269294]]}},{"type":"Feature","id":"way/74746298-0-2-0","properties":{"highway":"secondary","lanes":"2","maxspeed":"60","name":"Ubi Avenue 2","oneway":"yes","sidewalk:left":"separate","sidewalk:right":"no","surface":"asphalt"},"geometry":{"type":"LineString","coordinates":[[103.8915494,1.3269294],[103.8914054,1.3268818]]}},{"type":"Feature","id":"way/214051716-0-0-0","properties":{"highway":"service","lit":"no","maxspeed":"40","name":"Arumugam Road","service":"driveway","surface":"asphalt"},"geometry":{"type":"LineString","coordinates":[[103.8914892,1.3245434],[103.8914226,1.3249296]]}},{"type":"Feature","id":"way/214051718-0-0-0","properties":{"highway":"residential","lanes":"2","maxspeed":"40","name":"Arumugam Road","sidewalk":"both","surface":"asphalt"},"geometry":{"type":"LineString","coordinates":[[103.8919577,1.3260017],[103.8919074,1.3259911]]}},{"type":"Feature","id":"way/214051718-0-1-0","properties":{"highway":"residential","lanes":"2","maxspeed":"40","name":"Arumugam Road","sidewalk":"both","surface":"asphalt"},"geometry":{"type":"LineString","coordinates":[[103.8919074,1.3259911],[103.8916765,1.3259425]]}},{"type":"Feature","id":"way/214051718-0-2-0","properties":{"highway":"residential","lanes":"2","maxspeed":"40","name":"Arumugam Road","sidewalk":"both","surface":"asphalt"},"geometry":{"type":"LineString","coordinates":[[103.8916765,1.3259425],[103.8916098,1.3259275]]}},{"type":"Feature","id":"way/214051718-0-3-0","properties":{"highway":"residential","lanes":"2","maxspeed":"40","name":"Arumugam Road","sidewalk":"both","surface":"asphalt"},"geometry":{"type":"LineString","coordinates":[[103.8916098,1.3259275],[103.8915909,1.3259233]]}},{"type":"Feature","id":"way/306112511-0-0-0","properties":{"highway":"service","service":"parking_aisle"},"geometry":{"type":"LineString","coordinates":[[103.8916429,1.3255821],[103.891654,1.3255635]]}},{"type":"Feature","id":"way/306112511-0-1-0","properties":{"highway":"service","service":"parking_aisle"},"geometry":{"type":"LineString","coordinates":[[103.891654,1.3255635],[103.8917647,1.325039]]}},{"type":"Feature","id":"way/306112511-0-2-0","properties":{"highway":"service","service":"parking_aisle"},"geometry":{"type":"LineString","coordinates":[[103.8917647,1.325039],[103.8917737,1.3249913]]}},{"type":"Feature","id":"way/306112519-0-0-0","properties":{"highway":"service","oneway":"yes","surface":"asphalt"},"geometry":{"type":"LineString","coordinates":[[103.8957835,1.3254735],[103.8957574,1.3255782]]}},{"type":"Feature","id":"way/306112519-0-1-0","properties":{"highway":"service","oneway":"yes","surface":"asphalt"},"geometry":{"type":"LineString","coordinates":[[103.8957574,1.3255782],[103.8957397,1.3256494]]}},{"type":"Feature","id":"way/306112520-0-0-0","properties":{"highway":"service","lanes":"2","lanes:backward":"1","lanes:forward":"1","oneway":"no","service":"parking_aisle","surface":"asphalt"},"geometry":{"type":"LineString","coordinates":[[103.8948766,1.3252297],[103.8949196,1.3252404]]}},{"type":"Feature","id":"way/306112520-0-1-0","properties":{"highway":"service","lanes":"2","lanes:backward":"1","lanes:forward":"1","oneway":"no","service":"parking_aisle","surface":"asphalt"},"geometry":{"type":"LineString","coordinates":[[103.8949196,1.3252404],[103.8951745,1.3253017]]}},{"type":"Feature","id":"way/373775759-0-0-0","properties":{"highway":"service","oneway":"yes","service":"parking_aisle","surface":"asphalt"},"geometry":{"type":"LineString","coordinates":[[103.8927054,1.3279993],[103.8925987,1.3279672]]}},{"type":"Feature","id":"way/373775759-0-1-0","properties":{"highway":"service","oneway":"yes","service":"parking_aisle","surface":"asphalt"},"geometry":{"type":"LineString","coordinates":[[103.8925987,1.3279672],[103.8916909,1.327694]]}},{"type":"Feature","id":"way/373775759-0-2-0","properties":{"highway":"service","oneway":"yes","service":"parking_aisle","surface":"asphalt"},"geometry":{"type":"LineString","coordinates":[[103.8916909,1.327694],[103.8916613,1.3276989]]}},{"type":"Feature","id":"way/447713252-0-0-0","properties":{"highway":"tertiary","maxspeed":"50","name":"Ubi Road 1","sidewalk:both":"separate","surface":"asphalt"},"geometry":{"type":"LineString","coordinates":[[103.8928518,1.3275159],[103.8929019,1.327384]]}},{"type":"Feature","id":"way/452394309-0-2-1","properties":{"highway":"service","oneway":"yes"},"geometry":{"type":"LineString","coordinates":[[103.8959037,1.3265902],[103.8944653,1.3260279]]}},{"type":"Feature","id":"way/452394309-0-3-0","properties":{"highway":"service","oneway":"yes"},"geometry":{"type":"LineString","coordinates":[[103.8944653,1.3260279],[103.8943424,1.3259771]]}},{"type":"Feature","id":"way/465460567-0-1-0","properties":{"highway":"service","oneway":"yes","service":"parking_aisle","surface":"asphalt"},"geometry":{"type":"LineString","coordinates":[[103.8914394,1.3285427],[103.8923284,1.3288408]]}},{"type":"Feature","id":"way/465460567-0-2-0","properties":{"highway":"service","oneway":"yes","service":"parking_aisle","surface":"asphalt"},"geometry":{"type":"LineString","coordinates":[[103.8923284,1.3288408],[103.8924237,1.3288728]]}},{"type":"Feature","id":"way/465460568-0-0-0","properties":{"highway":"service","oneway":"yes","service":"parking_aisle","surface":"asphalt"},"geometry":{"type":"LineString","coordinates":[[103.8916613,1.3276989],[103.8916419,1.3277221]]}},{"type":"Feature","id":"way/465460568-0-1-0","properties":{"highway":"service","oneway":"yes","service":"parking_aisle","surface":"asphalt"},"geometry":{"type":"LineString","coordinates":[[103.8916419,1.3277221],[103.8914153,1.3284649]]}},{"type":"Feature","id":"way/465523895-0-0-0","properties":{"highway":"residential","lanes":"2","maxspeed":"50","name":"Ubi Crescent","oneway":"yes","parking:condition:right:vehicles":"motorcar","parking:lane:right":"parallel","sidewalk:both":"separate","surface":"asphalt"},"geometry":{"type":"LineString","coordinates":[[103.8940415,1.3265104],[103.8940848,1.3263731]]}},{"type":"Feature","id":"way/477557470-0-0-0","properties":{"highway":"secondary","lanes":"2","maxspeed":"60","name":"Ubi Avenue 2","oneway":"yes","sidewalk:left":"separate","sidewalk:right":"no","surface":"asphalt"},"geometry":{"type":"LineString","coordinates":[[103.8956385,1.3283952],[103.8945612,1.327978]]}},{"type":"Feature","id":"way/477557470-0-0-1","properties":{"highway":"secondary","lanes":"2","maxspeed":"60","name":"Ubi Avenue 2","oneway":"yes","sidewalk:left":"separate","sidewalk:right":"no","surface":"asphalt"},"geometry":{"type":"LineString","coordinates":[[103.8945612,1.327978],[103.8934839,1.3275608]]}},{"type":"Feature","id":"way/477574138-0-0-0","properties":{"highway":"tertiary","lanes":"2","lanes:backward":"1","lanes:forward":"1","maxspeed":"50","name":"Ubi Avenue 1","surface":"asphalt"},"geometry":{"type":"LineString","coordinates":[[103.8957397,1.3256494],[103.8955825,1.3256103]]}},{"type":"Feature","id":"way/526313765-0-0-0","properties":{"highway":"service","lanes":"2","lanes:backward":"1","lanes:forward":"2","oneway":"yes","surface":"asphalt","turn:lanes:backward":"left","turn:lanes:forward":"through|through"},"geometry":{"type":"LineString","coordinates":[[103.8930391,1.3270108],[103.8931366,1.3270401]]}},{"type":"Feature","id":"way/526313765-0-1-0","properties":{"highway":"service","lanes":"2","lanes:backward":"1","lanes:forward":"2","oneway":"yes","surface":"asphalt","turn:lanes:backward":"left","turn:lanes:forward":"through|through"},"geometry":{"type":"LineString","coordinates":[[103.8931366,1.3270401],[103.8932931,1.3270887]]}},{"type":"Feature","id":"way/526313765-0-2-0","properties":{"highway":"service","lanes":"2","lanes:backward":"1","lanes:forward":"2","oneway":"yes","surface":"asphalt","turn:lanes:backward":"left","turn:lanes:forward":"through|through"},"geometry":{"type":"LineString","coordinates":[[103.8932931,1.3270887],[103.8934287,1.327133]]}},{"type":"Feature","id":"way/526313767-0-3-1","properties":{"highway":"service"},"geometry":{"type":"LineString","coordinates":[[103.8963537,1.3274044],[103.8953188,1.3270008]]}},{"type":"Feature","id":"way/526313767-0-3-2","properties":{"highway":"service"},"geometry":{"type":"LineString","coordinates":[[103.8953188,1.3270008],[103.8942839,1.3265973]]}},{"type":"Feature","id":"way/526313767-0-4-0","properties":{"highway":"service"},"geometry":{"type":"LineString","coordinates":[[103.8942839,1.3265973],[103.8942692,1.3265838]]}},{"type":"Feature","id":"way/526313767-0-5-0","properties":{"highway":"service"},"geometry":{"type":"LineString","coordinates":[[103.8942692,1.3265838],[103.8942611,1.3265624]]}},{"type":"Feature","id":"way/526313767-0-6-0","properties":{"highway":"service"},"geometry":{"type":"LineString","coordinates":[[103.8942611,1.3265624],[103.8944653,1.3260279]]}},{"type":"Feature","id":"way/528572152-0-1-0","properties":{"highway":"service","oneway":"yes","service":"parking_aisle"},"geometry":{"type":"LineString","coordinates":[[103.8946594,1.3288913],[103.8946809,1.3288765]]}},{"type":"Feature","id":"way/528572153-0-0-0","properties":{"highway":"service","oneway":"yes","service":"parking_aisle"},"geometry":{"type":"LineString","coordinates":[[103.8946809,1.3288765],[103.8947077,1.3288738]]}},{"type":"Feature","id":"way/535025097-0-5-0","properties":{"highway":"service","lanes":"1","oneway":"yes","service":"parking_aisle"},"geometry":{"type":"LineString","coordinates":[[103.8939704,1.324054],[103.8937308,1.3249912]]}},{"type":"Feature","id":"way/535025097-0-6-0","properties":{"highway":"service","lanes":"1","oneway":"yes","service":"parking_aisle"},"geometry":{"type":"LineString","coordinates":[[103.8937308,1.3249912],[103.8937338,1.3250006]]}},{"type":"Feature","id":"way/535295778-0-0-0","properties":{"highway":"service","oneway":"yes","service":"parking_aisle"},"geometry":{"type":"LineString","coordinates":[[103.8928344,1.3271196],[103.8928185,1.3271249]]}},{"type":"Feature","id":"way/535295778-0-1-0","properties":{"highway":"service","oneway":"yes","service":"parking_aisle"},"geometry":{"type":"LineString","coordinates":[[103.8928185,1.3271249],[103.8927902,1.3271264]]}},{"type":"Feature","id":"way/535295778-0-2-0","properties":{"highway":"service","oneway":"yes","service":"parking_aisle"},"geometry":{"type":"LineString","coordinates":[[103.8927902,1.3271264],[103.8920492,1.3269]]}},{"type":"Feature","id":"way/535295778-0-3-0","properties":{"highway":"service","oneway":"yes","service":"parking_aisle"},"geometry":{"type":"LineString","coordinates":[[103.8920492,1.3269],[103.8920369,1.3268909]]}},{"type":"Feature","id":"way/535295779-0-0-0","properties":{"highway":"service","oneway":"yes","service":"parking_aisle"},"geometry":{"type":"LineString","coordinates":[[103.892976,1.326734],[103.8929795,1.3267481]]}},{"type":"Feature","id":"way/535295779-0-1-0","properties":{"highway":"service","oneway":"yes","service":"parking_aisle"},"geometry":{"type":"LineString","coordinates":[[103.8929795,1.3267481],[103.8929804,1.3267667]]}},{"type":"Feature","id":"way/535295779-0-2-0","properties":{"highway":"service","oneway":"yes","service":"parking_aisle"},"geometry":{"type":"LineString","coordinates":[[103.8929804,1.3267667],[103.892881,1.3270709]]}},{"type":"Feature","id":"way/535295780-0-0-0","properties":{"highway":"service","oneway":"yes","service":"parking_aisle"},"geometry":{"type":"LineString","coordinates":[[103.8920369,1.3268909],[103.8920315,1.3268822]]}},{"type":"Feature","id":"way/535295780-0-1-0","properties":{"highway":"service","oneway":"yes","service":"parking_aisle"},"geometry":{"type":"LineString","coordinates":[[103.8920315,1.3268822],[103.8920282,1.3268708]]}},{"type":"Feature","id":"way/535295780-0-2-0","properties":{"highway":"service","oneway":"yes","service":"parking_aisle"},"geometry":{"type":"LineString","coordinates":[[103.8920282,1.3268708],[103.8921462,1.3264947]]}},{"type":"Feature","id":"way/535295780-0-3-0","properties":{"highway":"service","oneway":"yes","service":"parking_aisle"},"geometry":{"type":"LineString","coordinates":[[103.8921462,1.3264947],[103.8921529,1.326486]]}},{"type":"Feature","id":"way/535295780-0-4-0","properties":{"highway":"service","oneway":"yes","service":"parking_aisle"},"geometry":{"type":"LineString","coordinates":[[103.8921529,1.326486],[103.8921623,1.3264813]]}},{"type":"Feature","id":"way/535295781-0-0-0","properties":{"highway":"service","oneway":"yes","service":"parking_aisle"},"geometry":{"type":"LineString","coordinates":[[103.8930046,1.3271142],[103.8928956,1.327076]]}},{"type":"Feature","id":"way/535295781-0-1-0","properties":{"highway":"service","oneway":"yes","service":"parking_aisle"},"geometry":{"type":"LineString","coordinates":[[103.8928956,1.327076],[103.892881,1.3270709]]}},{"type":"Feature","id":"way/535295782-0-0-0","properties":{"highway":"service","oneway":"yes","service":"parking_aisle"},"geometry":{"type":"LineString","coordinates":[[103.8921623,1.3264813],[103.892175,1.3264799]]}},{"type":"Feature","id":"way/535295782-0-1-0","properties":{"highway":"service","oneway":"yes","service":"parking_aisle"},"geometry":{"type":"LineString","coordinates":[[103.892175,1.3264799],[103.8921891,1.3264806]]}},{"type":"Feature","id":"way/535295782-0-2-0","properties":{"highway":"service","oneway":"yes","service":"parking_aisle"},"geometry":{"type":"LineString","coordinates":[[103.8921891,1.3264806],[103.8929344,1.3267021]]}},{"type":"Feature","id":"way/535295782-0-3-0","properties":{"highway":"service","oneway":"yes","service":"parking_aisle"},"geometry":{"type":"LineString","coordinates":[[103.8929344,1.3267021],[103.8929512,1.326711]]}},{"type":"Feature","id":"way/535295782-0-4-0","properties":{"highway":"service","oneway":"yes","service":"parking_aisle"},"geometry":{"type":"LineString","coordinates":[[103.8929512,1.326711],[103.8929671,1.3267225]]}},{"type":"Feature","id":"way/535295782-0-5-0","properties":{"highway":"service","oneway":"yes","service":"parking_aisle"},"geometry":{"type":"LineString","coordinates":[[103.8929671,1.3267225],[103.892976,1.326734]]}},{"type":"Feature","id":"way/541185940-0-0-0","properties":{"highway":"service","lanes":"2","lanes:backward":"1","lanes:forward":"1","service":"driveway","surface":"asphalt"},"geometry":{"type":"LineString","coordinates":[[103.8914892,1.3245434],[103.8915203,1.3243692]]}},{"type":"Feature","id":"way/541975958-0-0-0","properties":{"highway":"service","surface":"asphalt"},"geometry":{"type":"LineString","coordinates":[[103.8943424,1.3259771],[103.8943979,1.3258102]]}},{"type":"Feature","id":"way/541975958-0-1-0","properties":{"highway":"service","surface":"asphalt"},"geometry":{"type":"LineString","coordinates":[[103.8943979,1.3258102],[103.8944516,1.3256721]]}},{"type":"Feature","id":"way/541975958-0-2-0","properties":{"highway":"service","surface":"asphalt"},"geometry":{"type":"LineString","coordinates":[[103.8944516,1.3256721],[103.8944781,1.3256101]]}},{"type":"Feature","id":"way/541975958-0-3-0","properties":{"highway":"service","surface":"asphalt"},"geometry":{"type":"LineString","coordinates":[[103.8944781,1.3256101],[103.8945149,1.3255689]]}},{"type":"Feature","id":"way/541975958-0-4-0","properties":{"highway":"service","surface":"asphalt"},"geometry":{"type":"LineString","coordinates":[[103.8945149,1.3255689],[103.8945714,1.3255423]]}},{"type":"Feature","id":"way/541975958-0-5-0","properties":{"highway":"service","surface":"asphalt"},"geometry":{"type":"LineString","coordinates":[[103.8945714,1.3255423],[103.8946186,1.3255341]]}},{"type":"Feature","id":"way/541975958-0-6-0","properties":{"highway":"service","surface":"asphalt"},"geometry":{"type":"LineString","coordinates":[[103.8946186,1.3255341],[103.8946743,1.3255367]]}},{"type":"Feature","id":"way/541975958-0-7-0","properties":{"highway":"service","surface":"asphalt"},"geometry":{"type":"LineString","coordinates":[[103.8946743,1.3255367],[103.8955467,1.3257628]]}},{"type":"Feature","id":"way/541975958-0-8-0","properties":{"highway":"service","surface":"asphalt"},"geometry":{"type":"LineString","coordinates":[[103.8955467,1.3257628],[103.8959706,1.3258718]]}},{"type":"Feature","id":"way/596826509-0-0-0","properties":{"highway":"service"},"geometry":{"type":"LineString","coordinates":[[103.8935348,1.3260076],[103.8939735,1.3261454]]}},{"type":"Feature","id":"way/596826509-0-1-0","properties":{"highway":"service"},"geometry":{"type":"LineString","coordinates":[[103.8939735,1.3261454],[103.8939834,1.3261642]]}},{"type":"Feature","id":"way/596826509-0-2-0","properties":{"highway":"service"},"geometry":{"type":"LineString","coordinates":[[103.8939834,1.3261642],[103.8939715,1.3262085]]}},{"type":"Feature","id":"way/596826509-0-3-0","properties":{"highway":"service"},"geometry":{"type":"LineString","coordinates":[[103.8939715,1.3262085],[103.8939117,1.3264216]]}},{"type":"Feature","id":"way/596826879-0-0-0","properties":{"highway":"service"},"geometry":{"type":"LineString","coordinates":[[103.8931597,1.3266068],[103.8932426,1.3266342]]}},{"type":"Feature","id":"way/596826879-0-1-0","properties":{"highway":"service"},"geometry":{"type":"LineString","coordinates":[[103.8932426,1.3266342],[103.8933133,1.3266588]]}},{"type":"Feature","id":"way/596826879-0-2-0","properties":{"highway":"service"},"geometry":{"type":"LineString","coordinates":[[103.8933133,1.3266588],[103.8936951,1.3267916]]}},{"type":"Feature","id":"way/596826879-0-3-0","properties":{"highway":"service"},"geometry":{"type":"LineString","coordinates":[[103.8936951,1.3267916],[103.8937341,1.3267984]]}},{"type":"Feature","id":"way/596826879-0-4-0","properties":{"highway":"service"},"geometry":{"type":"LineString","coordinates":[[103.8937341,1.3267984],[103.8937689,1.3267769]]}},{"type":"Feature","id":"way/596826879-0-5-0","properties":{"highway":"service"},"geometry":{"type":"LineString","coordinates":[[103.8937689,1.3267769],[103.8938119,1.3267219]]}},{"type":"Feature","id":"way/596826879-0-6-0","properties":{"highway":"service"},"geometry":{"type":"LineString","coordinates":[[103.8938119,1.3267219],[103.8938554,1.3267018]]}},{"type":"Feature","id":"way/596826879-0-7-0","properties":{"highway":"service"},"geometry":{"type":"LineString","coordinates":[[103.8938554,1.3267018],[103.8938816,1.3266623]]}},{"type":"Feature","id":"way/596826879-0-8-0","properties":{"highway":"service"},"geometry":{"type":"LineString","coordinates":[[103.8938816,1.3266623],[103.8938997,1.3266013]]}},{"type":"Feature","id":"way/596826879-0-9-0","properties":{"highway":"service"},"geometry":{"type":"LineString","coordinates":[[103.8938997,1.3266013],[103.8939031,1.3265403]]}},{"type":"Feature","id":"way/596826879-0-10-0","properties":{"highway":"service"},"geometry":{"type":"LineString","coordinates":[[103.8939031,1.3265403],[103.893904,1.3264879]]}},{"type":"Feature","id":"way/596826879-0-11-0","properties":{"highway":"service"},"geometry":{"type":"LineString","coordinates":[[103.893904,1.3264879],[103.8939117,1.3264216]]}},{"type":"Feature","id":"way/596826880-0-0-0","properties":{"highway":"service"},"geometry":{"type":"LineString","coordinates":[[103.8931441,1.3266544],[103.8930611,1.3266277]]}},{"type":"Feature","id":"way/596826880-0-1-0","properties":{"highway":"service"},"geometry":{"type":"LineString","coordinates":[[103.8930611,1.3266277],[103.8924023,1.3264163]]}},{"type":"Feature","id":"way/597195582-0-0-0","properties":{"highway":"service"},"geometry":{"type":"LineString","coordinates":[[103.893551,1.3259478],[103.8936543,1.3256454]]}},{"type":"Feature","id":"way/597195582-0-1-0","properties":{"highway":"service"},"geometry":{"type":"LineString","coordinates":[[103.8936543,1.3256454],[103.8941465,1.3257955]]}},{"type":"Feature","id":"way/597195582-0-2-0","properties":{"highway":"service"},"geometry":{"type":"LineString","coordinates":[[103.8941465,1.3257955],[103.8941932,1.3258093]]}},{"type":"Feature","id":"way/597195582-0-3-0","properties":{"highway":"service"},"geometry":{"type":"LineString","coordinates":[[103.8941932,1.3258093],[103.8942544,1.3258277]]}},{"type":"Feature","id":"way/632849856-0-0-0","properties":{"highway":"residential","lanes":"5","lanes:backward":"3","lanes:forward":"2","maxspeed":"50","name":"Ubi Road 1","sidewalk:both":"separate","surface":"asphalt","turn:lanes:backward":"left|left;through|right"},"geometry":{"type":"LineString","coordinates":[[103.8930046,1.3271142],[103.8930391,1.3270108]]}},{"type":"Feature","id":"way/632958112-0-0-0","properties":{"highway":"service","lanes":"1","oneway":"yes","service":"driveway","surface":"asphalt","turn:lanes":"left;right"},"geometry":{"type":"LineString","coordinates":[[103.8956006,1.3284922],[103.8955714,1.3285707]]}},{"type":"Feature","id":"way/632958112-0-1-0","properties":{"highway":"service","lanes":"1","oneway":"yes","service":"driveway","surface":"asphalt","turn:lanes":"left;right"},"geometry":{"type":"LineString","coordinates":[[103.8955714,1.3285707],[103.8955065,1.3287453]]}},{"type":"Feature","id":"way/632958112-0-2-0","properties":{"highway":"service","lanes":"1","oneway":"yes","service":"driveway","surface":"asphalt","turn:lanes":"left;right"},"geometry":{"type":"LineString","coordinates":[[103.8955065,1.3287453],[103.8954342,1.3289395]]}},{"type":"Feature","id":"way/633165446-0-0-0","properties":{"highway":"service","oneway":"yes"},"geometry":{"type":"LineString","coordinates":[[103.8943424,1.3259771],[103.8942719,1.325947]]}},{"type":"Feature","id":"way/633165446-0-1-0","properties":{"highway":"service","oneway":"yes"},"geometry":{"type":"LineString","coordinates":[[103.8942719,1.325947],[103.894224,1.3259325]]}},{"type":"Feature","id":"way/633165447-0-0-0","properties":{"highway":"residential","lanes":"2","maxspeed":"50","name":"Ubi Crescent","oneway":"yes","sidewalk:both":"separate","surface":"asphalt"},"geometry":{"type":"LineString","coordinates":[[103.894224,1.3259325],[103.8942544,1.3258277]]}},{"type":"Feature","id":"way/633165447-0-1-0","properties":{"highway":"residential","lanes":"2","maxspeed":"50","name":"Ubi Crescent","oneway":"yes","sidewalk:both":"separate","surface":"asphalt"},"geometry":{"type":"LineString","coordinates":[[103.8942544,1.3258277],[103.8943389,1.3255609]]}},{"type":"Feature","id":"way/633787043-0-0-0","properties":{"highway":"tertiary","lanes":"3","lanes:backward":"1","lanes:forward":"2","maxspeed":"50","name":"Ubi Avenue 1","surface":"asphalt","turn:lanes:forward":"through|right"},"geometry":{"type":"LineString","coordinates":[[103.8940381,1.3252146],[103.8938165,1.3251632]]}},{"type":"Feature","id":"way/633787043-0-1-0","properties":{"highway":"tertiary","lanes":"3","lanes:backward":"1","lanes:forward":"2","maxspeed":"50","name":"Ubi Avenue 1","surface":"asphalt","turn:lanes:forward":"through|right"},"geometry":{"type":"LineString","coordinates":[[103.8938165,1.3251632],[103.8936969,1.3251319]]}},{"type":"Feature","id":"way/633788296-0-0-0","properties":{"highway":"secondary","lanes":"3","maxspeed":"60","name":"Ubi Avenue 2","oneway":"yes","sidewalk:left":"separate","sidewalk:right":"no","surface":"asphalt","turn:lanes":"left;through|through|right"},"geometry":{"type":"LineString","coordinates":[[103.8934839,1.3275608],[103.8930125,1.3274197]]}},{"type":"Feature","id":"way/633788296-0-1-0","properties":{"highway":"secondary","lanes":"3","maxspeed":"60","name":"Ubi Avenue 2","oneway":"yes","sidewalk:left":"separate","sidewalk:right":"no","surface":"asphalt","turn:lanes":"left;through|through|right"},"geometry":{"type":"LineString","coordinates":[[103.8930125,1.3274197],[103.8929019,1.327384]]}},{"type":"Feature","id":"way/634791941-0-1-0","properties":{"highway":"service","service":"parking_aisle"},"geometry":{"type":"LineString","coordinates":[[103.8913581,1.3255284],[103.8916165,1.325581]]}},{"type":"Feature","id":"way/634791941-0-2-0","properties":{"highway":"service","service":"parking_aisle"},"geometry":{"type":"LineString","coordinates":[[103.8916165,1.325581],[103.8916429,1.3255821]]}},{"type":"Feature","id":"way/634793223-0-0-0","properties":{"highway":"tertiary","lanes":"4","lanes:backward":"3","lanes:forward":"1","maxspeed":"50","name":"Ubi Road 1","sidewalk:both":"separate","surface":"asphalt","turn:lanes:backward":"left;through|through|right"},"geometry":{"type":"LineString","coordinates":[[103.8928518,1.3275159],[103.8928376,1.3275517]]}},{"type":"Feature","id":"way/634793223-0-1-0","properties":{"highway":"tertiary","lanes":"4","lanes:backward":"3","lanes:forward":"1","maxspeed":"50","name":"Ubi Road 1","sidewalk:both":"separate","surface":"asphalt","turn:lanes:backward":"left;through|through|right"},"geometry":{"type":"LineString","coordinates":[[103.8928376,1.3275517],[103.8927414,1.32788]]}},{"type":"Feature","id":"way/634793224-0-0-0","properties":{"highway":"tertiary","lanes":"4","lanes:backward":"3","lanes:forward":"1","maxspeed":"50","name":"Ubi Road 1","sidewalk:both":"separate","surface":"asphalt"},"geometry":{"type":"LineString","coordinates":[[103.8927414,1.32788],[103.8927054,1.3279993]]}},{"type":"Feature","id":"way/634806950-0-0-0","properties":{"highway":"tertiary","lanes":"2","lanes:backward":"1","lanes:forward":"1","maxspeed":"50","name":"Ubi Avenue 1","surface":"asphalt"},"geometry":{"type":"LineString","coordinates":[[103.8944908,1.3253293],[103.8944235,1.3253116]]}},{"type":"Feature","id":"way/636894921-0-0-0","properties":{"highway":"service","lanes":"2","lanes:backward":"1","lanes:forward":"1","service":"parking_aisle","turn:lanes:backward":"through","turn:lanes:forward":"left;right"},"geometry":{"type":"LineString","coordinates":[[103.8917737,1.3249913],[103.8917345,1.3249843]]}},{"type":"Feature","id":"way/636894921-0-1-0","properties":{"highway":"service","lanes":"2","lanes:backward":"1","lanes:forward":"1","service":"parking_aisle","turn:lanes:backward":"through","turn:lanes:forward":"left;right"},"geometry":{"type":"LineString","coordinates":[[103.8917345,1.3249843],[103.8914863,1.3249408]]}},{"type":"Feature","id":"way/636894921-0-2-0","properties":{"highway":"service","lanes":"2","lanes:backward":"1","lanes:forward":"1","service":"parking_aisle","turn:lanes:backward":"through","turn:lanes:forward":"left;right"},"geometry":{"type":"LineString","coordinates":[[103.8914863,1.3249408],[103.8914226,1.3249296]]}},{"type":"Feature","id":"way/639916002-0-0-0","properties":{"highway":"secondary","lanes":"2","maxspeed":"60","name":"Ubi Avenue 2","oneway":"yes","sidewalk:left":"separate","sidewalk:right":"no","surface":"asphalt","turn:lanes":"left;through|through;right"},"geometry":{"type":"LineString","coordinates":[[103.8913471,1.3269816],[103.8915643,1.3270594]]}},{"type":"Feature","id":"way/640095355-0-0-0","properties":{"highway":"tertiary","lanes":"3","lanes:backward":"1","lanes:forward":"2","maxspeed":"50","name":"Ubi Avenue 1","surface":"asphalt","turn:lanes:forward":"through|right"},"geometry":{"type":"LineString","coordinates":[[103.8944235,1.3253116],[103.894138,1.3252393]]}},{"type":"Feature","id":"way/640255684-0-0-0","properties":{"highway":"residential","lanes":"4","lanes:backward":"2","lanes:forward":"2","maxspeed":"50","name":"Ubi Road 1","sidewalk:both":"separate","surface":"asphalt","turn:lanes:forward":"left|right"},"geometry":{"type":"LineString","coordinates":[[103.8935021,1.3255542],[103.8936076,1.3252426]]}},{"type":"Feature","id":"way/640255684-0-1-0","properties":{"highway":"residential","lanes":"4","lanes:backward":"2","lanes:forward":"2","maxspeed":"50","name":"Ubi Road 1","sidewalk:both":"separate","surface":"asphalt","turn:lanes:forward":"left|right"},"geometry":{"type":"LineString","coordinates":[[103.8936076,1.3252426],[103.8936433,1.3251181]]}},{"type":"Feature","id":"way/640255685-0-0-0","properties":{"highway":"tertiary","lanes":"3","lanes:backward":"1","lanes:forward":"2","maxspeed":"50","name":"Ubi Avenue 1","surface":"asphalt","turn:lanes:forward":"through|right"},"geometry":{"type":"LineString","coordinates":[[103.8936969,1.3251319],[103.8936433,1.3251181]]}},{"type":"Feature","id":"way/640275212-0-0-0","properties":{"highway":"tertiary","lanes":"4","lanes:backward":"3","lanes:forward":"1","maxspeed":"50","name":"Ubi Road 1","sidewalk:both":"separate","surface":"asphalt","turn:lanes:backward":"left;through|through|right"},"geometry":{"type":"LineString","coordinates":[[103.8927054,1.3279993],[103.8926008,1.3283228]]}},{"type":"Feature","id":"way/640277324-0-2-0","properties":{"highway":"service","oneway":"yes","service":"parking_aisle"},"geometry":{"type":"LineString","coordinates":[[103.8950585,1.3243178],[103.8948257,1.3252498]]}},{"type":"Feature","id":"way/640277324-0-3-0","properties":{"highway":"service","oneway":"yes","service":"parking_aisle"},"geometry":{"type":"LineString","coordinates":[[103.8948257,1.3252498],[103.8948171,1.3252844]]}},{"type":"Feature","id":"way/640283702-0-0-0","properties":{"highway":"service","lanes":"1","service":"parking_aisle"},"geometry":{"type":"LineString","coordinates":[[103.8940381,1.3252146],[103.8940591,1.3251354]]}},{"type":"Feature","id":"way/640283702-0-1-0","properties":{"highway":"service","lanes":"1","service":"parking_aisle"},"geometry":{"type":"LineString","coordinates":[[103.8940591,1.3251354],[103.8940705,1.3250823]]}},{"type":"Feature","id":"way/641073731-0-0-0","properties":{"highway":"tertiary","lanes":"2","lanes:backward":"1","lanes:forward":"1","maxspeed":"50","name":"Ubi Avenue 1","surface":"asphalt"},"geometry":{"type":"LineString","coordinates":[[103.8947864,1.3254071],[103.8944908,1.3253293]]}},{"type":"Feature","id":"way/641089882-0-2-0","properties":{"highway":"service","oneway":"yes","surface":"asphalt"},"geometry":{"type":"LineString","coordinates":[[103.8958773,1.3250396],[103.8957835,1.3254735]]}},{"type":"Feature","id":"way/643395597-0-0-0","properties":{"highway":"residential","lanes":"5","lanes:backward":"3","lanes:forward":"2","maxspeed":"50","name":"Ubi Road 1","sidewalk:both":"separate","surface":"asphalt","turn:lanes:backward":"left|left;through|right"},"geometry":{"type":"LineString","coordinates":[[103.8929019,1.327384],[103.8929314,1.3273171]]}},{"type":"Feature","id":"way/643395597-0-1-0","properties":{"highway":"residential","lanes":"5","lanes:backward":"3","lanes:forward":"2","maxspeed":"50","name":"Ubi Road 1","sidewalk:both":"separate","surface":"asphalt","turn:lanes:backward":"left|left;through|right"},"geometry":{"type":"LineString","coordinates":[[103.8929314,1.3273171],[103.8930046,1.3271142]]}},{"type":"Feature","id":"way/643722525-0-0-0","properties":{"highway":"tertiary","lanes":"4","lanes:backward":"2","lanes:forward":"2","maxspeed":"50","name":"Ubi Road 1","sidewalk:both":"separate","surface":"asphalt"},"geometry":{"type":"LineString","coordinates":[[103.8926008,1.3283228],[103.8925636,1.3284384]]}},{"type":"Feature","id":"way/645158659-0-0-0","properties":{"highway":"service","lanes":"1","oneway":"yes","service":"parking_aisle"},"geometry":{"type":"LineString","coordinates":[[103.8937338,1.3250006],[103.8937408,1.3250048]]}},{"type":"Feature","id":"way/645158659-0-1-0","properties":{"highway":"service","lanes":"1","oneway":"yes","service":"parking_aisle"},"geometry":{"type":"LineString","coordinates":[[103.8937408,1.3250048],[103.8939466,1.32505]]}},{"type":"Feature","id":"way/645158660-0-0-0","properties":{"highway":"service","service":"driveway"},"geometry":{"type":"LineString","coordinates":[[103.8933062,1.3250199],[103.8933262,1.3249439]]}},{"type":"Feature","id":"way/645158660-0-1-0","properties":{"highway":"service","service":"driveway"},"geometry":{"type":"LineString","coordinates":[[103.8933262,1.3249439],[103.8933599,1.324816]]}},{"type":"Feature","id":"way/645326429-0-0-0","properties":{"highway":"residential","lanes":"4","lanes:backward":"2","lanes:forward":"2","maxspeed":"50","name":"Ubi Road 1","sidewalk:both":"separate","surface":"asphalt"},"geometry":{"type":"LineString","coordinates":[[103.8931441,1.3266544],[103.8931597,1.3266068]]}},{"type":"Feature","id":"way/645326430-0-0-0","properties":{"highway":"residential","lanes":"5","lanes:backward":"3","lanes:forward":"2","maxspeed":"50","name":"Ubi Road 1","sidewalk:both":"separate","surface":"asphalt","turn:lanes:backward":"left|left;through|right"},"geometry":{"type":"LineString","coordinates":[[103.8930391,1.3270108],[103.8930817,1.3268706]]}},{"type":"Feature","id":"way/645327850-0-0-0","properties":{"highway":"service","service":"parking_aisle"},"geometry":{"type":"LineString","coordinates":[[103.89305,1.3290006],[103.8931282,1.3288021]]}},{"type":"Feature","id":"way/645327851-0-0-0","properties":{"highway":"service","service":"parking_aisle"},"geometry":{"type":"LineString","coordinates":[[103.8931282,1.3288021],[103.8931708,1.3286942]]}},{"type":"Feature","id":"way/645327851-0-1-0","properties":{"highway":"service","service":"parking_aisle"},"geometry":{"type":"LineString","coordinates":[[103.8931708,1.3286942],[103.893207,1.328662]]}},{"type":"Feature","id":"way/645327851-0-2-0","properties":{"highway":"service","service":"parking_aisle"},"geometry":{"type":"LineString","coordinates":[[103.893207,1.328662],[103.8932392,1.3286553]]}},{"type":"Feature","id":"way/645327851-0-3-0","properties":{"highway":"service","service":"parking_aisle"},"geometry":{"type":"LineString","coordinates":[[103.8932392,1.3286553],[103.8932928,1.328658]]}},{"type":"Feature","id":"way/645327851-0-4-0","properties":{"highway":"service","service":"parking_aisle"},"geometry":{"type":"LineString","coordinates":[[103.8932928,1.328658],[103.8939656,1.3289199]]}},{"type":"Feature","id":"way/646692057-0-0-0","properties":{"highway":"residential","lanes":"4","lanes:backward":"2","lanes:forward":"2","maxspeed":"50","name":"Ubi Road 1","sidewalk:both":"separate","surface":"asphalt","turn:lanes:forward":"left|right"},"geometry":{"type":"LineString","coordinates":[[103.8933932,1.3258973],[103.8935021,1.3255542]]}},{"type":"Feature","id":"way/646692058-0-0-0","properties":{"highway":"residential","lanes":"4","lanes:backward":"2","lanes:forward":"2","maxspeed":"50","name":"Ubi Road 1","sidewalk:both":"separate","surface":"asphalt"},"geometry":{"type":"LineString","coordinates":[[103.8933503,1.3260226],[103.8933932,1.3258973]]}},{"type":"Feature","id":"way/651184111-0-0-0","properties":{"highway":"tertiary","lanes":"3","lanes:backward":"1","lanes:forward":"2","maxspeed":"50","name":"Ubi Avenue 1","parking:condition:right:vehicles":"motorcar","parking:lane:right":"parallel","surface":"asphalt","turn:lanes:backward":"through","turn:lanes:forward":"through|through"},"geometry":{"type":"LineString","coordinates":[[103.8933062,1.3250199],[103.8931075,1.3249623]]}},{"type":"Feature","id":"way/655658863-0-0-0","properties":{"highway":"secondary","lanes":"3","maxspeed":"60","name":"Ubi Avenue 2","oneway":"yes","sidewalk:left":"separate","sidewalk:right":"no","surface":"asphalt","turn:lanes":"left;through|through;right|right"},"geometry":{"type":"LineString","coordinates":[[103.8923004,1.3273172],[103.8927439,1.3274788]]}},{"type":"Feature","id":"way/655658863-0-1-0","properties":{"highway":"secondary","lanes":"3","maxspeed":"60","name":"Ubi Avenue 2","oneway":"yes","sidewalk:left":"separate","sidewalk:right":"no","surface":"asphalt","turn:lanes":"left;through|through;right|right"},"geometry":{"type":"LineString","coordinates":[[103.8927439,1.3274788],[103.8928518,1.3275159]]}},{"type":"Feature","id":"way/661648103-0-0-0","properties":{"highway":"secondary","lanes":"2","maxspeed":"60","name":"Ubi Avenue 2","oneway":"yes","sidewalk:left":"separate","sidewalk:right":"no","surface":"asphalt","turn:lanes":"left;through|through;right"},"geometry":{"type":"LineString","coordinates":[[103.8915643,1.3270594],[103.8923004,1.3273172]]}},{"type":"Feature","id":"way/665724556-0-0-0","properties":{"highway":"residential","lanes":"2","maxspeed":"50","name":"Ubi Crescent","oneway":"yes","sidewalk:both":"separate","surface":"asphalt"},"geometry":{"type":"LineString","coordinates":[[103.8959082,1.32737],[103.8953577,1.3271515]]}},{"type":"Feature","id":"way/665724558-0-0-0","properties":{"highway":"residential","lanes":"2","maxspeed":"50","name":"Ubi Crescent","oneway":"yes","sidewalk:both":"separate","surface":"asphalt"},"geometry":{"type":"LineString","coordinates":[[103.8953001,1.3271287],[103.8951131,1.3270545]]}},{"type":"Feature","id":"way/665724559-0-0-0","properties":{"highway":"residential","lanes":"2","maxspeed":"50","name":"Ubi Crescent","oneway":"yes","parking:condition:right:vehicles":"motorcar","parking:lane:right":"parallel","sidewalk:both":"separate","surface":"asphalt"},"geometry":{"type":"LineString","coordinates":[[103.8953577,1.3271515],[103.8953001,1.3271287]]}},{"type":"Feature","id":"way/665724560-0-0-0","properties":{"highway":"residential","lanes":"2","maxspeed":"50","name":"Ubi Crescent","oneway":"yes","sidewalk:both":"separate","surface":"asphalt"},"geometry":{"type":"LineString","coordinates":[[103.8950595,1.3270332],[103.8948734,1.3269594]]}},{"type":"Feature","id":"way/665724561-0-0-0","properties":{"highway":"residential","lanes":"2","maxspeed":"50","name":"Ubi Crescent","oneway":"yes","parking:condition:right:vehicles":"motorcar","parking:lane:right":"parallel","sidewalk:both":"separate","surface":"asphalt"},"geometry":{"type":"LineString","coordinates":[[103.8951131,1.3270545],[103.8950595,1.3270332]]}},{"type":"Feature","id":"way/665724562-0-0-0","properties":{"highway":"residential","lanes":"2","maxspeed":"50","name":"Ubi Crescent","oneway":"yes","sidewalk:both":"separate","surface":"asphalt","turn:lanes":"through|through"},"geometry":{"type":"LineString","coordinates":[[103.894754,1.3269101],[103.8943891,1.3267672]]}},{"type":"Feature","id":"way/665724563-0-0-0","properties":{"highway":"residential","lanes":"2","maxspeed":"50","name":"Ubi Crescent","oneway":"yes","parking:condition:right:vehicles":"motorcar","parking:lane:right":"parallel","sidewalk:both":"separate","surface":"asphalt"},"geometry":{"type":"LineString","coordinates":[[103.8948734,1.3269594],[103.894754,1.3269101]]}},{"type":"Feature","id":"way/665724564-0-0-0","properties":{"highway":"residential","lanes":"2","maxspeed":"50","name":"Ubi Crescent","oneway":"yes","sidewalk:both":"separate","surface":"asphalt"},"geometry":{"type":"LineString","coordinates":[[103.8943372,1.3267466],[103.8941364,1.3266669]]}},{"type":"Feature","id":"way/665724565-0-0-0","properties":{"highway":"residential","lanes":"2","maxspeed":"50","name":"Ubi Crescent","oneway":"yes","parking:condition:right:vehicles":"motorcar","parking:lane:right":"parallel","sidewalk:both":"separate","surface":"asphalt"},"geometry":{"type":"LineString","coordinates":[[103.8943891,1.3267672],[103.8943372,1.3267466]]}},{"type":"Feature","id":"way/665724566-0-0-0","properties":{"highway":"residential","lanes":"2","maxspeed":"50","name":"Ubi Crescent","oneway":"yes","sidewalk:both":"separate","surface":"asphalt"},"geometry":{"type":"LineString","coordinates":[[103.8940884,1.3266478],[103.8940563,1.3266124]]}},{"type":"Feature","id":"way/665724566-0-1-0","properties":{"highway":"residential","lanes":"2","maxspeed":"50","name":"Ubi Crescent","oneway":"yes","sidewalk:both":"separate","surface":"asphalt"},"geometry":{"type":"LineString","coordinates":[[103.8940563,1.3266124],[103.8940328,1.3265687]]}},{"type":"Feature","id":"way/665724567-0-0-0","properties":{"highway":"residential","lanes":"2","maxspeed":"50","name":"Ubi Crescent","oneway":"yes","parking:condition:right:vehicles":"motorcar","parking:lane:right":"parallel","sidewalk:both":"separate","surface":"asphalt"},"geometry":{"type":"LineString","coordinates":[[103.8941364,1.3266669],[103.8940884,1.3266478]]}},{"type":"Feature","id":"way/665724568-0-0-0","properties":{"highway":"residential","lanes":"2","maxspeed":"50","name":"Ubi Crescent","oneway":"yes","sidewalk:both":"separate","surface":"asphalt"},"geometry":{"type":"LineString","coordinates":[[103.8940848,1.3263731],[103.894224,1.3259325]]}},{"type":"Feature","id":"way/665724569-0-0-0","properties":{"highway":"residential","lanes":"2","maxspeed":"50","name":"Ubi Crescent","oneway":"yes","parking:condition:right:vehicles":"motorcar","parking:lane:right":"parallel","sidewalk:both":"separate","surface":"asphalt"},"geometry":{"type":"LineString","coordinates":[[103.8940328,1.3265687],[103.8940415,1.3265104]]}},{"type":"Feature","id":"way/666594441-0-0-0","properties":{"highway":"tertiary","lanes":"3","lanes:backward":"1","lanes:forward":"2","maxspeed":"50","name":"Ubi Avenue 1","surface":"asphalt","turn:lanes:backward":"through","turn:lanes:forward":"through|through"},"geometry":{"type":"LineString","coordinates":[[103.8930249,1.3249436],[103.8926177,1.3248437]]}},{"type":"Feature","id":"way/666596672-0-0-0","properties":{"highway":"tertiary","lanes":"4","lanes:backward":"2","lanes:forward":"2","maxspeed":"50","name":"Ubi Road 1","parking:condition:left:vehicles":"motorcar","parking:lane:left":"parallel","sidewalk:both":"separate","surface":"asphalt"},"geometry":{"type":"LineString","coordinates":[[103.8925636,1.3284384],[103.8924668,1.3287389]]}},{"type":"Feature","id":"way/666596676-0-0-0","properties":{"highway":"tertiary","lanes":"4","lanes:backward":"2","lanes:forward":"2","maxspeed":"50","name":"Ubi Road 1","parking:condition:right:vehicles":"motorcar","parking:lane:right":"parallel","sidewalk:both":"separate","surface":"asphalt"},"geometry":{"type":"LineString","coordinates":[[103.8924668,1.3287389],[103.8924237,1.3288728]]}},{"type":"Feature","id":"way/685788889-0-0-0","properties":{"highway":"service","lanes":"1","oneway":"yes","surface":"asphalt"},"geometry":{"type":"LineString","coordinates":[[103.8957835,1.3254735],[103.8959254,1.3255151]]}},{"type":"Feature","id":"way/685788890-0-0-0","properties":{"highway":"service","lanes":"2","lanes:backward":"1","lanes:forward":"1","service":"parking_aisle","turn:lanes:backward":"through","turn:lanes:forward":"through"},"geometry":{"type":"LineString","coordinates":[[103.8955825,1.3256103],[103.8955996,1.3255475]]}},{"type":"Feature","id":"way/685788890-0-1-0","properties":{"highway":"service","lanes":"2","lanes:backward":"1","lanes:forward":"1","service":"parking_aisle","turn:lanes:backward":"through","turn:lanes:forward":"through"},"geometry":{"type":"LineString","coordinates":[[103.8955996,1.3255475],[103.8956283,1.3254185]]}},{"type":"Feature","id":"way/685788891-0-0-0","properties":{"highway":"service","service":"parking_aisle"},"geometry":{"type":"LineString","coordinates":[[103.8956283,1.3254185],[103.8954011,1.3253611]]}},{"type":"Feature","id":"way/685788891-0-1-0","properties":{"highway":"service","service":"parking_aisle"},"geometry":{"type":"LineString","coordinates":[[103.8954011,1.3253611],[103.8951745,1.3253017]]}},{"type":"Feature","id":"way/685788892-0-0-0","properties":{"highway":"tertiary","lanes":"2","lanes:backward":"1","lanes:forward":"1","maxspeed":"50","name":"Ubi Avenue 1","surface":"asphalt"},"geometry":{"type":"LineString","coordinates":[[103.8955825,1.3256103],[103.8948407,1.3254219]]}},{"type":"Feature","id":"way/685788893-0-0-0","properties":{"highway":"service","service":"parking_aisle","surface":"asphalt"},"geometry":{"type":"LineString","coordinates":[[103.8956283,1.3254185],[103.8956358,1.3253869]]}},{"type":"Feature","id":"way/685788893-0-1-0","properties":{"highway":"service","service":"parking_aisle","surface":"asphalt"},"geometry":{"type":"LineString","coordinates":[[103.8956358,1.3253869],[103.8956496,1.3253281]]}},{"type":"Feature","id":"way/685788893-0-2-0","properties":{"highway":"service","service":"parking_aisle","surface":"asphalt"},"geometry":{"type":"LineString","coordinates":[[103.8956496,1.3253281],[103.8958234,1.3245912]]}},{"type":"Feature","id":"way/685788895-0-0-0","properties":{"highway":"service","lanes":"2","lanes:backward":"1","lanes:forward":"1","service":"parking_aisle","turn:lanes:backward":"left;through","turn:lanes:forward":"through"},"geometry":{"type":"LineString","coordinates":[[103.8948766,1.3252297],[103.8948673,1.3252592]]}},{"type":"Feature","id":"way/685788895-0-1-0","properties":{"highway":"service","lanes":"2","lanes:backward":"1","lanes:forward":"1","service":"parking_aisle","turn:lanes:backward":"left;through","turn:lanes:forward":"through"},"geometry":{"type":"LineString","coordinates":[[103.8948673,1.3252592],[103.8948529,1.3253475]]}},{"type":"Feature","id":"way/685788895-0-2-0","properties":{"highway":"service","lanes":"2","lanes:backward":"1","lanes:forward":"1","service":"parking_aisle","turn:lanes:backward":"left;through","turn:lanes:forward":"through"},"geometry":{"type":"LineString","coordinates":[[103.8948529,1.3253475],[103.8948407,1.3254219]]}},{"type":"Feature","id":"way/685789476-0-0-0","properties":{"highway":"service","oneway":"yes","service":"parking_aisle"},"geometry":{"type":"LineString","coordinates":[[103.8948171,1.3252844],[103.8945012,1.3252109]]}},{"type":"Feature","id":"way/685789476-0-1-0","properties":{"highway":"service","oneway":"yes","service":"parking_aisle"},"geometry":{"type":"LineString","coordinates":[[103.8945012,1.3252109],[103.8944794,1.3251966]]}},{"type":"Feature","id":"way/685789476-0-2-0","properties":{"highway":"service","oneway":"yes","service":"parking_aisle"},"geometry":{"type":"LineString","coordinates":[[103.8944794,1.3251966],[103.8944744,1.3251707]]}},{"type":"Feature","id":"way/685789476-0-3-0","properties":{"highway":"service","oneway":"yes","service":"parking_aisle"},"geometry":{"type":"LineString","coordinates":[[103.8944744,1.3251707],[103.8947117,1.3242416]]}},{"type":"Feature","id":"way/685789479-0-0-0","properties":{"highway":"service","lanes":"2","lanes:backward":"1","lanes:forward":"1","oneway":"no","service":"parking_aisle"},"geometry":{"type":"LineString","coordinates":[[103.8948171,1.3252844],[103.894805,1.3253328]]}},{"type":"Feature","id":"way/685789479-0-1-0","properties":{"highway":"service","lanes":"2","lanes:backward":"1","lanes:forward":"1","oneway":"no","service":"parking_aisle"},"geometry":{"type":"LineString","coordinates":[[103.894805,1.3253328],[103.8947864,1.3254071]]}},{"type":"Feature","id":"way/685789481-0-0-0","properties":{"highway":"tertiary","lanes":"2","lanes:backward":"1","lanes:forward":"1","maxspeed":"50","name":"Ubi Avenue 1","surface":"asphalt"},"geometry":{"type":"LineString","coordinates":[[103.8948407,1.3254219],[103.8947864,1.3254071]]}},{"type":"Feature","id":"way/685790022-0-0-0","properties":{"highway":"service","lanes":"2","lanes:backward":"1","lanes:forward":"1","service":"parking_aisle"},"geometry":{"type":"LineString","coordinates":[[103.894138,1.3252393],[103.8941575,1.3251579]]}},{"type":"Feature","id":"way/685790022-0-1-0","properties":{"highway":"service","lanes":"2","lanes:backward":"1","lanes:forward":"1","service":"parking_aisle"},"geometry":{"type":"LineString","coordinates":[[103.8941575,1.3251579],[103.8941826,1.325059]]}},{"type":"Feature","id":"way/685790022-0-2-0","properties":{"highway":"service","lanes":"2","lanes:backward":"1","lanes:forward":"1","service":"parking_aisle"},"geometry":{"type":"LineString","coordinates":[[103.8941826,1.325059],[103.8941696,1.3250247]]}},{"type":"Feature","id":"way/685790023-0-0-0","properties":{"highway":"service","service":"parking_aisle"},"geometry":{"type":"LineString","coordinates":[[103.8941826,1.325059],[103.8944611,1.3251275]]}},{"type":"Feature","id":"way/685790023-0-1-0","properties":{"highway":"service","service":"parking_aisle"},"geometry":{"type":"LineString","coordinates":[[103.8944611,1.3251275],[103.8947053,1.3241318]]}},{"type":"Feature","id":"way/685790024-0-0-0","properties":{"highway":"tertiary","lanes":"3","lanes:backward":"1","lanes:forward":"2","maxspeed":"50","name":"Ubi Avenue 1","surface":"asphalt","turn:lanes:forward":"through|right"},"geometry":{"type":"LineString","coordinates":[[103.894138,1.3252393],[103.8940381,1.3252146]]}},{"type":"Feature","id":"way/685790025-0-0-0","properties":{"highway":"service","lanes":"1","oneway":"yes","service":"parking_aisle","surface":"asphalt"},"geometry":{"type":"LineString","coordinates":[[103.8940705,1.3250823],[103.8940901,1.3250649]]}},{"type":"Feature","id":"way/685790025-0-1-0","properties":{"highway":"service","lanes":"1","oneway":"yes","service":"parking_aisle","surface":"asphalt"},"geometry":{"type":"LineString","coordinates":[[103.8940901,1.3250649],[103.8943266,1.3241445]]}},{"type":"Feature","id":"way/685790026-0-0-0","properties":{"highway":"service","service":"parking_aisle"},"geometry":{"type":"LineString","coordinates":[[103.8941696,1.3250247],[103.8944097,1.3240456]]}},{"type":"Feature","id":"way/690374894-0-0-0","properties":{"highway":"service","oneway":"yes"},"geometry":{"type":"LineString","coordinates":[[103.8958862,1.3256907],[103.8959019,1.3256203]]}},{"type":"Feature","id":"way/690374894-0-1-0","properties":{"highway":"service","oneway":"yes"},"geometry":{"type":"LineString","coordinates":[[103.8959019,1.3256203],[103.8959254,1.3255151]]}},{"type":"Feature","id":"way/715213597-0-0-0","properties":{"highway":"motorway_link","lanes":"2","maxspeed":"50","name":"Ubi Avenue 1","name:zh":"\u4e4c\u7f8e1\u9053","oneway":"yes","surface":"asphalt"},"geometry":{"type":"LineString","coordinates":[[103.8924727,1.3248077],[103.8924196,1.3247962]]}},{"type":"Feature","id":"way/715213597-0-1-0","properties":{"highway":"motorway_link","lanes":"2","maxspeed":"50","name":"Ubi Avenue 1","name:zh":"\u4e4c\u7f8e1\u9053","oneway":"yes","surface":"asphalt"},"geometry":{"type":"LineString","coordinates":[[103.8924196,1.3247962],[103.8922681,1.3247528]]}},{"type":"Feature","id":"way/715213597-0-2-0","properties":{"highway":"motorway_link","lanes":"2","maxspeed":"50","name":"Ubi Avenue 1","name:zh":"\u4e4c\u7f8e1\u9053","oneway":"yes","surface":"asphalt"},"geometry":{"type":"LineString","coordinates":[[103.8922681,1.3247528],[103.8922128,1.3247259]]}},{"type":"Feature","id":"way/715213597-0-3-0","properties":{"highway":"motorway_link","lanes":"2","maxspeed":"50","name":"Ubi Avenue 1","name:zh":"\u4e4c\u7f8e1\u9053","oneway":"yes","surface":"asphalt"},"geometry":{"type":"LineString","coordinates":[[103.8922128,1.3247259],[103.8921664,1.3246873]]}},{"type":"Feature","id":"way/715213597-0-4-0","properties":{"highway":"motorway_link","lanes":"2","maxspeed":"50","name":"Ubi Avenue 1","name:zh":"\u4e4c\u7f8e1\u9053","oneway":"yes","surface":"asphalt"},"geometry":{"type":"LineString","coordinates":[[103.8921664,1.3246873],[103.8921151,1.3245905]]}},{"type":"Feature","id":"way/715213597-0-5-0","properties":{"highway":"motorway_link","lanes":"2","maxspeed":"50","name":"Ubi Avenue 1","name:zh":"\u4e4c\u7f8e1\u9053","oneway":"yes","surface":"asphalt"},"geometry":{"type":"LineString","coordinates":[[103.8921151,1.3245905],[103.8920838,1.3244865]]}},{"type":"Feature","id":"way/715213597-0-6-0","properties":{"highway":"motorway_link","lanes":"2","maxspeed":"50","name":"Ubi Avenue 1","name:zh":"\u4e4c\u7f8e1\u9053","oneway":"yes","surface":"asphalt"},"geometry":{"type":"LineString","coordinates":[[103.8920838,1.3244865],[103.8920824,1.3243901]]}},{"type":"Feature","id":"way/715213598-0-0-0","properties":{"highway":"motorway_link","lanes":"2","maxspeed":"50","name":"Ubi Avenue 1","name:zh":"\u4e4c\u7f8e1\u9053","oneway":"yes","surface":"asphalt","turn:lanes":"through|through"},"geometry":{"type":"LineString","coordinates":[[103.8926177,1.3248437],[103.8924727,1.3248077]]}},{"type":"Feature","id":"way/750055146-0-0-0","properties":{"highway":"residential","lanes":"2","maxspeed":"50","name":"Ubi Crescent","oneway":"yes","sidewalk:both":"separate","surface":"asphalt","turn:lanes":"left|right"},"geometry":{"type":"LineString","coordinates":[[103.8943389,1.3255609],[103.8943948,1.3253961]]}},{"type":"Feature","id":"way/750055146-0-1-0","properties":{"highway":"residential","lanes":"2","maxspeed":"50","name":"Ubi Crescent","oneway":"yes","sidewalk:both":"separate","surface":"asphalt","turn:lanes":"left|right"},"geometry":{"type":"LineString","coordinates":[[103.8943948,1.3253961],[103.8944235,1.3253116]]}},{"type":"Feature","id":"way/750524898-0-0-0","properties":{"highway":"residential","lanes":"4","lanes:backward":"2","lanes:forward":"2","maxspeed":"50","name":"Ubi Road 1","sidewalk:both":"separate","surface":"asphalt","turn:lanes:backward":"left|left;through"},"geometry":{"type":"LineString","coordinates":[[103.8930817,1.3268706],[103.8931061,1.3267888]]}},{"type":"Feature","id":"way/750524898-0-1-0","properties":{"highway":"residential","lanes":"4","lanes:backward":"2","lanes:forward":"2","maxspeed":"50","name":"Ubi Road 1","sidewalk:both":"separate","surface":"asphalt","turn:lanes:backward":"left|left;through"},"geometry":{"type":"LineString","coordinates":[[103.8931061,1.3267888],[103.8931441,1.3266544]]}},{"type":"Feature","id":"way/752144794-0-1-0","properties":{"highway":"service","lanes":"1","oneway":"yes","service":"parking_aisle","surface":"asphalt","turn:lanes":"left;right"},"geometry":{"type":"LineString","coordinates":[[103.8914408,1.3245326],[103.8914892,1.3245434]]}},{"type":"Feature","id":"way/752144798-0-0-0","properties":{"highway":"service","lanes":"2","lanes:backward":"1","lanes:forward":"1"},"geometry":{"type":"LineString","coordinates":[[103.8931158,1.325951],[103.893267,1.3259994]]}},{"type":"Feature","id":"way/752144798-0-1-0","properties":{"highway":"service","lanes":"2","lanes:backward":"1","lanes:forward":"1"},"geometry":{"type":"LineString","coordinates":[[103.893267,1.3259994],[103.8933503,1.3260226]]}},{"type":"Feature","id":"way/752144799-0-0-0","properties":{"highway":"service","lanes":"1","oneway":"yes","service":"parking_aisle","turn:lanes":"left;right"},"geometry":{"type":"LineString","coordinates":[[103.8939466,1.32505],[103.8940705,1.3250823]]}},{"type":"Feature","id":"way/752186768-0-0-0","properties":{"highway":"service","lanes":"2","lanes:backward":"1","lanes:forward":"1","turn:lanes:backward":"left","turn:lanes:forward":"through"},"geometry":{"type":"LineString","coordinates":[[103.8934287,1.327133],[103.8938005,1.327271]]}},{"type":"Feature","id":"way/752186769-0-0-0","properties":{"highway":"service","lanes":"2","lanes:backward":"1","lanes:forward":"1","turn:lanes:backward":"through","turn:lanes:forward":"through"},"geometry":{"type":"LineString","coordinates":[[103.8938005,1.327271],[103.8946812,1.3275931]]}},{"type":"Feature","id":"way/752186769-0-0-1","properties":{"highway":"service","lanes":"2","lanes:backward":"1","lanes:forward":"1","turn:lanes:backward":"through","turn:lanes:forward":"through"},"geometry":{"type":"LineString","coordinates":[[103.8946812,1.3275931],[103.895562,1.3279152]]}},{"type":"Feature","id":"way/753860905-0-0-0","properties":{"highway":"tertiary","lanes":"2","lanes:backward":"1","lanes:forward":"1","maxspeed":"50","name":"Ubi Avenue 1","surface":"asphalt"},"geometry":{"type":"LineString","coordinates":[[103.8958862,1.3256907],[103.8957397,1.3256494]]}},{"type":"Feature","id":"way/770946369-0-0-0","properties":{"highway":"service","service":"driveway"},"geometry":{"type":"LineString","coordinates":[[103.8933948,1.3241826],[103.893239,1.3247811]]}},{"type":"Feature","id":"way/770946369-0-1-0","properties":{"highway":"service","service":"driveway"},"geometry":{"type":"LineString","coordinates":[[103.893239,1.3247811],[103.8933599,1.324816]]}},{"type":"Feature","id":"way/770946369-0-2-0","properties":{"highway":"service","service":"driveway"},"geometry":{"type":"LineString","coordinates":[[103.8933599,1.324816],[103.8936485,1.3248976]]}},{"type":"Feature","id":"way/933792416-0-0-0","properties":{"highway":"service","surface":"asphalt"},"geometry":{"type":"LineString","coordinates":[[103.8948766,1.3252297],[103.8951328,1.3242362]]}},{"type":"Feature","id":"way/933792416-0-3-0","properties":{"highway":"service","surface":"asphalt"},"geometry":{"type":"LineString","coordinates":[[103.8953488,1.3244279],[103.8953876,1.3244454]]}},{"type":"Feature","id":"way/933792416-0-4-0","properties":{"highway":"service","surface":"asphalt"},"geometry":{"type":"LineString","coordinates":[[103.8953876,1.3244454],[103.8951745,1.3253017]]}},{"type":"Feature","id":"way/1086983780-0-0-0","properties":{"highway":"service","service":"parking_aisle"},"geometry":{"type":"LineString","coordinates":[[103.8917737,1.3249913],[103.8918459,1.3246597]]}},{"type":"Feature","id":"way/1135619950-0-0-0","properties":{"highway":"service"},"geometry":{"type":"LineString","coordinates":[[103.8924983,1.3257586],[103.8931158,1.325951]]}},{"type":"Feature","id":"way/1135619951-0-0-0","properties":{"highway":"service"},"geometry":{"type":"LineString","coordinates":[[103.8919577,1.3260017],[103.8922495,1.326061]]}},{"type":"Feature","id":"way/1135619952-0-0-0","properties":{"highway":"service"},"geometry":{"type":"LineString","coordinates":[[103.8922495,1.326061],[103.8923567,1.3257244]]}},{"type":"Feature","id":"way/1330564273-0-0-0","properties":{"highway":"service","oneway":"yes","service":"parking_aisle"},"geometry":{"type":"LineString","coordinates":[[103.892881,1.3270709],[103.892876,1.327086]]}},{"type":"Feature","id":"way/1330564273-0-1-0","properties":{"highway":"service","oneway":"yes","service":"parking_aisle"},"geometry":{"type":"LineString","coordinates":[[103.892876,1.327086],[103.8928565,1.3271081]]}},{"type":"Feature","id":"way/1330564273-0-2-0","properties":{"highway":"service","oneway":"yes","service":"parking_aisle"},"geometry":{"type":"LineString","coordinates":[[103.8928565,1.3271081],[103.8928344,1.3271196]]}},{"type":"Feature","id":"way/1366769832-0-0-0","properties":{"highway":"service","service":"driveway"},"geometry":{"type":"LineString","coordinates":[[103.8931075,1.3249623],[103.8931252,1.32489]]}},{"type":"Feature","id":"way/1366769832-0-1-0","properties":{"highway":"service","service":"driveway"},"geometry":{"type":"LineString","coordinates":[[103.8931252,1.32489],[103.8931388,1.3248292]]}},{"type":"Feature","id":"way/1366769833-0-0-0","properties":{"highway":"service","oneway":"yes","service":"driveway"},"geometry":{"type":"LineString","coordinates":[[103.8927438,1.3247258],[103.8927204,1.3246665]]}},{"type":"Feature","id":"way/1366769833-0-1-0","properties":{"highway":"service","oneway":"yes","service":"driveway"},"geometry":{"type":"LineString","coordinates":[[103.8927204,1.3246665],[103.8926226,1.3246412]]}},{"type":"Feature","id":"way/1366769833-0-2-0","properties":{"highway":"service","oneway":"yes","service":"driveway"},"geometry":{"type":"LineString","coordinates":[[103.8926226,1.3246412],[103.8925829,1.3246835]]}},{"type":"Feature","id":"way/1366780543-0-0-0","properties":{"highway":"tertiary","lanes":"3","lanes:backward":"1","lanes:forward":"2","maxspeed":"50","name":"Ubi Avenue 1","parking:condition:right:vehicles":"motorcar","parking:lane:right":"parallel","surface":"asphalt","turn:lanes:backward":"through","turn:lanes:forward":"through|through"},"geometry":{"type":"LineString","coordinates":[[103.8931075,1.3249623],[103.8930249,1.3249436]]}},{"type":"Feature","id":"way/1555100976-0-0-0","properties":{"highway":"service","oneway":"yes","surface":"asphalt"},"geometry":{"type":"LineString","coordinates":[[103.8933133,1.3266588],[103.8935348,1.3260076]]}},{"type":"Feature","id":"way/1555100977-0-0-0","properties":{"highway":"service"},"geometry":{"type":"LineString","coordinates":[[103.8933932,1.3258973],[103.8934769,1.3259235]]}},{"type":"Feature","id":"way/1555100977-0-1-0","properties":{"highway":"service"},"geometry":{"type":"LineString","coordinates":[[103.8934769,1.3259235],[103.893551,1.3259478]]}},{"type":"Feature","id":"way/1555100977-0-2-0","properties":{"highway":"service"},"geometry":{"type":"LineString","coordinates":[[103.893551,1.3259478],[103.8940368,1.3261071]]}},{"type":"Feature","id":"way/1555100977-0-3-0","properties":{"highway":"service"},"geometry":{"type":"LineString","coordinates":[[103.8940368,1.3261071],[103.8941465,1.3257955]]}},{"type":"Feature","id":"way/1555862564-0-0-0","properties":{"highway":"service","lanes":"1","oneway":"yes","surface":"asphalt"},"geometry":{"type":"LineString","coordinates":[[103.8934287,1.327133],[103.8934006,1.3271083]]}},{"type":"Feature","id":"way/1555862564-0-1-0","properties":{"highway":"service","lanes":"1","oneway":"yes","surface":"asphalt"},"geometry":{"type":"LineString","coordinates":[[103.8934006,1.3271083],[103.8933722,1.3270748]]}},{"type":"Feature","id":"way/1555862564-0-2-0","properties":{"highway":"service","lanes":"1","oneway":"yes","surface":"asphalt"},"geometry":{"type":"LineString","coordinates":[[103.8933722,1.3270748],[103.8933443,1.3270464]]}},{"type":"Feature","id":"way/1555862564-0-3-0","properties":{"highway":"service","lanes":"1","oneway":"yes","surface":"asphalt"},"geometry":{"type":"LineString","coordinates":[[103.8933443,1.3270464],[103.8933092,1.3270275]]}},{"type":"Feature","id":"way/1555862564-0-4-0","properties":{"highway":"service","lanes":"1","oneway":"yes","surface":"asphalt"},"geometry":{"type":"LineString","coordinates":[[103.8933092,1.3270275],[103.8931671,1.3269762]]}},{"type":"Feature","id":"way/1555862564-0-5-0","properties":{"highway":"service","lanes":"1","oneway":"yes","surface":"asphalt"},"geometry":{"type":"LineString","coordinates":[[103.8931671,1.3269762],[103.8931569,1.3269625]]}},{"type":"Feature","id":"way/1555862564-0-6-0","properties":{"highway":"service","lanes":"1","oneway":"yes","surface":"asphalt"},"geometry":{"type":"LineString","coordinates":[[103.8931569,1.3269625],[103.8931414,1.3269216]]}},{"type":"Feature","id":"way/1555862564-0-7-0","properties":{"highway":"service","lanes":"1","oneway":"yes","surface":"asphalt"},"geometry":{"type":"LineString","coordinates":[[103.8931414,1.3269216],[103.8931061,1.3267888]]}}]}